<?xml version="1.0" encoding="UTF-8"?>
<osm generator="osmapis" version="0.6">
	<node id="-53248" lat="57.9906826232" lon="7.59327272466">
		<tag k="fixme" v="consider place=farm" />
		<tag k="name" v="Landøy" />
		<tag k="place" v="hamlet" />
		<tag k="ssr:date" v="2017-08-29" />
		<tag k="ssr:stedsnr" v="977795" />
	</node>
	<node id="-53247" lat="57.9953489454" lon="7.53740736668">
		<tag k="fixme" v="consider place=farm" />
		<tag k="name" v="Berge" />
		<tag k="place" v="hamlet" />
		<tag k="ssr:date" v="2017-08-29" />
		<tag k="ssr:stedsnr" v="977798" />
	</node>
	<node id="-53246" lat="58.0058051449" lon="7.58686775404">
		<tag k="fixme" v="consider place=farm" />
		<tag k="name" v="Skogsøy" />
		<tag k="place" v="hamlet" />
		<tag k="ssr:date" v="2017-08-29" />
		<tag k="ssr:stedsnr" v="977794" />
	</node>
	<node id="-53245" lat="58.02266914" lon="7.57276730509">
		<tag k="fixme" v="consider place=farm" />
		<tag k="name" v="Kvistedal" />
		<tag k="place" v="hamlet" />
		<tag k="ssr:date" v="2017-08-29" />
		<tag k="ssr:stedsnr" v="977793" />
	</node>
	<node id="-53244" lat="58.0444042336" lon="7.6493250679">
		<tag k="fixme" v="consider place=farm" />
		<tag k="name" v="Vestre Eid" />
		<tag k="place" v="hamlet" />
		<tag k="ssr:date" v="2017-08-29" />
		<tag k="ssr:stedsnr" v="977787" />
	</node>
	<node id="-53243" lat="58.0453807123" lon="7.63803882587">
		<tag k="fixme" v="consider place=farm" />
		<tag k="name" v="Kjørvedal" />
		<tag k="place" v="hamlet" />
		<tag k="ssr:date" v="2017-08-29" />
		<tag k="ssr:stedsnr" v="977786" />
	</node>
	<node id="-53242" lat="58.043419844" lon="7.60760370488">
		<tag k="fixme" v="consider place=farm" />
		<tag k="name" v="Hartmark" />
		<tag k="place" v="hamlet" />
		<tag k="ssr:date" v="2017-08-29" />
		<tag k="ssr:stedsnr" v="977783" />
	</node>
	<node id="-53238" lat="58.0640861125" lon="7.59564999989">
		<tag k="name" v="Vettnes" />
		<tag k="place" v="farm" />
		<tag k="ssr:date" v="2016-05-11" />
		<tag k="ssr:stedsnr" v="964910" />
	</node>
	<node id="-49134" lat="58.0188777748" lon="7.63971944241">
		<tag k="name" v="Audevika" />
		<tag k="place" v="farm" />
		<tag k="ssr:date" v="2016-05-10" />
		<tag k="ssr:stedsnr" v="328641" />
	</node>
	<node id="-49126" lat="58.1061805571" lon="7.5009722177">
		<tag k="name" v="Almelia" />
		<tag k="place" v="farm" />
		<tag k="ssr:date" v="2016-05-10" />
		<tag k="ssr:stedsnr" v="328467" />
	</node>
	<node id="-51171" lat="58.0455000009" lon="7.36799166413">
		<tag k="name" v="Nord Skogen" />
		<tag k="place" v="farm" />
		<tag k="ssr:date" v="2016-05-10" />
		<tag k="ssr:stedsnr" v="509728" />
	</node>
	<node id="-53213" lat="58.036547221" lon="7.37693333906">
		<tag k="name" v="Bongstø" />
		<tag k="place" v="farm" />
		<tag k="ssr:date" v="2016-05-11" />
		<tag k="ssr:stedsnr" v="936826" />
	</node>
	<node id="-49104" lat="58.0553666635" lon="7.39279722539">
		<tag k="building" v="farm_auxiliary" />
		<tag k="name" v="Frostestad mølle" />
		<tag k="place" v="locality" />
		<tag k="ssr:date" v="2016-05-10" />
		<tag k="ssr:stedsnr" v="327764" />
	</node>
	<node id="-51146" lat="58.043988888" lon="7.47267777282">
		<tag k="ssr:gml_id" v="GEOMETRY_9fa50f03-466d-4604-901b-b9403a91cac7" />
		<tag k="ssr:gml_nr" v="1" />
	</node>
	<node id="-51145" lat="58.0431500012" lon="7.47039999737">
		<tag k="ssr:gml_id" v="GEOMETRY_dc084354-4e42-466e-976b-8edae50c6b1f" />
		<tag k="ssr:gml_nr" v="0" />
	</node>
	<node id="-53192" lat="58.0365805582" lon="7.51986388346">
		<tag k="name" v="Østre Berge" />
		<tag k="place" v="farm" />
		<tag k="ssr:date" v="2016-05-11" />
		<tag k="ssr:stedsnr" v="936453" />
	</node>
	<node id="-53181" lat="58.0824972201" lon="7.51911945166">
		<tag k="name" v="Midtre Møll" />
		<tag k="place" v="hamlet" />
		<tag k="ssr:date" v="2016-05-11" />
		<tag k="ssr:stedsnr" v="936284" />
	</node>
	<node id="-51132" lat="58.0519444489" lon="7.51896667373">
		<tag k="ssr:gml_id" v="GEOMETRY_a8a725b8-7c2c-46ce-8aac-7d17095e7843" />
		<tag k="ssr:gml_nr" v="3" />
	</node>
	<node id="-51131" lat="58.0517416677" lon="7.51528611908">
		<tag k="ssr:gml_id" v="GEOMETRY_27f21fbc-f8f5-45bf-b931-4427415b4a6c" />
		<tag k="ssr:gml_nr" v="2" />
	</node>
	<node id="-51130" lat="58.0517444434" lon="7.5152861056">
		<tag k="ssr:gml_id" v="GEOMETRY_a57a5f00-91aa-4ea3-8d01-af8f33a6f18d" />
		<tag k="ssr:gml_nr" v="1" />
	</node>
	<node id="-51129" lat="58.051016669" lon="7.51597499416">
		<tag k="ssr:gml_id" v="GEOMETRY_3a0640df-0966-4062-862c-581c8e7aa82d" />
		<tag k="ssr:gml_nr" v="0" />
	</node>
	<node id="-51128" lat="58.1248611145" lon="7.53611388561">
		<tag k="ssr:gml_id" v="GEOMETRY_a25135b2-92ff-4778-80c6-814118e67fdb" />
		<tag k="ssr:gml_nr" v="1" />
	</node>
	<node id="-51127" lat="58.124116663" lon="7.5347111161">
		<tag k="ssr:gml_id" v="GEOMETRY_01240128-7fc5-4bbf-985f-118c1dd10243" />
		<tag k="ssr:gml_nr" v="0" />
	</node>
	<node id="-49078" lat="58.0969750001" lon="7.52534999194">
		<tag k="ssr:gml_id" v="GEOMETRY_8321f421-ea8c-4e97-a69c-1434e83dcc5a" />
		<tag k="ssr:gml_nr" v="1" />
	</node>
	<node id="-49077" lat="58.09620278" lon="7.52496389464">
		<tag k="ssr:gml_id" v="GEOMETRY_22ceeebb-6fbc-417b-8687-ced2c8451e00" />
		<tag k="ssr:gml_nr" v="0" />
	</node>
	<node id="-51123" lat="58.1280527821" lon="7.53271111516">
		<tag k="ssr:gml_id" v="GEOMETRY_b8be0eaf-1d32-43f9-a04f-8401744f39db" />
		<tag k="ssr:gml_nr" v="2" />
	</node>
	<node id="-51122" lat="58.1278361149" lon="7.53190555474">
		<tag k="ssr:gml_id" v="GEOMETRY_86e34064-a923-4f79-8b86-65a051ce714a" />
		<tag k="ssr:gml_nr" v="1" />
	</node>
	<node id="-51121" lat="58.1278361098" lon="7.53190277009">
		<tag k="ssr:gml_id" v="GEOMETRY_deefc635-7204-4c98-b6b6-dd02565b7a9f" />
		<tag k="ssr:gml_nr" v="0" />
	</node>
	<node id="-51120" lat="58.1333805518" lon="7.54051110702">
		<tag k="ssr:gml_id" v="GEOMETRY_0810c570-73e3-4bfe-96d1-d2541aecd543" />
		<tag k="ssr:gml_nr" v="3" />
	</node>
	<node id="-51119" lat="58.1333749996" lon="7.54050555978">
		<tag k="ssr:gml_id" v="GEOMETRY_d4fb08ba-f89e-4f97-b8e0-7b24f8a970e1" />
		<tag k="ssr:gml_nr" v="2" />
	</node>
	<node id="-49070" lat="58.0372416673" lon="7.45583055895">
		<tag k="ssr:gml_id" v="GEOMETRY_ddc59753-95e4-4f1c-a58e-a839d2885330" />
		<tag k="ssr:gml_nr" v="0" />
	</node>
	<node id="-51117" lat="58.1341472214" lon="7.53903333145">
		<tag k="ssr:gml_id" v="GEOMETRY_bd8d79c8-3edd-42e9-bc4e-4e70a54ac720" />
		<tag k="ssr:gml_nr" v="0" />
	</node>
	<node id="-49068" lat="58.0432277814" lon="7.49610833053">
		<tag k="ssr:gml_id" v="GEOMETRY_ede58066-afde-44c7-bc5d-4f0039c6db64" />
		<tag k="ssr:gml_nr" v="1" />
	</node>
	<node id="-49067" lat="58.0420833311" lon="7.49497500471">
		<tag k="ssr:gml_id" v="GEOMETRY_b6b3e246-4f52-480f-96c0-a9d0de3900dc" />
		<tag k="ssr:gml_nr" v="0" />
	</node>
	<node id="-51114" lat="58.038316668" lon="7.37147500753">
		<tag k="ssr:gml_id" v="GEOMETRY_ef4cfc75-d1ad-4789-be22-e05da76e4037" />
		<tag k="ssr:gml_nr" v="1" />
	</node>
	<node id="-51113" lat="58.0383138919" lon="7.37147499827">
		<tag k="ssr:gml_id" v="GEOMETRY_5cdaa69f-8182-4270-8ace-7745fe8747f8" />
		<tag k="ssr:gml_nr" v="0" />
	</node>
	<node id="-51108" lat="58.0249361078" lon="7.45843889409">
		<tag k="ssr:gml_id" v="GEOMETRY_c56c65c2-8722-43a3-8b42-81d7679418f9" />
		<tag k="ssr:gml_nr" v="3" />
	</node>
	<node id="-51107" lat="58.024941664" lon="7.45844444586">
		<tag k="ssr:gml_id" v="GEOMETRY_0be3dc17-b400-4008-b501-79e3ad7fe757" />
		<tag k="ssr:gml_nr" v="2" />
	</node>
	<node id="-51106" lat="58.0249388881" lon="7.45844444678">
		<tag k="ssr:gml_id" v="GEOMETRY_7881b483-9da5-46cd-bd28-cfc1eff18e0f" />
		<tag k="ssr:gml_nr" v="1" />
	</node>
	<node id="-51105" lat="58.0249583311" lon="7.45840834018">
		<tag k="ssr:gml_id" v="GEOMETRY_f55ee6b7-52a6-4a1c-95d0-1ccf732e7ad6" />
		<tag k="ssr:gml_nr" v="0" />
	</node>
	<node id="-51102" lat="58.0228611093" lon="7.57160833799">
		<tag k="ssr:gml_id" v="GEOMETRY_3a479cf6-fcd1-4c6c-8ca6-4984199238a6" />
		<tag k="ssr:gml_nr" v="2" />
	</node>
	<node id="-51101" lat="58.0226249983" lon="7.56825000518">
		<tag k="ssr:gml_id" v="GEOMETRY_fdc056fc-4943-4327-a523-0af5e7cc576f" />
		<tag k="ssr:gml_nr" v="1" />
	</node>
	<node id="-51100" lat="58.0226250026" lon="7.56825278166">
		<tag k="ssr:gml_id" v="GEOMETRY_37c9c7a8-6ef2-4c9f-8b28-a374357bea81" />
		<tag k="ssr:gml_nr" v="0" />
	</node>
	<node id="-51099" lat="58.08823056" lon="7.62405555265">
		<tag k="ssr:gml_id" v="GEOMETRY_b4f7e05c-0daf-4913-a576-e302239747b8" />
		<tag k="ssr:gml_nr" v="2" />
	</node>
	<node id="-51098" lat="58.0882333298" lon="7.62405832951">
		<tag k="ssr:gml_id" v="GEOMETRY_7d04084a-7515-4f42-986f-1a53f9dda6b3" />
		<tag k="ssr:gml_nr" v="1" />
	</node>
	<node id="-49049" lat="58.0243250021" lon="7.66631666455">
		<tag k="ssr:gml_id" v="GEOMETRY_12159635-514f-43d5-ac8f-95ba9c7041c6" />
		<tag k="ssr:gml_nr" v="0" />
	</node>
	<node id="-51096" lat="58.0746249982" lon="7.46982500539">
		<tag k="ssr:gml_id" v="GEOMETRY_9d29a545-bd31-4592-9d58-02374335fb1a" />
		<tag k="ssr:gml_nr" v="2" />
	</node>
	<node id="-51095" lat="58.0746249957" lon="7.46982778624">
		<tag k="ssr:gml_id" v="GEOMETRY_8c6151f1-6938-489f-84c8-89da13ae96e3" />
		<tag k="ssr:gml_nr" v="1" />
	</node>
	<node id="-51094" lat="58.0751444468" lon="7.4698499987">
		<tag k="ssr:gml_id" v="GEOMETRY_65058ac6-df81-4d1c-ab9d-bd1c4c392a48" />
		<tag k="ssr:gml_nr" v="0" />
	</node>
	<node id="-51093" lat="58.072788887" lon="7.47585833902">
		<tag k="ssr:gml_id" v="GEOMETRY_6ce61a67-dd4c-4d76-b0a8-5b220bddffe1" />
		<tag k="ssr:gml_nr" v="1" />
	</node>
	<node id="-51092" lat="58.0728861135" lon="7.47602499914">
		<tag k="ssr:gml_id" v="GEOMETRY_b8a97ed6-6f9c-40c6-a54c-c0145f9e06d8" />
		<tag k="ssr:gml_nr" v="0" />
	</node>
	<node id="-49043" lat="58.0771750036" lon="7.44115000226">
		<tag k="ssr:gml_id" v="GEOMETRY_b8205b52-3ecf-4658-aaba-c6adc129faf4" />
		<tag k="ssr:gml_nr" v="0" />
	</node>
	<node id="-49042" lat="58.0637527818" lon="7.42266111718">
		<tag k="ssr:gml_id" v="GEOMETRY_2910e7bd-e1bc-4cea-ad74-8a5ba34b50d2" />
		<tag k="ssr:gml_nr" v="2" />
	</node>
	<node id="-49041" lat="58.0637555576" lon="7.42266111344">
		<tag k="ssr:gml_id" v="GEOMETRY_e005b61a-6169-447c-8e01-bfdc08cf69a7" />
		<tag k="ssr:gml_nr" v="1" />
	</node>
	<node id="-49040" lat="58.0639500009" lon="7.42171666389">
		<tag k="ssr:gml_id" v="GEOMETRY_d3f4ed77-143c-4b5d-8b42-4b3da44da512" />
		<tag k="ssr:gml_nr" v="0" />
	</node>
	<node id="-49039" lat="58.0644055561" lon="7.51217500733">
		<tag k="ssr:gml_id" v="GEOMETRY_d4c2f21f-acfe-45e9-bc7a-869af945b3e1" />
		<tag k="ssr:gml_nr" v="2" />
	</node>
	<node id="-51086" lat="57.9904388888" lon="7.50925277816">
		<tag k="name" v="Valvik" />
		<tag k="place" v="hamlet" />
		<tag k="ssr:date" v="2016-05-10" />
		<tag k="ssr:stedsnr" v="485043" />
	</node>
	<node id="-49037" lat="58.0647416658" lon="7.51349444048">
		<tag k="ssr:gml_id" v="GEOMETRY_126f7738-1208-4b36-bf5a-d5716b0c3be1" />
		<tag k="ssr:gml_nr" v="0" />
	</node>
	<node id="-49036" lat="58.0615055519" lon="7.43809722373">
		<tag k="ssr:gml_id" v="GEOMETRY_53313aff-c9f2-47b6-869d-c229efb827b3" />
		<tag k="ssr:gml_nr" v="2" />
	</node>
	<node id="-49035" lat="58.0615750042" lon="7.43731667439">
		<tag k="ssr:gml_id" v="GEOMETRY_ce877854-3b07-4d98-bc86-b672e33b5afb" />
		<tag k="ssr:gml_nr" v="1" />
	</node>
	<node id="-49034" lat="58.061574997" lon="7.43731389495">
		<tag k="ssr:gml_id" v="GEOMETRY_dbad631e-0b6e-4b30-a354-da720ded3277" />
		<tag k="ssr:gml_nr" v="0" />
	</node>
	<node id="-49030" lat="58.1148500045" lon="7.46481111766">
		<tag k="ssr:gml_id" v="GEOMETRY_2bbe3e2e-ca92-4587-98f7-2706a6f838b7" />
		<tag k="ssr:gml_nr" v="1" />
	</node>
	<node id="-49029" lat="58.1136750044" lon="7.4714027695">
		<tag k="ssr:gml_id" v="GEOMETRY_08eeba6b-1199-49be-8917-2ad9350ff533" />
		<tag k="ssr:gml_nr" v="0" />
	</node>
	<node id="-49021" lat="58.1322861094" lon="7.54253610571">
		<tag k="ssr:gml_id" v="GEOMETRY_f837eb20-cd2a-464b-9f2f-31bdbdad5135" />
		<tag k="ssr:gml_nr" v="2" />
	</node>
	<node id="-49020" lat="58.1322888902" lon="7.54253889619">
		<tag k="ssr:gml_id" v="GEOMETRY_c1e13487-032a-4f55-97c8-472b93f6f990" />
		<tag k="ssr:gml_nr" v="1" />
	</node>
	<node id="-49019" lat="58.1316916661" lon="7.53839444035">
		<tag k="ssr:gml_id" v="GEOMETRY_9750d835-f6ac-4cd3-b7b8-d83215db0109" />
		<tag k="ssr:gml_nr" v="0" />
	</node>
	<node id="-51060" lat="58.0287083369" lon="7.38024999162">
		<tag k="name" v="Myrvang" />
		<tag k="place" v="farm" />
		<tag k="ssr:date" v="2016-05-10" />
		<tag k="ssr:stedsnr" v="451886" />
	</node>
	<node id="-48985" lat="57.9834749981" lon="7.53315000661">
		<tag k="name" v="Stølen" />
		<tag k="place" v="farm" />
		<tag k="ssr:date" v="2016-05-10" />
		<tag k="ssr:stedsnr" v="303038" />
	</node>
	<node id="-53077" lat="58.0440972225" lon="7.38904721391">
		<tag k="name" v="Øygarden" />
		<tag k="place" v="locality" />
		<tag k="ssr:date" v="2016-05-11" />
		<tag k="ssr:stedsnr" v="934745" />
	</node>
	<node id="-53071" lat="58.0725888903" lon="7.4917583321">
		<tag k="name" v="Nedre Undal" />
		<tag k="place" v="farm" />
		<tag k="ssr:date" v="2016-05-11" />
		<tag k="ssr:stedsnr" v="934644" />
	</node>
	<node id="-53068" lat="58.0235277752" lon="7.6548194448">
		<tag k="name" v="Fladen" />
		<tag k="place" v="farm" />
		<tag k="ssr:date" v="2016-05-11" />
		<tag k="ssr:stedsnr" v="934571" />
	</node>
	<node id="-53062" lat="58.0163083322" lon="7.53886389026">
		<tag k="name" v="Tjømdalen" />
		<tag k="place" v="farm" />
		<tag k="ssr:date" v="2016-05-11" />
		<tag k="ssr:stedsnr" v="934355" />
	</node>
	<node id="-53052" lat="58.0541194438" lon="7.63999722434">
		<tag k="ssr:gml_id" v="GEOMETRY_9085bbd9-5e2b-429c-8e15-c2d7e18cd98d" />
		<tag k="ssr:gml_nr" v="3" />
	</node>
	<node id="-53051" lat="58.0541138869" lon="7.63999167404">
		<tag k="ssr:gml_id" v="GEOMETRY_528092d7-c6e9-4ee2-96f1-645ae4408931" />
		<tag k="ssr:gml_nr" v="2" />
	</node>
	<node id="-53050" lat="58.0541166653" lon="7.63999444919">
		<tag k="ssr:gml_id" v="GEOMETRY_dcd22080-f672-4b2b-a484-461e71bf9ed7" />
		<tag k="ssr:gml_nr" v="1" />
	</node>
	<node id="-53049" lat="58.0546055517" lon="7.63948056329">
		<tag k="ssr:gml_id" v="GEOMETRY_561bc222-ecc2-4f27-96f7-ee2e315441ac" />
		<tag k="ssr:gml_nr" v="0" />
	</node>
	<node id="-53048" lat="58.0346833331" lon="7.34701667013">
		<tag k="ssr:gml_id" v="GEOMETRY_f300c46f-b92e-4282-bfee-02fe4a7ce181" />
		<tag k="ssr:gml_nr" v="2" />
	</node>
	<node id="-53047" lat="58.0346694488" lon="7.34769166968">
		<tag k="ssr:gml_id" v="GEOMETRY_116f59f7-525f-4037-a856-98ac5006f69d" />
		<tag k="ssr:gml_nr" v="1" />
	</node>
	<node id="-53046" lat="58.0346666636" lon="7.34768888497">
		<tag k="ssr:gml_id" v="GEOMETRY_554623c5-a253-48f7-8864-b1c7135f2757" />
		<tag k="ssr:gml_nr" v="0" />
	</node>
	<node id="-53045" lat="58.0309277796" lon="7.63159167255">
		<tag k="ssr:gml_id" v="GEOMETRY_414a9a04-b940-45c3-919d-4f4af67b33d0" />
		<tag k="ssr:gml_nr" v="1" />
	</node>
	<node id="-53044" lat="58.0308777758" lon="7.63170833122">
		<tag k="ssr:gml_id" v="GEOMETRY_a0840a51-e674-49f8-91ba-e2fa7d4105ca" />
		<tag k="ssr:gml_nr" v="0" />
	</node>
	<node id="-53043" lat="58.0206388861" lon="7.47654166368">
		<tag k="ssr:gml_id" v="GEOMETRY_144dfac6-1620-46c5-8268-9f22ced92960" />
		<tag k="ssr:gml_nr" v="3" />
	</node>
	<node id="-53042" lat="58.0187361133" lon="7.46869166167">
		<tag k="ssr:gml_id" v="GEOMETRY_1a4a07d8-4417-4105-a37c-a9361aba44b0" />
		<tag k="ssr:gml_nr" v="2" />
	</node>
	<node id="-53041" lat="58.0187361108" lon="7.46869443819">
		<tag k="ssr:gml_id" v="GEOMETRY_a9964185-b26d-4a10-8702-89eed0ec8ba6" />
		<tag k="ssr:gml_nr" v="1" />
	</node>
	<node id="-53040" lat="58.0207638909" lon="7.4770611194">
		<tag k="ssr:gml_id" v="GEOMETRY_81fdc1fb-f8c9-44ad-930d-1badd85dab39" />
		<tag k="ssr:gml_nr" v="0" />
	</node>
	<node id="-53039" lat="58.0801444435" lon="7.52026389596">
		<tag k="ssr:gml_id" v="GEOMETRY_ffba53c5-825b-45cd-9dfa-2694f2bf6d77" />
		<tag k="ssr:gml_nr" v="3" />
	</node>
	<node id="-53038" lat="58.0794555571" lon="7.52272500253">
		<tag k="ssr:gml_id" v="GEOMETRY_3ea15c81-b97b-4e93-b167-1b315e2efa13" />
		<tag k="ssr:gml_nr" v="2" />
	</node>
	<node id="-53037" lat="58.0801916629" lon="7.52124445168">
		<tag k="ssr:gml_id" v="GEOMETRY_bfbd66cb-f841-4de8-b8ef-9650967de02c" />
		<tag k="ssr:gml_nr" v="1" />
	</node>
	<node id="-53036" lat="58.0801472191" lon="7.52026388283">
		<tag k="ssr:gml_id" v="GEOMETRY_bd2beca4-74e8-47b3-9cb2-fa49e6fd60a9" />
		<tag k="ssr:gml_nr" v="0" />
	</node>
	<node id="-53032" lat="58.0676611117" lon="7.55421943954">
		<tag k="ssr:gml_id" v="GEOMETRY_553b17ca-8fba-444d-9523-5f75a18e9273" />
		<tag k="ssr:gml_nr" v="2" />
	</node>
	<node id="-53031" lat="58.0691500022" lon="7.55048888153">
		<tag k="ssr:gml_id" v="GEOMETRY_64e28017-b993-43ce-9329-4c8ebaae4772" />
		<tag k="ssr:gml_nr" v="1" />
	</node>
	<node id="-53030" lat="58.0691499977" lon="7.55048611838">
		<tag k="ssr:gml_id" v="GEOMETRY_c203db84-518c-46d0-ac18-9d773e89ddd5" />
		<tag k="ssr:gml_nr" v="0" />
	</node>
	<node id="-53029" lat="58.061199996" lon="7.53833611604">
		<tag k="ssr:gml_id" v="GEOMETRY_38b980e4-829a-412a-bef4-2976f772fcfd" />
		<tag k="ssr:gml_nr" v="1" />
	</node>
	<node id="-53028" lat="58.0607583378" lon="7.53566111889">
		<tag k="ssr:gml_id" v="GEOMETRY_812dbb71-0d0b-4c6a-8bee-9dfe51ef0ca1" />
		<tag k="ssr:gml_nr" v="0" />
	</node>
	<node id="-53027" lat="58.0481111098" lon="7.52897499864">
		<tag k="ssr:gml_id" v="GEOMETRY_8964ff31-98ce-40d4-bde6-90ef6db56aa1" />
		<tag k="ssr:gml_nr" v="1" />
	</node>
	<node id="-53026" lat="58.0464555521" lon="7.53425556148">
		<tag k="ssr:gml_id" v="GEOMETRY_db518e6f-f062-48f4-a2b2-ef368c2bca52" />
		<tag k="ssr:gml_nr" v="0" />
	</node>
	<node id="-53025" lat="58.1009527755" lon="7.5294777772">
		<tag k="ssr:gml_id" v="GEOMETRY_3cdffa7e-fd06-46fb-bed1-af4bf463f931" />
		<tag k="ssr:gml_nr" v="2" />
	</node>
	<node id="-53024" lat="58.1014277801" lon="7.53058055703">
		<tag k="ssr:gml_id" v="GEOMETRY_8ec8ce07-f250-460b-bbfe-35dc56dd47f2" />
		<tag k="ssr:gml_nr" v="1" />
	</node>
	<node id="-53023" lat="58.1014249991" lon="7.53057776985">
		<tag k="ssr:gml_id" v="GEOMETRY_4a97688d-fc74-49f6-9ce4-9f0c3ec18c9e" />
		<tag k="ssr:gml_nr" v="0" />
	</node>
	<node id="-53022" lat="58.1061027792" lon="7.44267777536">
		<tag k="ssr:gml_id" v="GEOMETRY_db2e8d25-2e78-4d16-b272-db3e00583a2d" />
		<tag k="ssr:gml_nr" v="2" />
	</node>
	<node id="-53021" lat="58.1059249989" lon="7.44248888767">
		<tag k="ssr:gml_id" v="GEOMETRY_a1044201-44d0-4d37-8153-d6a5dcdf03d4" />
		<tag k="ssr:gml_nr" v="1" />
	</node>
	<node id="-53020" lat="58.1059250009" lon="7.44248610439">
		<tag k="ssr:gml_id" v="GEOMETRY_5870d90d-0c31-4743-ae7c-6f7b78ccb279" />
		<tag k="ssr:gml_nr" v="0" />
	</node>
	<node id="-53019" lat="58.1369777775" lon="7.50543610299">
		<tag k="ssr:gml_id" v="GEOMETRY_19e8b6af-d243-45cc-9f83-9d948dbbf413" />
		<tag k="ssr:gml_nr" v="2" />
	</node>
	<node id="-53018" lat="58.136980559" lon="7.50543889094">
		<tag k="ssr:gml_id" v="GEOMETRY_73d6ca19-25d9-4fb2-b1dc-66227711c0fb" />
		<tag k="ssr:gml_nr" v="1" />
	</node>
	<node id="-53017" lat="58.1396055574" lon="7.5044194379">
		<tag k="ssr:gml_id" v="GEOMETRY_253e3eb7-2f10-4959-bb02-32c894092b95" />
		<tag k="ssr:gml_nr" v="0" />
	</node>
	<node id="-53005" lat="57.9907527816" lon="7.59370000482">
		<tag k="name" v="Landøy" />
		<tag k="place" v="hamlet" />
		<tag k="ssr:date" v="2016-05-11" />
		<tag k="ssr:stedsnr" v="910063" />
	</node>
	<node id="-52986" lat="58.024422226" lon="7.46237777726">
		<tag k="name" v="Sande" />
		<tag k="place" v="suburb" />
		<tag k="ssr:date" v="2016-05-11" />
		<tag k="ssr:stedsnr" v="905126" />
	</node>
	<node id="-50926" lat="58.0891305545" lon="7.5156722151">
		<tag k="name" v="Hovmonen" />
		<tag k="place" v="farm" />
		<tag k="ssr:date" v="2016-05-10" />
		<tag k="ssr:stedsnr" v="449490" />
	</node>
	<node id="-50904" lat="58.1038249984" lon="7.53068056374">
		<tag k="name" v="Vådnebakken" />
		<tag k="place" v="farm" />
		<tag k="ssr:date" v="2016-05-10" />
		<tag k="ssr:stedsnr" v="448586" />
	</node>
	<node id="-50903" lat="58.0409500003" lon="7.42625555366">
		<tag k="ssr:gml_id" v="GEOMETRY_925b20d1-d2e9-4d11-8c2e-a98a342917d6" />
		<tag k="ssr:gml_nr" v="2" />
	</node>
	<node id="-50902" lat="58.0409499987" lon="7.42625833189">
		<tag k="ssr:gml_id" v="GEOMETRY_fc526305-eeb3-43ee-8361-032f17945884" />
		<tag k="ssr:gml_nr" v="1" />
	</node>
	<node id="-50901" lat="58.0386388897" lon="7.42915555209">
		<tag k="ssr:gml_id" v="GEOMETRY_1e892ce6-8535-44f7-b804-f7fffb142ced" />
		<tag k="ssr:gml_nr" v="0" />
	</node>
	<node id="-50900" lat="58.0436361129" lon="7.5444249918">
		<tag k="ssr:gml_id" v="GEOMETRY_4f8e0117-bb26-4687-9033-40d20615c269" />
		<tag k="ssr:gml_nr" v="1" />
	</node>
	<node id="-50899" lat="58.0444222178" lon="7.54730832596">
		<tag k="ssr:gml_id" v="GEOMETRY_4848642d-ab2d-4077-9789-1153658824d2" />
		<tag k="ssr:gml_nr" v="0" />
	</node>
	<node id="-50895" lat="58.0206611149" lon="7.49148056036">
		<tag k="ssr:gml_id" v="GEOMETRY_d7f4e63e-414d-4444-863d-7d32d7553bde" />
		<tag k="ssr:gml_nr" v="2" />
	</node>
	<node id="-50894" lat="58.0203944464" lon="7.49029444349">
		<tag k="ssr:gml_id" v="GEOMETRY_307f46c8-b439-4525-aba1-f2899d24606f" />
		<tag k="ssr:gml_nr" v="1" />
	</node>
	<node id="-50893" lat="58.0203916645" lon="7.49029166566">
		<tag k="ssr:gml_id" v="GEOMETRY_3f7af33e-6746-479b-a065-7a33be4b8f4e" />
		<tag k="ssr:gml_nr" v="0" />
	</node>
	<node id="-50892" lat="58.0232388918" lon="7.39886944135">
		<tag k="ssr:gml_id" v="GEOMETRY_b36296ca-ed36-4f2a-9cca-d80725860626" />
		<tag k="ssr:gml_nr" v="1" />
	</node>
	<node id="-50891" lat="58.023236111" lon="7.3988833311">
		<tag k="ssr:gml_id" v="GEOMETRY_6bffb251-9590-4849-b97f-8e1a4a9ac80c" />
		<tag k="ssr:gml_nr" v="0" />
	</node>
	<node id="-50890" lat="58.014775004" lon="7.39461666158">
		<tag k="ssr:gml_id" v="GEOMETRY_90f2267f-3ab0-4245-9cf7-0ac8cf98b3cb" />
		<tag k="ssr:gml_nr" v="2" />
	</node>
	<node id="-52937" lat="58.016152782" lon="7.44088889532">
		<tag k="leisure" v="swimming_area" />
		<tag k="name" v="Lordens" />
		<tag k="place" v="locality" />
		<tag k="ssr:date" v="2016-05-11" />
		<tag k="ssr:stedsnr" v="875740" />
	</node>
	<node id="-52936" lat="58.0148416701" lon="7.43725276964">
		<tag k="leisure" v="swimming_area" />
		<tag k="name" v="Kanelstranda" />
		<tag k="place" v="locality" />
		<tag k="ssr:date" v="2016-05-11" />
		<tag k="ssr:stedsnr" v="875738" />
	</node>
	<node id="-52935" lat="58.0169750027" lon="7.60808611384">
		<tag k="name" v="Fuglekjerr" />
		<tag k="place" v="farm" />
		<tag k="ssr:date" v="2016-05-11" />
		<tag k="ssr:stedsnr" v="875282" />
	</node>
	<node id="-50880" lat="58.0630111118" lon="7.43280556297">
		<tag k="ssr:gml_id" v="GEOMETRY_724bf860-fd77-476d-afab-b9573b083291" />
		<tag k="ssr:gml_nr" v="2" />
	</node>
	<node id="-50879" lat="58.0630444428" lon="7.43274443727">
		<tag k="ssr:gml_id" v="GEOMETRY_05d7a40a-3db9-49d3-800b-2a49d71d78e3" />
		<tag k="ssr:gml_nr" v="1" />
	</node>
	<node id="-50878" lat="58.0630416687" lon="7.43274166028">
		<tag k="ssr:gml_id" v="GEOMETRY_4a9caf88-bc25-43f1-8ba7-2c0ed279ba91" />
		<tag k="ssr:gml_nr" v="0" />
	</node>
	<node id="-50877" lat="58.0652666668" lon="7.44012500785">
		<tag k="ssr:gml_id" v="GEOMETRY_5931eb2f-8ab4-47fd-8d1c-ac7f58511bf5" />
		<tag k="ssr:gml_nr" v="3" />
	</node>
	<node id="-50876" lat="58.0652611149" lon="7.44012499569">
		<tag k="ssr:gml_id" v="GEOMETRY_1edbd165-293b-4602-a0c2-7ceb890abff4" />
		<tag k="ssr:gml_nr" v="2" />
	</node>
	<node id="-50875" lat="58.0652638908" lon="7.4401249933">
		<tag k="ssr:gml_id" v="GEOMETRY_19afa428-acb7-46bd-a2d4-e55cbdd79fd3" />
		<tag k="ssr:gml_nr" v="1" />
	</node>
	<node id="-50874" lat="58.0656194435" lon="7.44081665872">
		<tag k="ssr:gml_id" v="GEOMETRY_d02f51dd-e38e-4d6f-a565-5d60d70f0173" />
		<tag k="ssr:gml_nr" v="0" />
	</node>
	<node id="-50866" lat="58.0513944425" lon="7.49906389095">
		<tag k="ssr:gml_id" v="GEOMETRY_317da0ad-b2e6-4c7e-96b1-23d238f17cc8" />
		<tag k="ssr:gml_nr" v="2" />
	</node>
	<node id="-50865" lat="58.0514194423" lon="7.49837500681">
		<tag k="ssr:gml_id" v="GEOMETRY_a6b6c4c0-a9c0-4e47-8b33-7df21cc92ebc" />
		<tag k="ssr:gml_nr" v="1" />
	</node>
	<node id="-50864" lat="58.0514166664" lon="7.49837500467">
		<tag k="ssr:gml_id" v="GEOMETRY_da96c100-f3b8-42a0-ad3d-be111374d948" />
		<tag k="ssr:gml_nr" v="0" />
	</node>
	<node id="-50853" lat="58.0903805538" lon="7.46250554842">
		<tag k="ssr:gml_id" v="GEOMETRY_2e59388f-5e54-429e-8988-2fa15a09412b" />
		<tag k="ssr:gml_nr" v="2" />
	</node>
	<node id="-50852" lat="58.0897777822" lon="7.46208888316">
		<tag k="ssr:gml_id" v="GEOMETRY_be34f2d3-af6f-4f38-920a-0b49bc06a331" />
		<tag k="ssr:gml_nr" v="1" />
	</node>
	<node id="-50851" lat="58.0897749999" lon="7.46208611919">
		<tag k="ssr:gml_id" v="GEOMETRY_1e97d772-7ca6-4e6c-803e-94c47551dd9a" />
		<tag k="ssr:gml_nr" v="0" />
	</node>
	<node id="-50845" lat="58.1490277784" lon="7.51210277956">
		<tag k="ssr:gml_id" v="GEOMETRY_d715908b-839c-4a80-b27f-ab863e381b13" />
		<tag k="ssr:gml_nr" v="2" />
	</node>
	<node id="-50844" lat="58.1490305596" lon="7.51210555197">
		<tag k="ssr:gml_id" v="GEOMETRY_d84c1a0b-9c8b-448c-a9c7-247d7abff3cc" />
		<tag k="ssr:gml_nr" v="1" />
	</node>
	<node id="-50843" lat="58.1483444437" lon="7.51271111947">
		<tag k="ssr:gml_id" v="GEOMETRY_c39e5e38-1bef-4334-ad81-302ba4e8d042" />
		<tag k="ssr:gml_nr" v="0" />
	</node>
	<node id="-52886" lat="58.0487416625" lon="7.3577555593">
		<tag k="name" v="Brekka" />
		<tag k="place" v="farm" />
		<tag k="ssr:date" v="2016-05-11" />
		<tag k="ssr:stedsnr" v="874830" />
	</node>
	<node id="-50807" lat="57.9883666663" lon="7.53124443697">
		<tag k="alt_name" v="Indre Farestad" />
		<tag k="name" v="Farestad" />
		<tag k="place" v="hamlet" />
		<tag k="ssr:date" v="2016-05-10" />
		<tag k="ssr:stedsnr" v="425034" />
	</node>
	<node id="-50449" lat="58.0715861129" lon="7.51557499383">
		<tag k="name" v="Haven" />
		<tag k="place" v="farm" />
		<tag k="ssr:date" v="2016-05-10" />
		<tag k="ssr:stedsnr" v="206667" />
	</node>
	<node id="-52787" lat="58.0340250036" lon="7.44907499979">
		<tag k="ssr:gml_id" v="GEOMETRY_bfa44c5b-09ea-4993-994f-8ea5b31812c4" />
		<tag k="ssr:gml_nr" v="1" />
	</node>
	<node id="-52786" lat="58.0330611096" lon="7.45170832929">
		<tag k="ssr:gml_id" v="GEOMETRY_8f3adf77-4ad5-4557-a8da-bab13f80facf" />
		<tag k="ssr:gml_nr" v="0" />
	</node>
	<node id="-52785" lat="58.0253277764" lon="7.65060000553">
		<tag k="ssr:gml_id" v="GEOMETRY_d4cf1451-2af6-4484-b84a-fd1f5a414345" />
		<tag k="ssr:gml_nr" v="2" />
	</node>
	<node id="-52784" lat="58.0253305546" lon="7.65060277931">
		<tag k="ssr:gml_id" v="GEOMETRY_297068ea-f4e9-42f1-838e-070a823983a0" />
		<tag k="ssr:gml_nr" v="1" />
	</node>
	<node id="-52783" lat="58.0259583321" lon="7.64788055549">
		<tag k="ssr:gml_id" v="GEOMETRY_63b7fbc6-ce3a-499f-82f6-c5b2165c5ccd" />
		<tag k="ssr:gml_nr" v="0" />
	</node>
	<node id="-52771" lat="58.0767527766" lon="7.51465277852">
		<tag k="ssr:gml_id" v="GEOMETRY_24632930-1edb-4c86-a00e-5cf569a243db" />
		<tag k="ssr:gml_nr" v="1" />
	</node>
	<node id="-52770" lat="58.0778583317" lon="7.51556389474">
		<tag k="ssr:gml_id" v="GEOMETRY_bc05b36d-6f1d-4358-92ea-0c94a4ceb26a" />
		<tag k="ssr:gml_nr" v="0" />
	</node>
	<node id="-50717" lat="58.1201472235" lon="7.52641943947">
		<tag k="name" v="Kjølemonen" />
		<tag k="place" v="farm" />
		<tag k="ssr:date" v="2016-05-10" />
		<tag k="ssr:stedsnr" v="267884" />
	</node>
	<node id="-52764" lat="58.0498611081" lon="7.37664166571">
		<tag k="ssr:gml_id" v="GEOMETRY_2e88f23d-3798-442a-a99d-09ba859e2fef" />
		<tag k="ssr:gml_nr" v="1" />
	</node>
	<node id="-52763" lat="58.049724997" lon="7.37745000015">
		<tag k="ssr:gml_id" v="GEOMETRY_4da4cd93-b589-4610-9064-7fe8b8eb4fd9" />
		<tag k="ssr:gml_nr" v="0" />
	</node>
	<node id="-52762" lat="58.0518138859" lon="7.37807499708">
		<tag k="ssr:gml_id" v="GEOMETRY_4c630a8e-6183-4c12-9b94-8348f1995732" />
		<tag k="ssr:gml_nr" v="2" />
	</node>
	<node id="-52761" lat="58.0525444406" lon="7.3762833355">
		<tag k="ssr:gml_id" v="GEOMETRY_458794e7-891e-421d-98d2-35bbe2a808cd" />
		<tag k="ssr:gml_nr" v="1" />
	</node>
	<node id="-52760" lat="58.0525416653" lon="7.37628056371">
		<tag k="ssr:gml_id" v="GEOMETRY_a7c09800-1373-4d0c-b6a1-9af0b03fc8ff" />
		<tag k="ssr:gml_nr" v="0" />
	</node>
	<node id="-52759" lat="58.1256027797" lon="7.52453888278">
		<tag k="ssr:gml_id" v="GEOMETRY_1b525e0f-93ee-43ef-bfbf-05d3c9a27899" />
		<tag k="ssr:gml_nr" v="3" />
	</node>
	<node id="-52758" lat="58.1256055519" lon="7.52454167172">
		<tag k="ssr:gml_id" v="GEOMETRY_80b5d3df-e2eb-4082-9409-703d8debaa80" />
		<tag k="ssr:gml_nr" v="2" />
	</node>
	<node id="-52757" lat="58.1256083328" lon="7.52454444331">
		<tag k="ssr:gml_id" v="GEOMETRY_e3d737f5-9057-4503-b6b7-8b6db929a30d" />
		<tag k="ssr:gml_nr" v="1" />
	</node>
	<node id="-52756" lat="58.124277775" lon="7.52667500389">
		<tag k="ssr:gml_id" v="GEOMETRY_34003efa-ab8a-4563-bf65-f7e9f9c55bac" />
		<tag k="ssr:gml_nr" v="0" />
	</node>
	<node id="-52755" lat="58.1012333351" lon="7.47798055827">
		<tag k="ssr:gml_id" v="GEOMETRY_5e23524e-ca42-4bfe-b7c6-55035d9a3929" />
		<tag k="ssr:gml_nr" v="2" />
	</node>
	<node id="-52754" lat="58.101288892" lon="7.47730556309">
		<tag k="ssr:gml_id" v="GEOMETRY_6232f264-f57c-4273-8fc0-67da2f89d504" />
		<tag k="ssr:gml_nr" v="1" />
	</node>
	<node id="-52753" lat="58.1012861098" lon="7.47730278009">
		<tag k="ssr:gml_id" v="GEOMETRY_b04b743b-24b5-4448-acd8-88502f8a6a19" />
		<tag k="ssr:gml_nr" v="0" />
	</node>
	<node id="-52752" lat="58.1115555592" lon="7.55111110538">
		<tag k="ssr:gml_id" v="GEOMETRY_71a97eb2-7c2b-41cf-bd96-062ac6b1c1f7" />
		<tag k="ssr:gml_nr" v="3" />
	</node>
	<node id="-50703" lat="58.0561138845" lon="7.33892500804">
		<tag k="fixme" v="consider place=farm" />
		<tag k="name" v="Bjermundshaven" />
		<tag k="place" v="hamlet" />
		<tag k="ssr:date" v="2017-08-29" />
		<tag k="ssr:stedsnr" v="267778" />
	</node>
	<node id="-52750" lat="58.1115527789" lon="7.55110833279">
		<tag k="ssr:gml_id" v="GEOMETRY_9d8fc337-8247-4efd-b5e9-17340cf9c288" />
		<tag k="ssr:gml_nr" v="1" />
	</node>
	<node id="-52749" lat="58.1113777805" lon="7.55126111263">
		<tag k="ssr:gml_id" v="GEOMETRY_f11cf1a4-6433-4ec1-be0c-0fd64a0f4658" />
		<tag k="ssr:gml_nr" v="0" />
	</node>
	<node id="-52748" lat="58.0949888906" lon="7.52984167422">
		<tag k="ssr:gml_id" v="GEOMETRY_297530e3-34fa-4792-ab6b-f99282974e0b" />
		<tag k="ssr:gml_nr" v="3" />
	</node>
	<node id="-52747" lat="58.0913888891" lon="7.52925000456">
		<tag k="ssr:gml_id" v="GEOMETRY_dd834154-cb95-48f4-bda2-9548ff5e4710" />
		<tag k="ssr:gml_nr" v="2" />
	</node>
	<node id="-52746" lat="58.0912999993" lon="7.52870833755">
		<tag k="ssr:gml_id" v="GEOMETRY_75666a5f-d873-4e71-9040-789bb49ee054" />
		<tag k="ssr:gml_nr" v="1" />
	</node>
	<node id="-52745" lat="58.0949916663" lon="7.52984166181">
		<tag k="ssr:gml_id" v="GEOMETRY_5e71ee2b-e288-40dd-81e6-b005863b979b" />
		<tag k="ssr:gml_nr" v="0" />
	</node>
	<node id="-52744" lat="58.091827782" lon="7.52001388418">
		<tag k="ssr:gml_id" v="GEOMETRY_18b4c1f3-347e-4925-baf8-3335e02d903c" />
		<tag k="ssr:gml_nr" v="2" />
	</node>
	<node id="-52743" lat="58.0921305522" lon="7.52053055071">
		<tag k="ssr:gml_id" v="GEOMETRY_5d434e4e-a885-4b1c-a8ba-4ad4c9ada8d8" />
		<tag k="ssr:gml_nr" v="1" />
	</node>
	<node id="-52742" lat="58.0921277802" lon="7.52052778162">
		<tag k="ssr:gml_id" v="GEOMETRY_12e933f5-e04d-4b19-8418-21deb8504cdf" />
		<tag k="ssr:gml_nr" v="0" />
	</node>
	<node id="-52735" lat="58.0185834656" lon="7.5358578294">
		<tag k="name" v="Tufte" />
		<tag k="place" v="farm" />
		<tag k="ssr:date" v="2017-08-29" />
		<tag k="ssr:stedsnr" v="850725" />
	</node>
	<node id="-52734" lat="58.0197361089" lon="7.6363083417">
		<tag k="ssr:gml_id" v="GEOMETRY_027da37c-8bad-41e9-af43-79a15317daa9" />
		<tag k="ssr:gml_nr" v="3" />
	</node>
	<node id="-52733" lat="58.0194944464" lon="7.63585000571">
		<tag k="ssr:gml_id" v="GEOMETRY_a465ff7b-7c35-4507-8bfb-28ffade5793e" />
		<tag k="ssr:gml_nr" v="2" />
	</node>
	<node id="-52732" lat="58.0197333302" lon="7.63630555253">
		<tag k="ssr:gml_id" v="GEOMETRY_59adc612-64a5-45d7-b322-c7eceafabd6c" />
		<tag k="ssr:gml_nr" v="1" />
	</node>
	<node id="-52731" lat="58.0197305517" lon="7.6363027803">
		<tag k="ssr:gml_id" v="GEOMETRY_3de023c9-e4c4-41d2-995d-4fb9844335cc" />
		<tag k="ssr:gml_nr" v="0" />
	</node>
	<node id="-52730" lat="58.0156500009" lon="7.60734723046">
		<tag k="ssr:gml_id" v="GEOMETRY_8950d4c1-5547-439c-b4a2-98f19262082b" />
		<tag k="ssr:gml_nr" v="3" />
	</node>
	<node id="-52729" lat="58.0156500028" lon="7.60734166126">
		<tag k="ssr:gml_id" v="GEOMETRY_324febc8-fe34-4a3b-ab1f-2af1e58cc6e1" />
		<tag k="ssr:gml_nr" v="2" />
	</node>
	<node id="-52728" lat="58.0156499973" lon="7.60734443757">
		<tag k="ssr:gml_id" v="GEOMETRY_6fb2f4f0-5fb9-4ea1-bbb5-1d0de66b81f8" />
		<tag k="ssr:gml_nr" v="1" />
	</node>
	<node id="-52727" lat="58.0133777786" lon="7.60720000053">
		<tag k="ssr:gml_id" v="GEOMETRY_a543fc41-ef55-416b-a645-190f235730e6" />
		<tag k="ssr:gml_nr" v="0" />
	</node>
	<node id="-52724" lat="57.9851583307" lon="7.59312221584">
		<tag k="ssr:gml_id" v="GEOMETRY_7622dfd6-8d19-4406-899e-8d2f09e2d04a" />
		<tag k="ssr:gml_nr" v="1" />
	</node>
	<node id="-52723" lat="57.9843527818" lon="7.59284999517">
		<tag k="ssr:gml_id" v="GEOMETRY_9f47dff7-39e9-453b-b0e6-f922e40e8e95" />
		<tag k="ssr:gml_nr" v="0" />
	</node>
	<node id="-52477" lat="58.1057888867" lon="7.52395277574">
		<tag k="ssr:gml_id" v="GEOMETRY_bd8a3fbe-3a81-457e-bc34-199fb4e1f704" />
		<tag k="ssr:gml_nr" v="1" />
	</node>
	<node id="-50428" lat="58.0382722227" lon="7.44491110929">
		<tag k="ssr:gml_id" v="GEOMETRY_e176c997-e8c3-4cab-915b-57697a6b20a4" />
		<tag k="ssr:gml_nr" v="0" />
	</node>
	<node id="-50658" lat="58.0396250033" lon="7.4803166678">
		<tag k="ssr:gml_id" v="GEOMETRY_f41723f9-b10a-4bd5-85eb-0c2cb73ba17f" />
		<tag k="ssr:gml_nr" v="2" />
	</node>
	<node id="-50657" lat="58.0396277764" lon="7.48031944671">
		<tag k="ssr:gml_id" v="GEOMETRY_744131ec-41cb-47c6-83fc-651b38f33806" />
		<tag k="ssr:gml_nr" v="1" />
	</node>
	<node id="-50656" lat="58.040094443" lon="7.48051944585">
		<tag k="ssr:gml_id" v="GEOMETRY_019bc680-7ba1-4198-99ec-ada2b04745e2" />
		<tag k="ssr:gml_nr" v="0" />
	</node>
	<node id="-50655" lat="58.0395305547" lon="7.36264166539">
		<tag k="ssr:gml_id" v="GEOMETRY_09a278a9-d1dd-4248-b550-1708ff4f3481" />
		<tag k="ssr:gml_nr" v="3" />
	</node>
	<node id="-50654" lat="58.0391055545" lon="7.36338054798">
		<tag k="ssr:gml_id" v="GEOMETRY_68abaded-d7f3-45d8-88a5-46254558ff25" />
		<tag k="ssr:gml_nr" v="2" />
	</node>
	<node id="-50653" lat="58.0391027789" lon="7.36337777822">
		<tag k="ssr:gml_id" v="GEOMETRY_b9c6e47f-59ce-475a-984e-f9c396364d4f" />
		<tag k="ssr:gml_nr" v="1" />
	</node>
	<node id="-50652" lat="58.0391000031" lon="7.36337499153">
		<tag k="ssr:gml_id" v="GEOMETRY_4ed1bbc2-3e9a-4f20-be0e-68a1f1fcea3d" />
		<tag k="ssr:gml_nr" v="0" />
	</node>
	<node id="-50651" lat="58.0346250043" lon="7.49903055185">
		<tag k="fixme" v="consider place=farm" />
		<tag k="name" v="Ime" />
		<tag k="place" v="hamlet" />
		<tag k="ssr:date" v="2016-05-10" />
		<tag k="ssr:stedsnr" v="243979" />
	</node>
	<node id="-50650" lat="58.0348805515" lon="7.61918611136">
		<tag k="ssr:gml_id" v="GEOMETRY_7d5ee82c-4008-488c-8dea-9a442db7c960" />
		<tag k="ssr:gml_nr" v="3" />
	</node>
	<node id="-50649" lat="58.0345111071" lon="7.61568610698">
		<tag k="ssr:gml_id" v="GEOMETRY_a70fe57d-750e-4b45-9b0f-0cf5f51915e3" />
		<tag k="ssr:gml_nr" v="2" />
	</node>
	<node id="-50648" lat="58.0345138863" lon="7.61568889567">
		<tag k="ssr:gml_id" v="GEOMETRY_50f78624-b469-43c4-a26b-191c2bae2971" />
		<tag k="ssr:gml_nr" v="1" />
	</node>
	<node id="-50647" lat="58.0348833304" lon="7.61918888342">
		<tag k="ssr:gml_id" v="GEOMETRY_9995d0bf-7d3b-45ac-8034-ef1d7c6e720e" />
		<tag k="ssr:gml_nr" v="0" />
	</node>
	<node id="-50425" lat="58.0403611143" lon="7.55380277678">
		<tag k="ssr:gml_id" v="GEOMETRY_0003b6c9-1c31-4860-b82f-e66d492f67df" />
		<tag k="ssr:gml_nr" v="0" />
	</node>
	<node id="-50640" lat="58.0659249975" lon="7.42429166807">
		<tag k="ssr:gml_id" v="GEOMETRY_fcce7f43-ddc8-478b-bc02-ea6b287cb45d" />
		<tag k="ssr:gml_nr" v="2" />
	</node>
	<node id="-50639" lat="58.065924996" lon="7.42429444823">
		<tag k="ssr:gml_id" v="GEOMETRY_95ce196a-15ed-4268-af95-7e67274c5bcb" />
		<tag k="ssr:gml_nr" v="1" />
	</node>
	<node id="-50638" lat="58.0663472251" lon="7.42183889256">
		<tag k="ssr:gml_id" v="GEOMETRY_88adf946-64e5-4475-9913-f24bc4172de4" />
		<tag k="ssr:gml_nr" v="0" />
	</node>
	<node id="-50637" lat="58.0613500033" lon="7.42579999394">
		<tag k="ssr:gml_id" v="GEOMETRY_6c0ac67d-2e0c-4faa-9fe7-ba80fb5d5ea7" />
		<tag k="ssr:gml_nr" v="2" />
	</node>
	<node id="-50636" lat="58.0613500018" lon="7.42580277375">
		<tag k="ssr:gml_id" v="GEOMETRY_cf225ac1-4bfc-4e57-a81f-97809401876b" />
		<tag k="ssr:gml_nr" v="1" />
	</node>
	<node id="-50635" lat="58.0558416696" lon="7.42655833145">
		<tag k="ssr:gml_id" v="GEOMETRY_2a857ecf-f0bd-46a3-af7a-f8155b9d2814" />
		<tag k="ssr:gml_nr" v="0" />
	</node>
	<node id="-50634" lat="58.0643250002" lon="7.59585277409">
		<tag k="ssr:gml_id" v="GEOMETRY_537455b6-2a34-4d16-8cd1-848660a786c9" />
		<tag k="ssr:gml_nr" v="2" />
	</node>
	<node id="-50633" lat="58.0643277798" lon="7.59585556352">
		<tag k="ssr:gml_id" v="GEOMETRY_d449d1c6-e6e5-48b2-899f-9c8e7d8673be" />
		<tag k="ssr:gml_nr" v="1" />
	</node>
	<node id="-50632" lat="58.06437778" lon="7.5957333371">
		<tag k="ssr:gml_id" v="GEOMETRY_5ad30229-a14f-4d77-a083-32b09fb93a92" />
		<tag k="ssr:gml_nr" v="0" />
	</node>
	<node id="-50631" lat="58.0959861127" lon="7.51346944838">
		<tag k="ssr:gml_id" v="GEOMETRY_2eccd9b0-fb5b-4d93-bcf6-6b2bc7cc9ff1" />
		<tag k="ssr:gml_nr" v="1" />
	</node>
	<node id="-50630" lat="58.0965805539" lon="7.51308610364">
		<tag k="ssr:gml_id" v="GEOMETRY_2dc093b9-cebc-47d7-bd79-31004a2ddf10" />
		<tag k="ssr:gml_nr" v="0" />
	</node>
	<node id="-50629" lat="58.0965388853" lon="7.48739167451">
		<tag k="ssr:gml_id" v="GEOMETRY_a830c460-1440-4519-9ced-570e2faa7ef3" />
		<tag k="ssr:gml_nr" v="2" />
	</node>
	<node id="-50628" lat="58.0960583371" lon="7.48705000125">
		<tag k="ssr:gml_id" v="GEOMETRY_94460687-7543-4eb7-b16b-28ab8705da5f" />
		<tag k="ssr:gml_nr" v="1" />
	</node>
	<node id="-50627" lat="58.0960555523" lon="7.48705000042">
		<tag k="ssr:gml_id" v="GEOMETRY_d0e351f6-bbdd-4ad1-a36c-5ba5835a0e0b" />
		<tag k="ssr:gml_nr" v="0" />
	</node>
	<node id="-50622" lat="58.0818666639" lon="7.42792777778">
		<tag k="ssr:gml_id" v="GEOMETRY_87f1e4eb-da29-404d-9db8-2a34db3d5d89" />
		<tag k="ssr:gml_nr" v="2" />
	</node>
	<node id="-50621" lat="58.0819166647" lon="7.42676111297">
		<tag k="ssr:gml_id" v="GEOMETRY_7407ce15-77f1-4ba9-bbcc-99bff274b32c" />
		<tag k="ssr:gml_nr" v="1" />
	</node>
	<node id="-52668" lat="58.0192583339" lon="7.37152777501">
		<tag k="name" v="Persneset" />
		<tag k="place" v="locality" />
		<tag k="ssr:date" v="2016-05-11" />
		<tag k="ssr:stedsnr" v="815819" />
	</node>
	<node id="-50613" lat="58.0231527808" lon="7.37477221883">
		<tag k="ssr:gml_id" v="GEOMETRY_e3793fa8-b323-460d-8e7f-b292faca438c" />
		<tag k="ssr:gml_nr" v="2" />
	</node>
	<node id="-50612" lat="58.0227861085" lon="7.37507777201">
		<tag k="ssr:gml_id" v="GEOMETRY_daf55b05-bc36-4e9d-a6f8-b506c039c186" />
		<tag k="ssr:gml_nr" v="1" />
	</node>
	<node id="-50611" lat="58.0227833332" lon="7.37507500258">
		<tag k="ssr:gml_id" v="GEOMETRY_c45c524c-b83a-4ba4-a3e9-7dac2d24d1c4" />
		<tag k="ssr:gml_nr" v="0" />
	</node>
	<node id="-50610" lat="58.0393527758" lon="7.33583610787">
		<tag k="ssr:gml_id" v="GEOMETRY_b347b469-5bb8-4edc-a1bc-8a2da3b5ab5e" />
		<tag k="ssr:gml_nr" v="1" />
	</node>
	<node id="-50609" lat="58.0390749996" lon="7.33602500207">
		<tag k="ssr:gml_id" v="GEOMETRY_57467cd2-3cd0-4a56-819b-6f51e287b93e" />
		<tag k="ssr:gml_nr" v="0" />
	</node>
	<node id="-50604" lat="58.0100111075" lon="7.59221110614">
		<tag k="ssr:gml_id" v="GEOMETRY_dbe8a033-ecbf-46c4-a263-4644a00c7592" />
		<tag k="ssr:gml_nr" v="2" />
	</node>
	<node id="-50603" lat="58.0100111113" lon="7.59221388166">
		<tag k="ssr:gml_id" v="GEOMETRY_80a05875-198e-4fdd-b227-f1e69b3348e0" />
		<tag k="ssr:gml_nr" v="1" />
	</node>
	<node id="-50602" lat="58.0104111146" lon="7.59359722659">
		<tag k="ssr:gml_id" v="GEOMETRY_df2225f9-cd6f-4919-af52-05deabf47a51" />
		<tag k="ssr:gml_nr" v="0" />
	</node>
	<node id="-49051" lat="58.0244055543" lon="7.66681666328">
		<tag k="ssr:gml_id" v="GEOMETRY_ea40480c-45a7-472b-8798-62cd814ad6f8" />
		<tag k="ssr:gml_nr" v="2" />
	</node>
	<node id="-49050" lat="58.02432778" lon="7.66631943947">
		<tag k="ssr:gml_id" v="GEOMETRY_275b6a78-0dcc-4112-9357-d9483fbc11d6" />
		<tag k="ssr:gml_nr" v="1" />
	</node>
	<node id="-50415" lat="58.0333527798" lon="7.42285277459">
		<tag k="ssr:gml_id" v="GEOMETRY_44e5ab6b-12d5-4791-8833-a614b271f48b" />
		<tag k="ssr:gml_nr" v="0" />
	</node>
	<node id="-52631" lat="58.0445083333" lon="7.49169999576">
		<tag k="name" v="Ytre Årekjerr" />
		<tag k="place" v="farm" />
		<tag k="ssr:date" v="2016-05-11" />
		<tag k="ssr:stedsnr" v="814229" />
	</node>
	<node id="-51097" lat="58.0888222259" lon="7.62284444924">
		<tag k="ssr:gml_id" v="GEOMETRY_3e5b1149-9fca-4305-b288-f2c1eea4dc9a" />
		<tag k="ssr:gml_nr" v="0" />
	</node>
	<node id="-52462" lat="58.073055553" lon="7.47154166809">
		<tag k="ssr:gml_id" v="GEOMETRY_ea2c0448-6f9a-4aea-b14b-d852ab5cec51" />
		<tag k="ssr:gml_nr" v="1" />
	</node>
	<node id="-49048" lat="58.0208083295" lon="7.53645555398">
		<tag k="ssr:gml_id" v="GEOMETRY_73512f59-8648-4f0c-b554-771fb01e98e0" />
		<tag k="ssr:gml_nr" v="3" />
	</node>
	<node id="-52461" lat="58.0730527797" lon="7.47153888732">
		<tag k="ssr:gml_id" v="GEOMETRY_2e6f7d51-4b09-446b-a0cd-00b0458eca21" />
		<tag k="ssr:gml_nr" v="0" />
	</node>
	<node id="-49047" lat="58.0165111149" lon="7.53785277177">
		<tag k="ssr:gml_id" v="GEOMETRY_1fd4ccea-fc98-46cb-98d0-bcc49bd2bba1" />
		<tag k="ssr:gml_nr" v="2" />
	</node>
	<node id="-50412" lat="58.0189527747" lon="7.44369999628">
		<tag k="ssr:gml_id" v="GEOMETRY_c40bfd40-8fb2-4644-82fb-ed7f4f8ddd66" />
		<tag k="ssr:gml_nr" v="1" />
	</node>
	<node id="-49046" lat="58.0165138868" lon="7.53785555338">
		<tag k="ssr:gml_id" v="GEOMETRY_b879f23e-2a5a-405a-8a97-75e3594ae4e2" />
		<tag k="ssr:gml_nr" v="1" />
	</node>
	<node id="-50411" lat="58.0205694432" lon="7.45045278275">
		<tag k="ssr:gml_id" v="GEOMETRY_22399451-2d12-43b9-aad8-98fe5d190d53" />
		<tag k="ssr:gml_nr" v="0" />
	</node>
	<node id="-49045" lat="58.0189138896" lon="7.53506389371">
		<tag k="ssr:gml_id" v="GEOMETRY_1a92d41c-b106-425d-9519-86ef1cb6fb1a" />
		<tag k="ssr:gml_nr" v="0" />
	</node>
	<node id="-49044" lat="58.0771388931" lon="7.44084999504">
		<tag k="ssr:gml_id" v="GEOMETRY_dd45433d-9c04-4e5a-9dbb-f3ad89c09bff" />
		<tag k="ssr:gml_nr" v="1" />
	</node>
	<node id="-50533" lat="58.0256444457" lon="7.43348055215">
		<tag k="building" v="cabin" />
		<tag k="name" v="Lysthuset" />
		<tag k="place" v="isolated_dwelling" />
		<tag k="ssr:date" v="2016-05-10" />
		<tag k="ssr:stedsnr" v="208146" />
	</node>
	<node id="-50532" lat="58.0305027774" lon="7.45115833472">
		<tag k="landuse" v="residential" />
		<tag k="name" v="Oksevollen" />
		<tag k="place" v="neighbourhood" />
		<tag k="ssr:date" v="2016-05-10" />
		<tag k="ssr:stedsnr" v="208141" />
	</node>
	<node id="-52566" lat="58.1230527785" lon="7.52853611869">
		<tag k="ssr:gml_id" v="GEOMETRY_07e9a9a7-c0b9-4605-8669-824c03935e27" />
		<tag k="ssr:gml_nr" v="2" />
	</node>
	<node id="-52565" lat="58.1234500027" lon="7.52808055154">
		<tag k="ssr:gml_id" v="GEOMETRY_302edb54-9019-46ff-a834-0cf30e1994e1" />
		<tag k="ssr:gml_nr" v="1" />
	</node>
	<node id="-52564" lat="58.1234499977" lon="7.52807778421">
		<tag k="ssr:gml_id" v="GEOMETRY_720ad896-7a97-44a0-b665-879e0cfc5cdb" />
		<tag k="ssr:gml_nr" v="0" />
	</node>
	<node id="-49038" lat="58.0647388846" lon="7.5134916744">
		<tag k="ssr:gml_id" v="GEOMETRY_cc66610f-7372-4247-acf9-e5b1d7b818c1" />
		<tag k="ssr:gml_nr" v="1" />
	</node>
	<node id="-52545" lat="58.1021361109" lon="7.51594722148">
		<tag k="name" v="Kjørkelia" />
		<tag k="place" v="farm" />
		<tag k="ssr:date" v="2016-05-11" />
		<tag k="ssr:stedsnr" v="813476" />
	</node>
	<node id="-52542" lat="58.1254972179" lon="7.49259999694">
		<tag k="name" v="Solberg" />
		<tag k="place" v="farm" />
		<tag k="ssr:date" v="2016-05-11" />
		<tag k="ssr:stedsnr" v="813458" />
	</node>
	<node id="-52513" lat="57.9853166676" lon="7.53221388351">
		<tag k="name" v="Ytre Farestad" />
		<tag k="place" v="hamlet" />
		<tag k="ssr:date" v="2016-05-11" />
		<tag k="ssr:stedsnr" v="813087" />
	</node>
	<node id="-52497" lat="58.0355138919" lon="7.50189444518">
		<tag k="name" v="Øvre Ime" />
		<tag k="place" v="farm" />
		<tag k="ssr:date" v="2016-05-11" />
		<tag k="ssr:stedsnr" v="789975" />
	</node>
	<node id="-52496" lat="58.0281194415" lon="7.43664721502">
		<tag k="ssr:gml_id" v="GEOMETRY_68aa041c-de3c-44ed-b147-ed7176225cd0" />
		<tag k="ssr:gml_nr" v="2" />
	</node>
	<node id="-52495" lat="58.0277777748" lon="7.43807500741">
		<tag k="ssr:gml_id" v="GEOMETRY_13dd9db5-3dae-40ff-9d16-0547ef7c5ae6" />
		<tag k="ssr:gml_nr" v="1" />
	</node>
	<node id="-52494" lat="58.0277194426" lon="7.43810555911">
		<tag k="ssr:gml_id" v="GEOMETRY_b968e555-97d7-4c9e-b594-8cab9a50bda4" />
		<tag k="ssr:gml_nr" v="0" />
	</node>
	<node id="-52487" lat="58.0537999962" lon="7.4411638933">
		<tag k="ssr:gml_id" v="GEOMETRY_2c7b78c2-6149-4272-bf8f-18a7406fb8cc" />
		<tag k="ssr:gml_nr" v="2" />
	</node>
	<node id="-52486" lat="58.0538000033" lon="7.44116667214">
		<tag k="ssr:gml_id" v="GEOMETRY_319c0b04-e2c7-44ec-b9c7-2501acb073b4" />
		<tag k="ssr:gml_nr" v="1" />
	</node>
	<node id="-52485" lat="58.0554083379" lon="7.43566667292">
		<tag k="ssr:gml_id" v="GEOMETRY_5eba028f-6c72-4691-abcd-e6c5f35db375" />
		<tag k="ssr:gml_nr" v="0" />
	</node>
	<node id="-52484" lat="58.0457055589" lon="7.50086389515">
		<tag k="ssr:gml_id" v="GEOMETRY_1432fe25-12cf-4a65-bd92-9c65abdfc428" />
		<tag k="ssr:gml_nr" v="2" />
	</node>
	<node id="-50435" lat="58.0416388928" lon="7.5433444482">
		<tag k="ssr:gml_id" v="GEOMETRY_15d84ee9-7250-419a-805e-99e9ccecb178" />
		<tag k="ssr:gml_nr" v="4" />
	</node>
	<node id="-50434" lat="58.0404805588" lon="7.53764167216">
		<tag k="ssr:gml_id" v="GEOMETRY_42a8e1d3-58bb-4553-8446-3820b57e01ba" />
		<tag k="ssr:gml_nr" v="3" />
	</node>
	<node id="-50433" lat="58.0400527763" lon="7.53971110379">
		<tag k="ssr:gml_id" v="GEOMETRY_8b82c2c4-f76e-4710-8037-33b77e419211" />
		<tag k="ssr:gml_nr" v="2" />
	</node>
	<node id="-50432" lat="58.040477778" lon="7.5376388891">
		<tag k="ssr:gml_id" v="GEOMETRY_0b10b2ce-0a43-4774-a280-33053d96207c" />
		<tag k="ssr:gml_nr" v="1" />
	</node>
	<node id="-50431" lat="58.0400444439" lon="7.5397083268">
		<tag k="ssr:gml_id" v="GEOMETRY_e10416db-260e-437f-9299-e3d4ab2ba1cd" />
		<tag k="ssr:gml_nr" v="0" />
	</node>
	<node id="-52478" lat="58.1058000028" lon="7.52395000835">
		<tag k="ssr:gml_id" v="GEOMETRY_a6344e54-fd19-4c6d-a0a5-d613355aeffe" />
		<tag k="ssr:gml_nr" v="2" />
	</node>
	<node id="-50429" lat="58.0387833315" lon="7.43729999381">
		<tag k="ssr:gml_id" v="GEOMETRY_27b10905-c477-49c8-a35f-6d83e7dc0e27" />
		<tag k="ssr:gml_nr" v="1" />
	</node>
	<node id="-52476" lat="58.1057861147" lon="7.52395000533">
		<tag k="ssr:gml_id" v="GEOMETRY_fb02d09a-c33c-4988-a2ab-433177c3af84" />
		<tag k="ssr:gml_nr" v="0" />
	</node>
	<node id="-52475" lat="58.1056250003" lon="7.52748054895">
		<tag k="ssr:gml_id" v="GEOMETRY_0f59077e-d8f2-4da5-af78-cb49051e21f3" />
		<tag k="ssr:gml_nr" v="2" />
	</node>
	<node id="-52474" lat="58.1063055554" lon="7.52734722031">
		<tag k="ssr:gml_id" v="GEOMETRY_9d3cdc34-2589-43d7-b3b7-cb774fdd1dd1" />
		<tag k="ssr:gml_nr" v="1" />
	</node>
	<node id="-52473" lat="58.1059499969" lon="7.5277000009">
		<tag k="ssr:gml_id" v="GEOMETRY_bb6405c8-f6f9-47a2-a861-156149119541" />
		<tag k="ssr:gml_nr" v="0" />
	</node>
	<node id="-52472" lat="58.1286388905" lon="7.53610000312">
		<tag k="ssr:gml_id" v="GEOMETRY_996fd78e-c945-4173-9c00-8b0c98f1db7f" />
		<tag k="ssr:gml_nr" v="1" />
	</node>
	<node id="-52471" lat="58.1286361146" lon="7.53609999813">
		<tag k="ssr:gml_id" v="GEOMETRY_f33aba4d-04ea-4c7e-923e-870eeb80a514" />
		<tag k="ssr:gml_nr" v="0" />
	</node>
	<node id="-50417" lat="58.0333500039" lon="7.42285277828">
		<tag k="ssr:gml_id" v="GEOMETRY_31c5bcaa-15fe-4feb-910a-65aba9ca4345" />
		<tag k="ssr:gml_nr" v="2" />
	</node>
	<node id="-50416" lat="58.0337888887" lon="7.41940554781">
		<tag k="ssr:gml_id" v="GEOMETRY_d43d7b1b-4338-4822-a475-0695f41bf833" />
		<tag k="ssr:gml_nr" v="1" />
	</node>
	<node id="-52463" lat="58.0731694473" lon="7.47137499753">
		<tag k="ssr:gml_id" v="GEOMETRY_5e7fea8d-ef89-4724-b4cd-7e7233b74356" />
		<tag k="ssr:gml_nr" v="2" />
	</node>
	<node id="-50414" lat="58.018747218" lon="7.4444416628">
		<tag k="ssr:gml_id" v="GEOMETRY_19d69668-fe90-4755-bd94-30b26fb864cd" />
		<tag k="ssr:gml_nr" v="3" />
	</node>
	<node id="-50413" lat="58.0189499989" lon="7.44369999833">
		<tag k="ssr:gml_id" v="GEOMETRY_bbaf610f-7250-4dfe-9ad9-8bfb35cd0034" />
		<tag k="ssr:gml_nr" v="2" />
	</node>
	<node id="-52460" lat="58.0751138904" lon="7.52089999436">
		<tag k="ssr:gml_id" v="GEOMETRY_449c5cfe-9dd3-4836-a6b9-f75fc7c5f046" />
		<tag k="ssr:gml_nr" v="3" />
	</node>
	<node id="-52459" lat="58.0751083298" lon="7.52090000394">
		<tag k="ssr:gml_id" v="GEOMETRY_4d4ef84b-a21c-4bbf-bf75-66616814060b" />
		<tag k="ssr:gml_nr" v="2" />
	</node>
	<node id="-52458" lat="58.0751111147" lon="7.52090000744">
		<tag k="ssr:gml_id" v="GEOMETRY_58ea93e3-89c9-4e44-b7d7-9daad5c66e67" />
		<tag k="ssr:gml_nr" v="1" />
	</node>
	<node id="-52457" lat="58.0751249991" lon="7.51993055898">
		<tag k="ssr:gml_id" v="GEOMETRY_ff35d01d-055d-4774-991e-67882d5af9b3" />
		<tag k="ssr:gml_nr" v="0" />
	</node>
	<node id="-50406" lat="58.0731361092" lon="7.48539166939">
		<tag k="ssr:gml_id" v="GEOMETRY_8b727508-c9c5-476d-9c34-2df30ed6f64c" />
		<tag k="ssr:gml_nr" v="2" />
	</node>
	<node id="-50405" lat="58.073316669" lon="7.48650000693">
		<tag k="ssr:gml_id" v="GEOMETRY_8215ca96-5964-46d6-a705-7cb0bbf7f3c1" />
		<tag k="ssr:gml_nr" v="1" />
	</node>
	<node id="-50404" lat="58.0733138932" lon="7.48650000573">
		<tag k="ssr:gml_id" v="GEOMETRY_7ee73a83-b47b-4378-9521-1c72927ce1cf" />
		<tag k="ssr:gml_nr" v="0" />
	</node>
	<node id="-52433" lat="58.0914722261" lon="7.51457499399">
		<tag k="ssr:gml_id" v="GEOMETRY_d8e5c288-b376-48e8-ada5-09800cae5caf" />
		<tag k="ssr:gml_nr" v="1" />
	</node>
	<node id="-52432" lat="58.124277775" lon="7.52667500389">
		<tag k="ssr:gml_id" v="GEOMETRY_02bb6694-c175-4461-803a-1b3c03ab3907" />
		<tag k="ssr:gml_nr" v="0" />
	</node>
	<node id="-50378" lat="58.1371138853" lon="7.55023333253">
		<tag k="ssr:gml_id" v="GEOMETRY_fd073816-35c7-4838-bfaf-0f64b81cb044" />
		<tag k="ssr:gml_nr" v="2" />
	</node>
	<node id="-50377" lat="58.1370833312" lon="7.55027499908">
		<tag k="ssr:gml_id" v="GEOMETRY_a1a32c1b-b946-47fc-883f-cc90f764b687" />
		<tag k="ssr:gml_nr" v="1" />
	</node>
	<node id="-50376" lat="58.1370805553" lon="7.550274993">
		<tag k="ssr:gml_id" v="GEOMETRY_0d1b4ef9-c018-4fd1-bb13-de858dd4d7ec" />
		<tag k="ssr:gml_nr" v="0" />
	</node>
	<node id="-50370" lat="58.01135" lon="7.63002500174">
		<tag k="name" v="Kåløy" />
		<tag k="place" v="farm" />
		<tag k="ssr:date" v="2016-05-10" />
		<tag k="ssr:stedsnr" v="182060" />
	</node>
	<node id="-52483" lat="58.0457083313" lon="7.50086665918">
		<tag k="ssr:gml_id" v="GEOMETRY_8582bef8-4a17-4423-98a6-ffd479d0646f" />
		<tag k="ssr:gml_nr" v="1" />
	</node>
	<node id="-52410" lat="58.0370611075" lon="7.36909722132">
		<tag k="name" v="Langåkeren" />
		<tag k="place" v="farm" />
		<tag k="ssr:date" v="2016-05-11" />
		<tag k="ssr:stedsnr" v="754846" />
	</node>
	<node id="-50358" lat="58.0097555597" lon="7.55750554799">
		<tag k="ssr:gml_id" v="GEOMETRY_6b0d3c4b-9ef0-4529-af42-7e2e95df7b6f" />
		<tag k="ssr:gml_nr" v="1" />
	</node>
	<node id="-50357" lat="58.0099527802" lon="7.55788055457">
		<tag k="ssr:gml_id" v="GEOMETRY_0c84fa71-c3f3-4cff-9547-a454d34e5b93" />
		<tag k="ssr:gml_nr" v="0" />
	</node>
	<node id="-50356" lat="58.0090222197" lon="7.51442222084">
		<tag k="ssr:gml_id" v="GEOMETRY_57b79bd9-2c47-4f61-b762-f84f14e62547" />
		<tag k="ssr:gml_nr" v="2" />
	</node>
	<node id="-50355" lat="58.0089111148" lon="7.51475555017">
		<tag k="ssr:gml_id" v="GEOMETRY_141fd596-8375-4e56-af3d-b64efa2e38c1" />
		<tag k="ssr:gml_nr" v="1" />
	</node>
	<node id="-50354" lat="58.0089138872" lon="7.5147583294">
		<tag k="ssr:gml_id" v="GEOMETRY_e944d404-f80f-4545-80a8-26788783f709" />
		<tag k="ssr:gml_nr" v="0" />
	</node>
	<node id="-50341" lat="58.0290444426" lon="7.66243888114">
		<tag k="name" v="Fuviga" />
		<tag k="place" v="farm" />
		<tag k="ssr:date" v="2016-05-10" />
		<tag k="ssr:stedsnr" v="176479" />
	</node>
	<node id="-52482" lat="58.0471138883" lon="7.49942500442">
		<tag k="ssr:gml_id" v="GEOMETRY_c9a29637-d590-406b-9284-c5dffea3bb22" />
		<tag k="ssr:gml_nr" v="0" />
	</node>
	<node id="-51118" lat="58.1333777801" lon="7.54050833321">
		<tag k="ssr:gml_id" v="GEOMETRY_404e09a8-f17a-49d9-a963-dd485e25176a" />
		<tag k="ssr:gml_nr" v="1" />
	</node>
	<node id="-49071" lat="58.0372388847" lon="7.45582778252">
		<tag k="ssr:gml_id" v="GEOMETRY_9dad7d02-46b0-44f9-a42c-bf33551d0381" />
		<tag k="ssr:gml_nr" v="1" />
	</node>
	<node id="-52327" lat="58.0482805575" lon="7.37321389559">
		<tag k="name" v="Bjorneset" />
		<tag k="place" v="farm" />
		<tag k="ssr:date" v="2016-05-11" />
		<tag k="ssr:stedsnr" v="752817" />
	</node>
	<node id="-52325" lat="58.0610749995" lon="7.39339999904">
		<tag k="name" v="Heimatt" />
		<tag k="place" v="farm" />
		<tag k="ssr:date" v="2016-05-11" />
		<tag k="ssr:stedsnr" v="752813" />
	</node>
	<node id="-52315" lat="58.041055558" lon="7.36459721711">
		<tag k="name" v="Staurhola" />
		<tag k="place" v="farm" />
		<tag k="ssr:date" v="2016-05-11" />
		<tag k="ssr:stedsnr" v="752740" />
	</node>
	<node id="-52751" lat="58.1115499985" lon="7.55110556019">
		<tag k="ssr:gml_id" v="GEOMETRY_8fa2bc46-22d3-4fba-a775-932691f0b281" />
		<tag k="ssr:gml_nr" v="2" />
	</node>
	<node id="-50020" lat="58.0317944404" lon="7.3391749944">
		<tag k="ssr:gml_id" v="GEOMETRY_9d440b7e-a022-4267-b004-b4a81cee02e1" />
		<tag k="ssr:gml_nr" v="1" />
	</node>
	<node id="-52299" lat="58.0808500025" lon="7.47812777125">
		<tag k="fixme" v="consider place=farm" />
		<tag k="name" v="Mosland" />
		<tag k="place" v="hamlet" />
		<tag k="ssr:date" v="2017-08-30" />
		<tag k="ssr:stedsnr" v="752645" />
	</node>
	<node id="-50248" lat="58.0895055555" lon="7.51261110684">
		<tag k="name" v="Sudermonen" />
		<tag k="place" v="farm" />
		<tag k="ssr:date" v="2016-05-10" />
		<tag k="ssr:stedsnr" v="145951" />
	</node>
	<node id="-49069" lat="58.0432249997" lon="7.4961055505">
		<tag k="ssr:gml_id" v="GEOMETRY_fba81b4d-1adf-48ad-ab30-7c39a0b00160" />
		<tag k="ssr:gml_nr" v="2" />
	</node>
	<node id="-50698" lat="58.0457805525" lon="7.37479166113">
		<tag k="name" v="Røllandstø" />
		<tag k="place" v="farm" />
		<tag k="ssr:date" v="2016-05-10" />
		<tag k="ssr:stedsnr" v="267751" />
	</node>
	<node id="-52253" lat="58.036875004" lon="7.62225277651">
		<tag k="ssr:gml_id" v="GEOMETRY_d9b957e5-ddc6-4de0-81c7-4dfb27d816ee" />
		<tag k="ssr:gml_nr" v="2" />
	</node>
	<node id="-52252" lat="58.0368749982" lon="7.62225555447">
		<tag k="ssr:gml_id" v="GEOMETRY_aaef31ac-ffeb-44b5-bb43-3ba83e8ec725" />
		<tag k="ssr:gml_nr" v="1" />
	</node>
	<node id="-52251" lat="58.037522224" lon="7.62372222212">
		<tag k="ssr:gml_id" v="GEOMETRY_138fe080-2ddc-4f99-9c78-11a573342779" />
		<tag k="ssr:gml_nr" v="0" />
	</node>
	<node id="-51375" lat="58.100222222" lon="7.48810000332">
		<tag k="ssr:gml_id" v="GEOMETRY_d89a2e60-63d1-467d-9315-022ef1561a5e" />
		<tag k="ssr:gml_nr" v="1" />
	</node>
	<node id="-52248" lat="58.0101083352" lon="7.53973888636">
		<tag k="ssr:gml_id" v="GEOMETRY_79651589-bf1a-4948-b4f7-25dabd0106fa" />
		<tag k="ssr:gml_nr" v="2" />
	</node>
	<node id="-52247" lat="58.010111107" lon="7.53974166762">
		<tag k="ssr:gml_id" v="GEOMETRY_2ab8f38f-9736-44e3-8984-899b380b8799" />
		<tag k="ssr:gml_nr" v="1" />
	</node>
	<node id="-52246" lat="58.0091361121" lon="7.5364638972">
		<tag k="ssr:gml_id" v="GEOMETRY_fd4cc659-3d01-4271-bbd4-ca3c4d0a6888" />
		<tag k="ssr:gml_nr" v="0" />
	</node>
	<node id="-52245" lat="58.0799388918" lon="7.44993333646">
		<tag k="ssr:gml_id" v="GEOMETRY_4695d49e-110c-4450-82a7-d6ff07a55a74" />
		<tag k="ssr:gml_nr" v="3" />
	</node>
	<node id="-52244" lat="58.0799361112" lon="7.44992777597">
		<tag k="ssr:gml_id" v="GEOMETRY_0558253e-f8ed-4829-a46f-17edd1abe568" />
		<tag k="ssr:gml_nr" v="2" />
	</node>
	<node id="-52243" lat="58.0799361091" lon="7.44993055723">
		<tag k="ssr:gml_id" v="GEOMETRY_dda82464-0e8f-4c63-ba29-e9192fc7c935" />
		<tag k="ssr:gml_nr" v="1" />
	</node>
	<node id="-52242" lat="58.0802972246" lon="7.44756388497">
		<tag k="ssr:gml_id" v="GEOMETRY_f590e986-ff66-4fd3-b567-8bafa46355f7" />
		<tag k="ssr:gml_nr" v="0" />
	</node>
	<node id="-52241" lat="58.0702000016" lon="7.45928888112">
		<tag k="ssr:gml_id" v="GEOMETRY_2ff80a12-c512-4aee-9209-3865c9910f70" />
		<tag k="ssr:gml_nr" v="2" />
	</node>
	<node id="-52240" lat="58.0702277761" lon="7.45921666538">
		<tag k="ssr:gml_id" v="GEOMETRY_61017183-0db5-46c4-b194-446cf437ae96" />
		<tag k="ssr:gml_nr" v="1" />
	</node>
	<node id="-52239" lat="58.0702000041" lon="7.45928611755">
		<tag k="ssr:gml_id" v="GEOMETRY_7ed778a8-2913-4377-96ad-c2629890e454" />
		<tag k="ssr:gml_nr" v="0" />
	</node>
	<node id="-52238" lat="58.0563361129" lon="7.38797500628">
		<tag k="ssr:gml_id" v="GEOMETRY_043f1d17-38a6-41be-9df3-5f4285996f59" />
		<tag k="ssr:gml_nr" v="2" />
	</node>
	<node id="-52237" lat="58.0564138908" lon="7.38726111617">
		<tag k="ssr:gml_id" v="GEOMETRY_6806e331-33d0-41af-8188-22a6a2cf5fe1" />
		<tag k="ssr:gml_nr" v="1" />
	</node>
	<node id="-52236" lat="58.0564111147" lon="7.38726110571">
		<tag k="ssr:gml_id" v="GEOMETRY_2bf94713-c3b8-44be-8d30-1bd0922bd25d" />
		<tag k="ssr:gml_nr" v="0" />
	</node>
	<node id="-52235" lat="58.0632472202" lon="7.50318611738">
		<tag k="ssr:gml_id" v="GEOMETRY_48c428bd-8a7c-4117-8b16-9c19b0e94beb" />
		<tag k="ssr:gml_nr" v="3" />
	</node>
	<node id="-52234" lat="58.063241666" lon="7.50318055278">
		<tag k="ssr:gml_id" v="GEOMETRY_324ad709-2df1-4573-bf70-218391d173de" />
		<tag k="ssr:gml_nr" v="2" />
	</node>
	<node id="-52233" lat="58.0632444476" lon="7.50318333489">
		<tag k="ssr:gml_id" v="GEOMETRY_a88eb89d-179e-496b-934c-9acc588b7b68" />
		<tag k="ssr:gml_nr" v="1" />
	</node>
	<node id="-52232" lat="58.0632749974" lon="7.50329167416">
		<tag k="ssr:gml_id" v="GEOMETRY_8c366337-4cdf-455d-920a-d2cf5041222b" />
		<tag k="ssr:gml_nr" v="0" />
	</node>
	<node id="-52228" lat="58.0442042359" lon="7.35817050821">
		<tag k="fixme" v="consider place=farm" />
		<tag k="name" v="Haddeland" />
		<tag k="place" v="hamlet" />
		<tag k="ssr:date" v="2017-08-29" />
		<tag k="ssr:stedsnr" v="728878" />
	</node>
	<node id="-52224" lat="58.1156527774" lon="7.5318111064">
		<tag k="ssr:gml_id" v="GEOMETRY_d42cd92e-af61-4717-916b-82e3109b7c99" />
		<tag k="ssr:gml_nr" v="2" />
	</node>
	<node id="-52223" lat="58.1156555533" lon="7.53181111107">
		<tag k="ssr:gml_id" v="GEOMETRY_2f817ee5-0136-4f53-8eca-487e8b433071" />
		<tag k="ssr:gml_nr" v="1" />
	</node>
	<node id="-52222" lat="58.1167611128" lon="7.5372388916">
		<tag k="ssr:gml_id" v="GEOMETRY_67c8726c-b2db-4abd-9389-684fece75ef1" />
		<tag k="ssr:gml_nr" v="0" />
	</node>
	<node id="-52221" lat="58.1098166649" lon="7.57796110334">
		<tag k="ssr:gml_id" v="GEOMETRY_0380c457-3c51-43a2-ba7a-251051f82142" />
		<tag k="ssr:gml_nr" v="1" />
	</node>
	<node id="-52220" lat="58.1098138892" lon="7.57796111204">
		<tag k="ssr:gml_id" v="GEOMETRY_d3df497c-3357-4d8f-9602-22fdd6450fc6" />
		<tag k="ssr:gml_nr" v="0" />
	</node>
	<node id="-52219" lat="58.0991749998" lon="7.56501389501">
		<tag k="ssr:gml_id" v="GEOMETRY_b75c653e-bfbb-45ae-b43d-6d0b4ee331dc" />
		<tag k="ssr:gml_nr" v="3" />
	</node>
	<node id="-52218" lat="58.0996138933" lon="7.56160278224">
		<tag k="ssr:gml_id" v="GEOMETRY_4749ff58-c262-4ffa-9dcb-ca3ae5d0e4f2" />
		<tag k="ssr:gml_nr" v="2" />
	</node>
	<node id="-52217" lat="58.0996166645" lon="7.56160555511">
		<tag k="ssr:gml_id" v="GEOMETRY_77bb7716-4c99-438c-b968-7e42193a409d" />
		<tag k="ssr:gml_nr" v="1" />
	</node>
	<node id="-52216" lat="58.0997805561" lon="7.56490554772">
		<tag k="ssr:gml_id" v="GEOMETRY_8898587b-cfab-42c1-96b8-594ccc3af0ed" />
		<tag k="ssr:gml_nr" v="0" />
	</node>
	<node id="-50162" lat="58.0549222194" lon="7.57530000756">
		<tag k="ssr:gml_id" v="GEOMETRY_6c979c8c-00ef-4892-ba43-23b299e1657b" />
		<tag k="ssr:gml_nr" v="4" />
	</node>
	<node id="-50161" lat="58.056225" lon="7.57404722778">
		<tag k="ssr:gml_id" v="GEOMETRY_3c354d7d-3dca-497c-87d5-55f597c57f39" />
		<tag k="ssr:gml_nr" v="3" />
	</node>
	<node id="-50160" lat="58.0549166678" lon="7.57530000828">
		<tag k="ssr:gml_id" v="GEOMETRY_c25e797b-220d-49d2-a32a-65541be1f6d7" />
		<tag k="ssr:gml_nr" v="2" />
	</node>
	<node id="-50159" lat="58.0549194435" lon="7.57529999945">
		<tag k="ssr:gml_id" v="GEOMETRY_6d75eca3-e127-4027-acdd-061a54ca1d9e" />
		<tag k="ssr:gml_nr" v="1" />
	</node>
	<node id="-50158" lat="58.0565805518" lon="7.57068611688">
		<tag k="ssr:gml_id" v="GEOMETRY_3f0f05ac-403e-4be8-b15a-9545571b8bd8" />
		<tag k="ssr:gml_nr" v="0" />
	</node>
	<node id="-50154" lat="58.0550250031" lon="7.62821389182">
		<tag k="ssr:gml_id" v="GEOMETRY_b6d5babb-7a29-49fb-8acd-97f0d166bd44" />
		<tag k="ssr:gml_nr" v="2" />
	</node>
	<node id="-50153" lat="58.0550249971" lon="7.62821667119">
		<tag k="ssr:gml_id" v="GEOMETRY_7ac0137b-52bb-4403-bac8-3fcefad443ed" />
		<tag k="ssr:gml_nr" v="1" />
	</node>
	<node id="-50152" lat="58.0559944434" lon="7.62710278314">
		<tag k="ssr:gml_id" v="GEOMETRY_16ea0155-2ee9-4338-b4f7-c43bd6bbd2f9" />
		<tag k="ssr:gml_nr" v="0" />
	</node>
	<node id="-50151" lat="58.0468472216" lon="7.63608333406">
		<tag k="ssr:gml_id" v="GEOMETRY_6f7206f3-7849-4999-9596-9260a828c38a" />
		<tag k="ssr:gml_nr" v="3" />
	</node>
	<node id="-50150" lat="58.0464138922" lon="7.63408611567">
		<tag k="ssr:gml_id" v="GEOMETRY_51a04d98-c5c3-4992-8cd3-75ba357baa58" />
		<tag k="ssr:gml_nr" v="2" />
	</node>
	<node id="-50149" lat="58.0464166679" lon="7.63408611141">
		<tag k="ssr:gml_id" v="GEOMETRY_d8f137e3-5ffc-4ab2-a387-eec138874d8f" />
		<tag k="ssr:gml_nr" v="1" />
	</node>
	<node id="-50148" lat="58.0459083295" lon="7.63429444018">
		<tag k="ssr:gml_id" v="GEOMETRY_7e763bdd-b73a-4cf9-bd2c-39f98730b6de" />
		<tag k="ssr:gml_nr" v="0" />
	</node>
	<node id="-52190" lat="57.9938805532" lon="7.53331943789">
		<tag k="name" v="Berge" />
		<tag k="place" v="hamlet" />
		<tag k="ssr:date" v="2016-05-11" />
		<tag k="ssr:stedsnr" v="728037" />
	</node>
	<node id="-50139" lat="58.0336277742" lon="7.47698611626">
		<tag k="ssr:gml_id" v="GEOMETRY_5b9242b7-8681-44a4-ba54-6f3d543fda5d" />
		<tag k="ssr:gml_nr" v="2" />
	</node>
	<node id="-50138" lat="58.0315444445" lon="7.47307499362">
		<tag k="ssr:gml_id" v="GEOMETRY_ad17a400-d30c-4f95-8608-069eb8666060" />
		<tag k="ssr:gml_nr" v="1" />
	</node>
	<node id="-50137" lat="58.0336305542" lon="7.47711110681">
		<tag k="ssr:gml_id" v="GEOMETRY_7502b011-6488-4753-a38a-2ff5a53703fc" />
		<tag k="ssr:gml_nr" v="0" />
	</node>
	<node id="-52181" lat="58.0341138861" lon="7.49090556178">
		<tag k="name" v="Nedre Ime" />
		<tag k="place" v="farm" />
		<tag k="ssr:date" v="2016-05-11" />
		<tag k="ssr:stedsnr" v="725276" />
	</node>
	<node id="-50124" lat="58.0777361135" lon="7.60108055217">
		<tag k="ssr:gml_id" v="GEOMETRY_1a65bb84-4ccb-4ac8-98ad-75f7ce67356c" />
		<tag k="ssr:gml_nr" v="3" />
	</node>
	<node id="-50123" lat="58.0777305549" lon="7.60107500434">
		<tag k="ssr:gml_id" v="GEOMETRY_23674472-e5c6-4ba8-893d-097581a03c34" />
		<tag k="ssr:gml_nr" v="2" />
	</node>
	<node id="-50122" lat="58.0777333342" lon="7.60107777825">
		<tag k="ssr:gml_id" v="GEOMETRY_e7d03aa0-76d9-4bce-88f9-20ba5c70dd28" />
		<tag k="ssr:gml_nr" v="1" />
	</node>
	<node id="-50121" lat="58.0787944468" lon="7.60251666813">
		<tag k="ssr:gml_id" v="GEOMETRY_73f074e6-a260-4a76-ad51-d57d5880afd4" />
		<tag k="ssr:gml_nr" v="0" />
	</node>
	<node id="-50111" lat="58.1018527753" lon="7.53838889008">
		<tag k="ssr:gml_id" v="GEOMETRY_024c4286-3cca-479b-81f2-2162ee0af8b5" />
		<tag k="ssr:gml_nr" v="2" />
	</node>
	<node id="-50110" lat="58.1018500037" lon="7.53838611885">
		<tag k="ssr:gml_id" v="GEOMETRY_a8019c46-403d-4904-bd0b-8e339a8530cb" />
		<tag k="ssr:gml_nr" v="1" />
	</node>
	<node id="-50109" lat="58.103925001" lon="7.5365444438">
		<tag k="ssr:gml_id" v="GEOMETRY_f2addc62-17c5-48d8-8235-68b83598af30" />
		<tag k="ssr:gml_nr" v="0" />
	</node>
	<node id="-50099" lat="58.0897111129" lon="7.47081111813">
		<tag k="ssr:gml_id" v="GEOMETRY_25dddea3-2f74-492b-aeb3-fa968f93763f" />
		<tag k="ssr:gml_nr" v="1" />
	</node>
	<node id="-50098" lat="58.0903722178" lon="7.46981388719">
		<tag k="ssr:gml_id" v="GEOMETRY_1889e989-3c54-4c14-b6d9-733344d59ffd" />
		<tag k="ssr:gml_nr" v="0" />
	</node>
	<node id="-50430" lat="58.0387805557" lon="7.43729999638">
		<tag k="ssr:gml_id" v="GEOMETRY_6e641306-c40a-408d-b4d7-4f99fcab8b16" />
		<tag k="ssr:gml_nr" v="2" />
	</node>
	<node id="-50094" lat="58.0187166653" lon="7.64478888066">
		<tag k="ssr:gml_id" v="GEOMETRY_ea018250-1234-4aca-9f5e-e682208631e6" />
		<tag k="ssr:gml_nr" v="2" />
	</node>
	<node id="-50093" lat="58.0187194438" lon="7.64479167041">
		<tag k="ssr:gml_id" v="GEOMETRY_1a645885-74fb-4e98-af10-08de6adcd2fc" />
		<tag k="ssr:gml_nr" v="1" />
	</node>
	<node id="-50092" lat="58.0194111098" lon="7.64471667366">
		<tag k="ssr:gml_id" v="GEOMETRY_0168ba36-4833-4492-80fb-a044332a6c6f" />
		<tag k="ssr:gml_nr" v="0" />
	</node>
	<node id="-50076" lat="57.9939472257" lon="7.50279722303">
		<tag k="alt_name" v="Dyrestad" />
		<tag k="name" v="Dyrstad" />
		<tag k="place" v="hamlet" />
		<tag k="ssr:date" v="2016-05-10" />
		<tag k="ssr:stedsnr" v="121045" />
	</node>
	<node id="-50062" lat="58.0203027762" lon="7.40284167108">
		<tag k="landuse" v="residential" />
		<tag k="name" v="Nesehaven" />
		<tag k="place" v="neighbourhood" />
		<tag k="ssr:date" v="2016-05-10" />
		<tag k="ssr:stedsnr" v="87812" />
	</node>
	<node id="-50427" lat="58.0413777774" lon="7.55394999807">
		<tag k="ssr:gml_id" v="GEOMETRY_7df4ec0d-ec1e-4630-8f71-7937e1128638" />
		<tag k="ssr:gml_nr" v="2" />
	</node>
	<node id="-50032" lat="58.0433222252" lon="7.42135832858">
		<tag k="name" v="Mones" />
		<tag k="place" v="farm" />
		<tag k="ssr:date" v="2016-05-10" />
		<tag k="ssr:stedsnr" v="87176" />
	</node>
	<node id="-50426" lat="58.0414250021" lon="7.55184999791">
		<tag k="ssr:gml_id" v="GEOMETRY_65b53e9f-30a7-4e98-8c1f-0efac813415e" />
		<tag k="ssr:gml_nr" v="1" />
	</node>
	<node id="-50028" lat="58.0574111073" lon="7.44052500562">
		<tag k="leisure" v="pitch" />
		<tag k="name" v="Løkkebakken" />
		<tag k="ssr:date" v="2016-05-10" />
		<tag k="ssr:stedsnr" v="87130" />
	</node>
	<node id="-52068" lat="58.0028111088" lon="7.51320555676">
		<tag k="name" v="Skjernøysund" />
		<tag k="place" v="hamlet" />
		<tag k="ssr:date" v="2016-05-11" />
		<tag k="ssr:stedsnr" v="692755" />
	</node>
	<node id="-50019" lat="58.0319666698" lon="7.33970000237">
		<tag k="ssr:gml_id" v="GEOMETRY_404ab644-01b3-4c5e-8081-ac3245a7c687" />
		<tag k="ssr:gml_nr" v="0" />
	</node>
	<node id="-51685" lat="58.0611916676" lon="7.39801110687">
		<tag k="ssr:gml_id" v="GEOMETRY_5346a662-1f64-4776-a756-d256036d73f4" />
		<tag k="ssr:gml_nr" v="0" />
	</node>
	<node id="-49292" lat="58.0522916676" lon="7.48174999151">
		<tag k="ssr:gml_id" v="GEOMETRY_372b26e6-f31f-4a19-88b1-d12f65ea5b37" />
		<tag k="ssr:gml_nr" v="1" />
	</node>
	<node id="-52016" lat="57.9935527734" lon="7.54117777366">
		<tag k="name" v="Bergenes" />
		<tag k="place" v="farm" />
		<tag k="ssr:date" v="2016-05-11" />
		<tag k="ssr:stedsnr" v="691333" />
	</node>
	<node id="-52015" lat="58.0886972235" lon="7.50851111595">
		<tag k="ssr:gml_id" v="GEOMETRY_1b3be975-90e2-4f0b-9d72-8126cc461853" />
		<tag k="ssr:gml_nr" v="2" />
	</node>
	<node id="-52014" lat="58.0886944476" lon="7.50851111306">
		<tag k="ssr:gml_id" v="GEOMETRY_8b4fba32-eecc-405d-bdce-aa8de08bcb14" />
		<tag k="ssr:gml_nr" v="1" />
	</node>
	<node id="-52013" lat="58.0886916661" lon="7.50850832858">
		<tag k="ssr:gml_id" v="GEOMETRY_3f14c833-eeee-4b12-96b2-c1302825e1cc" />
		<tag k="ssr:gml_nr" v="0" />
	</node>
	<node id="-52012" lat="58.0995083306" lon="7.59987222594">
		<tag k="ssr:gml_id" v="GEOMETRY_7d9b7bb4-88b3-4e0d-b466-68afc3638016" />
		<tag k="ssr:gml_nr" v="3" />
	</node>
	<node id="-52011" lat="58.0995027809" lon="7.59986667461">
		<tag k="ssr:gml_id" v="GEOMETRY_7b5866b7-8cf4-467e-83d4-e54615f654a7" />
		<tag k="ssr:gml_nr" v="2" />
	</node>
	<node id="-52010" lat="58.0995055513" lon="7.59986945045">
		<tag k="ssr:gml_id" v="GEOMETRY_f9f3e0e1-e41b-404d-a52a-b3c2ade2bd1e" />
		<tag k="ssr:gml_nr" v="1" />
	</node>
	<node id="-52009" lat="58.0994055566" lon="7.60023056115">
		<tag k="ssr:gml_id" v="GEOMETRY_80542a92-0c01-44ae-985a-6e3269b81c30" />
		<tag k="ssr:gml_nr" v="0" />
	</node>
	<node id="-52008" lat="58.0419611069" lon="7.35041111828">
		<tag k="ssr:gml_id" v="GEOMETRY_6c13214d-6444-421b-aebc-c070f89ab488" />
		<tag k="ssr:gml_nr" v="3" />
	</node>
	<node id="-52007" lat="58.0402472248" lon="7.34897223042">
		<tag k="ssr:gml_id" v="GEOMETRY_9efadefa-5b5a-46b2-be74-1e117f6c296f" />
		<tag k="ssr:gml_nr" v="2" />
	</node>
	<node id="-52006" lat="58.0404277774" lon="7.34844166064">
		<tag k="ssr:gml_id" v="GEOMETRY_149ad4e1-65cc-4ec8-ab9a-d8eeec3f4faf" />
		<tag k="ssr:gml_nr" v="1" />
	</node>
	<node id="-52005" lat="58.0404250015" lon="7.34843889194">
		<tag k="ssr:gml_id" v="GEOMETRY_83d7f3d7-8dca-4dcb-ada0-2761f8c3b2a7" />
		<tag k="ssr:gml_nr" v="0" />
	</node>
	<node id="-49951" lat="58.0487750001" lon="7.33668332848">
		<tag k="name" v="Aukland" />
		<tag k="place" v="locality" />
		<tag k="ssr:date" v="2016-05-10" />
		<tag k="ssr:stedsnr" v="85750" />
	</node>
	<node id="-51997" lat="58.0282527797" lon="7.47607500081">
		<tag k="ssr:gml_id" v="GEOMETRY_6317a713-223e-4308-97b6-538bcb814a1f" />
		<tag k="ssr:gml_nr" v="1" />
	</node>
	<node id="-51996" lat="58.0281694408" lon="7.47444166043">
		<tag k="ssr:gml_id" v="GEOMETRY_59cd89dc-c3fc-404a-8784-57aa39187f59" />
		<tag k="ssr:gml_nr" v="0" />
	</node>
	<node id="-51995" lat="58.0283861109" lon="7.4069361177">
		<tag k="ssr:gml_id" v="GEOMETRY_22fa9683-cc44-495a-a842-4f9d36b981d8" />
		<tag k="ssr:gml_nr" v="2" />
	</node>
	<node id="-51994" lat="58.0269694459" lon="7.41421666958">
		<tag k="ssr:gml_id" v="GEOMETRY_12e58d4c-6bae-4ad9-8673-7e38e2ba5d1e" />
		<tag k="ssr:gml_nr" v="1" />
	</node>
	<node id="-51993" lat="58.0268611119" lon="7.41115000591">
		<tag k="ssr:gml_id" v="GEOMETRY_06b8f0f2-6124-46f6-babf-8dd04973b500" />
		<tag k="ssr:gml_nr" v="0" />
	</node>
	<node id="-51992" lat="58.0284055561" lon="7.66252777607">
		<tag k="ssr:gml_id" v="GEOMETRY_945e7c77-a18e-4e28-9441-e5776a010ce5" />
		<tag k="ssr:gml_nr" v="3" />
	</node>
	<node id="-51991" lat="58.0284000024" lon="7.66252500316">
		<tag k="ssr:gml_id" v="GEOMETRY_efb920c8-049a-459e-9e93-bec284367d5d" />
		<tag k="ssr:gml_nr" v="2" />
	</node>
	<node id="-51990" lat="58.0284027782" lon="7.66252500113">
		<tag k="ssr:gml_id" v="GEOMETRY_b39bb95f-29fb-4dca-8139-339c8e741b89" />
		<tag k="ssr:gml_nr" v="1" />
	</node>
	<node id="-51989" lat="58.0266972227" lon="7.67071389731">
		<tag k="ssr:gml_id" v="GEOMETRY_5f6cc418-4515-4c22-983a-b78613f96368" />
		<tag k="ssr:gml_nr" v="0" />
	</node>
	<node id="-51986" lat="58.0763861095" lon="7.44932777031">
		<tag k="ssr:gml_id" v="GEOMETRY_10f5d89f-91f3-4cbe-af6c-78df23d91941" />
		<tag k="ssr:gml_nr" v="2" />
	</node>
	<node id="-51985" lat="58.0764083319" lon="7.44931944732">
		<tag k="ssr:gml_id" v="GEOMETRY_7bdfec27-e3c0-4a21-a29e-38907caa3f4d" />
		<tag k="ssr:gml_nr" v="1" />
	</node>
	<node id="-51984" lat="58.0764055582" lon="7.44931666802">
		<tag k="ssr:gml_id" v="GEOMETRY_62c25c0c-1e2d-42fe-bacd-365985dd044f" />
		<tag k="ssr:gml_nr" v="0" />
	</node>
	<node id="-51980" lat="58.0803611109" lon="7.57787499772">
		<tag k="ssr:gml_id" v="GEOMETRY_075e3d10-ea02-4f29-89b4-51cb5bdb3e50" />
		<tag k="ssr:gml_nr" v="2" />
	</node>
	<node id="-51979" lat="58.0803611149" lon="7.57787777869">
		<tag k="ssr:gml_id" v="GEOMETRY_23b40ecb-8dd0-444f-a5ae-51e70abd2c90" />
		<tag k="ssr:gml_nr" v="1" />
	</node>
	<node id="-51978" lat="58.0800416636" lon="7.57762499169">
		<tag k="ssr:gml_id" v="GEOMETRY_d273e532-040b-4d24-9038-3f1d51b11a55" />
		<tag k="ssr:gml_nr" v="0" />
	</node>
	<node id="-51977" lat="58.0688027738" lon="7.41623054871">
		<tag k="ssr:gml_id" v="GEOMETRY_6000b845-e472-44da-a85f-467f46859228" />
		<tag k="ssr:gml_nr" v="2" />
	</node>
	<node id="-51976" lat="58.0688055575" lon="7.41623334139">
		<tag k="ssr:gml_id" v="GEOMETRY_01d1f4d1-c64f-41fb-a1ca-007f8de02e3b" />
		<tag k="ssr:gml_nr" v="1" />
	</node>
	<node id="-51975" lat="58.0683972186" lon="7.41624165853">
		<tag k="ssr:gml_id" v="GEOMETRY_6d99aec2-e749-4607-8bef-db393b4db848" />
		<tag k="ssr:gml_nr" v="0" />
	</node>
	<node id="-51974" lat="58.060544441" lon="7.50947499769">
		<tag k="ssr:gml_id" v="GEOMETRY_4ee2055a-4ca9-4b7f-980e-39c0171d94c7" />
		<tag k="ssr:gml_nr" v="2" />
	</node>
	<node id="-51973" lat="58.0607805579" lon="7.50970832929">
		<tag k="ssr:gml_id" v="GEOMETRY_b743d347-138d-4a77-b75f-a20d4192b13e" />
		<tag k="ssr:gml_nr" v="1" />
	</node>
	<node id="-51972" lat="58.0607777766" lon="7.5097055638">
		<tag k="ssr:gml_id" v="GEOMETRY_b4b12742-4968-436e-83d8-7e680df5e701" />
		<tag k="ssr:gml_nr" v="0" />
	</node>
	<node id="-51971" lat="58.0529250015" lon="7.35202778285">
		<tag k="ssr:gml_id" v="GEOMETRY_e33e0167-6374-475f-91e0-652148bc2994" />
		<tag k="ssr:gml_nr" v="2" />
	</node>
	<node id="-51970" lat="58.0527666666" lon="7.3523000056">
		<tag k="ssr:gml_id" v="GEOMETRY_de29f4e0-d5e3-4c17-9d4b-414ee2b4ad15" />
		<tag k="ssr:gml_nr" v="1" />
	</node>
	<node id="-51969" lat="58.0527638906" lon="7.35229999785">
		<tag k="ssr:gml_id" v="GEOMETRY_c769f2ca-c904-4822-baeb-ece9983f477c" />
		<tag k="ssr:gml_nr" v="0" />
	</node>
	<node id="-51968" lat="58.0484138848" lon="7.35403888454">
		<tag k="ssr:gml_id" v="GEOMETRY_f7c02340-9d1e-4f21-8551-4741a5c9e7bb" />
		<tag k="ssr:gml_nr" v="2" />
	</node>
	<node id="-51967" lat="58.0494111138" lon="7.35199444925">
		<tag k="ssr:gml_id" v="GEOMETRY_dd557f41-1e5c-43f2-bfd6-75c4f45160b4" />
		<tag k="ssr:gml_nr" v="1" />
	</node>
	<node id="-51966" lat="58.0494083378" lon="7.35199166266">
		<tag k="ssr:gml_id" v="GEOMETRY_189086c0-7d46-4f94-96f3-5f64f3db91b7" />
		<tag k="ssr:gml_nr" v="0" />
	</node>
	<node id="-51965" lat="58.109836109" lon="7.45229722527">
		<tag k="ssr:gml_id" v="GEOMETRY_cc466277-2109-412c-b5bb-383678b61bae" />
		<tag k="ssr:gml_nr" v="1" />
	</node>
	<node id="-51964" lat="58.110061107" lon="7.45237500116">
		<tag k="ssr:gml_id" v="GEOMETRY_3939529e-841c-4ee0-a123-21b5080d29a8" />
		<tag k="ssr:gml_nr" v="0" />
	</node>
	<node id="-51963" lat="58.1070638888" lon="7.47241943731">
		<tag k="ssr:gml_id" v="GEOMETRY_3d88a938-5dbb-424a-8eb8-785aaed3e8e8" />
		<tag k="ssr:gml_nr" v="2" />
	</node>
	<node id="-51962" lat="58.107494441" lon="7.47419167046">
		<tag k="ssr:gml_id" v="GEOMETRY_e0c081df-c24b-4f32-80f2-91b2b4dcb25e" />
		<tag k="ssr:gml_nr" v="1" />
	</node>
	<node id="-51961" lat="58.1074916678" lon="7.47418888684">
		<tag k="ssr:gml_id" v="GEOMETRY_4ae4745d-b78c-46dc-bb71-679d8c3fc9bd" />
		<tag k="ssr:gml_nr" v="0" />
	</node>
	<node id="-51960" lat="58.1162555571" lon="7.52153611852">
		<tag k="ssr:gml_id" v="GEOMETRY_4e0f2bb3-1dd2-40cc-bd13-327e0a19e213" />
		<tag k="ssr:gml_nr" v="3" />
	</node>
	<node id="-51959" lat="58.1162500039" lon="7.5215305599">
		<tag k="ssr:gml_id" v="GEOMETRY_d03fdd01-c56b-4f89-8472-c275a3fb5133" />
		<tag k="ssr:gml_nr" v="2" />
	</node>
	<node id="-51958" lat="58.1162527759" lon="7.52153333091">
		<tag k="ssr:gml_id" v="GEOMETRY_bc5882d6-2f9c-4676-aff9-83ce54378592" />
		<tag k="ssr:gml_nr" v="1" />
	</node>
	<node id="-51957" lat="58.1161777781" lon="7.52247500336">
		<tag k="ssr:gml_id" v="GEOMETRY_6f22d55c-38d8-4b15-a66e-bf2b993be225" />
		<tag k="ssr:gml_nr" v="0" />
	</node>
	<node id="-51956" lat="58.1320555554" lon="7.53210832703">
		<tag k="ssr:gml_id" v="GEOMETRY_c01d1250-30be-42d2-b8c5-5b2413eb0529" />
		<tag k="ssr:gml_nr" v="3" />
	</node>
	<node id="-51955" lat="58.1320500029" lon="7.53210278131">
		<tag k="ssr:gml_id" v="GEOMETRY_34f946e9-7ca5-434c-8d97-a17360fc2b58" />
		<tag k="ssr:gml_nr" v="2" />
	</node>
	<node id="-51954" lat="58.1320527747" lon="7.53210555435">
		<tag k="ssr:gml_id" v="GEOMETRY_4742e6a9-c3c3-4c27-aaf1-87bd5b5c1b7c" />
		<tag k="ssr:gml_nr" v="1" />
	</node>
	<node id="-51953" lat="58.1307277798" lon="7.52988055776">
		<tag k="ssr:gml_id" v="GEOMETRY_1781742b-d421-49ba-9e01-aae43dc351eb" />
		<tag k="ssr:gml_nr" v="0" />
	</node>
	<node id="-51952" lat="58.1409138925" lon="7.539841668">
		<tag k="ssr:gml_id" v="GEOMETRY_f832d2a9-afa8-436d-af84-678b3c81890a" />
		<tag k="ssr:gml_nr" v="2" />
	</node>
	<node id="-51951" lat="58.1409166642" lon="7.53984444233">
		<tag k="ssr:gml_id" v="GEOMETRY_ae28e8e9-ee4d-434d-ad5f-fae965fe8ef9" />
		<tag k="ssr:gml_nr" v="1" />
	</node>
	<node id="-51950" lat="58.1402083309" lon="7.53878610385">
		<tag k="ssr:gml_id" v="GEOMETRY_a39ed553-cd29-4df4-a4f4-e657cafc2cb6" />
		<tag k="ssr:gml_nr" v="0" />
	</node>
	<node id="-49882" lat="58.0208916639" lon="7.52635555812">
		<tag k="ssr:gml_id" v="GEOMETRY_3251fb33-5cec-48f9-a2e7-010e7caa343f" />
		<tag k="ssr:gml_nr" v="3" />
	</node>
	<node id="-51929" lat="57.9879166665" lon="7.5363916587">
		<tag k="ssr:gml_id" v="GEOMETRY_4f40f97c-4b76-45aa-a874-19ba11fdc5ef" />
		<tag k="ssr:gml_nr" v="1" />
	</node>
	<node id="-51928" lat="57.9879250021" lon="7.53638610899">
		<tag k="ssr:gml_id" v="GEOMETRY_fdfccf46-d1fb-4098-af4b-651e833ddc2e" />
		<tag k="ssr:gml_nr" v="0" />
	</node>
	<node id="-49879" lat="58.0215361091" lon="7.52481389677">
		<tag k="ssr:gml_id" v="GEOMETRY_5b0134b1-970b-4c57-be07-0d548182fd05" />
		<tag k="ssr:gml_nr" v="0" />
	</node>
	<node id="-49878" lat="58.0180944473" lon="7.4099583356">
		<tag k="ssr:gml_id" v="GEOMETRY_899808d0-457e-4e27-a570-2be33c6333dd" />
		<tag k="ssr:gml_nr" v="5" />
	</node>
	<node id="-49877" lat="58.0196972218" lon="7.40952499883">
		<tag k="ssr:gml_id" v="GEOMETRY_b938f064-c167-4fee-9e6a-a5cc3b5724a6" />
		<tag k="ssr:gml_nr" v="4" />
	</node>
	<node id="-49876" lat="58.021349999" lon="7.41445555795">
		<tag k="ssr:gml_id" v="GEOMETRY_7758b6f2-990b-40be-abf4-62860027a588" />
		<tag k="ssr:gml_nr" v="3" />
	</node>
	<node id="-49875" lat="58.0183833306" lon="7.41494166061">
		<tag k="ssr:gml_id" v="GEOMETRY_18e8421e-d379-4235-915e-84cc77d19a8b" />
		<tag k="ssr:gml_nr" v="2" />
	</node>
	<node id="-49874" lat="58.019333334" lon="7.41878888729">
		<tag k="ssr:gml_id" v="GEOMETRY_194210e1-da07-4b8d-bd6a-658fcf25e63c" />
		<tag k="ssr:gml_nr" v="1" />
	</node>
	<node id="-49873" lat="58.0208027762" lon="7.41346944469">
		<tag k="ssr:gml_id" v="GEOMETRY_0745cc57-e892-47fd-80f8-6cc6f604049e" />
		<tag k="ssr:gml_nr" v="0" />
	</node>
	<node id="-49872" lat="58.0207555531" lon="7.62791666187">
		<tag k="ssr:gml_id" v="GEOMETRY_35a5a777-284a-4c08-884d-8e26c4829cfb" />
		<tag k="ssr:gml_nr" v="2" />
	</node>
	<node id="-49871" lat="58.020758332" lon="7.62791945046">
		<tag k="ssr:gml_id" v="GEOMETRY_9e1da616-96df-4b07-839b-1eaec2d35b96" />
		<tag k="ssr:gml_nr" v="1" />
	</node>
	<node id="-49870" lat="58.0214833374" lon="7.63051111512">
		<tag k="ssr:gml_id" v="GEOMETRY_50acf554-8e61-4aea-aeb6-52754b971a6e" />
		<tag k="ssr:gml_nr" v="0" />
	</node>
	<node id="-51916" lat="58.0249583311" lon="7.45840834018">
		<tag k="ssr:gml_id" v="GEOMETRY_dad42683-68f3-4b2a-99f3-b1069cc748ee" />
		<tag k="ssr:gml_nr" v="1" />
	</node>
	<node id="-51915" lat="58.024941664" lon="7.45844444586">
		<tag k="ssr:gml_id" v="GEOMETRY_e240401e-25cb-4592-8e7f-da82c32f7b3f" />
		<tag k="ssr:gml_nr" v="0" />
	</node>
	<node id="-49853" lat="58.0495027742" lon="7.44796111441">
		<tag k="ssr:gml_id" v="GEOMETRY_a8d195d2-b4af-4811-9a2a-bf8fdc887f6f" />
		<tag k="ssr:gml_nr" v="2" />
	</node>
	<node id="-49852" lat="58.049505559" lon="7.44796111226">
		<tag k="ssr:gml_id" v="GEOMETRY_c1627b26-9c6a-4925-8bd0-2bf26941f7d7" />
		<tag k="ssr:gml_nr" v="1" />
	</node>
	<node id="-49851" lat="58.0487833299" lon="7.4443277778">
		<tag k="ssr:gml_id" v="GEOMETRY_47119d56-39e0-413f-98a8-385f97f83381" />
		<tag k="ssr:gml_nr" v="0" />
	</node>
	<node id="-49844" lat="58.0858555522" lon="7.52173610796">
		<tag k="ssr:gml_id" v="GEOMETRY_811efa4f-bd17-4866-af34-6b80ded58df0" />
		<tag k="ssr:gml_nr" v="2" />
	</node>
	<node id="-49843" lat="58.0860361078" lon="7.52246111893">
		<tag k="ssr:gml_id" v="GEOMETRY_59bb4c8b-bacc-4b9d-8e3d-6e689fdcc14e" />
		<tag k="ssr:gml_nr" v="1" />
	</node>
	<node id="-49842" lat="58.0858583371" lon="7.52173611151">
		<tag k="ssr:gml_id" v="GEOMETRY_356c83a7-31ef-415c-a025-477d8daa4dab" />
		<tag k="ssr:gml_nr" v="0" />
	</node>
	<node id="-51887" lat="58.0378611077" lon="7.37142778518">
		<tag k="name" v="Bruvollen" />
		<tag k="place" v="farm" />
		<tag k="ssr:date" v="2016-05-10" />
		<tag k="ssr:stedsnr" v="632820" />
	</node>
	<node id="-49833" lat="58.0269166654" lon="7.62790000132">
		<tag k="ssr:gml_id" v="GEOMETRY_61cf72d1-48df-4bb9-8327-9e66550a0643" />
		<tag k="ssr:gml_nr" v="1" />
	</node>
	<node id="-49832" lat="58.0271944452" lon="7.62777777524">
		<tag k="ssr:gml_id" v="GEOMETRY_7f86aec9-f64b-4d5a-9bf4-811483eff374" />
		<tag k="ssr:gml_nr" v="0" />
	</node>
	<node id="-50972" lat="58.0776222254" lon="7.60778611536">
		<tag k="name" v="Austre Vatne" />
		<tag k="place" v="hamlet" />
		<tag k="ssr:date" v="2016-05-10" />
		<tag k="ssr:stedsnr" v="449921" />
	</node>
	<node id="-51860" lat="58.0212083335" lon="7.62761943841">
		<tag k="name" v="Strømmen" />
		<tag k="place" v="hamlet" />
		<tag k="ssr:date" v="2016-05-10" />
		<tag k="ssr:stedsnr" v="632309" />
	</node>
	<node id="-51857" lat="58.0432972195" lon="7.55099166175">
		<tag k="fixme" v="consider place=farm" />
		<tag k="name" v="Ro" />
		<tag k="place" v="hamlet" />
		<tag k="ssr:date" v="2017-08-29" />
		<tag k="ssr:stedsnr" v="632269" />
	</node>
	<node id="-51819" lat="58.0745861106" lon="7.57966389576">
		<tag k="name" v="Øygarden" />
		<tag k="place" v="locality" />
		<tag k="ssr:date" v="2016-05-10" />
		<tag k="ssr:stedsnr" v="631985" />
	</node>
	<node id="-50620" lat="58.0819138888" lon="7.42676111642">
		<tag k="ssr:gml_id" v="GEOMETRY_f2456aba-d843-4bfe-a300-13bd641434fe" />
		<tag k="ssr:gml_nr" v="0" />
	</node>
	<node id="-51810" lat="58.1248805547" lon="7.52536944293">
		<tag k="name" v="Bakken" />
		<tag k="place" v="farm" />
		<tag k="ssr:date" v="2016-05-10" />
		<tag k="ssr:stedsnr" v="631933" />
	</node>
	<node id="-49744" lat="58.0243722226" lon="7.45013611217">
		<tag k="name" v="Sanden" />
		<tag k="place" v="suburb" />
		<tag k="ssr:date" v="2016-05-10" />
		<tag k="ssr:stedsnr" v="26176" />
	</node>
	<node id="-49249" lat="58.046383335" lon="7.49404166233">
		<tag k="ssr:gml_id" v="GEOMETRY_b17377d7-4d20-4057-b9dc-4a438ffa3e4d" />
		<tag k="ssr:gml_nr" v="2" />
	</node>
	<node id="-51748" lat="58.0963000025" lon="7.44917777615">
		<tag k="name" v="Skaret" />
		<tag k="place" v="farm" />
		<tag k="ssr:date" v="2016-05-10" />
		<tag k="ssr:stedsnr" v="630668" />
	</node>
	<node id="-51745" lat="58.0746166658" lon="7.49931666586">
		<tag k="name" v="Haven" />
		<tag k="place" v="farm" />
		<tag k="ssr:date" v="2016-05-10" />
		<tag k="ssr:stedsnr" v="630617" />
	</node>
	<node id="-49583" lat="58.0585444468" lon="7.44736388707">
		<tag k="ssr:gml_id" v="GEOMETRY_5d6747d9-cafc-455d-8643-f6306d10cd14" />
		<tag k="ssr:gml_nr" v="1" />
	</node>
	<node id="-49687" lat="58.0449222222" lon="7.35403611117">
		<tag k="name" v="Solvang" />
		<tag k="place" v="farm" />
		<tag k="ssr:date" v="2016-05-10" />
		<tag k="ssr:stedsnr" v="24796" />
	</node>
	<node id="-49686" lat="58.0891666685" lon="7.61715556107">
		<tag k="name" v="Klemma" />
		<tag k="place" v="farm" />
		<tag k="ssr:date" v="2016-05-10" />
		<tag k="ssr:stedsnr" v="24790" />
	</node>
	<node id="-49582" lat="58.058541664" lon="7.44736110968">
		<tag k="ssr:gml_id" v="GEOMETRY_628ba7bd-ccef-415f-afd9-89accaec8a38" />
		<tag k="ssr:gml_nr" v="0" />
	</node>
	<node id="-49581" lat="58.0633194443" lon="7.57598333986">
		<tag k="ssr:gml_id" v="GEOMETRY_61e15a52-e6f3-4812-8fbd-05b6d9d8f4de" />
		<tag k="ssr:gml_nr" v="4" />
	</node>
	<node id="-51719" lat="58.088236112" lon="7.44047222279">
		<tag k="ssr:gml_id" v="GEOMETRY_4128d44c-e2c6-4b84-9943-c10788e32922" />
		<tag k="ssr:gml_nr" v="2" />
	</node>
	<node id="-51718" lat="58.0882055523" lon="7.44064999851">
		<tag k="ssr:gml_id" v="GEOMETRY_7238ec9a-fd06-45da-8fd8-d59cc38ef55e" />
		<tag k="ssr:gml_nr" v="1" />
	</node>
	<node id="-51717" lat="58.0882027764" lon="7.44065000089">
		<tag k="ssr:gml_id" v="GEOMETRY_d5d0f703-c265-4d17-8da2-ec3972ad32ed" />
		<tag k="ssr:gml_nr" v="0" />
	</node>
	<node id="-51716" lat="58.0855666708" lon="7.41359443954">
		<tag k="ssr:gml_id" v="GEOMETRY_89f3bbf6-64e5-4bc1-9d04-b6c9cce939ab" />
		<tag k="ssr:gml_nr" v="3" />
	</node>
	<node id="-51715" lat="58.0850027806" lon="7.41412778596">
		<tag k="ssr:gml_id" v="GEOMETRY_69aba1b4-7ef1-4505-abe5-94517c265bf0" />
		<tag k="ssr:gml_nr" v="2" />
	</node>
	<node id="-51714" lat="58.0855638873" lon="7.41359166272">
		<tag k="ssr:gml_id" v="GEOMETRY_32bccb43-2070-4ee5-aac6-1a18553ab47e" />
		<tag k="ssr:gml_nr" v="1" />
	</node>
	<node id="-51713" lat="58.0855611128" lon="7.41358888551">
		<tag k="ssr:gml_id" v="GEOMETRY_e3cdc1e0-ee83-4d5d-9110-9b51da50e313" />
		<tag k="ssr:gml_nr" v="0" />
	</node>
	<node id="-51709" lat="58.0454666641" lon="7.60381110845">
		<tag k="ssr:gml_id" v="GEOMETRY_be319303-63be-43ca-a33c-7e4066f75f8a" />
		<tag k="ssr:gml_nr" v="1" />
	</node>
	<node id="-51708" lat="58.0455444455" lon="7.60457778085">
		<tag k="ssr:gml_id" v="GEOMETRY_3f59b101-c47e-4fa1-b340-3395a13a8fca" />
		<tag k="ssr:gml_nr" v="0" />
	</node>
	<node id="-51707" lat="58.0213305588" lon="7.63458611825">
		<tag k="ssr:gml_id" v="GEOMETRY_be17190a-22df-41b6-929c-cbf27e4f5a86" />
		<tag k="ssr:gml_nr" v="2" />
	</node>
	<node id="-51706" lat="58.0213333345" lon="7.63458611406">
		<tag k="ssr:gml_id" v="GEOMETRY_9465d3bd-014f-45e7-8286-3c08085662ec" />
		<tag k="ssr:gml_nr" v="1" />
	</node>
	<node id="-51705" lat="58.0218555531" lon="7.63461389053">
		<tag k="ssr:gml_id" v="GEOMETRY_29645d5e-d311-403e-83fd-0c5f4c70ce15" />
		<tag k="ssr:gml_nr" v="0" />
	</node>
	<node id="-51700" lat="58.0118416637" lon="7.52989166743">
		<tag k="ssr:gml_id" v="GEOMETRY_e8a88571-deb5-436a-a958-faff408db8eb" />
		<tag k="ssr:gml_nr" v="3" />
	</node>
	<node id="-51699" lat="58.0120305528" lon="7.53030277035">
		<tag k="ssr:gml_id" v="GEOMETRY_eb6f9048-73f5-42e7-92ac-01a5bb1b3f3a" />
		<tag k="ssr:gml_nr" v="2" />
	</node>
	<node id="-51698" lat="58.0118361107" lon="7.52988610653">
		<tag k="ssr:gml_id" v="GEOMETRY_4838bd86-619e-4860-bebf-3f10545ba6fa" />
		<tag k="ssr:gml_nr" v="1" />
	</node>
	<node id="-51697" lat="58.0118388917" lon="7.5298888868">
		<tag k="ssr:gml_id" v="GEOMETRY_543806f9-6cae-4392-bb48-cdfbaa58387f" />
		<tag k="ssr:gml_nr" v="0" />
	</node>
	<node id="-51690" lat="58.0753138894" lon="7.47489444532">
		<tag k="ssr:gml_id" v="GEOMETRY_5e9b2eff-e37b-4d12-bea8-77b2720e72a3" />
		<tag k="ssr:gml_nr" v="2" />
	</node>
	<node id="-51689" lat="58.0750000018" lon="7.47550832801">
		<tag k="ssr:gml_id" v="GEOMETRY_300d74bf-788b-4cc2-bfbd-b1ea506097a9" />
		<tag k="ssr:gml_nr" v="1" />
	</node>
	<node id="-51688" lat="58.0749999955" lon="7.4755055475">
		<tag k="ssr:gml_id" v="GEOMETRY_694ac5d5-f11d-4bf1-9567-cb53d5ac008e" />
		<tag k="ssr:gml_nr" v="0" />
	</node>
	<node id="-51687" lat="58.0614000003" lon="7.39723610579">
		<tag k="ssr:gml_id" v="GEOMETRY_801ef8d0-b568-41e0-b8c8-2d110267ee79" />
		<tag k="ssr:gml_nr" v="2" />
	</node>
	<node id="-51686" lat="58.0611944437" lon="7.39801111816">
		<tag k="ssr:gml_id" v="GEOMETRY_71ff52df-f579-4757-b024-b4fd2286c5de" />
		<tag k="ssr:gml_nr" v="1" />
	</node>
	<node id="-49637" lat="58.0188638877" lon="7.54273056162">
		<tag k="name" v="Lille Fidja" />
		<tag k="place" v="farm" />
		<tag k="ssr:date" v="2016-05-10" />
		<tag k="ssr:stedsnr" v="24376" />
	</node>
	<node id="-51681" lat="58.1443277805" lon="7.47796945154">
		<tag k="ssr:gml_id" v="GEOMETRY_bbb3dd2a-37dc-4e1c-b609-d96f82738094" />
		<tag k="ssr:gml_nr" v="3" />
	</node>
	<node id="-51680" lat="58.1443250012" lon="7.47796389587">
		<tag k="ssr:gml_id" v="GEOMETRY_3ec341b7-a72d-48b9-94e1-9aa834b6d3ea" />
		<tag k="ssr:gml_nr" v="2" />
	</node>
	<node id="-51679" lat="58.1443249983" lon="7.47796666519">
		<tag k="ssr:gml_id" v="GEOMETRY_5740928f-2826-4f34-9c17-307514d9805a" />
		<tag k="ssr:gml_nr" v="1" />
	</node>
	<node id="-51678" lat="58.1416999991" lon="7.47932499159">
		<tag k="ssr:gml_id" v="GEOMETRY_f836b60e-5465-4426-a53e-d27c20da6d0c" />
		<tag k="ssr:gml_nr" v="0" />
	</node>
	<node id="-51673" lat="58.0194638879" lon="7.66133889424">
		<tag k="ssr:gml_id" v="GEOMETRY_8446e6c7-ef8a-4cc5-81ac-5a0974bfc491" />
		<tag k="ssr:gml_nr" v="2" />
	</node>
	<node id="-51672" lat="58.0194611097" lon="7.66133610316">
		<tag k="ssr:gml_id" v="GEOMETRY_7a80ec65-0174-45e2-8b33-2d6109952968" />
		<tag k="ssr:gml_nr" v="1" />
	</node>
	<node id="-51671" lat="58.0192194464" lon="7.66108334132">
		<tag k="ssr:gml_id" v="GEOMETRY_baaa396f-20ec-4aa0-90fd-c9dd47ab116d" />
		<tag k="ssr:gml_nr" v="0" />
	</node>
	<node id="-49614" lat="58.0476055546" lon="7.58462222971">
		<tag k="ssr:gml_id" v="GEOMETRY_1ecc8a05-53e2-4359-b53f-4b2a830cb77b" />
		<tag k="ssr:gml_nr" v="4" />
	</node>
	<node id="-49613" lat="58.0480388844" lon="7.58471666409">
		<tag k="ssr:gml_id" v="GEOMETRY_53c3e121-66fa-440d-bb65-7620e8092eb0" />
		<tag k="ssr:gml_nr" v="3" />
	</node>
	<node id="-49612" lat="58.0476000041" lon="7.58461667175">
		<tag k="ssr:gml_id" v="GEOMETRY_2e727401-8fe7-4042-b5eb-b77e9e8f2fb6" />
		<tag k="ssr:gml_nr" v="2" />
	</node>
	<node id="-49611" lat="58.0476027748" lon="7.58461944244">
		<tag k="ssr:gml_id" v="GEOMETRY_fb81af79-91f4-4436-8b23-29264611eadb" />
		<tag k="ssr:gml_nr" v="1" />
	</node>
	<node id="-49610" lat="58.0476805572" lon="7.58478889377">
		<tag k="ssr:gml_id" v="GEOMETRY_b2f7296b-ffdc-4773-993f-0de3c446bf44" />
		<tag k="ssr:gml_nr" v="0" />
	</node>
	<node id="-49609" lat="58.0178027784" lon="7.35122500508">
		<tag k="ssr:gml_id" v="GEOMETRY_0615e3cc-4409-4574-a8aa-504f5079de8e" />
		<tag k="ssr:gml_nr" v="1" />
	</node>
	<node id="-49608" lat="58.0179722255" lon="7.35400277039">
		<tag k="ssr:gml_id" v="GEOMETRY_68ab3dd1-b136-42d6-88e7-11896ed46269" />
		<tag k="ssr:gml_nr" v="0" />
	</node>
	<node id="-50889" lat="58.0147777792" lon="7.39461944885">
		<tag k="ssr:gml_id" v="GEOMETRY_ff82fa5c-a7ca-41d3-878a-85c243f69542" />
		<tag k="ssr:gml_nr" v="1" />
	</node>
	<node id="-49598" lat="58.0128444459" lon="7.50873055234">
		<tag k="ssr:gml_id" v="GEOMETRY_f89797d7-7ea3-4bca-8c0c-ca3b006655e9" />
		<tag k="ssr:gml_nr" v="3" />
	</node>
	<node id="-49597" lat="58.0129083375" lon="7.50882500116">
		<tag k="ssr:gml_id" v="GEOMETRY_f129966b-9243-47fb-8d54-f552e7f33d52" />
		<tag k="ssr:gml_nr" v="2" />
	</node>
	<node id="-49596" lat="58.0129055526" lon="7.50882499853">
		<tag k="ssr:gml_id" v="GEOMETRY_2dcd8d4f-5ef2-468d-bc95-58b9d16987e2" />
		<tag k="ssr:gml_nr" v="1" />
	</node>
	<node id="-49595" lat="58.0129027767" lon="7.50882499553">
		<tag k="ssr:gml_id" v="GEOMETRY_354702bd-9cdd-4fe5-9e50-8e2bb28f7899" />
		<tag k="ssr:gml_nr" v="0" />
	</node>
	<node id="-49594" lat="58.016908333" lon="7.43040000078">
		<tag k="ssr:gml_id" v="GEOMETRY_48ad0721-bed0-417f-9fd5-3c1bbcb16cf3" />
		<tag k="ssr:gml_nr" v="1" />
	</node>
	<node id="-49593" lat="58.0172999981" lon="7.43835000137">
		<tag k="ssr:gml_id" v="GEOMETRY_f23fb60d-fbcb-4a82-9edf-edd491e7149f" />
		<tag k="ssr:gml_nr" v="0" />
	</node>
	<node id="-49587" lat="58.0673694466" lon="7.48006388677">
		<tag k="ssr:gml_id" v="GEOMETRY_21ad302a-fd7a-4e91-9564-1e330ee242d1" />
		<tag k="ssr:gml_nr" v="2" />
	</node>
	<node id="-49586" lat="58.0665944451" lon="7.47965000005">
		<tag k="ssr:gml_id" v="GEOMETRY_c7ea09e5-917f-43a9-9ea7-2afa2b7de205" />
		<tag k="ssr:gml_nr" v="1" />
	</node>
	<node id="-49585" lat="58.0665916693" lon="7.47964999938">
		<tag k="ssr:gml_id" v="GEOMETRY_460a04d1-524f-48b9-a7b1-a1354f2afe6d" />
		<tag k="ssr:gml_nr" v="0" />
	</node>
	<node id="-49584" lat="58.0585972251" lon="7.44788055265">
		<tag k="ssr:gml_id" v="GEOMETRY_b7f3f021-7fd1-4924-b5ca-60f7843be407" />
		<tag k="ssr:gml_nr" v="2" />
	</node>
	<node id="-51631" lat="58.0484333343" lon="7.40050000137">
		<tag k="ssr:gml_id" v="GEOMETRY_cfca02c4-da2a-43b3-9be2-42bcf7cbcb7f" />
		<tag k="ssr:gml_nr" v="2" />
	</node>
	<node id="-51630" lat="58.0469361067" lon="7.40258610986">
		<tag k="ssr:gml_id" v="GEOMETRY_59f98a83-0b29-4b3c-afa6-de0654b0d4f4" />
		<tag k="ssr:gml_nr" v="1" />
	</node>
	<node id="-51629" lat="58.0477361153" lon="7.41212221696">
		<tag k="ssr:gml_id" v="GEOMETRY_d89f30ce-277a-4bdc-acfc-e7ccab3ed1c4" />
		<tag k="ssr:gml_nr" v="0" />
	</node>
	<node id="-51628" lat="58.0465499988" lon="7.43414166836">
		<tag k="ssr:gml_id" v="GEOMETRY_e5bcfb85-1e71-4df5-aa4d-fa6688555ed2" />
		<tag k="ssr:gml_nr" v="1" />
	</node>
	<node id="-51627" lat="58.0468722208" lon="7.43511667431">
		<tag k="ssr:gml_id" v="GEOMETRY_5b62db27-bdc2-463a-9b9a-404b61d70139" />
		<tag k="ssr:gml_nr" v="0" />
	</node>
	<node id="-49578" lat="58.0633166643" lon="7.57598055206">
		<tag k="ssr:gml_id" v="GEOMETRY_47cd618f-f17e-4b86-ac7e-d02c75580d10" />
		<tag k="ssr:gml_nr" v="1" />
	</node>
	<node id="-49577" lat="58.0627749994" lon="7.57481389722">
		<tag k="ssr:gml_id" v="GEOMETRY_415ee688-2071-4dc3-90b6-b60df814ee88" />
		<tag k="ssr:gml_nr" v="0" />
	</node>
	<node id="-49576" lat="58.0547666668" lon="7.42411110406">
		<tag k="ssr:gml_id" v="GEOMETRY_9a5dbac9-5644-4e07-9df9-3dff5875ff38" />
		<tag k="ssr:gml_nr" v="2" />
	</node>
	<node id="-49575" lat="58.0547638925" lon="7.42410832838">
		<tag k="ssr:gml_id" v="GEOMETRY_38026614-6caf-4e08-9291-e92328ca1fd7" />
		<tag k="ssr:gml_nr" v="1" />
	</node>
	<node id="-49574" lat="58.0547611092" lon="7.42410555309">
		<tag k="ssr:gml_id" v="GEOMETRY_33795d13-035e-4b65-9642-46271a938197" />
		<tag k="ssr:gml_nr" v="0" />
	</node>
	<node id="-50888" lat="58.0166694435" lon="7.39894722047">
		<tag k="ssr:gml_id" v="GEOMETRY_e563586d-36c3-41bf-8f2f-5da348957248" />
		<tag k="ssr:gml_nr" v="0" />
	</node>
	<node id="-49568" lat="58.0935638907" lon="7.41430278258">
		<tag k="ssr:gml_id" v="GEOMETRY_1dff201a-ad89-4844-a9bb-9612181c5476" />
		<tag k="ssr:gml_nr" v="2" />
	</node>
	<node id="-49567" lat="58.0935666652" lon="7.41430556046">
		<tag k="ssr:gml_id" v="GEOMETRY_7c178d43-6695-4194-a0f3-46274c83ebb7" />
		<tag k="ssr:gml_nr" v="1" />
	</node>
	<node id="-49566" lat="58.0936222189" lon="7.41161945224">
		<tag k="ssr:gml_id" v="GEOMETRY_ac715feb-300a-430e-93b9-1b1c1d4a9674" />
		<tag k="ssr:gml_nr" v="0" />
	</node>
	<node id="-51573" lat="58.0358861139" lon="7.44868054704">
		<tag k="building" v="hotel" />
		<tag k="name" v="Hald" />
		<tag k="ssr:date" v="2016-05-10" />
		<tag k="ssr:stedsnr" v="571734" />
		<tag k="tourism" v="hotel" />
	</node>
	<node id="-51548" lat="58.0370444471" lon="7.47593889379">
		<tag k="name" v="Vang" />
		<tag k="place" v="farm" />
		<tag k="ssr:date" v="2016-05-10" />
		<tag k="ssr:stedsnr" v="571182" />
	</node>
	<node id="-49494" lat="58.0992472213" lon="7.52990833554">
		<tag k="name" v="Nødbekk" />
		<tag k="place" v="farm" />
		<tag k="ssr:date" v="2016-05-10" />
		<tag k="ssr:stedsnr" v="390908" />
	</node>
	<node id="-49881" lat="58.0208861107" lon="7.52634999639">
		<tag k="ssr:gml_id" v="GEOMETRY_6c4fc23b-94f2-463e-97c0-06f5cd70bff4" />
		<tag k="ssr:gml_nr" v="2" />
	</node>
	<node id="-49880" lat="58.0208888918" lon="7.52635277707">
		<tag k="ssr:gml_id" v="GEOMETRY_4980ecdf-3025-4842-bb19-ff67b296dd50" />
		<tag k="ssr:gml_nr" v="1" />
	</node>
	<node id="-51451" lat="58.0375027752" lon="7.51531667348">
		<tag k="ssr:gml_id" v="GEOMETRY_5a2a91d4-0064-4416-b7c7-7cc8d44f45c3" />
		<tag k="ssr:gml_nr" v="1" />
	</node>
	<node id="-51450" lat="58.0372333328" lon="7.51153888177">
		<tag k="ssr:gml_id" v="GEOMETRY_a3923d0d-e91d-4a47-8658-c0c615066364" />
		<tag k="ssr:gml_nr" v="0" />
	</node>
	<node id="-51444" lat="58.0366138904" lon="7.42303054836">
		<tag k="ssr:gml_id" v="GEOMETRY_b034d98a-7ffa-41be-8e31-b06894dbee6d" />
		<tag k="ssr:gml_nr" v="3" />
	</node>
	<node id="-51443" lat="58.0359361103" lon="7.42309999538">
		<tag k="ssr:gml_id" v="GEOMETRY_71e74c1c-3222-4e5f-b54a-de8260f8013e" />
		<tag k="ssr:gml_nr" v="2" />
	</node>
	<node id="-51442" lat="58.0366111086" lon="7.42302499665">
		<tag k="ssr:gml_id" v="GEOMETRY_1c475c20-ffa3-4e6f-83ee-d2a46e4e9231" />
		<tag k="ssr:gml_nr" v="1" />
	</node>
	<node id="-51441" lat="58.0366111071" lon="7.42302777454">
		<tag k="ssr:gml_id" v="GEOMETRY_10a433a0-a79e-416d-bd59-92740d5f500c" />
		<tag k="ssr:gml_nr" v="0" />
	</node>
	<node id="-51440" lat="58.0313055522" lon="7.51157500794">
		<tag k="ssr:gml_id" v="GEOMETRY_720ce020-c7c1-4f84-a082-396a2ab3cd49" />
		<tag k="ssr:gml_nr" v="2" />
	</node>
	<node id="-51439" lat="58.0313083334" lon="7.51157777134">
		<tag k="ssr:gml_id" v="GEOMETRY_7b7e4ae9-d61b-44d0-9ff0-c4f3cd8cb91b" />
		<tag k="ssr:gml_nr" v="1" />
	</node>
	<node id="-51438" lat="58.0314638865" lon="7.5111166649">
		<tag k="ssr:gml_id" v="GEOMETRY_7edb0149-cecf-46ce-a721-c43ef7e8d0d3" />
		<tag k="ssr:gml_nr" v="0" />
	</node>
	<node id="-51434" lat="58.0256666681" lon="7.36411110659">
		<tag k="ssr:gml_id" v="GEOMETRY_9480d994-91ee-4dfa-8848-c335c8d14592" />
		<tag k="ssr:gml_nr" v="3" />
	</node>
	<node id="-51433" lat="58.0256611077" lon="7.36410555249">
		<tag k="ssr:gml_id" v="GEOMETRY_ddab3cb2-90a0-4b50-9adb-366f87fa165e" />
		<tag k="ssr:gml_nr" v="2" />
	</node>
	<node id="-51432" lat="58.0256638925" lon="7.3641083378">
		<tag k="ssr:gml_id" v="GEOMETRY_936c47b5-306c-4b16-9f49-798b01e9008a" />
		<tag k="ssr:gml_nr" v="1" />
	</node>
	<node id="-51431" lat="58.0258222203" lon="7.36259166117">
		<tag k="ssr:gml_id" v="GEOMETRY_1905fa0c-65e6-4651-a06e-b2db99f402d7" />
		<tag k="ssr:gml_nr" v="0" />
	</node>
	<node id="-51430" lat="58.0238388867" lon="7.37627778267">
		<tag k="ssr:gml_id" v="GEOMETRY_1b8d839b-2beb-4eee-9687-bd088d6dcf5e" />
		<tag k="ssr:gml_nr" v="2" />
	</node>
	<node id="-51429" lat="58.023841671" lon="7.37628055187">
		<tag k="ssr:gml_id" v="GEOMETRY_a049a831-3b86-4398-a086-d1550966fe23" />
		<tag k="ssr:gml_nr" v="1" />
	</node>
	<node id="-51428" lat="58.0256083365" lon="7.38661666362">
		<tag k="ssr:gml_id" v="GEOMETRY_c2b0e2e6-e41c-491f-96ff-e6197491eb6e" />
		<tag k="ssr:gml_nr" v="0" />
	</node>
	<node id="-51427" lat="58.0248527757" lon="7.61610555611">
		<tag k="ssr:gml_id" v="GEOMETRY_536937c0-1d71-4fff-a403-da35704756c2" />
		<tag k="ssr:gml_nr" v="2" />
	</node>
	<node id="-51426" lat="58.0246999982" lon="7.61672776972">
		<tag k="ssr:gml_id" v="GEOMETRY_4adc3699-a5a9-4f9f-816e-d47df2f33cd1" />
		<tag k="ssr:gml_nr" v="1" />
	</node>
	<node id="-51425" lat="58.0247000016" lon="7.61673056332">
		<tag k="ssr:gml_id" v="GEOMETRY_752b9926-cc83-4ee8-bf01-411588358c05" />
		<tag k="ssr:gml_nr" v="0" />
	</node>
	<node id="-51424" lat="58.021749999" lon="7.5444805536">
		<tag k="ssr:gml_id" v="GEOMETRY_3e5125d2-82c2-4b67-8789-f2c1deb49e8f" />
		<tag k="ssr:gml_nr" v="2" />
	</node>
	<node id="-51423" lat="58.0217527797" lon="7.54448333576">
		<tag k="ssr:gml_id" v="GEOMETRY_d26e9f8f-d8da-43dd-b181-90fffb039156" />
		<tag k="ssr:gml_nr" v="1" />
	</node>
	<node id="-51422" lat="58.0248833356" lon="7.55008610608">
		<tag k="ssr:gml_id" v="GEOMETRY_8605763d-6dda-492c-a796-8cceba70ccbd" />
		<tag k="ssr:gml_nr" v="0" />
	</node>
	<node id="-51421" lat="58.0093166658" lon="7.35380555637">
		<tag k="ssr:gml_id" v="GEOMETRY_d6010f53-0840-4309-a156-af5f4366e37c" />
		<tag k="ssr:gml_nr" v="2" />
	</node>
	<node id="-51420" lat="58.0093138898" lon="7.3538027727">
		<tag k="ssr:gml_id" v="GEOMETRY_f3c6eec6-4d73-4e5e-8b4f-6f7e4df97a33" />
		<tag k="ssr:gml_nr" v="1" />
	</node>
	<node id="-51419" lat="58.009311114" lon="7.35380000595">
		<tag k="ssr:gml_id" v="GEOMETRY_07dbe6e5-b9b2-4396-983f-fc131e4229c9" />
		<tag k="ssr:gml_nr" v="0" />
	</node>
	<node id="-51412" lat="58.0611750007" lon="7.47553611734">
		<tag k="ssr:gml_id" v="GEOMETRY_7b163454-215c-4399-ab14-5bfaef0a99f7" />
		<tag k="ssr:gml_nr" v="2" />
	</node>
	<node id="-51411" lat="58.061174998" lon="7.47553889715">
		<tag k="ssr:gml_id" v="GEOMETRY_19d39d46-cc34-4cd0-9130-8a52a3eb6fbf" />
		<tag k="ssr:gml_nr" v="1" />
	</node>
	<node id="-51410" lat="58.0595555591" lon="7.47360555482">
		<tag k="ssr:gml_id" v="GEOMETRY_b2448ffe-d3ae-4b05-80f2-ab142823e442" />
		<tag k="ssr:gml_nr" v="0" />
	</node>
	<node id="-51409" lat="58.043550004" lon="7.44869721761">
		<tag k="ssr:gml_id" v="GEOMETRY_36a33360-ad15-4201-9b26-02ee60a6fd2c" />
		<tag k="ssr:gml_nr" v="1" />
	</node>
	<node id="-51408" lat="58.045302774" lon="7.44850277038">
		<tag k="ssr:gml_id" v="GEOMETRY_7abdcbd1-7611-4558-b0c6-14f81fbe9fd8" />
		<tag k="ssr:gml_nr" v="0" />
	</node>
	<node id="-51407" lat="58.0536833302" lon="7.50398610725">
		<tag k="ssr:gml_id" v="GEOMETRY_cfb930bc-782c-4f74-9df6-7dd8578e08e8" />
		<tag k="ssr:gml_nr" v="2" />
	</node>
	<node id="-51406" lat="58.0533999957" lon="7.50388055226">
		<tag k="ssr:gml_id" v="GEOMETRY_d7b92846-544a-4db7-a06d-835f856c0e08" />
		<tag k="ssr:gml_nr" v="1" />
	</node>
	<node id="-51405" lat="58.053399999" lon="7.50387777305">
		<tag k="ssr:gml_id" v="GEOMETRY_8decd2bd-774c-4bd3-8619-31c9b1496303" />
		<tag k="ssr:gml_nr" v="0" />
	</node>
	<node id="-51404" lat="58.1209638921" lon="7.51730278398">
		<tag k="ssr:gml_id" v="GEOMETRY_07a52a02-01a8-4fa1-9a9f-090f96771971" />
		<tag k="ssr:gml_nr" v="2" />
	</node>
	<node id="-51403" lat="58.1204250029" lon="7.51684443754">
		<tag k="ssr:gml_id" v="GEOMETRY_084da8b1-798c-4776-8890-90672b49b0eb" />
		<tag k="ssr:gml_nr" v="1" />
	</node>
	<node id="-51402" lat="58.1204249976" lon="7.51684167044">
		<tag k="ssr:gml_id" v="GEOMETRY_7f3b3178-feba-4972-8e54-1efc4ff331b2" />
		<tag k="ssr:gml_nr" v="0" />
	</node>
	<node id="-51398" lat="58.1036333328" lon="7.43173334092">
		<tag k="ssr:gml_id" v="GEOMETRY_c2063aa3-22e8-4271-80bd-e0e9ccdc2592" />
		<tag k="ssr:gml_nr" v="1" />
	</node>
	<node id="-51397" lat="58.1037611117" lon="7.43077499747">
		<tag k="ssr:gml_id" v="GEOMETRY_1be0c190-cf57-4ca7-a1de-3f4b9ab85c28" />
		<tag k="ssr:gml_nr" v="0" />
	</node>
	<node id="-51389" lat="58.0979916691" lon="7.45089722099">
		<tag k="ssr:gml_id" v="GEOMETRY_2951484e-fae7-45f3-a7eb-3171d4ab203f" />
		<tag k="ssr:gml_nr" v="3" />
	</node>
	<node id="-51388" lat="58.0979305547" lon="7.45111667425">
		<tag k="ssr:gml_id" v="GEOMETRY_77fdeb87-fb44-4673-8f0b-6085825a31e2" />
		<tag k="ssr:gml_nr" v="2" />
	</node>
	<node id="-51387" lat="58.0979888864" lon="7.4508944403">
		<tag k="ssr:gml_id" v="GEOMETRY_d7fb56a4-3c73-4c88-9fc5-ed9aa273f9f2" />
		<tag k="ssr:gml_nr" v="1" />
	</node>
	<node id="-51386" lat="58.0979861127" lon="7.45089165923">
		<tag k="ssr:gml_id" v="GEOMETRY_ef3b5624-a1b3-490f-b4a7-16b0eb5e390c" />
		<tag k="ssr:gml_nr" v="0" />
	</node>
	<node id="-51385" lat="58.0846861098" lon="7.44493888908">
		<tag k="ssr:gml_id" v="GEOMETRY_a86c2dc3-fa09-4d96-a600-a9cc55c27a74" />
		<tag k="ssr:gml_nr" v="2" />
	</node>
	<node id="-51384" lat="58.0848361101" lon="7.44496943918">
		<tag k="ssr:gml_id" v="GEOMETRY_090962be-245d-4788-a571-1c27aab4f1c0" />
		<tag k="ssr:gml_nr" v="1" />
	</node>
	<node id="-51383" lat="58.0848333362" lon="7.44496665957">
		<tag k="ssr:gml_id" v="GEOMETRY_7cb4d9ef-cf93-4b24-8a35-5bb540912591" />
		<tag k="ssr:gml_nr" v="0" />
	</node>
	<node id="-51382" lat="58.1296361094" lon="7.47674444404">
		<tag k="ssr:gml_id" v="GEOMETRY_8255a1a8-e27a-4dd3-8c8e-2afe7923c6f0" />
		<tag k="ssr:gml_nr" v="3" />
	</node>
	<node id="-51381" lat="58.1296305543" lon="7.47673889037">
		<tag k="ssr:gml_id" v="GEOMETRY_2ad6b2f8-5acb-485f-837a-b6ff318acb51" />
		<tag k="ssr:gml_nr" v="2" />
	</node>
	<node id="-51380" lat="58.1296333362" lon="7.47674165852">
		<tag k="ssr:gml_id" v="GEOMETRY_961c6bea-95eb-4a73-b24e-4379d2c1d7cc" />
		<tag k="ssr:gml_nr" v="1" />
	</node>
	<node id="-51379" lat="58.1310944425" lon="7.48295554892">
		<tag k="ssr:gml_id" v="GEOMETRY_709f5607-36bc-4329-944d-948164383016" />
		<tag k="ssr:gml_nr" v="0" />
	</node>
	<node id="-49327" lat="58.0620444425" lon="7.42495276951">
		<tag k="amenity" v="nursing_home" />
		<tag k="name" v="Heslandsheimen" />
		<tag k="ssr:date" v="2016-05-10" />
		<tag k="ssr:stedsnr" v="389153" />
	</node>
	<node id="-51374" lat="58.1002805586" lon="7.4879749921">
		<tag k="ssr:gml_id" v="GEOMETRY_96fd19be-76e0-4e4c-b4fc-094285c92cae" />
		<tag k="ssr:gml_nr" v="0" />
	</node>
	<node id="-50204" lat="58.0722638872" lon="7.48041389277">
		<tag k="name" v="Østre Kjerr" />
		<tag k="place" v="farm" />
		<tag k="ssr:date" v="2016-05-10" />
		<tag k="ssr:stedsnr" v="145667" />
	</node>
	<node id="-49312" lat="58.0406277752" lon="7.6307138836">
		<tag k="ssr:gml_id" v="GEOMETRY_8814226b-924d-4583-8ff0-2eda1f23a393" />
		<tag k="ssr:gml_nr" v="2" />
	</node>
	<node id="-49311" lat="58.0408861089" lon="7.63094166251">
		<tag k="ssr:gml_id" v="GEOMETRY_a30595c4-e692-4054-9b70-f0d70357a206" />
		<tag k="ssr:gml_nr" v="1" />
	</node>
	<node id="-49310" lat="58.040886115" lon="7.63093888423">
		<tag k="ssr:gml_id" v="GEOMETRY_c08bac72-bf09-4883-a873-0bc4eb9c2d2c" />
		<tag k="ssr:gml_nr" v="0" />
	</node>
	<node id="-49309" lat="58.0246250045" lon="7.55022500534">
		<tag k="ssr:gml_id" v="GEOMETRY_e0298e0a-f08b-4fad-a234-f083993bf45c" />
		<tag k="ssr:gml_nr" v="1" />
	</node>
	<node id="-49308" lat="58.0251499988" lon="7.55635833441">
		<tag k="ssr:gml_id" v="GEOMETRY_4dbcdc67-ae81-4df6-938d-e4e5b9006880" />
		<tag k="ssr:gml_nr" v="0" />
	</node>
	<node id="-49307" lat="58.0152305544" lon="7.527361119">
		<tag k="ssr:gml_id" v="GEOMETRY_796e332e-291e-4fe8-ae8c-0747669283d5" />
		<tag k="ssr:gml_nr" v="2" />
	</node>
	<node id="-49306" lat="58.0152333352" lon="7.52736388241">
		<tag k="ssr:gml_id" v="GEOMETRY_07fc84b3-4503-48e3-b780-f37f23a7b57e" />
		<tag k="ssr:gml_nr" v="1" />
	</node>
	<node id="-49305" lat="58.0153000002" lon="7.52648610946">
		<tag k="ssr:gml_id" v="GEOMETRY_c20e78a0-8cb6-437e-b177-6d9fd970e7b3" />
		<tag k="ssr:gml_nr" v="0" />
	</node>
	<node id="-49304" lat="58.0274027809" lon="7.45341945063">
		<tag k="ssr:gml_id" v="GEOMETRY_f2067734-c085-4c10-9f67-3e4955e9a2aa" />
		<tag k="ssr:gml_nr" v="1" />
	</node>
	<node id="-49303" lat="58.026819446" lon="7.4534694414">
		<tag k="ssr:gml_id" v="GEOMETRY_f6a9c39d-106f-43c4-96f1-400faec25110" />
		<tag k="ssr:gml_nr" v="0" />
	</node>
	<node id="-51348" lat="58.0265722182" lon="7.62693889644">
		<tag k="name" v="Rørvig" />
		<tag k="place" v="farm" />
		<tag k="ssr:date" v="2016-05-10" />
		<tag k="ssr:stedsnr" v="540535" />
	</node>
	<node id="-49299" lat="58.062227776" lon="7.4197305496">
		<tag k="ssr:gml_id" v="GEOMETRY_586d00d2-ac76-4ba1-bdfd-a137c236afee" />
		<tag k="ssr:gml_nr" v="2" />
	</node>
	<node id="-49298" lat="58.0622027814" lon="7.41908611014">
		<tag k="ssr:gml_id" v="GEOMETRY_b4b5785e-3b1c-4620-87bd-75668c6e169d" />
		<tag k="ssr:gml_nr" v="1" />
	</node>
	<node id="-49297" lat="58.0621999966" lon="7.41908611456">
		<tag k="ssr:gml_id" v="GEOMETRY_c2805420-1e51-4c15-8380-5ec371939163" />
		<tag k="ssr:gml_nr" v="0" />
	</node>
	<node id="-49296" lat="58.0487861129" lon="7.49596389061">
		<tag k="ssr:gml_id" v="GEOMETRY_2e20ca62-1908-4af4-ac19-98b14c58ea4c" />
		<tag k="ssr:gml_nr" v="2" />
	</node>
	<node id="-49295" lat="58.0489805596" lon="7.49557777733">
		<tag k="ssr:gml_id" v="GEOMETRY_0371ef86-059e-4902-b312-7a2213f38490" />
		<tag k="ssr:gml_nr" v="1" />
	</node>
	<node id="-49294" lat="58.0489777779" lon="7.49557499691">
		<tag k="ssr:gml_id" v="GEOMETRY_9134a1b1-c65e-4beb-9fc7-d4c0190d5f02" />
		<tag k="ssr:gml_nr" v="0" />
	</node>
	<node id="-49293" lat="58.0522777816" lon="7.48178333557">
		<tag k="ssr:gml_id" v="GEOMETRY_11901645-0a85-4314-9fba-ef16cbbcfb58" />
		<tag k="ssr:gml_nr" v="2" />
	</node>
	<node id="-51340" lat="58.0584277788" lon="7.53479999428">
		<tag k="name" v="Øygarden" />
		<tag k="place" v="locality" />
		<tag k="ssr:date" v="2016-05-10" />
		<tag k="ssr:stedsnr" v="512516" />
	</node>
	<node id="-49291" lat="58.0522888919" lon="7.48175000759">
		<tag k="ssr:gml_id" v="GEOMETRY_c8a2c9b3-a55c-4ede-b6e7-3187c456e371" />
		<tag k="ssr:gml_nr" v="0" />
	</node>
	<node id="-49579" lat="58.0633138934" lon="7.57597778085">
		<tag k="ssr:gml_id" v="GEOMETRY_bdc1cab7-00df-4839-bf24-c3c147fa49bc" />
		<tag k="ssr:gml_nr" v="2" />
	</node>
	<node id="-51335" lat="58.043572219" lon="7.44023333174">
		<tag k="name" v="Kirkevollen" />
		<tag k="place" v="farm" />
		<tag k="ssr:date" v="2016-05-10" />
		<tag k="ssr:stedsnr" v="511985" />
	</node>
	<node id="-53269" lat="58.1286306636" lon="7.48098673357">
		<tag k="fixme" v="consider place=farm" />
		<tag k="name" v="Østre Solås" />
		<tag k="place" v="hamlet" />
		<tag k="ssr:date" v="2017-08-30" />
		<tag k="ssr:stedsnr" v="977847" />
	</node>
	<node id="-49266" lat="58.0889055572" lon="7.57220000649">
		<tag k="ssr:gml_id" v="GEOMETRY_5496ae9e-a6bb-42b9-a95a-b1aa8d28eefe" />
		<tag k="ssr:gml_nr" v="3" />
	</node>
	<node id="-49265" lat="58.0864472207" lon="7.57382222957">
		<tag k="ssr:gml_id" v="GEOMETRY_42e72c00-ad71-40bb-a730-007b04f26332" />
		<tag k="ssr:gml_nr" v="2" />
	</node>
	<node id="-49264" lat="58.0889027813" lon="7.57219999865">
		<tag k="ssr:gml_id" v="GEOMETRY_64e95bfd-5db2-4738-8ac5-55ded73d651d" />
		<tag k="ssr:gml_nr" v="1" />
	</node>
	<node id="-49263" lat="58.0864555535" lon="7.57385000153">
		<tag k="ssr:gml_id" v="GEOMETRY_f74d6bb2-8598-4a87-b87f-49077d991898" />
		<tag k="ssr:gml_nr" v="0" />
	</node>
	<node id="-53265" lat="58.0198479501" lon="7.41473881021">
		<tag k="fixme" v="consider place=farm" />
		<tag k="name" v="Sånum" />
		<tag k="place" v="hamlet" />
		<tag k="ssr:date" v="2017-08-30" />
		<tag k="ssr:stedsnr" v="977833" />
	</node>
	<node id="-49252" lat="58.0475527756" lon="7.36747499536">
		<tag k="ssr:gml_id" v="GEOMETRY_39224564-5297-450f-8abe-f36d2e8a0404" />
		<tag k="ssr:gml_nr" v="2" />
	</node>
	<node id="-49251" lat="58.0478333309" lon="7.36741667236">
		<tag k="ssr:gml_id" v="GEOMETRY_0c5fef1d-a515-4523-a3e2-40da04657f7f" />
		<tag k="ssr:gml_nr" v="1" />
	</node>
	<node id="-49250" lat="58.0478305552" lon="7.36741388469">
		<tag k="ssr:gml_id" v="GEOMETRY_1fa82a4a-e881-418e-920d-b96367f65313" />
		<tag k="ssr:gml_nr" v="0" />
	</node>
	<node id="-51297" lat="58.0878944476" lon="7.62655833153">
		<tag k="name" v="Suvatne" />
		<tag k="place" v="farm" />
		<tag k="ssr:date" v="2016-05-10" />
		<tag k="ssr:stedsnr" v="511455" />
	</node>
	<node id="-49248" lat="58.0464500044" lon="7.49336389121">
		<tag k="ssr:gml_id" v="GEOMETRY_207f9ac9-b0f4-4d3c-9d39-49332c06373d" />
		<tag k="ssr:gml_nr" v="1" />
	</node>
	<node id="-49247" lat="58.0464499985" lon="7.49336111291">
		<tag k="ssr:gml_id" v="GEOMETRY_682c366a-5fec-49a5-af45-06c7c8b263f5" />
		<tag k="ssr:gml_nr" v="0" />
	</node>
	<node id="-53262" lat="58.0461913888" lon="7.4037563914">
		<tag k="fixme" v="consider place=farm" />
		<tag k="name" v="Vestre Skogsfjord" />
		<tag k="place" v="hamlet" />
		<tag k="ssr:date" v="2017-08-29" />
		<tag k="ssr:stedsnr" v="977829" />
	</node>
	<node id="-53260" lat="58.0460844782" lon="7.43414114166">
		<tag k="fixme" v="consider place=farm" />
		<tag k="name" v="Rugland" />
		<tag k="place" v="hamlet" />
		<tag k="ssr:date" v="2017-08-29" />
		<tag k="ssr:stedsnr" v="977823" />
	</node>
	<node id="-49580" lat="58.0636777809" lon="7.57865555239">
		<tag k="ssr:gml_id" v="GEOMETRY_291f4357-7e0c-46c7-bdab-daddb002d623" />
		<tag k="ssr:gml_nr" v="3" />
	</node>
	<node id="-51244" lat="58.1083111146" lon="7.54800832904">
		<tag k="name" v="Myran" />
		<tag k="place" v="farm" />
		<tag k="ssr:date" v="2016-05-10" />
		<tag k="ssr:stedsnr" v="510900" />
	</node>
	<node id="-53286" lat="58.0646583817" lon="7.57476440823">
		<tag k="fixme" v="consider place=farm" />
		<tag k="name" v="Vestre Skagestad" />
		<tag k="place" v="hamlet" />
		<tag k="ssr:date" v="2017-08-31" />
		<tag k="ssr:stedsnr" v="977932" />
	</node>
	<node id="-53285" lat="58.0641016211" lon="7.57941529632">
		<tag k="fixme" v="consider place=farm" />
		<tag k="name" v="Østre Skagestad" />
		<tag k="place" v="hamlet" />
		<tag k="ssr:date" v="2017-08-31" />
		<tag k="ssr:stedsnr" v="977931" />
	</node>
	<node id="-53284" lat="58.0784931125" lon="7.60919427454">
		<tag k="fixme" v="consider place=farm" />
		<tag k="name" v="Østre Vatne" />
		<tag k="place" v="hamlet" />
		<tag k="ssr:date" v="2017-08-31" />
		<tag k="ssr:stedsnr" v="977930" />
	</node>
	<node id="-53283" lat="58.123157372" lon="7.53433871796">
		<tag k="fixme" v="consider place=farm" />
		<tag k="name" v="Stoveland" />
		<tag k="place" v="hamlet" />
		<tag k="ssr:date" v="2017-08-31" />
		<tag k="ssr:stedsnr" v="977927" />
	</node>
	<node id="-53282" lat="58.1159547259" lon="7.53387455167">
		<tag k="fixme" v="consider place=farm" />
		<tag k="name" v="Brinsdal" />
		<tag k="place" v="hamlet" />
		<tag k="ssr:date" v="2017-08-31" />
		<tag k="ssr:stedsnr" v="977925" />
	</node>
	<node id="-53281" lat="58.1047679885" lon="7.53569930319">
		<tag k="fixme" v="consider place=farm" />
		<tag k="name" v="Ytre Nøding" />
		<tag k="place" v="hamlet" />
		<tag k="ssr:date" v="2017-08-31" />
		<tag k="ssr:stedsnr" v="977918" />
	</node>
	<node id="-53280" lat="58.0981178835" lon="7.54313145822">
		<tag k="fixme" v="consider place=farm" />
		<tag k="name" v="Heien" />
		<tag k="place" v="hamlet" />
		<tag k="ssr:date" v="2017-08-31" />
		<tag k="ssr:stedsnr" v="977916" />
	</node>
	<node id="-53279" lat="58.0844159004" lon="7.51932660736">
		<tag k="fixme" v="consider place=farm" />
		<tag k="name" v="Midmøll" />
		<tag k="place" v="hamlet" />
		<tag k="ssr:date" v="2017-08-30" />
		<tag k="ssr:stedsnr" v="977868" />
	</node>
	<node id="-53278" lat="58.0589773102" lon="7.4746951396">
		<tag k="fixme" v="consider place=farm" />
		<tag k="name" v="Ytre Haddeland" />
		<tag k="place" v="hamlet" />
		<tag k="ssr:date" v="2017-08-30" />
		<tag k="ssr:stedsnr" v="977866" />
	</node>
	<node id="-53277" lat="58.0769863375" lon="7.51600751749">
		<tag k="fixme" v="consider place=farm" />
		<tag k="name" v="Langeland" />
		<tag k="place" v="hamlet" />
		<tag k="ssr:date" v="2017-08-30" />
		<tag k="ssr:stedsnr" v="977864" />
	</node>
	<node id="-53276" lat="58.0732983554" lon="7.48828722167">
		<tag k="fixme" v="consider place=farm" />
		<tag k="name" v="Undal" />
		<tag k="place" v="hamlet" />
		<tag k="ssr:date" v="2017-08-30" />
		<tag k="ssr:stedsnr" v="977865" />
	</node>
	<node id="-53275" lat="58.0801811" lon="7.48692065751">
		<tag k="fixme" v="consider place=farm" />
		<tag k="name" v="Rudjord" />
		<tag k="place" v="hamlet" />
		<tag k="ssr:date" v="2017-08-30" />
		<tag k="ssr:stedsnr" v="977862" />
	</node>
	<node id="-53274" lat="58.0724867378" lon="7.47745134841">
		<tag k="fixme" v="consider place=farm" />
		<tag k="name" v="Vestre Kjær" />
		<tag k="place" v="hamlet" />
		<tag k="ssr:date" v="2017-08-30" />
		<tag k="ssr:stedsnr" v="977860" />
	</node>
	<node id="-53273" lat="58.1005796776" lon="7.48888028496">
		<tag k="fixme" v="consider place=farm" />
		<tag k="name" v="Nordre Li" />
		<tag k="place" v="hamlet" />
		<tag k="ssr:date" v="2017-08-30" />
		<tag k="ssr:stedsnr" v="977857" />
	</node>
	<node id="-53272" lat="58.0983683144" lon="7.48697080374">
		<tag k="fixme" v="consider place=farm" />
		<tag k="name" v="Midli" />
		<tag k="place" v="hamlet" />
		<tag k="ssr:date" v="2017-08-30" />
		<tag k="ssr:stedsnr" v="977856" />
	</node>
	<node id="-53271" lat="58.0999441951" lon="7.52955497829">
		<tag k="fixme" v="consider place=farm" />
		<tag k="name" v="Holmegård" />
		<tag k="place" v="hamlet" />
		<tag k="ssr:date" v="2017-08-30" />
		<tag k="ssr:stedsnr" v="977853" />
	</node>
	<node id="-53270" lat="58.0965874284" lon="7.4899653682">
		<tag k="fixme" v="consider place=farm" />
		<tag k="name" v="Ytre Li" />
		<tag k="place" v="hamlet" />
		<tag k="ssr:date" v="2017-08-30" />
		<tag k="ssr:stedsnr" v="977854" />
	</node>
	<node id="-51221" lat="58.0147916704" lon="7.44019721588">
		<tag k="leisure" v="swimming_area" />
		<tag k="name" v="Stumpestrendene" />
		<tag k="place" v="locality" />
		<tag k="ssr:date" v="2016-05-10" />
		<tag k="ssr:stedsnr" v="510761" />
	</node>
	<node id="-53268" lat="58.0395521498" lon="7.33560930216">
		<tag k="fixme" v="consider place=farm" />
		<tag k="name" v="Lundevik" />
		<tag k="place" v="hamlet" />
		<tag k="ssr:date" v="2017-08-30" />
		<tag k="ssr:stedsnr" v="977840" />
	</node>
	<node id="-53267" lat="58.1313537443" lon="7.4841837845">
		<tag k="fixme" v="consider place=farm" />
		<tag k="name" v="Øvre Solås" />
		<tag k="place" v="hamlet" />
		<tag k="ssr:date" v="2017-08-30" />
		<tag k="ssr:stedsnr" v="977845" />
	</node>
	<node id="-53266" lat="58.0231289723" lon="7.39834779594">
		<tag k="fixme" v="consider place=farm" />
		<tag k="name" v="Tuftenes" />
		<tag k="place" v="hamlet" />
		<tag k="ssr:date" v="2017-08-30" />
		<tag k="ssr:stedsnr" v="977838" />
	</node>
	<node id="-51217" lat="58.0435750006" lon="7.64501111461">
		<tag k="name" v="Eid" />
		<tag k="place" v="farm" />
		<tag k="ssr:date" v="2016-05-10" />
		<tag k="ssr:stedsnr" v="510745" />
	</node>
	<node id="-53264" lat="58.0326058081" lon="7.42362858453">
		<tag k="fixme" v="consider place=farm" />
		<tag k="name" v="Skjeipstad" />
		<tag k="place" v="hamlet" />
		<tag k="ssr:date" v="2017-08-30" />
		<tag k="ssr:stedsnr" v="977831" />
	</node>
	<node id="-53263" lat="58.0497088274" lon="7.37650073351">
		<tag k="fixme" v="consider place=farm" />
		<tag k="name" v="Rødland" />
		<tag k="place" v="hamlet" />
		<tag k="ssr:date" v="2017-08-29" />
		<tag k="ssr:stedsnr" v="977830" />
	</node>
	<node id="-49166" lat="58.1271444429" lon="7.53083054807">
		<tag k="name" v="Kringla" />
		<tag k="place" v="farm" />
		<tag k="ssr:date" v="2016-05-10" />
		<tag k="ssr:stedsnr" v="328923" />
	</node>
	<node id="-53261" lat="58.0577938227" lon="7.44691037682">
		<tag k="fixme" v="consider place=farm" />
		<tag k="name" v="Nordmannsheia" />
		<tag k="place" v="hamlet" />
		<tag k="ssr:date" v="2017-08-29" />
		<tag k="ssr:stedsnr" v="977824" />
	</node>
	<node id="-49164" lat="58.1176444461" lon="7.52961666589">
		<tag k="name" v="Nodebumonen" />
		<tag k="place" v="farm" />
		<tag k="ssr:date" v="2016-05-10" />
		<tag k="ssr:stedsnr" v="328871" />
	</node>
	<node id="-53259" lat="58.0444043232" lon="7.44873065723">
		<tag k="fixme" v="consider place=farm" />
		<tag k="name" v="Østre Skogsfjord" />
		<tag k="place" v="hamlet" />
		<tag k="ssr:date" v="2017-08-29" />
		<tag k="ssr:stedsnr" v="977822" />
	</node>
	<node id="-53258" lat="58.0328394363" lon="7.45308141704">
		<tag k="fixme" v="consider place=farm" />
		<tag k="name" v="Halså" />
		<tag k="place" v="hamlet" />
		<tag k="ssr:date" v="2017-08-29" />
		<tag k="ssr:stedsnr" v="977820" />
	</node>
	<node id="-53257" lat="58.0337574289" lon="7.47022815532">
		<tag k="fixme" v="consider place=farm" />
		<tag k="name" v="Frøisland" />
		<tag k="place" v="hamlet" />
		<tag k="ssr:date" v="2017-08-29" />
		<tag k="ssr:stedsnr" v="977818" />
	</node>
	<node id="-53256" lat="58.0454324135" lon="7.47005906968">
		<tag k="fixme" v="consider place=farm" />
		<tag k="name" v="Hjorteland" />
		<tag k="place" v="hamlet" />
		<tag k="ssr:date" v="2017-08-29" />
		<tag k="ssr:stedsnr" v="977816" />
	</node>
	<node id="-53255" lat="58.0094368713" lon="7.55724510603">
		<tag k="fixme" v="consider place=farm" />
		<tag k="name" v="Tregde" />
		<tag k="place" v="hamlet" />
		<tag k="ssr:date" v="2017-08-29" />
		<tag k="ssr:stedsnr" v="977808" />
	</node>
	<node id="-53254" lat="58.0280909083" lon="7.47327737302">
		<tag k="fixme" v="consider place=farm" />
		<tag k="name" v="Skinsnes" />
		<tag k="place" v="hamlet" />
		<tag k="ssr:date" v="2017-08-29" />
		<tag k="ssr:stedsnr" v="977813" />
	</node>
	<node id="-53253" lat="58.0066047666" lon="7.4858503017">
		<tag k="fixme" v="consider place=farm" />
		<tag k="name" v="Stusøy" />
		<tag k="place" v="hamlet" />
		<tag k="ssr:date" v="2017-08-29" />
		<tag k="ssr:stedsnr" v="977805" />
	</node>
	<node id="-53252" lat="57.9946667088" lon="7.502524928">
		<tag k="fixme" v="consider place=farm" />
		<tag k="name" v="Dyrstad" />
		<tag k="place" v="hamlet" />
		<tag k="ssr:date" v="2017-08-29" />
		<tag k="ssr:stedsnr" v="977803" />
	</node>
	<node id="-53251" lat="58.0026180908" lon="7.51298406955">
		<tag k="fixme" v="consider place=farm" />
		<tag k="name" v="Skjernøysund" />
		<tag k="place" v="hamlet" />
		<tag k="ssr:date" v="2017-08-29" />
		<tag k="ssr:stedsnr" v="977804" />
	</node>
	<node id="-53250" lat="57.985571978" lon="7.53121259836">
		<tag k="fixme" v="consider place=farm" />
		<tag k="name" v="Farestad" />
		<tag k="place" v="hamlet" />
		<tag k="ssr:date" v="2017-08-29" />
		<tag k="ssr:stedsnr" v="977801" />
	</node>
	<node id="-53249" lat="57.9863852534" lon="7.53562810498">
		<tag k="fixme" v="consider place=farm" />
		<tag k="name" v="Rosnes" />
		<tag k="place" v="hamlet" />
		<tag k="ssr:date" v="2017-08-29" />
		<tag k="ssr:stedsnr" v="977799" />
	</node>
	<way id="-11264">
		<tag k="alt_name" v="Prestegården" />
		<tag k="name" v="Prestegarden" />
		<tag k="place" v="farm" />
		<tag k="ssr:date" v="2016-05-11" />
		<tag k="ssr:stedsnr" v="813699" />
		<nd ref="-52564" />
		<nd ref="-52565" />
		<nd ref="-52566" />
	</way>
	<way id="-11259">
		<tag k="name" v="Vestnes" />
		<tag k="place" v="suburb" />
		<tag k="ssr:date" v="2016-05-11" />
		<tag k="ssr:stedsnr" v="789957" />
		<nd ref="-52494" />
		<nd ref="-52495" />
		<nd ref="-52496" />
	</way>
	<way id="-11256">
		<tag k="fixme" v="consider place=farm" />
		<tag k="name" v="Rosseland" />
		<tag k="place" v="hamlet" />
		<tag k="ssr:date" v="2017-08-29" />
		<tag k="ssr:stedsnr" v="789883" />
		<nd ref="-52485" />
		<nd ref="-52486" />
		<nd ref="-52487" />
	</way>
	<way id="-11255">
		<tag k="fixme" v="consider place=farm" />
		<tag k="name" v="Vik" />
		<tag k="place" v="hamlet" />
		<tag k="ssr:date" v="2017-08-29" />
		<tag k="ssr:stedsnr" v="789878" />
		<nd ref="-52482" />
		<nd ref="-52483" />
		<nd ref="-52484" />
	</way>
	<way id="-11253">
		<tag k="fixme" v="consider place=farm" />
		<tag k="name" v="Bakken" />
		<tag k="place" v="hamlet" />
		<tag k="ssr:date" v="2017-08-30" />
		<tag k="ssr:stedsnr" v="789857" />
		<nd ref="-52476" />
		<nd ref="-52477" />
		<nd ref="-52478" />
	</way>
	<way id="-11252">
		<tag k="fixme" v="consider place=farm" />
		<tag k="name" v="Slettan" />
		<tag k="place" v="hamlet" />
		<tag k="ssr:date" v="2017-08-30" />
		<tag k="ssr:stedsnr" v="789856" />
		<nd ref="-52473" />
		<nd ref="-52474" />
		<nd ref="-52475" />
	</way>
	<way id="-11251">
		<tag k="name" v="Nøding" />
		<tag k="place" v="farm" />
		<tag k="ssr:date" v="2016-05-11" />
		<tag k="ssr:stedsnr" v="789760" />
		<nd ref="-52471" />
		<nd ref="-52472" />
	</way>
	<way id="-11247">
		<tag k="fixme" v="consider place=farm" />
		<tag k="name" v="Lian" />
		<tag k="place" v="hamlet" />
		<tag k="ssr:date" v="2017-08-30" />
		<tag k="ssr:stedsnr" v="788924" />
		<nd ref="-52461" />
		<nd ref="-52462" />
		<nd ref="-52463" />
	</way>
	<way id="-11246">
		<tag k="fixme" v="consider place=farm" />
		<tag k="name" v="Lindland" />
		<tag k="place" v="hamlet" />
		<tag k="ssr:date" v="2017-08-30" />
		<tag k="ssr:stedsnr" v="788917" />
		<nd ref="-52457" />
		<nd ref="-52458" />
		<nd ref="-52459" />
		<nd ref="-52460" />
	</way>
	<way id="-11238">
		<tag k="name" v="Moen" />
		<tag k="place" v="farm" />
		<tag k="ssr:date" v="2016-05-11" />
		<tag k="ssr:stedsnr" v="782928" />
		<nd ref="-52432" />
		<nd ref="-52433" />
	</way>
	<way id="-11220">
		<tag k="fixme" v="consider place=farm" />
		<tag k="name" v="Frydnes" />
		<tag k="place" v="hamlet" />
		<tag k="ssr:date" v="2017-08-29" />
		<tag k="ssr:stedsnr" v="728967" />
		<nd ref="-52251" />
		<nd ref="-52252" />
		<nd ref="-52253" />
	</way>
	<way id="-11218">
		<tag k="fixme" v="consider place=farm" />
		<tag k="name" v="Åmland" />
		<tag k="place" v="hamlet" />
		<tag k="ssr:date" v="2017-08-29" />
		<tag k="ssr:stedsnr" v="728939" />
		<nd ref="-52246" />
		<nd ref="-52247" />
		<nd ref="-52248" />
	</way>
	<way id="-11217">
		<tag k="fixme" v="consider place=farm" />
		<tag k="name" v="Hageland" />
		<tag k="place" v="hamlet" />
		<tag k="ssr:date" v="2017-08-30" />
		<tag k="ssr:stedsnr" v="728918" />
		<nd ref="-52242" />
		<nd ref="-52243" />
		<nd ref="-52244" />
		<nd ref="-52245" />
	</way>
	<way id="-11216">
		<tag k="fixme" v="consider place=farm" />
		<tag k="name" v="Spetteland" />
		<tag k="place" v="hamlet" />
		<tag k="ssr:date" v="2017-08-30" />
		<tag k="ssr:stedsnr" v="728897" />
		<nd ref="-52239" />
		<nd ref="-52240" />
		<nd ref="-52241" />
	</way>
	<way id="-11215">
		<tag k="fixme" v="consider place=farm" />
		<tag k="name" v="Frostestad" />
		<tag k="place" v="hamlet" />
		<tag k="ssr:date" v="2017-08-29" />
		<tag k="ssr:stedsnr" v="728895" />
		<nd ref="-52236" />
		<nd ref="-52237" />
		<nd ref="-52238" />
	</way>
	<way id="-11214">
		<tag k="alt_name" v="Sodeland" />
		<tag k="fixme" v="consider place=farm" />
		<tag k="name" v="Sodland" />
		<tag k="place" v="hamlet" />
		<tag k="ssr:date" v="2017-08-30" />
		<tag k="ssr:stedsnr" v="728888" />
		<nd ref="-52232" />
		<nd ref="-52233" />
		<nd ref="-52234" />
		<nd ref="-52235" />
	</way>
	<way id="-11211">
		<tag k="alt_name" v="Brinsdal, nedre;Nedre Bringsdal" />
		<tag k="name" v="Nedre Brinsdal" />
		<tag k="place" v="farm" />
		<tag k="ssr:date" v="2016-05-11" />
		<tag k="ssr:stedsnr" v="728837" />
		<nd ref="-52222" />
		<nd ref="-52223" />
		<nd ref="-52224" />
	</way>
	<way id="-11210">
		<tag k="fixme" v="consider place=farm" />
		<tag k="name" v="Nomedal" />
		<tag k="place" v="hamlet" />
		<tag k="ssr:date" v="2017-08-31" />
		<tag k="ssr:stedsnr" v="728835" />
		<nd ref="-52220" />
		<nd ref="-52221" />
	</way>
	<way id="-11209">
		<tag k="fixme" v="consider place=farm" />
		<tag k="name" v="Røyseland" />
		<tag k="place" v="hamlet" />
		<tag k="ssr:date" v="2017-08-31" />
		<tag k="ssr:stedsnr" v="728831" />
		<nd ref="-52216" />
		<nd ref="-52217" />
		<nd ref="-52218" />
		<nd ref="-52219" />
	</way>
	<way id="-11188">
		<tag k="alt_name" v="Kaddeland" />
		<tag k="name" v="Kalland" />
		<tag k="place" v="farm" />
		<tag k="ssr:date" v="2016-05-10" />
		<tag k="ssr:stedsnr" v="668828" />
		<nd ref="-52013" />
		<nd ref="-52014" />
		<nd ref="-52015" />
	</way>
	<way id="-11187">
		<tag k="fixme" v="consider place=farm" />
		<tag k="name" v="Systad" />
		<tag k="place" v="hamlet" />
		<tag k="ssr:date" v="2017-08-31" />
		<tag k="ssr:stedsnr" v="668820" />
		<nd ref="-52009" />
		<nd ref="-52010" />
		<nd ref="-52011" />
		<nd ref="-52012" />
	</way>
	<way id="-11186">
		<tag k="fixme" v="consider place=farm" />
		<tag k="name" v="Lunde" />
		<tag k="place" v="hamlet" />
		<tag k="ssr:date" v="2017-08-30" />
		<tag k="ssr:stedsnr" v="667989" />
		<nd ref="-52005" />
		<nd ref="-52006" />
		<nd ref="-52007" />
		<nd ref="-52008" />
	</way>
	<way id="-11183">
		<tag k="alt_name" v="Skinsnes" />
		<tag k="name" v="Skinnsnes" />
		<tag k="place" v="village" />
		<tag k="ssr:date" v="2016-05-10" />
		<tag k="ssr:stedsnr" v="667978" />
		<nd ref="-51996" />
		<nd ref="-51997" />
	</way>
	<way id="-11182">
		<tag k="name" v="Rennes" />
		<tag k="place" v="farm" />
		<tag k="ssr:date" v="2016-05-10" />
		<tag k="ssr:stedsnr" v="667974" />
		<nd ref="-51993" />
		<nd ref="-51994" />
		<nd ref="-51995" />
	</way>
	<way id="-11181">
		<tag k="alt_name" v="Fuvika" />
		<tag k="fixme" v="consider place=farm" />
		<tag k="name" v="Fuvik" />
		<tag k="place" v="hamlet" />
		<tag k="ssr:date" v="2017-08-29" />
		<tag k="ssr:stedsnr" v="667950" />
		<nd ref="-51989" />
		<nd ref="-51990" />
		<nd ref="-51991" />
		<nd ref="-51992" />
	</way>
	<way id="-11179">
		<tag k="name" v="Kleivan" />
		<tag k="place" v="farm" />
		<tag k="ssr:date" v="2016-05-10" />
		<tag k="ssr:stedsnr" v="667913" />
		<nd ref="-51984" />
		<nd ref="-51985" />
		<nd ref="-51986" />
	</way>
	<way id="-11177">
		<tag k="alt_name" v="Fjell" />
		<tag k="fixme" v="consider place=farm" />
		<tag k="name" v="Fjellet" />
		<tag k="place" v="hamlet" />
		<tag k="ssr:date" v="2017-08-31" />
		<tag k="ssr:stedsnr" v="667905" />
		<nd ref="-51978" />
		<nd ref="-51979" />
		<nd ref="-51980" />
	</way>
	<way id="-11176">
		<tag k="name" v="Holtebakken" />
		<tag k="place" v="farm" />
		<tag k="ssr:date" v="2016-05-10" />
		<tag k="ssr:stedsnr" v="667899" />
		<nd ref="-51975" />
		<nd ref="-51976" />
		<nd ref="-51977" />
	</way>
	<way id="-11175">
		<tag k="name" v="Øya" />
		<tag k="place" v="farm" />
		<tag k="ssr:date" v="2016-05-10" />
		<tag k="ssr:stedsnr" v="667877" />
		<nd ref="-51972" />
		<nd ref="-51973" />
		<nd ref="-51974" />
	</way>
	<way id="-11174">
		<tag k="name" v="Engedalen" />
		<tag k="place" v="farm" />
		<tag k="ssr:date" v="2016-05-10" />
		<tag k="ssr:stedsnr" v="667866" />
		<nd ref="-51969" />
		<nd ref="-51970" />
		<nd ref="-51971" />
	</way>
	<way id="-11173">
		<tag k="name" v="Haddeland" />
		<tag k="place" v="farm" />
		<tag k="ssr:date" v="2016-05-10" />
		<tag k="ssr:stedsnr" v="667864" />
		<nd ref="-51966" />
		<nd ref="-51967" />
		<nd ref="-51968" />
	</way>
	<way id="-11172">
		<tag k="alt_name" v="Bjøllandslian" />
		<tag k="name" v="Lian" />
		<tag k="place" v="farm" />
		<tag k="ssr:date" v="2016-05-10" />
		<tag k="ssr:stedsnr" v="667845" />
		<nd ref="-51964" />
		<nd ref="-51965" />
	</way>
	<way id="-11171">
		<tag k="fixme" v="multiple name tags, choose one and add the other to alt_name; consider place=farm" />
		<tag k="name" v="Upsåker;Opsåker" />
		<tag k="place" v="hamlet" />
		<tag k="ssr:date" v="2017-08-30" />
		<tag k="ssr:stedsnr" v="667828" />
		<nd ref="-51961" />
		<nd ref="-51962" />
		<nd ref="-51963" />
	</way>
	<way id="-11170">
		<tag k="fixme" v="consider place=farm" />
		<tag k="name" v="Fuskeland" />
		<tag k="place" v="hamlet" />
		<tag k="ssr:date" v="2017-08-30" />
		<tag k="ssr:stedsnr" v="667813" />
		<nd ref="-51957" />
		<nd ref="-51958" />
		<nd ref="-51959" />
		<nd ref="-51960" />
	</way>
	<way id="-11169">
		<tag k="alt_name" v="Smeland" />
		<tag k="fixme" v="consider place=farm" />
		<tag k="name" v="Smedland" />
		<tag k="place" v="hamlet" />
		<tag k="ssr:date" v="2017-08-30" />
		<tag k="ssr:stedsnr" v="667716" />
		<nd ref="-51953" />
		<nd ref="-51954" />
		<nd ref="-51955" />
		<nd ref="-51956" />
	</way>
	<way id="-11168">
		<tag k="fixme" v="consider place=farm" />
		<tag k="name" v="Holmesland" />
		<tag k="place" v="hamlet" />
		<tag k="ssr:date" v="2017-08-30" />
		<tag k="ssr:stedsnr" v="667704" />
		<nd ref="-51950" />
		<nd ref="-51951" />
		<nd ref="-51952" />
	</way>
	<way id="-11162">
		<tag k="alt_name" v="Rosnes" />
		<tag k="name" v="Rossnes" />
		<tag k="place" v="hamlet" />
		<tag k="ssr:date" v="2016-05-10" />
		<tag k="ssr:stedsnr" v="667059" />
		<nd ref="-51928" />
		<nd ref="-51929" />
	</way>
	<way id="-11158">
		<tag k="fixme" v="consider place=suburb, village or hamlet" />
		<tag k="name" v="Nedre Malmø" />
		<tag k="place" v="neighbourhood" />
		<tag k="ssr:date" v="2016-05-10" />
		<tag k="ssr:stedsnr" v="663874" />
		<nd ref="-51915" />
		<nd ref="-51916" />
	</way>
	<way id="-11144">
		<tag k="alt_name" v="Kolstad" />
		<tag k="fixme" v="consider place=farm" />
		<tag k="name" v="Kollstad" />
		<tag k="place" v="hamlet" />
		<tag k="ssr:date" v="2017-08-30" />
		<tag k="ssr:stedsnr" v="607812" />
		<nd ref="-51717" />
		<nd ref="-51718" />
		<nd ref="-51719" />
	</way>
	<way id="-11143">
		<tag k="fixme" v="consider place=farm" />
		<tag k="name" v="Vrå" />
		<tag k="place" v="hamlet" />
		<tag k="ssr:date" v="2017-08-30" />
		<tag k="ssr:stedsnr" v="607806" />
		<nd ref="-51713" />
		<nd ref="-51714" />
		<nd ref="-51715" />
		<nd ref="-51716" />
	</way>
	<way id="-11141">
		<tag k="name" v="Harkmark" />
		<tag k="place" v="hamlet" />
		<tag k="ssr:date" v="2016-05-10" />
		<tag k="ssr:stedsnr" v="606976" />
		<nd ref="-51708" />
		<nd ref="-51709" />
	</way>
	<way id="-11140">
		<tag k="name" v="Dammen" />
		<tag k="place" v="farm" />
		<tag k="ssr:date" v="2016-05-10" />
		<tag k="ssr:stedsnr" v="606951" />
		<nd ref="-51705" />
		<nd ref="-51706" />
		<nd ref="-51707" />
	</way>
	<way id="-11138">
		<tag k="fixme" v="consider place=farm" />
		<tag k="name" v="Kige" />
		<tag k="place" v="hamlet" />
		<tag k="ssr:date" v="2017-08-29" />
		<tag k="ssr:stedsnr" v="606941" />
		<nd ref="-51697" />
		<nd ref="-51698" />
		<nd ref="-51699" />
		<nd ref="-51700" />
	</way>
	<way id="-11135">
		<tag k="alt_name" v="Ytre Laustø" />
		<tag k="fixme" v="multiple name tags, choose one and add the other to alt_name; consider place=farm" />
		<tag k="name" v="Lauvstøl;Ytre Lauvstø" />
		<tag k="place" v="hamlet" />
		<tag k="ssr:date" v="2017-08-30" />
		<tag k="ssr:stedsnr" v="606917" />
		<nd ref="-51688" />
		<nd ref="-51689" />
		<nd ref="-51690" />
	</way>
	<way id="-11134">
		<tag k="alt_name" v="Rosshaven" />
		<tag k="fixme" v="consider place=farm" />
		<tag k="name" v="Rosshagen" />
		<tag k="place" v="hamlet" />
		<tag k="ssr:date" v="2017-08-29" />
		<tag k="ssr:stedsnr" v="606894" />
		<nd ref="-51685" />
		<nd ref="-51686" />
		<nd ref="-51687" />
	</way>
	<way id="-11132">
		<tag k="fixme" v="consider place=farm" />
		<tag k="name" v="Eikeland" />
		<tag k="place" v="hamlet" />
		<tag k="ssr:date" v="2017-08-30" />
		<tag k="ssr:stedsnr" v="606742" />
		<nd ref="-51678" />
		<nd ref="-51679" />
		<nd ref="-51680" />
		<nd ref="-51681" />
	</way>
	<way id="-11130">
		<tag k="name" v="Tånes" />
		<tag k="place" v="farm" />
		<tag k="ssr:date" v="2016-05-10" />
		<tag k="ssr:stedsnr" v="606073" />
		<nd ref="-51671" />
		<nd ref="-51672" />
		<nd ref="-51673" />
	</way>
	<way id="-11122">
		<tag k="fixme" v="consider place=hamlet" />
		<tag k="name" v="Vestre Skogsfjord" />
		<tag k="place" v="village" />
		<tag k="ssr:date" v="2016-05-10" />
		<tag k="ssr:stedsnr" v="606874" />
		<nd ref="-51629" />
		<nd ref="-51630" />
		<nd ref="-51631" />
	</way>
	<way id="-11121">
		<tag k="fixme" v="consider place=hamlet" />
		<tag k="name" v="Rugland" />
		<tag k="place" v="village" />
		<tag k="ssr:date" v="2016-05-10" />
		<tag k="ssr:stedsnr" v="606872" />
		<nd ref="-51627" />
		<nd ref="-51628" />
	</way>
	<way id="-11111">
		<tag k="fixme" v="consider place=farm" />
		<tag k="name" v="Berge" />
		<tag k="place" v="hamlet" />
		<tag k="ssr:date" v="2017-08-29" />
		<tag k="ssr:stedsnr" v="546987" />
		<nd ref="-51450" />
		<nd ref="-51451" />
	</way>
	<way id="-11109">
		<tag k="fixme" v="consider place=farm" />
		<tag k="name" v="Valle" />
		<tag k="place" v="hamlet" />
		<tag k="ssr:date" v="2017-08-30" />
		<tag k="ssr:stedsnr" v="546982" />
		<nd ref="-51441" />
		<nd ref="-51442" />
		<nd ref="-51443" />
		<nd ref="-51444" />
	</way>
	<way id="-11108">
		<tag k="fixme" v="consider place=farm" />
		<tag k="name" v="Jåbekk" />
		<tag k="place" v="hamlet" />
		<tag k="ssr:date" v="2017-08-29" />
		<tag k="ssr:stedsnr" v="546962" />
		<nd ref="-51438" />
		<nd ref="-51439" />
		<nd ref="-51440" />
	</way>
	<way id="-11106">
		<tag k="name" v="Hoven" />
		<tag k="place" v="farm" />
		<tag k="ssr:date" v="2016-05-10" />
		<tag k="ssr:stedsnr" v="546951" />
		<nd ref="-51431" />
		<nd ref="-51432" />
		<nd ref="-51433" />
		<nd ref="-51434" />
	</way>
	<way id="-11105">
		<tag k="alt_name" v="Nodeland" />
		<tag k="fixme" v="consider place=farm" />
		<tag k="name" v="Nådeland" />
		<tag k="place" v="hamlet" />
		<tag k="ssr:date" v="2017-08-30" />
		<tag k="ssr:stedsnr" v="546942" />
		<nd ref="-51428" />
		<nd ref="-51429" />
		<nd ref="-51430" />
	</way>
	<way id="-11104">
		<tag k="alt_name" v="Lillestøl" />
		<tag k="name" v="Lillestølen" />
		<tag k="place" v="farm" />
		<tag k="ssr:date" v="2016-05-10" />
		<tag k="ssr:stedsnr" v="546937" />
		<nd ref="-51425" />
		<nd ref="-51426" />
		<nd ref="-51427" />
	</way>
	<way id="-11103">
		<tag k="fixme" v="consider place=farm" />
		<tag k="name" v="Ausland" />
		<tag k="place" v="hamlet" />
		<tag k="ssr:date" v="2017-08-29" />
		<tag k="ssr:stedsnr" v="546934" />
		<nd ref="-51422" />
		<nd ref="-51423" />
		<nd ref="-51424" />
	</way>
	<way id="-11102">
		<tag k="fixme" v="consider place=farm" />
		<tag k="name" v="Hille" />
		<tag k="place" v="hamlet" />
		<tag k="ssr:date" v="2017-08-30" />
		<tag k="ssr:stedsnr" v="546927" />
		<nd ref="-51419" />
		<nd ref="-51420" />
		<nd ref="-51421" />
	</way>
	<way id="-11099">
		<tag k="name" v="Skogen" />
		<tag k="place" v="farm" />
		<tag k="ssr:date" v="2016-05-10" />
		<tag k="ssr:stedsnr" v="546887" />
		<nd ref="-51410" />
		<nd ref="-51411" />
		<nd ref="-51412" />
	</way>
	<way id="-11098">
		<tag k="alt_name" v="Skogsfjord, Austre;Østre Skogsfjord" />
		<tag k="fixme" v="consider place=suburb, village or hamlet" />
		<tag k="name" v="Austre Skogsfjord" />
		<tag k="place" v="neighbourhood" />
		<tag k="ssr:date" v="2016-05-10" />
		<tag k="ssr:stedsnr" v="546870" />
		<nd ref="-51408" />
		<nd ref="-51409" />
	</way>
	<way id="-11097">
		<tag k="name" v="Støa" />
		<tag k="place" v="farm" />
		<tag k="ssr:date" v="2016-05-10" />
		<tag k="ssr:stedsnr" v="546863" />
		<nd ref="-51405" />
		<nd ref="-51406" />
		<nd ref="-51407" />
	</way>
	<way id="-11096">
		<tag k="fixme" v="consider place=farm" />
		<tag k="name" v="Fodnebø" />
		<tag k="place" v="hamlet" />
		<tag k="ssr:date" v="2017-08-30" />
		<tag k="ssr:stedsnr" v="546848" />
		<nd ref="-51402" />
		<nd ref="-51403" />
		<nd ref="-51404" />
	</way>
	<way id="-11094">
		<tag k="fixme" v="consider place=farm" />
		<tag k="name" v="Håland" />
		<tag k="place" v="hamlet" />
		<tag k="ssr:date" v="2017-08-30" />
		<tag k="ssr:stedsnr" v="546838" />
		<nd ref="-51397" />
		<nd ref="-51398" />
	</way>
	<way id="-11091">
		<tag k="fixme" v="consider place=farm" />
		<tag k="name" v="Skrøvje" />
		<tag k="place" v="hamlet" />
		<tag k="ssr:date" v="2017-08-30" />
		<tag k="ssr:stedsnr" v="546815" />
		<nd ref="-51386" />
		<nd ref="-51387" />
		<nd ref="-51388" />
		<nd ref="-51389" />
	</way>
	<way id="-11090">
		<tag k="fixme" v="consider place=farm" />
		<tag k="name" v="Hommen" />
		<tag k="place" v="hamlet" />
		<tag k="ssr:date" v="2017-08-30" />
		<tag k="ssr:stedsnr" v="546798" />
		<nd ref="-51383" />
		<nd ref="-51384" />
		<nd ref="-51385" />
	</way>
	<way id="-11089">
		<tag k="name" v="Solås" />
		<tag k="place" v="farm" />
		<tag k="ssr:date" v="2016-05-10" />
		<tag k="ssr:stedsnr" v="546731" />
		<nd ref="-51379" />
		<nd ref="-51380" />
		<nd ref="-51381" />
		<nd ref="-51382" />
	</way>
	<way id="-11087">
		<tag k="name" v="Li" />
		<tag k="place" v="farm" />
		<tag k="ssr:date" v="2016-05-10" />
		<tag k="ssr:stedsnr" v="546696" />
		<nd ref="-51374" />
		<nd ref="-51375" />
	</way>
	<way id="-11065">
		<tag k="fixme" v="consider place=hamlet" />
		<tag k="name" v="Hjorteland" />
		<tag k="place" v="village" />
		<tag k="ssr:date" v="2016-05-10" />
		<tag k="ssr:stedsnr" v="485997" />
		<nd ref="-51145" />
		<nd ref="-51146" />
	</way>
	<way id="-11061">
		<tag k="fixme" v="consider place=farm" />
		<tag k="name" v="Greipsland" />
		<tag k="place" v="hamlet" />
		<tag k="ssr:date" v="2017-08-30" />
		<tag k="ssr:stedsnr" v="485869" />
		<nd ref="-51129" />
		<nd ref="-51130" />
		<nd ref="-51131" />
		<nd ref="-51132" />
	</way>
	<way id="-11060">
		<tag k="fixme" v="consider place=hamlet" />
		<tag k="name" v="Stoveland" />
		<tag k="place" v="village" />
		<tag k="ssr:date" v="2016-05-10" />
		<tag k="ssr:stedsnr" v="485853" />
		<nd ref="-51127" />
		<nd ref="-51128" />
	</way>
	<way id="-11058">
		<tag k="fixme" v="consider place=farm" />
		<tag k="name" v="Bjørkenes" />
		<tag k="place" v="hamlet" />
		<tag k="ssr:date" v="2017-08-30" />
		<tag k="ssr:stedsnr" v="485710" />
		<nd ref="-51121" />
		<nd ref="-51122" />
		<nd ref="-51123" />
	</way>
	<way id="-11057">
		<tag k="fixme" v="consider place=farm" />
		<tag k="name" v="Hauge" />
		<tag k="place" v="hamlet" />
		<tag k="ssr:date" v="2017-08-31" />
		<tag k="ssr:stedsnr" v="485708" />
		<nd ref="-51117" />
		<nd ref="-51118" />
		<nd ref="-51119" />
		<nd ref="-51120" />
	</way>
	<way id="-11055">
		<tag k="name" v="Hoggandvik" />
		<tag k="place" v="farm" />
		<tag k="ssr:date" v="2016-05-10" />
		<tag k="ssr:stedsnr" v="485683" />
		<nd ref="-51113" />
		<nd ref="-51114" />
	</way>
	<way id="-11053">
		<tag k="alt_name" v="Malmøy" />
		<tag k="name" v="Malmø" />
		<tag k="place" v="suburb" />
		<tag k="ssr:date" v="2016-05-10" />
		<tag k="ssr:stedsnr" v="485970" />
		<nd ref="-51105" />
		<nd ref="-51106" />
		<nd ref="-51107" />
		<nd ref="-51108" />
	</way>
	<way id="-11051">
		<tag k="name" v="Kvistedal" />
		<tag k="place" v="farm" />
		<tag k="ssr:date" v="2016-05-10" />
		<tag k="ssr:stedsnr" v="485958" />
		<nd ref="-51100" />
		<nd ref="-51101" />
		<nd ref="-51102" />
	</way>
	<way id="-11050">
		<tag k="alt_name" v="Suvatne" />
		<tag k="fixme" v="multiple name tags, choose one and add the other to alt_name; consider place=farm" />
		<tag k="name" v="Suvatnet;Suvann" />
		<tag k="place" v="hamlet" />
		<tag k="ssr:date" v="2017-08-31" />
		<tag k="ssr:stedsnr" v="485944" />
		<nd ref="-51097" />
		<nd ref="-51098" />
		<nd ref="-51099" />
	</way>
	<way id="-11049">
		<tag k="alt_name" v="Stiland" />
		<tag k="name" v="Stigland" />
		<tag k="place" v="farm" />
		<tag k="ssr:date" v="2016-05-10" />
		<tag k="ssr:stedsnr" v="485926" />
		<nd ref="-51094" />
		<nd ref="-51095" />
		<nd ref="-51096" />
	</way>
	<way id="-11048">
		<tag k="alt_name" v="Vestre Kjerr" />
		<tag k="name" v="Kjerr" />
		<tag k="place" v="farm" />
		<tag k="ssr:date" v="2016-05-10" />
		<tag k="ssr:stedsnr" v="485925" />
		<nd ref="-51092" />
		<nd ref="-51093" />
	</way>
	<way id="-11030">
		<tag k="fixme" v="consider place=isolated_dwelling if not a farm" />
		<tag k="name" v="Mones" />
		<tag k="place" v="farm" />
		<tag k="ssr:date" v="2016-05-10" />
		<tag k="ssr:stedsnr" v="425985" />
		<nd ref="-50901" />
		<nd ref="-50902" />
		<nd ref="-50903" />
	</way>
	<way id="-11029">
		<tag k="alt_name" v="Håland østre" />
		<tag k="fixme" v="consider place=farm" />
		<tag k="name" v="Håland" />
		<tag k="place" v="hamlet" />
		<tag k="ssr:date" v="2017-08-29" />
		<tag k="ssr:stedsnr" v="425975" />
		<nd ref="-50899" />
		<nd ref="-50900" />
	</way>
	<way id="-11027">
		<tag k="alt_name" v="Regevik" />
		<tag k="name" v="Rekevik" />
		<tag k="place" v="farm" />
		<tag k="ssr:date" v="2016-05-10" />
		<tag k="ssr:stedsnr" v="425963" />
		<nd ref="-50893" />
		<nd ref="-50894" />
		<nd ref="-50895" />
	</way>
	<way id="-11026">
		<tag k="alt_name" v="Tuftenes" />
		<tag k="name" v="Toftenes" />
		<tag k="place" v="hamlet" />
		<tag k="ssr:date" v="2016-05-10" />
		<tag k="ssr:stedsnr" v="425949" />
		<nd ref="-50891" />
		<nd ref="-50892" />
	</way>
	<way id="-11025">
		<tag k="fixme" v="consider place=farm" />
		<tag k="name" v="Lande" />
		<tag k="place" v="hamlet" />
		<tag k="ssr:date" v="2017-08-30" />
		<tag k="ssr:stedsnr" v="425935" />
		<nd ref="-50888" />
		<nd ref="-50889" />
		<nd ref="-50890" />
	</way>
	<way id="-11022">
		<tag k="fixme" v="consider place=farm" />
		<tag k="name" v="Lia" />
		<tag k="place" v="hamlet" />
		<tag k="ssr:date" v="2017-08-29" />
		<tag k="ssr:stedsnr" v="425907" />
		<nd ref="-50878" />
		<nd ref="-50879" />
		<nd ref="-50880" />
	</way>
	<way id="-11021">
		<tag k="fixme" v="consider place=farm" />
		<tag k="name" v="Skadberg" />
		<tag k="place" v="hamlet" />
		<tag k="ssr:date" v="2017-08-29" />
		<tag k="ssr:stedsnr" v="425906" />
		<nd ref="-50874" />
		<nd ref="-50875" />
		<nd ref="-50876" />
		<nd ref="-50877" />
	</way>
	<way id="-11018">
		<tag k="alt_name" v="Nyvollshaven" />
		<tag k="fixme" v="consider place=farm" />
		<tag k="name" v="Nyvoll" />
		<tag k="place" v="hamlet" />
		<tag k="ssr:date" v="2017-08-30" />
		<tag k="ssr:stedsnr" v="425881" />
		<nd ref="-50864" />
		<nd ref="-50865" />
		<nd ref="-50866" />
	</way>
	<way id="-11014">
		<tag k="name" v="Engedalen" />
		<tag k="place" v="farm" />
		<tag k="ssr:date" v="2016-05-10" />
		<tag k="ssr:stedsnr" v="425839" />
		<nd ref="-50851" />
		<nd ref="-50852" />
		<nd ref="-50853" />
	</way>
	<way id="-11011">
		<tag k="alt_name" v="Svinestad" />
		<tag k="fixme" v="consider place=farm" />
		<tag k="name" v="Svinstad" />
		<tag k="place" v="hamlet" />
		<tag k="ssr:date" v="2017-08-30" />
		<tag k="ssr:stedsnr" v="425790" />
		<nd ref="-50843" />
		<nd ref="-50844" />
		<nd ref="-50845" />
	</way>
	<way id="-10989">
		<tag k="fixme" v="consider place=farm" />
		<tag k="name" v="Ormestad" />
		<tag k="place" v="hamlet" />
		<tag k="ssr:date" v="2017-08-29" />
		<tag k="ssr:stedsnr" v="243990" />
		<nd ref="-50656" />
		<nd ref="-50657" />
		<nd ref="-50658" />
	</way>
	<way id="-10988">
		<tag k="alt_name" v="Hogganvik" />
		<tag k="fixme" v="consider place=farm" />
		<tag k="name" v="Hoggandvik" />
		<tag k="place" v="hamlet" />
		<tag k="ssr:date" v="2017-08-30" />
		<tag k="ssr:stedsnr" v="243987" />
		<nd ref="-50652" />
		<nd ref="-50653" />
		<nd ref="-50654" />
		<nd ref="-50655" />
	</way>
	<way id="-10987">
		<tag k="fixme" v="consider place=farm" />
		<tag k="name" v="Osnes" />
		<tag k="place" v="hamlet" />
		<tag k="ssr:date" v="2017-08-29" />
		<tag k="ssr:stedsnr" v="243972" />
		<nd ref="-50647" />
		<nd ref="-50648" />
		<nd ref="-50649" />
		<nd ref="-50650" />
	</way>
	<way id="-10984">
		<tag k="fixme" v="consider place=farm" />
		<tag k="name" v="Holte" />
		<tag k="place" v="hamlet" />
		<tag k="ssr:date" v="2017-08-29" />
		<tag k="ssr:stedsnr" v="243899" />
		<nd ref="-50638" />
		<nd ref="-50639" />
		<nd ref="-50640" />
	</way>
	<way id="-10983">
		<tag k="fixme" v="consider place=farm" />
		<tag k="name" v="Hesland" />
		<tag k="place" v="hamlet" />
		<tag k="ssr:date" v="2017-08-29" />
		<tag k="ssr:stedsnr" v="243883" />
		<nd ref="-50635" />
		<nd ref="-50636" />
		<nd ref="-50637" />
	</way>
	<way id="-10982">
		<tag k="alt_name" v="Vetnes" />
		<tag k="fixme" v="consider place=farm" />
		<tag k="name" v="Vætnes" />
		<tag k="place" v="hamlet" />
		<tag k="ssr:date" v="2017-08-31" />
		<tag k="ssr:stedsnr" v="243880" />
		<nd ref="-50632" />
		<nd ref="-50633" />
		<nd ref="-50634" />
	</way>
	<way id="-10981">
		<tag k="fixme" v="multiple name tags, choose one and add the other to alt_name" />
		<tag k="name" v="Holmegård;Holum" />
		<tag k="place" v="farm" />
		<tag k="ssr:date" v="2017-08-30" />
		<tag k="ssr:stedsnr" v="243836" />
		<nd ref="-50630" />
		<nd ref="-50631" />
	</way>
	<way id="-10980">
		<tag k="name" v="Li" />
		<tag k="place" v="farm" />
		<tag k="ssr:date" v="2016-05-10" />
		<tag k="ssr:stedsnr" v="243833" />
		<nd ref="-50627" />
		<nd ref="-50628" />
		<nd ref="-50629" />
	</way>
	<way id="-10978">
		<tag k="alt_name" v="Gjervoldstad" />
		<tag k="fixme" v="consider place=farm" />
		<tag k="name" v="Gjervollstad" />
		<tag k="place" v="hamlet" />
		<tag k="ssr:date" v="2017-08-30" />
		<tag k="ssr:stedsnr" v="243815" />
		<nd ref="-50620" />
		<nd ref="-50621" />
		<nd ref="-50622" />
	</way>
	<way id="-10975">
		<tag k="fixme" v="consider place=farm" />
		<tag k="name" v="Høksås" />
		<tag k="place" v="hamlet" />
		<tag k="ssr:date" v="2017-08-30" />
		<tag k="ssr:stedsnr" v="243955" />
		<nd ref="-50611" />
		<nd ref="-50612" />
		<nd ref="-50613" />
	</way>
	<way id="-10974">
		<tag k="alt_name" v="Lundevig" />
		<tag k="name" v="Lundevik" />
		<tag k="place" v="hamlet" />
		<tag k="ssr:date" v="2016-05-10" />
		<tag k="ssr:stedsnr" v="243673" />
		<nd ref="-50609" />
		<nd ref="-50610" />
	</way>
	<way id="-10972">
		<tag k="name" v="Sandvika" />
		<tag k="place" v="farm" />
		<tag k="ssr:date" v="2016-05-10" />
		<tag k="ssr:stedsnr" v="243051" />
		<nd ref="-50602" />
		<nd ref="-50603" />
		<nd ref="-50604" />
	</way>
	<way id="-10959">
		<tag k="alt_name" v="Storaker" />
		<tag k="fixme" v="consider place=farm" />
		<tag k="name" v="Storåker" />
		<tag k="place" v="hamlet" />
		<tag k="ssr:date" v="2017-08-29" />
		<tag k="ssr:stedsnr" v="182984" />
		<nd ref="-50431" />
		<nd ref="-50432" />
		<nd ref="-50433" />
		<nd ref="-50434" />
		<nd ref="-50435" />
	</way>
	<way id="-10958">
		<tag k="fixme" v="consider place=isolated_dwelling if not a farm" />
		<tag k="name" v="Ulvegjelet" />
		<tag k="place" v="farm" />
		<tag k="ssr:date" v="2016-05-10" />
		<tag k="ssr:stedsnr" v="182979" />
		<nd ref="-50428" />
		<nd ref="-50429" />
		<nd ref="-50430" />
	</way>
	<way id="-10957">
		<tag k="alt_name" v="Dybo" />
		<tag k="fixme" v="consider place=farm" />
		<tag k="name" v="Djubo" />
		<tag k="place" v="hamlet" />
		<tag k="ssr:date" v="2017-08-29" />
		<tag k="ssr:stedsnr" v="182972" />
		<nd ref="-50425" />
		<nd ref="-50426" />
		<nd ref="-50427" />
	</way>
	<way id="-10954">
		<tag k="alt_name" v="Skeipstad" />
		<tag k="name" v="Skjebstad" />
		<tag k="place" v="suburb" />
		<tag k="ssr:date" v="2016-05-10" />
		<tag k="ssr:stedsnr" v="182962" />
		<nd ref="-50415" />
		<nd ref="-50416" />
		<nd ref="-50417" />
	</way>
	<way id="-10953">
		<tag k="fixme" v="consider place=isolated_dwelling if not a farm" />
		<tag k="name" v="Sjøsanden" />
		<tag k="place" v="farm" />
		<tag k="ssr:date" v="2016-05-10" />
		<tag k="ssr:stedsnr" v="182944" />
		<nd ref="-50411" />
		<nd ref="-50412" />
		<nd ref="-50413" />
		<nd ref="-50414" />
	</way>
	<way id="-10951">
		<tag k="alt_name" v="Undal" />
		<tag k="name" v="Unndal" />
		<tag k="place" v="farm" />
		<tag k="ssr:date" v="2016-05-10" />
		<tag k="ssr:stedsnr" v="182913" />
		<nd ref="-50404" />
		<nd ref="-50405" />
		<nd ref="-50406" />
	</way>
	<way id="-10942">
		<tag k="fixme" v="consider place=farm" />
		<tag k="name" v="Skreppestad" />
		<tag k="place" v="hamlet" />
		<tag k="ssr:date" v="2017-08-31" />
		<tag k="ssr:stedsnr" v="182733" />
		<nd ref="-50376" />
		<nd ref="-50377" />
		<nd ref="-50378" />
	</way>
	<way id="-10937">
		<tag k="fixme" v="consider place=suburb, village or hamlet" />
		<tag k="name" v="Tregde" />
		<tag k="place" v="neighbourhood" />
		<tag k="ssr:date" v="2016-05-10" />
		<tag k="ssr:stedsnr" v="182053" />
		<nd ref="-50357" />
		<nd ref="-50358" />
	</way>
	<way id="-10936">
		<tag k="fixme" v="consider place=farm" />
		<tag k="name" v="Frivoll" />
		<tag k="place" v="hamlet" />
		<tag k="ssr:date" v="2017-08-29" />
		<tag k="ssr:stedsnr" v="182051" />
		<nd ref="-50354" />
		<nd ref="-50355" />
		<nd ref="-50356" />
	</way>
	<way id="-10783">
		<tag k="fixme" v="multiple name tags, choose one and add the other to alt_name; consider place=farm" />
		<tag k="name" v="Ræge;Ræke" />
		<tag k="place" v="hamlet" />
		<tag k="ssr:date" v="2017-08-29" />
		<tag k="ssr:stedsnr" v="121887" />
		<nd ref="-49250" />
		<nd ref="-49251" />
		<nd ref="-49252" />
	</way>
	<way id="-10918">
		<tag k="fixme" v="consider place=farm" />
		<tag k="name" v="Valand" />
		<tag k="place" v="hamlet" />
		<tag k="ssr:date" v="2017-08-31" />
		<tag k="ssr:stedsnr" v="121998" />
		<nd ref="-50158" />
		<nd ref="-50159" />
		<nd ref="-50160" />
		<nd ref="-50161" />
		<nd ref="-50162" />
	</way>
	<way id="-10916">
		<tag k="fixme" v="multiple name tags, choose one and add the other to alt_name; consider place=farm" />
		<tag k="name" v="Ormestrengen;Ormestreng" />
		<tag k="place" v="hamlet" />
		<tag k="ssr:date" v="2017-08-29" />
		<tag k="ssr:stedsnr" v="121993" />
		<nd ref="-50152" />
		<nd ref="-50153" />
		<nd ref="-50154" />
	</way>
	<way id="-10915">
		<tag k="fixme" v="consider place=farm" />
		<tag k="name" v="Lian" />
		<tag k="place" v="hamlet" />
		<tag k="ssr:date" v="2017-08-29" />
		<tag k="ssr:stedsnr" v="121987" />
		<nd ref="-50148" />
		<nd ref="-50149" />
		<nd ref="-50150" />
		<nd ref="-50151" />
	</way>
	<way id="-10913">
		<tag k="building" v="industrial" />
		<tag k="name" v="Buøya" />
		<tag k="ssr:date" v="2016-05-10" />
		<tag k="ssr:stedsnr" v="121976" />
		<nd ref="-50137" />
		<nd ref="-50138" />
		<nd ref="-50139" />
	</way>
	<way id="-10908">
		<tag k="alt_name" v="Vestre Vatne" />
		<tag k="fixme" v="consider place=farm" />
		<tag k="name" v="Vatne" />
		<tag k="place" v="hamlet" />
		<tag k="ssr:date" v="2017-08-31" />
		<tag k="ssr:stedsnr" v="121916" />
		<nd ref="-50121" />
		<nd ref="-50122" />
		<nd ref="-50123" />
		<nd ref="-50124" />
	</way>
	<way id="-10904">
		<tag k="alt_name" v="Nedre Nøding" />
		<tag k="name" v="Nøding" />
		<tag k="place" v="farm" />
		<tag k="ssr:date" v="2016-05-10" />
		<tag k="ssr:stedsnr" v="121854" />
		<nd ref="-50109" />
		<nd ref="-50110" />
		<nd ref="-50111" />
	</way>
	<way id="-10900">
		<tag k="fixme" v="consider place=farm" />
		<tag k="name" v="Klepp" />
		<tag k="place" v="hamlet" />
		<tag k="ssr:date" v="2017-08-30" />
		<tag k="ssr:stedsnr" v="121831" />
		<nd ref="-50098" />
		<nd ref="-50099" />
	</way>
	<way id="-10898">
		<tag k="name" v="Dalan" />
		<tag k="place" v="farm" />
		<tag k="ssr:date" v="2016-05-10" />
		<tag k="ssr:stedsnr" v="121087" />
		<nd ref="-50092" />
		<nd ref="-50093" />
		<nd ref="-50094" />
	</way>
	<way id="-10889">
		<tag k="fixme" v="consider place=farm" />
		<tag k="name" v="Brattestø" />
		<tag k="place" v="hamlet" />
		<tag k="ssr:date" v="2017-08-30" />
		<tag k="ssr:stedsnr" v="86875" />
		<nd ref="-50019" />
		<nd ref="-50020" />
	</way>
	<way id="-10876">
		<tag k="alt_name" v="Sti" />
		<tag k="name" v="Stig" />
		<tag k="place" v="farm" />
		<tag k="ssr:date" v="2017-08-29" />
		<tag k="ssr:stedsnr" v="61952" />
		<nd ref="-49879" />
		<nd ref="-49880" />
		<nd ref="-49881" />
		<nd ref="-49882" />
	</way>
	<way id="-10875">
		<tag k="fixme" v="consider place=suburb, village or hamlet" />
		<tag k="name" v="Sånum" />
		<tag k="place" v="neighbourhood" />
		<tag k="ssr:date" v="2016-05-10" />
		<tag k="ssr:stedsnr" v="61949" />
		<nd ref="-49873" />
		<nd ref="-49874" />
		<nd ref="-49875" />
		<nd ref="-49876" />
		<nd ref="-49877" />
		<nd ref="-49878" />
	</way>
	<way id="-10874">
		<tag k="alt_name" v="Ærekjær" />
		<tag k="name" v="Ærekjerr" />
		<tag k="place" v="farm" />
		<tag k="ssr:date" v="2016-05-10" />
		<tag k="ssr:stedsnr" v="61939" />
		<nd ref="-49870" />
		<nd ref="-49871" />
		<nd ref="-49872" />
	</way>
	<way id="-10869">
		<tag k="alt_name" v="Vestre Håland" />
		<tag k="name" v="Håland" />
		<tag k="place" v="farm" />
		<tag k="ssr:date" v="2016-05-10" />
		<tag k="ssr:stedsnr" v="61871" />
		<nd ref="-49851" />
		<nd ref="-49852" />
		<nd ref="-49853" />
	</way>
	<way id="-10866">
		<tag k="alt_name" v="Møll, midtre" />
		<tag k="name" v="Midtre Møll" />
		<tag k="place" v="farm" />
		<tag k="ssr:date" v="2016-05-10" />
		<tag k="ssr:stedsnr" v="61815" />
		<nd ref="-49842" />
		<nd ref="-49843" />
		<nd ref="-49844" />
	</way>
	<way id="-10862">
		<tag k="alt_name" v="Rørvik" />
		<tag k="name" v="Røyrvik" />
		<tag k="place" v="farm" />
		<tag k="ssr:date" v="2016-05-10" />
		<tag k="ssr:stedsnr" v="61736" />
		<nd ref="-49832" />
		<nd ref="-49833" />
	</way>
	<way id="-10770">
		<tag k="name" v="Frøysland" />
		<tag k="place" v="village" />
		<tag k="ssr:date" v="2016-05-10" />
		<tag k="ssr:stedsnr" v="303995" />
		<nd ref="-49070" />
		<nd ref="-49071" />
	</way>
	<way id="-10843">
		<tag k="fixme" v="consider place=farm" />
		<tag k="name" v="Skeie" />
		<tag k="place" v="hamlet" />
		<tag k="ssr:date" v="2017-08-29" />
		<tag k="ssr:stedsnr" v="994" />
		<nd ref="-49610" />
		<nd ref="-49611" />
		<nd ref="-49612" />
		<nd ref="-49613" />
		<nd ref="-49614" />
	</way>
	<way id="-10842">
		<tag k="fixme" v="consider place=hamlet" />
		<tag k="name" v="Hillesund" />
		<tag k="place" v="village" />
		<tag k="ssr:date" v="2016-05-10" />
		<tag k="ssr:stedsnr" v="973" />
		<nd ref="-49608" />
		<nd ref="-49609" />
	</way>
	<way id="-10838">
		<tag k="alt_name" v="Homsvik" />
		<tag k="fixme" v="consider place=farm" />
		<tag k="name" v="Homsvika" />
		<tag k="place" v="hamlet" />
		<tag k="ssr:date" v="2017-08-29" />
		<tag k="ssr:stedsnr" v="950" />
		<nd ref="-49595" />
		<nd ref="-49596" />
		<nd ref="-49597" />
		<nd ref="-49598" />
	</way>
	<way id="-10837">
		<tag k="leisure" v="swimming_area" />
		<tag k="name" v="Banken" />
		<tag k="place" v="locality" />
		<tag k="ssr:date" v="2016-05-10" />
		<tag k="ssr:stedsnr" v="949" />
		<nd ref="-49593" />
		<nd ref="-49594" />
	</way>
	<way id="-10834">
		<tag k="alt_name" v="Haddeland" />
		<tag k="fixme" v="consider place=farm" />
		<tag k="name" v="Helland" />
		<tag k="place" v="hamlet" />
		<tag k="ssr:date" v="2017-08-30" />
		<tag k="ssr:stedsnr" v="914" />
		<nd ref="-49585" />
		<nd ref="-49586" />
		<nd ref="-49587" />
	</way>
	<way id="-10833">
		<tag k="name" v="Løkke" />
		<tag k="place" v="farm" />
		<tag k="ssr:date" v="2016-05-10" />
		<tag k="ssr:stedsnr" v="903" />
		<nd ref="-49582" />
		<nd ref="-49583" />
		<nd ref="-49584" />
	</way>
	<way id="-10832">
		<tag k="name" v="Skagestad" />
		<tag k="place" v="farm" />
		<tag k="ssr:date" v="2016-05-10" />
		<tag k="ssr:stedsnr" v="893" />
		<nd ref="-49577" />
		<nd ref="-49578" />
		<nd ref="-49579" />
		<nd ref="-49580" />
		<nd ref="-49581" />
	</way>
	<way id="-10831">
		<tag k="name" v="Hesland" />
		<tag k="place" v="farm" />
		<tag k="ssr:date" v="2016-05-10" />
		<tag k="ssr:stedsnr" v="881" />
		<nd ref="-49574" />
		<nd ref="-49575" />
		<nd ref="-49576" />
	</way>
	<way id="-10829">
		<tag k="fixme" v="consider place=farm" />
		<tag k="name" v="Møgland" />
		<tag k="place" v="hamlet" />
		<tag k="ssr:date" v="2017-08-30" />
		<tag k="ssr:stedsnr" v="834" />
		<nd ref="-49566" />
		<nd ref="-49567" />
		<nd ref="-49568" />
	</way>
	<way id="-11331">
		<tag k="fixme" v="consider place=farm" />
		<tag k="name" v="Røyseland" />
		<tag k="place" v="hamlet" />
		<tag k="ssr:date" v="2017-08-29" />
		<tag k="ssr:stedsnr" v="910990" />
		<nd ref="-53049" />
		<nd ref="-53050" />
		<nd ref="-53051" />
		<nd ref="-53052" />
	</way>
	<way id="-11330">
		<tag k="alt_name" v="Myra" />
		<tag k="name" v="Nygård" />
		<tag k="place" v="farm" />
		<tag k="ssr:date" v="2016-05-11" />
		<tag k="ssr:stedsnr" v="910976" />
		<nd ref="-53046" />
		<nd ref="-53047" />
		<nd ref="-53048" />
	</way>
	<way id="-11329">
		<tag k="alt_name" v="Fidjan" />
		<tag k="fixme" v="consider place=farm" />
		<tag k="name" v="Røyrvik" />
		<tag k="place" v="hamlet" />
		<tag k="ssr:date" v="2017-08-29" />
		<tag k="ssr:stedsnr" v="910970" />
		<nd ref="-53044" />
		<nd ref="-53045" />
	</way>
	<way id="-11328">
		<tag k="building" v="cabin" />
		<tag k="name" v="Kleven" />
		<tag k="place" v="isolated_dwelling" />
		<tag k="ssr:date" v="2016-05-11" />
		<tag k="ssr:stedsnr" v="910962" />
		<nd ref="-53040" />
		<nd ref="-53041" />
		<nd ref="-53042" />
		<nd ref="-53043" />
	</way>
	<way id="-11327">
		<tag k="alt_name" v="Møll, yt" />
		<tag k="fixme" v="consider place=farm" />
		<tag k="name" v="Ytre Møll" />
		<tag k="place" v="hamlet" />
		<tag k="ssr:date" v="2017-08-30" />
		<tag k="ssr:stedsnr" v="910929" />
		<nd ref="-53036" />
		<nd ref="-53037" />
		<nd ref="-53038" />
		<nd ref="-53039" />
	</way>
	<way id="-11325">
		<tag k="alt_name" v="Skoie" />
		<tag k="fixme" v="consider place=farm" />
		<tag k="name" v="Skoge" />
		<tag k="place" v="hamlet" />
		<tag k="ssr:date" v="2017-08-31" />
		<tag k="ssr:stedsnr" v="910909" />
		<nd ref="-53030" />
		<nd ref="-53031" />
		<nd ref="-53032" />
	</way>
	<way id="-11324">
		<tag k="fixme" v="consider place=farm" />
		<tag k="name" v="Vatnedal" />
		<tag k="place" v="hamlet" />
		<tag k="ssr:date" v="2017-08-31" />
		<tag k="ssr:stedsnr" v="910898" />
		<nd ref="-53028" />
		<nd ref="-53029" />
	</way>
	<way id="-11323">
		<tag k="fixme" v="consider place=farm" />
		<tag k="name" v="Aurebekk" />
		<tag k="place" v="hamlet" />
		<tag k="ssr:date" v="2017-08-29" />
		<tag k="ssr:stedsnr" v="910888" />
		<nd ref="-53026" />
		<nd ref="-53027" />
	</way>
	<way id="-11322">
		<tag k="name" v="Vådne" />
		<tag k="place" v="farm" />
		<tag k="ssr:date" v="2016-05-11" />
		<tag k="ssr:stedsnr" v="910861" />
		<nd ref="-53023" />
		<nd ref="-53024" />
		<nd ref="-53025" />
	</way>
	<way id="-11321">
		<tag k="alt_name" v="Bjølland" />
		<tag k="fixme" v="consider place=farm" />
		<tag k="name" v="Bjelland" />
		<tag k="place" v="hamlet" />
		<tag k="ssr:date" v="2017-08-30" />
		<tag k="ssr:stedsnr" v="910852" />
		<nd ref="-53020" />
		<nd ref="-53021" />
		<nd ref="-53022" />
	</way>
	<way id="-11320">
		<tag k="alt_name" v="Kvidbergskår" />
		<tag k="fixme" v="multiple name tags, choose one and add the other to alt_name; consider place=farm" />
		<tag k="name" v="Kvitbergsskor;Kvitbergskår" />
		<tag k="place" v="hamlet" />
		<tag k="ssr:date" v="2017-08-30" />
		<tag k="ssr:stedsnr" v="910740" />
		<nd ref="-53017" />
		<nd ref="-53018" />
		<nd ref="-53019" />
	</way>
	<way id="-10802">
		<tag k="fixme" v="consider place=farm" />
		<tag k="name" v="Dostad" />
		<tag k="place" v="hamlet" />
		<tag k="ssr:date" v="2017-08-29" />
		<tag k="ssr:stedsnr" v="364986" />
		<nd ref="-49310" />
		<nd ref="-49311" />
		<nd ref="-49312" />
	</way>
	<way id="-10801">
		<tag k="fixme" v="consider place=farm" />
		<tag k="name" v="Mønnesland" />
		<tag k="place" v="hamlet" />
		<tag k="ssr:date" v="2017-08-29" />
		<tag k="ssr:stedsnr" v="364955" />
		<nd ref="-49308" />
		<nd ref="-49309" />
	</way>
	<way id="-10800">
		<tag k="fixme" v="consider place=farm" />
		<tag k="name" v="Eskeland" />
		<tag k="place" v="hamlet" />
		<tag k="ssr:date" v="2017-08-29" />
		<tag k="ssr:stedsnr" v="364953" />
		<nd ref="-49305" />
		<nd ref="-49306" />
		<nd ref="-49307" />
	</way>
	<way id="-10799">
		<tag k="name" v="Mandal" />
		<tag k="place" v="town" />
		<tag k="ssr:date" v="2017-11-08" />
		<tag k="ssr:stedsnr" v="364950" />
		<nd ref="-49303" />
		<nd ref="-49304" />
	</way>
	<way id="-10797">
		<tag k="name" v="Bjørklund" />
		<tag k="place" v="farm" />
		<tag k="ssr:date" v="2016-05-10" />
		<tag k="ssr:stedsnr" v="364912" />
		<nd ref="-49297" />
		<nd ref="-49298" />
		<nd ref="-49299" />
	</way>
	<way id="-10796">
		<tag k="name" v="Leirkjerr" />
		<tag k="place" v="farm" />
		<tag k="ssr:date" v="2016-05-10" />
		<tag k="ssr:stedsnr" v="364891" />
		<nd ref="-49294" />
		<nd ref="-49295" />
		<nd ref="-49296" />
	</way>
	<way id="-10795">
		<tag k="alt_name" v="Tjortedal" />
		<tag k="fixme" v="consider place=farm" />
		<tag k="name" v="Tjortdal" />
		<tag k="place" v="hamlet" />
		<tag k="ssr:date" v="2017-08-30" />
		<tag k="ssr:stedsnr" v="364890" />
		<nd ref="-49291" />
		<nd ref="-49292" />
		<nd ref="-49293" />
	</way>
	<way id="-11300">
		<tag k="alt_name" v="Halshaug" />
		<tag k="name" v="Halse" />
		<tag k="place" v="village" />
		<tag k="ssr:date" v="2016-05-11" />
		<tag k="ssr:stedsnr" v="850978" />
		<nd ref="-52786" />
		<nd ref="-52787" />
	</way>
	<way id="-11299">
		<tag k="fixme" v="consider place=farm" />
		<tag k="name" v="Dal" />
		<tag k="place" v="hamlet" />
		<tag k="ssr:date" v="2017-08-29" />
		<tag k="ssr:stedsnr" v="850941" />
		<nd ref="-52783" />
		<nd ref="-52784" />
		<nd ref="-52785" />
	</way>
	<way id="-10786">
		<tag k="fixme" v="consider place=farm" />
		<tag k="name" v="Helle" />
		<tag k="place" v="hamlet" />
		<tag k="ssr:date" v="2017-08-31" />
		<tag k="ssr:stedsnr" v="364851" />
		<nd ref="-49263" />
		<nd ref="-49264" />
		<nd ref="-49265" />
		<nd ref="-49266" />
	</way>
	<way id="-11295">
		<tag k="fixme" v="consider place=hamlet" />
		<tag k="name" v="Langeland" />
		<tag k="place" v="village" />
		<tag k="ssr:date" v="2016-05-11" />
		<tag k="ssr:stedsnr" v="850912" />
		<nd ref="-52770" />
		<nd ref="-52771" />
	</way>
	<way id="-10782">
		<tag k="name" v="Årekjerr" />
		<tag k="place" v="farm" />
		<tag k="ssr:date" v="2016-05-10" />
		<tag k="ssr:stedsnr" v="121882" />
		<nd ref="-49247" />
		<nd ref="-49248" />
		<nd ref="-49249" />
	</way>
	<way id="-11292">
		<tag k="alt_name" v="Rølland" />
		<tag k="name" v="Rydland" />
		<tag k="place" v="farm" />
		<tag k="ssr:date" v="2016-05-11" />
		<tag k="ssr:stedsnr" v="850887" />
		<nd ref="-52763" />
		<nd ref="-52764" />
	</way>
	<way id="-11291">
		<tag k="alt_name" v="Klev" />
		<tag k="fixme" v="consider place=farm" />
		<tag k="name" v="Kleiv" />
		<tag k="place" v="hamlet" />
		<tag k="ssr:date" v="2017-08-29" />
		<tag k="ssr:stedsnr" v="850886" />
		<nd ref="-52760" />
		<nd ref="-52761" />
		<nd ref="-52762" />
	</way>
	<way id="-11290">
		<tag k="name" v="Kloster" />
		<tag k="old_name" v="Moen" />
		<tag k="place" v="farm" />
		<tag k="ssr:date" v="2016-05-11" />
		<tag k="ssr:stedsnr" v="850863" />
		<nd ref="-52756" />
		<nd ref="-52757" />
		<nd ref="-52758" />
		<nd ref="-52759" />
	</way>
	<way id="-11289">
		<tag k="alt_name" v="Grøssbrokk" />
		<tag k="fixme" v="multiple name tags, choose one and add the other to alt_name; consider place=farm" />
		<tag k="name" v="Grøsbrokka;Grøsbrokken" />
		<tag k="place" v="hamlet" />
		<tag k="ssr:date" v="2017-08-30" />
		<tag k="ssr:stedsnr" v="850860" />
		<nd ref="-52753" />
		<nd ref="-52754" />
		<nd ref="-52755" />
	</way>
	<way id="-11288">
		<tag k="alt_name" v="Øvre Bringsdal" />
		<tag k="name" v="Brinsdal" />
		<tag k="place" v="farm" />
		<tag k="ssr:date" v="2016-05-11" />
		<tag k="ssr:stedsnr" v="850847" />
		<nd ref="-52749" />
		<nd ref="-52750" />
		<nd ref="-52751" />
		<nd ref="-52752" />
	</way>
	<way id="-11287">
		<tag k="alt_name" v="Møll, øvre" />
		<tag k="name" v="Øvre Møll" />
		<tag k="place" v="farm" />
		<tag k="ssr:date" v="2017-08-31" />
		<tag k="ssr:stedsnr" v="850845" />
		<nd ref="-52745" />
		<nd ref="-52746" />
		<nd ref="-52747" />
		<nd ref="-52748" />
	</way>
	<way id="-11286">
		<tag k="name" v="Monen" />
		<tag k="place" v="farm" />
		<tag k="ssr:date" v="2016-05-11" />
		<tag k="ssr:stedsnr" v="850842" />
		<nd ref="-52742" />
		<nd ref="-52743" />
		<nd ref="-52744" />
	</way>
	<way id="-10773">
		<tag k="fixme" v="consider place=hamlet" />
		<tag k="name" v="Krossen" />
		<tag k="place" v="village" />
		<tag k="ssr:date" v="2016-05-10" />
		<tag k="ssr:stedsnr" v="304861" />
		<nd ref="-49077" />
		<nd ref="-49078" />
	</way>
	<way id="-11283">
		<tag k="fixme" v="consider place=farm" />
		<tag k="name" v="Ås" />
		<tag k="place" v="hamlet" />
		<tag k="ssr:date" v="2017-08-29" />
		<tag k="ssr:stedsnr" v="850069" />
		<nd ref="-52731" />
		<nd ref="-52732" />
		<nd ref="-52733" />
		<nd ref="-52734" />
	</way>
	<way id="-11282">
		<tag k="alt_name" v="Eigebrekk" />
		<tag k="fixme" v="consider place=farm" />
		<tag k="name" v="Eikebrekk" />
		<tag k="place" v="hamlet" />
		<tag k="ssr:date" v="2017-08-29" />
		<tag k="ssr:stedsnr" v="850068" />
		<nd ref="-52727" />
		<nd ref="-52728" />
		<nd ref="-52729" />
		<nd ref="-52730" />
	</way>
	<way id="-10769">
		<tag k="fixme" v="consider place=farm" />
		<tag k="name" v="Sandnes" />
		<tag k="place" v="hamlet" />
		<tag k="ssr:date" v="2017-08-29" />
		<tag k="ssr:stedsnr" v="303991" />
		<nd ref="-49067" />
		<nd ref="-49068" />
		<nd ref="-49069" />
	</way>
	<way id="-11280">
		<tag k="alt_name" v="Utøy;Utø" />
		<tag k="fixme" v="consider place=farm" />
		<tag k="name" v="Udøy" />
		<tag k="place" v="hamlet" />
		<tag k="ssr:date" v="2016-05-11" />
		<tag k="ssr:stedsnr" v="850054" />
		<nd ref="-52723" />
		<nd ref="-52724" />
	</way>
	<way id="-10763">
		<tag k="alt_name" v="Lauvnes" />
		<tag k="fixme" v="consider place=farm" />
		<tag k="name" v="Launes" />
		<tag k="place" v="hamlet" />
		<tag k="ssr:date" v="2017-08-29" />
		<tag k="ssr:stedsnr" v="303958" />
		<nd ref="-49049" />
		<nd ref="-49050" />
		<nd ref="-49051" />
	</way>
	<way id="-10762">
		<tag k="alt_name" v="Tofte" />
		<tag k="fixme" v="consider place=farm" />
		<tag k="name" v="Tufte" />
		<tag k="place" v="hamlet" />
		<tag k="ssr:date" v="2017-08-29" />
		<tag k="ssr:stedsnr" v="303950" />
		<nd ref="-49045" />
		<nd ref="-49046" />
		<nd ref="-49047" />
		<nd ref="-49048" />
	</way>
	<way id="-10761">
		<tag k="name" v="Jordet" />
		<tag k="place" v="farm" />
		<tag k="ssr:date" v="2016-05-10" />
		<tag k="ssr:stedsnr" v="303930" />
		<nd ref="-49043" />
		<nd ref="-49044" />
	</way>
	<way id="-10760">
		<tag k="alt_name" v="Skjerpta" />
		<tag k="name" v="Skjerpla" />
		<tag k="place" v="farm" />
		<tag k="ssr:date" v="2016-05-10" />
		<tag k="ssr:stedsnr" v="303907" />
		<nd ref="-49040" />
		<nd ref="-49041" />
		<nd ref="-49042" />
	</way>
	<way id="-10759">
		<tag k="fixme" v="consider place=farm" />
		<tag k="name" v="Stusvik" />
		<tag k="place" v="hamlet" />
		<tag k="ssr:date" v="2017-08-30" />
		<tag k="ssr:stedsnr" v="303899" />
		<nd ref="-49037" />
		<nd ref="-49038" />
		<nd ref="-49039" />
	</way>
	<way id="-10758">
		<tag k="alt_name" v="Haven" />
		<tag k="fixme" v="consider place=farm" />
		<tag k="name" v="Hagen" />
		<tag k="place" v="hamlet" />
		<tag k="ssr:date" v="2017-08-29" />
		<tag k="ssr:stedsnr" v="303887" />
		<nd ref="-49034" />
		<nd ref="-49035" />
		<nd ref="-49036" />
	</way>
	<way id="-10756">
		<tag k="fixme" v="consider place=farm" />
		<tag k="name" v="Aurebekk" />
		<tag k="place" v="hamlet" />
		<tag k="ssr:date" v="2017-08-30" />
		<tag k="ssr:stedsnr" v="303866" />
		<nd ref="-49029" />
		<nd ref="-49030" />
	</way>
	<way id="-10753">
		<tag k="alt_name" v="Øvre Nøding" />
		<tag k="fixme" v="consider place=farm" />
		<tag k="name" v="Nøding" />
		<tag k="place" v="hamlet" />
		<tag k="ssr:date" v="2017-08-31" />
		<tag k="ssr:stedsnr" v="303719" />
		<nd ref="-49019" />
		<nd ref="-49020" />
		<nd ref="-49021" />
	</way>
</osm>
