<?xml version="1.0" encoding="UTF-8"?>
<osm generator="osmapis" version="0.6">
	<node id="-32" lat="80.0780277664" lon="28.0417001659">
		<tag k="name" v="Storøyjøkulen" />
		<tag k="natural" v="glacier" />
		<tag k="ssr:date" v="2016-05-10" />
		<tag k="ssr:stedsnr" v="483368" />
	</node>
	<node id="-54" lat="79.9991083292" lon="27.1321390025">
		<tag k="name" v="Worsleybreen" />
		<tag k="natural" v="glacier" />
		<tag k="ssr:date" v="2016-05-11" />
		<tag k="ssr:stedsnr" v="726379" />
	</node>
	<node id="-20" lat="80.1921943677" lon="32.6386901576">
		<tag k="name" v="Kvitøy-jøkulen" />
		<tag k="natural" v="glacier" />
		<tag k="ssr:date" v="2016-05-10" />
		<tag k="ssr:stedsnr" v="240396" />
	</node>
	<node id="-75" lat="80.0930249478" lon="31.4542285912">
		<tag k="name" v="Brattvaagbukta" />
		<tag k="natural" v="glacier" />
		<tag k="ssr:date" v="2016-05-11" />
		<tag k="ssr:stedsnr" v="968397" />
	</node>
	<node id="-2" lat="80.1028360621" lon="31.47207859">
		<tag k="name" v="Satellitthøgda" />
		<tag k="natural" v="glacier" />
		<tag k="ssr:date" v="2016-05-10" />
		<tag k="ssr:stedsnr" v="301374" />
	</node>
</osm>
