<?xml version="1.0" encoding="UTF-8"?>
<osm generator="osmapis" version="0.6">
	<node id="-73" lat="77.7741444433" lon="22.6972555712">
		<tag k="name" v="Edgeøya" />
		<tag k="place" v="island" />
		<tag k="ssr:date" v="2016-05-11" />
		<tag k="ssr:stedsnr" v="951999" />
	</node>
	<node id="-72" lat="77.7568500038" lon="13.8879861225">
		<tag k="name" v="Kapp Martin" />
		<tag k="natural" v="cape" />
		<tag k="place" v="locality" />
		<tag k="ssr:date" v="2016-05-11" />
		<tag k="ssr:stedsnr" v="951997" />
	</node>
	<node id="-71" lat="80.0614693975" lon="31.3340202074">
		<tag k="name" v="Lancestabben" />
		<tag k="natural" v="shoal" />
		<tag k="place" v="locality" />
		<tag k="ssr:date" v="2016-05-11" />
		<tag k="ssr:stedsnr" v="908417" />
	</node>
	<node id="-70" lat="79.9215361036" lon="27.5569807088">
		<tag k="ssr:gml_id" v="GEOMETRY_4903d58b-193f-436d-97c2-a142e93e5a29" />
		<tag k="ssr:gml_nr" v="1" />
	</node>
	<node id="-69" lat="79.9240638766" lon="27.5514112555">
		<tag k="ssr:gml_id" v="GEOMETRY_8e75a34d-16c0-4387-afd6-9d7121130ecb" />
		<tag k="ssr:gml_nr" v="0" />
	</node>
	<node id="-68" lat="79.9578972212" lon="27.3018667716">
		<tag k="name" v="Snøholmen" />
		<tag k="place" v="islet" />
		<tag k="ssr:date" v="2016-05-11" />
		<tag k="ssr:stedsnr" v="847373" />
	</node>
	<node id="-67" lat="80.0843444376" lon="28.262583507">
		<tag k="name" v="Diorittodden" />
		<tag k="natural" v="cape" />
		<tag k="place" v="locality" />
		<tag k="ssr:date" v="2016-05-11" />
		<tag k="ssr:stedsnr" v="847367" />
	</node>
	<node id="-66" lat="78.0639666713" lon="13.6068138786">
		<tag k="name" v="Kapp Linne" />
		<tag k="natural" v="cape" />
		<tag k="place" v="locality" />
		<tag k="ssr:date" v="2016-05-11" />
		<tag k="ssr:stedsnr" v="830999" />
	</node>
	<node id="-64" lat="79.9514777742" lon="27.3144028879">
		<tag k="name" v="Rimsteinane" />
		<tag k="place" v="islet" />
		<tag k="ssr:date" v="2016-05-11" />
		<tag k="ssr:stedsnr" v="786361" />
	</node>
	<node id="-63" lat="80.1371638795" lon="28.0375474096">
		<tag k="name" v="Polarstarodden" />
		<tag k="natural" v="cape" />
		<tag k="place" v="locality" />
		<tag k="ssr:date" v="2016-05-11" />
		<tag k="ssr:stedsnr" v="786348" />
	</node>
	<node id="-62" lat="79.7940749985" lon="27.1506834313">
		<tag k="ssr:gml_id" v="GEOMETRY_726af8ec-3c62-4a2b-b490-8ac27e675743" />
		<tag k="ssr:gml_nr" v="1" />
	</node>
	<node id="-61" lat="79.7756861081" lon="26.9813806337">
		<tag k="ssr:gml_id" v="GEOMETRY_f6a64658-4ef8-4ad6-93a9-5bf8067493d3" />
		<tag k="ssr:gml_nr" v="0" />
	</node>
	<node id="-59" lat="77.7946861073" lon="15.6197777665">
		<tag k="bay" v="fjord" />
		<tag k="name" v="Van Mijenfjorden" />
		<tag k="natural" v="bay" />
		<tag k="ssr:date" v="2016-05-11" />
		<tag k="ssr:stedsnr" v="769993" />
	</node>
	<node id="-58" lat="80.0970305479" lon="28.0757446393">
		<tag k="name" v="Storøya" />
		<tag k="natural" v="beach" />
		<tag k="place" v="locality" />
		<tag k="ssr:date" v="2016-05-11" />
		<tag k="ssr:stedsnr" v="726404" />
	</node>
	<node id="-56" lat="80.1731027128" lon="32.2836205387">
		<tag k="name" v="Kvitøya" />
		<tag k="place" v="island" />
		<tag k="ssr:date" v="2016-05-11" />
		<tag k="ssr:stedsnr" v="726399" />
	</node>
	<node id="-55" lat="80.0915638804" lon="27.5299362668">
		<tag k="name" v="Storøysundet" />
		<tag k="natural" v="strait" />
		<tag k="place" v="locality" />
		<tag k="ssr:date" v="2016-05-11" />
		<tag k="ssr:stedsnr" v="726380" />
	</node>
	<node id="-53" lat="78.2548666685" lon="14.6733388958">
		<tag k="bay" v="fjord" />
		<tag k="name" v="Isfjorden" />
		<tag k="natural" v="bay" />
		<tag k="ssr:date" v="2016-05-11" />
		<tag k="ssr:stedsnr" v="708998" />
	</node>
	<node id="-50" lat="80.2292443297" lon="33.516318459">
		<tag k="alt_name" v="Kræmerodden" />
		<tag k="name" v="Kræmerpynten" />
		<tag k="natural" v="cape" />
		<tag k="place" v="locality" />
		<tag k="ssr:date" v="2016-05-10" />
		<tag k="ssr:stedsnr" v="663424" />
	</node>
	<node id="-49" lat="76.5943388931" lon="16.3129416705">
		<tag k="name" v="Sørkapp" />
		<tag k="natural" v="cape" />
		<tag k="place" v="locality" />
		<tag k="ssr:date" v="2016-05-10" />
		<tag k="ssr:stedsnr" v="647998" />
	</node>
	<node id="-48" lat="77.4682750019" lon="20.8848333359">
		<tag k="name" v="Kvalpynten" />
		<tag k="natural" v="cape" />
		<tag k="place" v="locality" />
		<tag k="ssr:date" v="2016-05-10" />
		<tag k="ssr:stedsnr" v="647975" />
	</node>
	<node id="-45" lat="79.5579083311" lon="25.7288139389">
		<tag k="name" v="Hartogbukta" />
		<tag k="natural" v="bay" />
		<tag k="ssr:date" v="2016-05-10" />
		<tag k="ssr:stedsnr" v="601295" />
	</node>
	<node id="-44" lat="79.8684777751" lon="27.2215889874">
		<tag k="name" v="Italiaodden" />
		<tag k="natural" v="cape" />
		<tag k="place" v="locality" />
		<tag k="ssr:date" v="2016-05-10" />
		<tag k="ssr:stedsnr" v="601289" />
	</node>
	<node id="-42" lat="74.4588722223" lon="19.0144861017">
		<tag k="ssr:gml_id" v="GEOMETRY_edd3063b-8df0-4303-ad26-48dd41ad1a19" />
		<tag k="ssr:gml_nr" v="4" />
	</node>
	<node id="-41" lat="76.5535194452" lon="25.0770916862">
		<tag k="ssr:gml_id" v="GEOMETRY_cbc8d367-56fd-4215-a429-a451d1915840" />
		<tag k="ssr:gml_nr" v="3" />
	</node>
	<node id="-40" lat="78.4831249974" lon="11.3086194363">
		<tag k="ssr:gml_id" v="GEOMETRY_2aa9e442-4a88-474d-864c-00b7ab5e40a4" />
		<tag k="ssr:gml_nr" v="2" />
	</node>
	<node id="-39" lat="77.7793527753" lon="22.7650472147">
		<tag k="ssr:gml_id" v="GEOMETRY_06581f25-c165-47ca-89b5-c4db33153d38" />
		<tag k="ssr:gml_nr" v="1" />
	</node>
	<node id="-38" lat="77.6076444417" lon="16.8526694364">
		<tag k="ssr:gml_id" v="GEOMETRY_1623dd32-8106-493a-aaa2-404f79ce1bea" />
		<tag k="ssr:gml_nr" v="0" />
	</node>
	<node id="-37" lat="80.0239249432" lon="31.6282258662">
		<tag k="name" v="Lundquistskjera" />
		<tag k="place" v="islet" />
		<tag k="ssr:date" v="2016-05-10" />
		<tag k="ssr:stedsnr" v="544375" />
	</node>
	<node id="-36" lat="80.0706055087" lon="31.495286917">
		<tag k="name" v="Kvalrosstranda" />
		<tag k="natural" v="beach" />
		<tag k="place" v="locality" />
		<tag k="ssr:date" v="2016-05-10" />
		<tag k="ssr:stedsnr" v="544337" />
	</node>
	<node id="-35" lat="79.7075805522" lon="26.6246028448">
		<tag k="name" v="Binnevågen" />
		<tag k="natural" v="bay" />
		<tag k="ssr:date" v="2016-05-10" />
		<tag k="ssr:stedsnr" v="540329" />
	</node>
	<node id="-34" lat="79.6913249905" lon="26.6393695391">
		<tag k="fixme" v="consider seamark:type=rock" />
		<tag k="name" v="Isflua" />
		<tag k="natural" v="islet" />
		<tag k="ssr:date" v="2016-05-10" />
		<tag k="ssr:stedsnr" v="540327" />
	</node>
	<node id="-33" lat="80.1543333279" lon="26.793675091">
		<tag k="name" v="Kapp Leigh Smith" />
		<tag k="natural" v="cape" />
		<tag k="place" v="locality" />
		<tag k="ssr:date" v="2016-05-10" />
		<tag k="ssr:stedsnr" v="483373" />
	</node>
	<node id="-29" lat="77.6375166625" lon="14.4258055508">
		<tag k="name" v="Bellsund" />
		<tag k="natural" v="strait" />
		<tag k="place" v="locality" />
		<tag k="ssr:date" v="2016-05-10" />
		<tag k="ssr:stedsnr" v="465995" />
	</node>
	<node id="-28" lat="76.968044446" lon="15.598969426">
		<tag k="name" v="Hornsund" />
		<tag k="natural" v="strait" />
		<tag k="place" v="locality" />
		<tag k="ssr:date" v="2016-05-10" />
		<tag k="ssr:stedsnr" v="465996" />
	</node>
	<node id="-27" lat="78.4249694438" lon="13.5186916817">
		<tag k="name" v="Oscar II Land" />
		<tag k="place" v="island" />
		<tag k="ssr:date" v="2016-05-10" />
		<tag k="ssr:stedsnr" v="465978" />
	</node>
	<node id="-26" lat="80.082672175" lon="31.4122868855">
		<tag k="name" v="Andréeneset" />
		<tag k="natural" v="cape" />
		<tag k="place" v="locality" />
		<tag k="ssr:date" v="2016-05-10" />
		<tag k="ssr:stedsnr" v="423416" />
	</node>
	<node id="-25" lat="80.0805722176" lon="26.9751973086">
		<tag k="name" v="Van Dongenbukta" />
		<tag k="natural" v="bay" />
		<tag k="ssr:date" v="2016-05-10" />
		<tag k="ssr:stedsnr" v="423385" />
	</node>
	<node id="-24" lat="80.1239083206" lon="28.0717751573">
		<tag k="name" v="Breivika" />
		<tag k="natural" v="bay" />
		<tag k="ssr:date" v="2016-05-10" />
		<tag k="ssr:stedsnr" v="423382" />
	</node>
	<node id="-23" lat="80.0475833256" lon="28.0496751667">
		<tag k="name" v="Sørodden" />
		<tag k="natural" v="cape" />
		<tag k="place" v="locality" />
		<tag k="ssr:date" v="2016-05-10" />
		<tag k="ssr:stedsnr" v="423378" />
	</node>
	<node id="-22" lat="79.7008611076" lon="26.6537778827">
		<tag k="name" v="Isisøyane" />
		<tag k="natural" v="cape" />
		<tag k="place" v="locality" />
		<tag k="ssr:date" v="2016-05-10" />
		<tag k="ssr:stedsnr" v="419331" />
	</node>
	<node id="-19" lat="79.9226166632" lon="27.583341817">
		<tag k="name" v="Håkjerringa" />
		<tag k="place" v="island" />
		<tag k="ssr:date" v="2016-05-10" />
		<tag k="ssr:stedsnr" v="240377" />
	</node>
	<node id="-18" lat="79.7007055535" lon="26.678466749">
		<tag k="name" v="Isispynten" />
		<tag k="natural" v="cape" />
		<tag k="place" v="locality" />
		<tag k="ssr:date" v="2016-05-10" />
		<tag k="ssr:stedsnr" v="237333" />
	</node>
	<node id="-17" lat="77.8857305571" lon="19.8843666786">
		<tag k="name" v="Storfjorden" />
		<tag k="place" v="locality" />
		<tag k="ssr:date" v="2016-05-10" />
		<tag k="ssr:stedsnr" v="223984" />
	</node>
	<node id="-16" lat="79.929447214" lon="27.243219536">
		<tag k="name" v="Frostøyane" />
		<tag k="place" v="islet" />
		<tag k="ssr:date" v="2016-05-10" />
		<tag k="ssr:stedsnr" v="180356" />
	</node>
	<node id="-15" lat="79.7940749985" lon="27.1506834313">
		<tag k="name" v="Einstøingen" />
		<tag k="place" v="island" />
		<tag k="ssr:date" v="2016-05-10" />
		<tag k="ssr:stedsnr" v="176304" />
	</node>
	<node id="-14" lat="76.9961777784" lon="21.9935833418">
		<tag k="name" v="Tusenøyane" />
		<tag k="place" v="island" />
		<tag k="ssr:date" v="2016-05-10" />
		<tag k="ssr:stedsnr" v="162998" />
	</node>
	<node id="-13" lat="77.306269445" lon="15.7981138784">
		<tag k="name" v="Spitsbergen" />
		<tag k="place" v="island" />
		<tag k="ssr:date" v="2016-05-10" />
		<tag k="ssr:stedsnr" v="162993" />
	</node>
	<node id="-12" lat="80.1429277677" lon="27.9815751668">
		<tag k="name" v="Norvargodden" />
		<tag k="natural" v="cape" />
		<tag k="place" v="locality" />
		<tag k="ssr:date" v="2016-05-10" />
		<tag k="ssr:stedsnr" v="119368" />
	</node>
	<node id="-11" lat="80.0634416606" lon="27.2195501064">
		<tag k="name" v="Kapp Laura" />
		<tag k="natural" v="cape" />
		<tag k="place" v="locality" />
		<tag k="ssr:date" v="2016-05-10" />
		<tag k="ssr:stedsnr" v="58376" />
	</node>
	<node id="-9" lat="78.4103472227" lon="11.7282722172">
		<tag k="name" v="Prins Karls Forland" />
		<tag k="place" v="island" />
		<tag k="ssr:date" v="2016-05-10" />
		<tag k="ssr:stedsnr" v="40978" />
	</node>
	<node id="-8" lat="77.8102583294" lon="25.0798055952">
		<tag k="name" v="Ryke Yseøyane" />
		<tag k="place" v="island" />
		<tag k="ssr:date" v="2016-05-11" />
		<tag k="ssr:stedsnr" v="891000" />
	</node>
	<node id="-7" lat="78.4495333338" lon="21.3789083222">
		<tag k="name" v="Barentsøya" />
		<tag k="place" v="island" />
		<tag k="ssr:date" v="2016-05-10" />
		<tag k="ssr:stedsnr" v="406000" />
	</node>
	<node id="-5" lat="79.7021916665" lon="26.6624389696">
		<tag k="name" v="Isispollen" />
		<tag k="natural" v="bay" />
		<tag k="ssr:date" v="2016-05-10" />
		<tag k="ssr:stedsnr" v="358317" />
	</node>
	<node id="-4" lat="77.2852916688" lon="23.1384694339">
		<tag k="name" v="Halvmåneøya" />
		<tag k="place" v="island" />
		<tag k="ssr:date" v="2016-05-10" />
		<tag k="ssr:stedsnr" v="344999" />
	</node>
	<node id="-3" lat="78.2301888902" lon="21.5295360957">
		<tag k="name" v="Freemansundet" />
		<tag k="natural" v="strait" />
		<tag k="place" v="locality" />
		<tag k="ssr:date" v="2016-05-10" />
		<tag k="ssr:stedsnr" v="344980" />
	</node>
	<node id="-1" lat="80.1410554443" lon="33.3810322542">
		<tag k="name" v="Hornodden" />
		<tag k="natural" v="cape" />
		<tag k="place" v="locality" />
		<tag k="ssr:date" v="2016-05-10" />
		<tag k="ssr:stedsnr" v="285902" />
	</node>
	<way id="-2">
		<tag k="name" v="Hvalrosskjera" />
		<tag k="place" v="island" />
		<tag k="ssr:date" v="2016-05-11" />
		<tag k="ssr:stedsnr" v="783308" />
		<nd ref="-61" />
		<nd ref="-62" />
	</way>
	<way id="-1">
		<tag k="name" v="Svalbard" />
		<tag k="place" v="island" />
		<tag k="ssr:date" v="2016-05-10" />
		<tag k="ssr:stedsnr" v="586988" />
		<nd ref="-38" />
		<nd ref="-39" />
		<nd ref="-40" />
		<nd ref="-41" />
		<nd ref="-42" />
	</way>
	<way id="-3">
		<tag k="name" v="Kaldøyane" />
		<tag k="place" v="islet" />
		<tag k="ssr:date" v="2016-05-11" />
		<tag k="ssr:stedsnr" v="847372" />
		<nd ref="-69" />
		<nd ref="-70" />
	</way>
</osm>
