<?xml version="1.0" encoding="UTF-8"?>
<osm generator="osmapis" version="0.6">
	<node id="-25792" lat="60.4615083333" lon="5.62114999197">
		<tag k="ssr:gml_id" v="GEOMETRY_9d9a6a40-002b-4e63-9465-5f039edbcf14" />
		<tag k="ssr:gml_nr" v="1" />
	</node>
	<node id="-25595" lat="60.5038500037" lon="5.6059277769">
		<tag k="name" v="Melemyrane" />
		<tag k="natural" v="wetland" />
		<tag k="ssr:date" v="2016-05-10" />
		<tag k="ssr:stedsnr" v="127999" />
	</node>
	<node id="-26232" lat="60.5516527758" lon="5.56043889393">
		<tag k="name" v="Venafitjane" />
		<tag k="natural" v="wetland" />
		<tag k="ssr:date" v="2016-05-10" />
		<tag k="ssr:stedsnr" v="612618" />
	</node>
	<node id="-25716" lat="60.5912500039" lon="5.49466388066">
		<tag k="name" v="Stormyri" />
		<tag k="natural" v="wetland" />
		<tag k="ssr:date" v="2016-05-10" />
		<tag k="ssr:stedsnr" v="188577" />
	</node>
	<node id="-26739" lat="60.5912750034" lon="5.47832500742">
		<tag k="name" v="Tjukkskogen" />
		<tag k="natural" v="wood" />
		<tag k="ssr:date" v="2016-05-11" />
		<tag k="ssr:stedsnr" v="856564" />
	</node>
	<node id="-25070" lat="60.5525694416" lon="5.50891111379">
		<tag k="name" v="Gråura" />
		<tag k="natural" v="scree" />
		<tag k="ssr:date" v="2016-05-10" />
		<tag k="ssr:stedsnr" v="348480" />
	</node>
	<node id="-24938" lat="60.4975944462" lon="5.50113333972">
		<tag k="name" v="Stormyra" />
		<tag k="natural" v="wetland" />
		<tag k="ssr:date" v="2016-05-10" />
		<tag k="ssr:stedsnr" v="286466" />
	</node>
	<node id="-26856" lat="60.48463611" lon="5.45858610982">
		<tag k="name" v="Stormyrshædna" />
		<tag k="natural" v="wetland" />
		<tag k="ssr:date" v="2016-05-11" />
		<tag k="ssr:stedsnr" v="955762" />
	</node>
	<node id="-26594" lat="60.4761333294" lon="5.454116659">
		<tag k="loc_name" v="Votlatveitane" />
		<tag k="name" v="Votletveitane" />
		<tag k="natural" v="wood" />
		<tag k="ssr:date" v="2016-05-11" />
		<tag k="ssr:stedsnr" v="794527" />
	</node>
	<node id="-25467" lat="60.512736113" lon="5.49490554929">
		<tag k="name" v="Naustmyra" />
		<tag k="natural" v="wetland" />
		<tag k="ssr:date" v="2016-05-10" />
		<tag k="ssr:stedsnr" v="104720" />
	</node>
	<node id="-25557" lat="60.5785277774" lon="5.48934443831">
		<tag k="name" v="Øvsthusmarki" />
		<tag k="place" v="locality" />
		<tag k="ssr:date" v="2016-05-10" />
		<tag k="ssr:stedsnr" v="127584" />
	</node>
	<node id="-25170" lat="60.6414111071" lon="5.63245833694">
		<tag k="name" v="Fuglakammen" />
		<tag k="natural" v="stone" />
		<tag k="ssr:date" v="2016-05-10" />
		<tag k="ssr:stedsnr" v="409406" />
	</node>
	<node id="-25997" lat="60.5599333356" lon="5.51207778457">
		<tag k="name" v="Haustveitmyrane" />
		<tag k="natural" v="wetland" />
		<tag k="ssr:date" v="2016-05-10" />
		<tag k="ssr:stedsnr" v="491599" />
	</node>
	<node id="-25675" lat="60.4886666697" lon="5.58061943737">
		<tag k="name" v="Storura" />
		<tag k="natural" v="scree" />
		<tag k="ssr:date" v="2016-05-10" />
		<tag k="ssr:stedsnr" v="166856" />
	</node>
	<node id="-25417" lat="60.5318555518" lon="5.37044722212">
		<tag k="name" v="Storemyra" />
		<tag k="natural" v="wetland" />
		<tag k="ssr:date" v="2016-05-10" />
		<tag k="ssr:stedsnr" v="66369" />
	</node>
	<node id="-26568" lat="60.505044442" lon="5.53548334084">
		<tag k="name" v="Steinløfitjane" />
		<tag k="natural" v="stone" />
		<tag k="ssr:date" v="2016-05-11" />
		<tag k="ssr:stedsnr" v="773734" />
	</node>
	<node id="-25666" lat="60.4733972206" lon="5.46657500074">
		<tag k="name" v="Hakstein" />
		<tag k="natural" v="stone" />
		<tag k="ssr:date" v="2016-05-10" />
		<tag k="ssr:stedsnr" v="166812" />
	</node>
	<node id="-26432" lat="60.4920305548" lon="5.53098055477">
		<tag k="name" v="Stormyra" />
		<tag k="natural" v="wetland" />
		<tag k="ssr:date" v="2016-05-11" />
		<tag k="ssr:stedsnr" v="712610" />
	</node>
	<node id="-25791" lat="60.4598361077" lon="5.62115832955">
		<tag k="ssr:gml_id" v="GEOMETRY_f683d0b5-e1c3-4daa-82fe-a8a3d20e3f77" />
		<tag k="ssr:gml_nr" v="0" />
	</node>
	<node id="-26558" lat="60.4656027784" lon="5.57274444727">
		<tag k="name" v="Halvardsuri" />
		<tag k="natural" v="scree" />
		<tag k="ssr:date" v="2016-05-11" />
		<tag k="ssr:stedsnr" v="773629" />
	</node>
	<node id="-26509" lat="60.4669249997" lon="5.59599167541">
		<tag k="ssr:gml_id" v="GEOMETRY_74145fa6-cb74-4961-9a15-bc556a9f309a" />
		<tag k="ssr:gml_nr" v="0" />
	</node>
	<node id="-26554" lat="60.4859749999" lon="5.54139444392">
		<tag k="name" v="Kloppamyra" />
		<tag k="natural" v="wetland" />
		<tag k="ssr:date" v="2016-05-11" />
		<tag k="ssr:stedsnr" v="773606" />
	</node>
	<node id="-25782" lat="60.5858749966" lon="5.49804167293">
		<tag k="name" v="Furmyrnipa" />
		<tag k="natural" v="wetland" />
		<tag k="ssr:date" v="2016-05-10" />
		<tag k="ssr:stedsnr" v="227536" />
	</node>
	<node id="-25396" lat="60.4940083321" lon="5.56191111728">
		<tag k="name" v="Bjoamyra" />
		<tag k="natural" v="wetland" />
		<tag k="ssr:date" v="2016-05-10" />
		<tag k="ssr:stedsnr" v="45843" />
	</node>
	<node id="-26291" lat="60.454083332" lon="5.51168055838">
		<tag k="name" v="Futamyra" />
		<tag k="natural" v="wetland" />
		<tag k="ssr:date" v="2016-05-10" />
		<tag k="ssr:stedsnr" v="651515" />
	</node>
	<node id="-25650" lat="60.4708416667" lon="5.53529167414">
		<tag k="name" v="Kloppamyra" />
		<tag k="natural" v="wetland" />
		<tag k="ssr:date" v="2016-05-10" />
		<tag k="ssr:stedsnr" v="166658" />
	</node>
	<node id="-25394" lat="60.5289250023" lon="5.4597916598">
		<tag k="name" v="Flåmyra" />
		<tag k="natural" v="wetland" />
		<tag k="ssr:date" v="2016-05-10" />
		<tag k="ssr:stedsnr" v="45833" />
	</node>
	<node id="-26152" lat="60.4969555587" lon="5.51469165863">
		<tag k="name" v="Austmyrane" />
		<tag k="natural" v="wetland" />
		<tag k="ssr:date" v="2016-05-10" />
		<tag k="ssr:stedsnr" v="590457" />
	</node>
	<node id="-25126" lat="60.5293805571" lon="5.38455000293">
		<tag k="name" v="Tjørnmyra" />
		<tag k="natural" v="wetland" />
		<tag k="ssr:date" v="2016-05-10" />
		<tag k="ssr:stedsnr" v="370439" />
	</node>
	<node id="-26529" lat="60.5345805536" lon="5.5307833389">
		<tag k="name" v="Myrane" />
		<tag k="natural" v="wetland" />
		<tag k="ssr:date" v="2016-05-11" />
		<tag k="ssr:stedsnr" v="772715" />
	</node>
	<node id="-26393" lat="60.4978527764" lon="5.47450000179">
		<tag k="name" v="Gloppemyra" />
		<tag k="natural" v="wetland" />
		<tag k="ssr:date" v="2016-05-11" />
		<tag k="ssr:stedsnr" v="711462" />
	</node>
	<node id="-26510" lat="60.4669249985" lon="5.5959944422">
		<tag k="ssr:gml_id" v="GEOMETRY_6cd7a826-ea43-463b-a9e5-021e3de67dff" />
		<tag k="ssr:gml_nr" v="1" />
	</node>
	<node id="-25101" lat="60.4922527756" lon="5.57846110886">
		<tag k="name" v="Jakobsteinen" />
		<tag k="natural" v="stone" />
		<tag k="ssr:date" v="2016-05-10" />
		<tag k="ssr:stedsnr" v="348843" />
	</node>
	<node id="-26123" lat="60.5590277808" lon="5.5733555525">
		<tag k="ssr:gml_id" v="GEOMETRY_977cdb8c-4827-4179-b884-7a5d8cb18d8c" />
		<tag k="ssr:gml_nr" v="1" />
	</node>
	<node id="-26122" lat="60.5669888876" lon="5.57531388475">
		<tag k="ssr:gml_id" v="GEOMETRY_656f88fb-6ec8-42f9-94d0-3fbea794894d" />
		<tag k="ssr:gml_nr" v="0" />
	</node>
	<node id="-25733" lat="60.4665138913" lon="5.48438610629">
		<tag k="ssr:gml_id" v="GEOMETRY_42445dc0-cc4a-43fd-8fd6-eb510226fed8" />
		<tag k="ssr:gml_nr" v="2" />
	</node>
	<node id="-25732" lat="60.465758329" lon="5.48598055645">
		<tag k="ssr:gml_id" v="GEOMETRY_9411cd67-955f-4b5b-917f-ffe7fccf2d4e" />
		<tag k="ssr:gml_nr" v="1" />
	</node>
	<node id="-25731" lat="60.4657555595" lon="5.48597777997">
		<tag k="ssr:gml_id" v="GEOMETRY_baeb24a9-59fe-4b92-a75b-a21740be804c" />
		<tag k="ssr:gml_nr" v="0" />
	</node>
	<way id="-6047">
		<tag k="alt_name" v="Herlandsnesjane" />
		<tag k="name" v="Hellandsnesjane" />
		<tag k="natural" v="wetland" />
		<tag k="ssr:date" v="2016-05-10" />
		<tag k="ssr:stedsnr" v="552620" />
		<nd ref="-26122" />
		<nd ref="-26123" />
	</way>
	<way id="-5986">
		<tag k="landuse" v="quarry" />
		<tag k="name" v="Kalkbrudd" />
		<tag k="ssr:date" v="2016-05-10" />
		<tag k="ssr:stedsnr" v="227587" />
		<nd ref="-25791" />
		<nd ref="-25792" />
	</way>
	<way id="-6098">
		<tag k="historic" v="summer_mountain_farm" />
		<tag k="name" v="Hartveitsætra" />
		<tag k="place" v="locality" />
		<tag k="ssr:date" v="2016-05-11" />
		<tag k="ssr:stedsnr" v="734944" />
		<nd ref="-26509" />
		<nd ref="-26510" />
	</way>
	<way id="-5979">
		<tag k="name" v="Årsmyra" />
		<tag k="natural" v="wetland" />
		<tag k="ssr:date" v="2016-05-10" />
		<tag k="ssr:stedsnr" v="188961" />
		<nd ref="-25731" />
		<nd ref="-25732" />
		<nd ref="-25733" />
	</way>
</osm>
