<?xml version="1.0" encoding="UTF-8"?>
<osm generator="osmapis" version="0.6">
	<node id="-25685" lat="60.4300111125" lon="5.53873056135">
		<tag k="ssr:gml_id" v="GEOMETRY_d653b1d7-2c5c-42fd-b162-02fbfa126b6c" />
		<tag k="ssr:gml_nr" v="0" />
	</node>
	<node id="-25596" lat="60.5404416629" lon="5.32742777398">
		<tag k="name" v="Hamarsflua" />
		<tag k="natural" v="shoal" />
		<tag k="place" v="locality" />
		<tag k="ssr:date" v="2016-05-10" />
		<tag k="ssr:stedsnr" v="145504" />
	</node>
	<node id="-26615" lat="60.5056888894" lon="5.40523056357">
		<tag k="name" v="Torskavikneset" />
		<tag k="natural" v="cape" />
		<tag k="place" v="locality" />
		<tag k="ssr:date" v="2016-05-11" />
		<tag k="ssr:stedsnr" v="795521" />
	</node>
	<node id="-25590" lat="60.4644416641" lon="5.63683332926">
		<tag k="ssr:gml_id" v="GEOMETRY_2883e9e3-f6f9-4f56-bd02-8c2c269a965a" />
		<tag k="ssr:gml_nr" v="0" />
	</node>
	<node id="-26613" lat="60.548036115" lon="5.36219165883">
		<tag k="name" v="Jovika" />
		<tag k="natural" v="bay" />
		<tag k="ssr:date" v="2016-05-11" />
		<tag k="ssr:stedsnr" v="795480" />
	</node>
	<node id="-25587" lat="60.4683638858" lon="5.70399999589">
		<tag k="ssr:gml_id" v="GEOMETRY_e556e1eb-500d-4126-9541-83148d43afc9" />
		<tag k="ssr:gml_nr" v="3" />
	</node>
	<node id="-25586" lat="60.4672305534" lon="5.69849167564">
		<tag k="ssr:gml_id" v="GEOMETRY_55f2dbf6-f156-4412-987a-abb11935a104" />
		<tag k="ssr:gml_nr" v="2" />
	</node>
	<node id="-25585" lat="60.4678083308" lon="5.70187221998">
		<tag k="ssr:gml_id" v="GEOMETRY_8ee225a2-8d17-4e2b-b025-30ad59016437" />
		<tag k="ssr:gml_nr" v="1" />
	</node>
	<node id="-26608" lat="60.5540277764" lon="5.45843610441">
		<tag k="name" v="Grunnevågen" />
		<tag k="natural" v="bay" />
		<tag k="ssr:date" v="2016-05-11" />
		<tag k="ssr:stedsnr" v="795467" />
	</node>
	<node id="-25064" lat="60.5628944483" lon="5.59625277671">
		<tag k="name" v="Skjelingasund" />
		<tag k="natural" v="strait" />
		<tag k="place" v="locality" />
		<tag k="ssr:date" v="2016-05-10" />
		<tag k="ssr:stedsnr" v="348423" />
	</node>
	<node id="-25575" lat="60.6112805539" lon="5.5283527697">
		<tag k="ssr:gml_id" v="GEOMETRY_9af3feaa-3348-49b3-85ba-1ccb71880d84" />
		<tag k="ssr:gml_nr" v="1" />
	</node>
	<node id="-25574" lat="60.6083611106" lon="5.53547778417">
		<tag k="ssr:gml_id" v="GEOMETRY_26d83c3d-918b-4a76-b932-3b9dcb336db7" />
		<tag k="ssr:gml_nr" v="0" />
	</node>
	<node id="-25061" lat="60.6684916655" lon="5.61671111099">
		<tag k="name" v="Djuvika" />
		<tag k="natural" v="bay" />
		<tag k="ssr:date" v="2016-05-10" />
		<tag k="ssr:stedsnr" v="348405" />
	</node>
	<node id="-25572" lat="60.666322221" lon="5.61228055428">
		<tag k="ssr:gml_id" v="GEOMETRY_abb6a173-d4d8-4321-8019-0cacca9c9217" />
		<tag k="ssr:gml_nr" v="1" />
	</node>
	<node id="-25571" lat="60.6663249965" lon="5.61228333916">
		<tag k="ssr:gml_id" v="GEOMETRY_0597195f-00e0-487e-8dbb-7672c2190302" />
		<tag k="ssr:gml_nr" v="0" />
	</node>
	<node id="-25057" lat="60.5433472221" lon="5.4574833325">
		<tag k="name" v="Dalsvågen" />
		<tag k="natural" v="bay" />
		<tag k="ssr:date" v="2016-05-10" />
		<tag k="ssr:stedsnr" v="348371" />
	</node>
	<node id="-26592" lat="60.4382138846" lon="5.56274999854">
		<tag k="ssr:gml_id" v="GEOMETRY_62a0723e-ddd1-4136-9642-d3840c73e826" />
		<tag k="ssr:gml_nr" v="0" />
	</node>
	<node id="-25055" lat="60.4798111079" lon="5.44956945352">
		<tag k="name" v="Litletveitane" />
		<tag k="natural" v="cape" />
		<tag k="place" v="locality" />
		<tag k="ssr:date" v="2016-05-10" />
		<tag k="ssr:stedsnr" v="347790" />
	</node>
	<node id="-25053" lat="60.6126083365" lon="5.52826111504">
		<tag k="name" v="Drangeneset" />
		<tag k="natural" v="cape" />
		<tag k="place" v="locality" />
		<tag k="ssr:date" v="2016-05-10" />
		<tag k="ssr:stedsnr" v="347728" />
	</node>
	<node id="-25811" lat="60.5692194417" lon="5.44128888551">
		<tag k="ssr:gml_id" v="GEOMETRY_d27d4fb2-7fa5-4fef-8dd8-d9fb6adaa6b1" />
		<tag k="ssr:gml_nr" v="0" />
	</node>
	<node id="-25048" lat="60.6999083341" lon="5.62923055674">
		<tag k="name" v="Toa" />
		<tag k="natural" v="cape" />
		<tag k="place" v="locality" />
		<tag k="ssr:date" v="2016-05-10" />
		<tag k="ssr:stedsnr" v="347396" />
	</node>
	<node id="-25555" lat="60.5984694456" lon="5.50729444438">
		<tag k="name" v="Fotlandsvågen" />
		<tag k="natural" v="bay" />
		<tag k="ssr:date" v="2016-05-10" />
		<tag k="ssr:stedsnr" v="127562" />
	</node>
	<node id="-25042" lat="60.5320000009" lon="5.34410555813">
		<tag k="name" v="Drageneset" />
		<tag k="natural" v="cape" />
		<tag k="place" v="locality" />
		<tag k="ssr:date" v="2016-05-10" />
		<tag k="ssr:stedsnr" v="310389" />
	</node>
	<node id="-25553" lat="60.5497611139" lon="5.38323611621">
		<tag k="name" v="Ranen" />
		<tag k="natural" v="cape" />
		<tag k="place" v="locality" />
		<tag k="ssr:date" v="2016-05-10" />
		<tag k="ssr:stedsnr" v="127446" />
	</node>
	<node id="-26576" lat="60.5148194451" lon="5.39409167264">
		<tag k="name" v="Nerdalshøla" />
		<tag k="natural" v="bay" />
		<tag k="ssr:date" v="2016-05-11" />
		<tag k="ssr:stedsnr" v="773816" />
	</node>
	<node id="-25591" lat="60.4644444485" lon="5.63683611673">
		<tag k="ssr:gml_id" v="GEOMETRY_7df293bb-3366-448a-9de6-80990703e5c6" />
		<tag k="ssr:gml_nr" v="1" />
	</node>
	<node id="-26047" lat="60.6103194489" lon="5.50359167155">
		<tag k="name" v="Apavika" />
		<tag k="natural" v="bay" />
		<tag k="ssr:date" v="2016-05-10" />
		<tag k="ssr:stedsnr" v="530540" />
	</node>
	<node id="-26045" lat="60.4499277751" lon="5.49580554958">
		<tag k="ssr:gml_id" v="GEOMETRY_c69a7c9d-12ae-4485-abb7-0e2ada2dd3d7" />
		<tag k="ssr:gml_nr" v="1" />
	</node>
	<node id="-25020" lat="60.5690277744" lon="5.44713610908">
		<tag k="name" v="Fjellskålvika" />
		<tag k="natural" v="bay" />
		<tag k="ssr:date" v="2016-05-10" />
		<tag k="ssr:stedsnr" v="309084" />
	</node>
	<node id="-25019" lat="60.5733555553" lon="5.45631667329">
		<tag k="name" v="Sauvika" />
		<tag k="natural" v="bay" />
		<tag k="ssr:date" v="2016-05-10" />
		<tag k="ssr:stedsnr" v="309083" />
	</node>
	<node id="-25524" lat="60.5094777791" lon="5.40626943702">
		<tag k="name" v="Juvika" />
		<tag k="natural" v="bay" />
		<tag k="ssr:date" v="2016-05-10" />
		<tag k="ssr:stedsnr" v="106830" />
	</node>
	<node id="-26035" lat="60.5906194439" lon="5.47447222774">
		<tag k="name" v="Kjørneset" />
		<tag k="natural" v="cape" />
		<tag k="place" v="locality" />
		<tag k="ssr:date" v="2016-05-10" />
		<tag k="ssr:stedsnr" v="529910" />
	</node>
	<node id="-26034" lat="60.5222222247" lon="5.36521666411">
		<tag k="name" v="Ramnbergneset" />
		<tag k="natural" v="cape" />
		<tag k="place" v="locality" />
		<tag k="ssr:date" v="2016-05-10" />
		<tag k="ssr:stedsnr" v="529788" />
	</node>
	<node id="-26545" lat="60.6125472238" lon="5.5128861051">
		<tag k="name" v="Osterhavnneset" />
		<tag k="natural" v="cape" />
		<tag k="place" v="locality" />
		<tag k="ssr:date" v="2016-05-11" />
		<tag k="ssr:stedsnr" v="773502" />
	</node>
	<node id="-24989" lat="60.5219694465" lon="5.3629166733">
		<tag k="name" v="Ramnbergneset" />
		<tag k="natural" v="cape" />
		<tag k="place" v="locality" />
		<tag k="ssr:date" v="2016-05-10" />
		<tag k="ssr:stedsnr" v="288780" />
	</node>
	<node id="-25841" lat="60.7075527789" lon="5.65125555898">
		<tag k="ssr:gml_id" v="GEOMETRY_46378b33-1ae2-42bc-8145-f21d59c7e398" />
		<tag k="ssr:gml_nr" v="1" />
	</node>
	<node id="-26798" lat="60.5264777772" lon="5.69893056311">
		<tag k="name" v="Krossaneset" />
		<tag k="natural" v="cape" />
		<tag k="place" v="locality" />
		<tag k="ssr:date" v="2016-05-11" />
		<tag k="ssr:stedsnr" v="953712" />
	</node>
	<node id="-26019" lat="60.6813361112" lon="5.61806944144">
		<tag k="name" v="Langeneset" />
		<tag k="natural" v="cape" />
		<tag k="place" v="locality" />
		<tag k="ssr:date" v="2016-05-10" />
		<tag k="ssr:stedsnr" v="492016" />
	</node>
	<node id="-24991" lat="60.5570888891" lon="5.4059166736">
		<tag k="bay" v="fjord" />
		<tag k="name" v="Svartvågen" />
		<tag k="natural" v="bay" />
		<tag k="ssr:date" v="2016-05-10" />
		<tag k="ssr:stedsnr" v="288823" />
	</node>
	<node id="-25925" lat="60.428922219" lon="5.53512777539">
		<tag k="name" v="Gloppa" />
		<tag k="natural" v="bay" />
		<tag k="ssr:date" v="2016-05-10" />
		<tag k="ssr:stedsnr" v="468432" />
	</node>
	<node id="-25242" lat="60.4742277787" lon="5.70827222619">
		<tag k="name" v="Olsneset" />
		<tag k="natural" v="cape" />
		<tag k="place" v="locality" />
		<tag k="ssr:date" v="2016-05-11" />
		<tag k="ssr:stedsnr" v="895378" />
	</node>
	<node id="-26593" lat="60.4382166704" lon="5.56275277744">
		<tag k="ssr:gml_id" v="GEOMETRY_e59e2d66-ea10-4c7f-b65f-9906db4a10f0" />
		<tag k="ssr:gml_nr" v="1" />
	</node>
	<node id="-25488" lat="60.5563861138" lon="5.59825832427">
		<tag k="name" v="Ottervik" />
		<tag k="natural" v="bay" />
		<tag k="ssr:date" v="2016-05-10" />
		<tag k="ssr:stedsnr" v="106419" />
	</node>
	<node id="-25487" lat="60.5571138844" lon="5.60380832968">
		<tag k="name" v="Austervik" />
		<tag k="natural" v="bay" />
		<tag k="ssr:date" v="2016-05-10" />
		<tag k="ssr:stedsnr" v="106417" />
	</node>
	<node id="-25239" lat="60.5274749966" lon="5.48779166955">
		<tag k="name" v="Litleholmen" />
		<tag k="place" v="islet" />
		<tag k="ssr:date" v="2016-05-11" />
		<tag k="ssr:stedsnr" v="894706" />
	</node>
	<node id="-26504" lat="60.6108055541" lon="5.54288056161">
		<tag k="name" v="Drangøyna" />
		<tag k="place" v="island" />
		<tag k="ssr:date" v="2016-05-11" />
		<tag k="ssr:stedsnr" v="734748" />
	</node>
	<node id="-25991" lat="60.6800222226" lon="5.6247972201">
		<tag k="ssr:gml_id" v="GEOMETRY_6e25f401-6489-40da-ad6f-ef1a5e4127a4" />
		<tag k="ssr:gml_nr" v="1" />
	</node>
	<node id="-25990" lat="60.6835555593" lon="5.63225555191">
		<tag k="ssr:gml_id" v="GEOMETRY_733f64bb-8267-42b8-a63e-736cb2bc8d87" />
		<tag k="ssr:gml_nr" v="0" />
	</node>
	<node id="-25989" lat="60.5607777754" lon="5.43761388106">
		<tag k="name" v="Storeholmen" />
		<tag k="place" v="islet" />
		<tag k="ssr:date" v="2016-05-10" />
		<tag k="ssr:stedsnr" v="491453" />
	</node>
	<node id="-24964" lat="60.6986888888" lon="5.66530277013">
		<tag k="name" v="Elvikhammaren" />
		<tag k="natural" v="cape" />
		<tag k="place" v="locality" />
		<tag k="ssr:date" v="2016-05-10" />
		<tag k="ssr:stedsnr" v="288375" />
	</node>
	<node id="-24963" lat="60.5618944461" lon="5.44255556391">
		<tag k="name" v="Grønnvikane" />
		<tag k="natural" v="bay" />
		<tag k="ssr:date" v="2016-05-10" />
		<tag k="ssr:stedsnr" v="288361" />
	</node>
	<node id="-26497" lat="60.6412583376" lon="5.60172777679">
		<tag k="name" v="Naustvika" />
		<tag k="natural" v="bay" />
		<tag k="ssr:date" v="2016-05-11" />
		<tag k="ssr:stedsnr" v="734711" />
	</node>
	<node id="-24960" lat="60.4331527807" lon="5.55341944498">
		<tag k="ssr:gml_id" v="GEOMETRY_878624b3-29c2-48bf-9bb7-a79b4944b5ee" />
		<tag k="ssr:gml_nr" v="0" />
	</node>
	<node id="-25470" lat="60.4378194477" lon="5.56327221984">
		<tag k="name" v="Storavika" />
		<tag k="natural" v="bay" />
		<tag k="ssr:date" v="2016-05-10" />
		<tag k="ssr:stedsnr" v="105481" />
	</node>
	<node id="-25469" lat="60.5533472218" lon="5.44434167235">
		<tag k="name" v="Trollhavn" />
		<tag k="natural" v="bay" />
		<tag k="ssr:date" v="2016-05-10" />
		<tag k="ssr:stedsnr" v="105411" />
	</node>
	<node id="-25464" lat="60.482694444" lon="5.71154166202">
		<tag k="alt_name" v="Hesttona" />
		<tag k="name" v="Hestetoa" />
		<tag k="natural" v="cape" />
		<tag k="place" v="locality" />
		<tag k="ssr:date" v="2016-05-10" />
		<tag k="ssr:stedsnr" v="104576" />
	</node>
	<node id="-26260" lat="60.5494638863" lon="5.45380556484">
		<tag k="ssr:gml_id" v="GEOMETRY_238d85d5-f7e6-48c5-9940-fb850e22e794" />
		<tag k="ssr:gml_nr" v="2" />
	</node>
	<node id="-26486" lat="60.5627388922" lon="5.43551943856">
		<tag k="name" v="Litleholmen" />
		<tag k="place" v="islet" />
		<tag k="ssr:date" v="2016-05-11" />
		<tag k="ssr:stedsnr" v="734462" />
	</node>
	<node id="-25833" lat="60.529508334" lon="5.48728610655">
		<tag k="name" v="Storholmen" />
		<tag k="place" v="islet" />
		<tag k="ssr:date" v="2016-05-10" />
		<tag k="ssr:stedsnr" v="248942" />
	</node>
	<node id="-26481" lat="60.4608305532" lon="5.6320305548">
		<tag k="ssr:gml_id" v="GEOMETRY_9c567446-ffcc-42e2-98b6-1aa939f7618c" />
		<tag k="ssr:gml_nr" v="1" />
	</node>
	<node id="-25456" lat="60.5395555549" lon="5.47525277766">
		<tag k="name" v="Ringaneset" />
		<tag k="natural" v="cape" />
		<tag k="place" v="locality" />
		<tag k="ssr:date" v="2016-05-10" />
		<tag k="ssr:stedsnr" v="67887" />
	</node>
	<node id="-25964" lat="60.4738527787" lon="5.69225832857">
		<tag k="name" v="Eidsvika" />
		<tag k="natural" v="bay" />
		<tag k="ssr:date" v="2016-05-10" />
		<tag k="ssr:stedsnr" v="470585" />
	</node>
	<node id="-26834" lat="60.4780583324" lon="5.67839166684">
		<tag k="ssr:gml_id" v="GEOMETRY_2ce92555-c8ea-4bf7-bbd3-8dad2e68d3a3" />
		<tag k="ssr:gml_nr" v="1" />
	</node>
	<node id="-25958" lat="60.6097194422" lon="5.50156667292">
		<tag k="name" v="Bernesvika" />
		<tag k="natural" v="bay" />
		<tag k="ssr:date" v="2016-05-10" />
		<tag k="ssr:stedsnr" v="470515" />
	</node>
	<node id="-26469" lat="60.4329499962" lon="5.54555000484">
		<tag k="ssr:gml_id" v="GEOMETRY_68187e4b-c6bd-45ee-abb7-5cf3debaf84c" />
		<tag k="ssr:gml_nr" v="1" />
	</node>
	<node id="-26468" lat="60.4329499959" lon="5.54554722285">
		<tag k="ssr:gml_id" v="GEOMETRY_762f1c7d-e7fe-423a-a9ac-52e6f246c711" />
		<tag k="ssr:gml_nr" v="0" />
	</node>
	<node id="-25954" lat="60.5491166648" lon="5.38012499572">
		<tag k="name" v="Kolhovdvika" />
		<tag k="natural" v="bay" />
		<tag k="ssr:date" v="2016-05-10" />
		<tag k="ssr:stedsnr" v="469833" />
	</node>
	<node id="-25573" lat="60.6667083376" lon="5.61448056281">
		<tag k="ssr:gml_id" v="GEOMETRY_f3a83720-134d-4a8d-8bcc-e3bfc176f89f" />
		<tag k="ssr:gml_nr" v="2" />
	</node>
	<node id="-25947" lat="60.5030333374" lon="5.41553332657">
		<tag k="name" v="Botlabenken" />
		<tag k="natural" v="bay" />
		<tag k="ssr:date" v="2016-05-10" />
		<tag k="ssr:stedsnr" v="469536" />
	</node>
	<node id="-25434" lat="60.5954277809" lon="5.50946944465">
		<tag k="alt_name" v="Fureholmen" />
		<tag k="name" v="Holmen" />
		<tag k="place" v="islet" />
		<tag k="ssr:date" v="2016-05-10" />
		<tag k="ssr:stedsnr" v="67550" />
	</node>
	<node id="-25433" lat="60.5601416708" lon="5.4216777729">
		<tag k="name" v="Ingridvika" />
		<tag k="natural" v="bay" />
		<tag k="ssr:date" v="2016-05-10" />
		<tag k="ssr:stedsnr" v="67450" />
	</node>
	<node id="-26284" lat="60.4918444475" lon="5.42540556021">
		<tag k="name" v="Rosshagneset" />
		<tag k="natural" v="cape" />
		<tag k="place" v="locality" />
		<tag k="ssr:date" v="2016-05-10" />
		<tag k="ssr:stedsnr" v="650769" />
	</node>
	<node id="-25060" lat="60.6629277747" lon="5.61414443807">
		<tag k="name" v="Kleilandsbugen" />
		<tag k="natural" v="bay" />
		<tag k="ssr:date" v="2016-05-10" />
		<tag k="ssr:stedsnr" v="348398" />
	</node>
	<node id="-25942" lat="60.570349998" lon="5.58524166259">
		<tag k="name" v="Straumen" />
		<tag k="natural" v="bay" />
		<tag k="ssr:date" v="2016-05-10" />
		<tag k="ssr:stedsnr" v="469481" />
	</node>
	<node id="-25941" lat="60.5715027805" lon="5.58611944392">
		<tag k="name" v="Båtsvik" />
		<tag k="natural" v="bay" />
		<tag k="ssr:date" v="2016-05-10" />
		<tag k="ssr:stedsnr" v="469478" />
	</node>
	<node id="-25940" lat="60.621647218" lon="5.58624999234">
		<tag k="name" v="TYSSEVIKA" />
		<tag k="natural" v="bay" />
		<tag k="ssr:date" v="2016-05-10" />
		<tag k="ssr:stedsnr" v="469462" />
	</node>
	<node id="-26450" lat="60.5090583322" lon="5.40669721807">
		<tag k="name" v="Juviknes" />
		<tag k="natural" v="cape" />
		<tag k="place" v="locality" />
		<tag k="ssr:date" v="2016-05-11" />
		<tag k="ssr:stedsnr" v="712815" />
	</node>
	<node id="-26449" lat="60.5482472226" lon="5.37493055999">
		<tag k="name" v="Klubbavik" />
		<tag k="natural" v="bay" />
		<tag k="ssr:date" v="2016-05-11" />
		<tag k="ssr:stedsnr" v="712816" />
	</node>
	<node id="-25329" lat="60.4767222194" lon="5.68464444386">
		<tag k="ssr:gml_id" v="GEOMETRY_6188e126-81fa-4aef-bc4a-0e07358b8f48" />
		<tag k="ssr:gml_nr" v="1" />
	</node>
	<node id="-25933" lat="60.682355559" lon="5.61305555351">
		<tag k="name" v="Eiketoneset" />
		<tag k="natural" v="cape" />
		<tag k="place" v="locality" />
		<tag k="ssr:date" v="2016-05-10" />
		<tag k="ssr:stedsnr" v="469405" />
	</node>
	<node id="-25416" lat="60.4390083357" lon="5.60991388449">
		<tag k="ssr:gml_id" v="GEOMETRY_77794a90-36be-47e2-9a89-892b6f679a54" />
		<tag k="ssr:gml_nr" v="2" />
	</node>
	<node id="-25415" lat="60.4390111116" lon="5.60991666847">
		<tag k="ssr:gml_id" v="GEOMETRY_1ffa78fb-e400-4062-b536-b3b2cebd1e3d" />
		<tag k="ssr:gml_nr" v="1" />
	</node>
	<node id="-25414" lat="60.4393583348" lon="5.60750277064">
		<tag k="ssr:gml_id" v="GEOMETRY_474c18af-5236-4478-a3e3-ba273741ef27" />
		<tag k="ssr:gml_nr" v="0" />
	</node>
	<node id="-26437" lat="60.530924996" lon="5.47747221911">
		<tag k="name" v="Merkesvika" />
		<tag k="natural" v="bay" />
		<tag k="ssr:date" v="2016-05-11" />
		<tag k="ssr:stedsnr" v="712659" />
	</node>
	<node id="-25840" lat="60.708369443" lon="5.65169999795">
		<tag k="ssr:gml_id" v="GEOMETRY_78e6541e-0b4d-4466-946e-bae6f5db8ea7" />
		<tag k="ssr:gml_nr" v="0" />
	</node>
	<node id="-25921" lat="60.4444138861" lon="5.61765834074">
		<tag k="bay" v="fjord" />
		<tag k="name" v="SØRFJORDEN" />
		<tag k="natural" v="bay" />
		<tag k="ssr:date" v="2016-05-10" />
		<tag k="ssr:stedsnr" v="468254" />
	</node>
	<node id="-25613" lat="60.6887194461" lon="5.63610278625">
		<tag k="name" v="Heimviki" />
		<tag k="natural" v="bay" />
		<tag k="ssr:date" v="2016-05-10" />
		<tag k="ssr:stedsnr" v="166407" />
	</node>
	<node id="-25584" lat="60.4678055572" lon="5.70186944386">
		<tag k="ssr:gml_id" v="GEOMETRY_77979f63-ffec-4d8e-a033-2cbedd8d0cf6" />
		<tag k="ssr:gml_nr" v="0" />
	</node>
	<node id="-25260" lat="60.5411138881" lon="5.47020832579">
		<tag k="ssr:gml_id" v="GEOMETRY_b23c9d3d-be66-43c1-bf57-a266dbd8ccc6" />
		<tag k="ssr:gml_nr" v="1" />
	</node>
	<node id="-25395" lat="60.5187027786" lon="5.38243334078">
		<tag k="name" v="Kvernvika" />
		<tag k="natural" v="bay" />
		<tag k="ssr:date" v="2016-05-10" />
		<tag k="ssr:stedsnr" v="45834" />
	</node>
	<node id="-26044" lat="60.4503222254" lon="5.49503611368">
		<tag k="ssr:gml_id" v="GEOMETRY_8bdc01cf-ca08-4242-9645-97d4c7f8b0f3" />
		<tag k="ssr:gml_nr" v="0" />
	</node>
	<node id="-25021" lat="60.7035388886" lon="5.64104167461">
		<tag k="name" v="Trollsvika" />
		<tag k="natural" v="bay" />
		<tag k="ssr:date" v="2016-05-10" />
		<tag k="ssr:stedsnr" v="309302" />
	</node>
	<node id="-26409" lat="60.4363638922" lon="5.55764444383">
		<tag k="name" v="Litlavika" />
		<tag k="natural" v="bay" />
		<tag k="ssr:date" v="2016-05-11" />
		<tag k="ssr:stedsnr" v="712452" />
	</node>
	<node id="-25123" lat="60.5766111115" lon="5.45996389199">
		<tag k="name" v="Helldalsholmen" />
		<tag k="place" v="islet" />
		<tag k="ssr:date" v="2016-05-10" />
		<tag k="ssr:stedsnr" v="370091" />
	</node>
	<node id="-26404" lat="60.5590472232" lon="5.43655834166">
		<tag k="name" v="Sunneset" />
		<tag k="natural" v="cape" />
		<tag k="place" v="locality" />
		<tag k="ssr:date" v="2016-05-11" />
		<tag k="ssr:stedsnr" v="712361" />
	</node>
	<node id="-25379" lat="60.5313500039" lon="5.49154166856">
		<tag k="name" v="Svenevika" />
		<tag k="natural" v="bay" />
		<tag k="ssr:date" v="2016-05-10" />
		<tag k="ssr:stedsnr" v="45639" />
	</node>
	<node id="-25890" lat="60.5096499955" lon="5.40686944397">
		<tag k="alt_name" v="Vikane" />
		<tag k="name" v="Runnhovdvikane" />
		<tag k="natural" v="bay" />
		<tag k="ssr:date" v="2016-05-10" />
		<tag k="ssr:stedsnr" v="431505" />
	</node>
	<node id="-25889" lat="60.5610305551" lon="5.42738332666">
		<tag k="name" v="Kakevågen" />
		<tag k="natural" v="bay" />
		<tag k="ssr:date" v="2016-05-10" />
		<tag k="ssr:stedsnr" v="431458" />
	</node>
	<node id="-25888" lat="60.5483055558" lon="5.36469167372">
		<tag k="name" v="Sanddalsneset" />
		<tag k="natural" v="cape" />
		<tag k="place" v="locality" />
		<tag k="ssr:date" v="2016-05-10" />
		<tag k="ssr:stedsnr" v="431449" />
	</node>
	<node id="-26397" lat="60.5235083309" lon="5.69979721986">
		<tag k="name" v="Slåtteskallen" />
		<tag k="natural" v="cape" />
		<tag k="place" v="locality" />
		<tag k="ssr:date" v="2016-05-11" />
		<tag k="ssr:stedsnr" v="711681" />
	</node>
	<node id="-25884" lat="60.5680027753" lon="5.44094443607">
		<tag k="name" v="Fjellskålneset" />
		<tag k="natural" v="cape" />
		<tag k="place" v="locality" />
		<tag k="ssr:date" v="2016-05-10" />
		<tag k="ssr:stedsnr" v="431093" />
	</node>
	<node id="-26392" lat="60.4328999962" lon="5.52878054772">
		<tag k="name" v="Trollshavn" />
		<tag k="natural" v="bay" />
		<tag k="ssr:date" v="2016-05-11" />
		<tag k="ssr:stedsnr" v="711459" />
	</node>
	<node id="-25876" lat="60.438575004" lon="5.52840000683">
		<tag k="ssr:gml_id" v="GEOMETRY_bd532225-f639-47af-a990-ea1fb7762ed2" />
		<tag k="ssr:gml_nr" v="1" />
	</node>
	<node id="-26387" lat="60.6059805542" lon="5.55730277863">
		<tag k="name" v="Naustvågen" />
		<tag k="natural" v="bay" />
		<tag k="ssr:date" v="2016-05-11" />
		<tag k="ssr:stedsnr" v="711331" />
	</node>
	<node id="-25874" lat="60.4506916627" lon="5.49750556089">
		<tag k="ssr:gml_id" v="GEOMETRY_94c265b2-461c-430b-ab08-98f09c53d778" />
		<tag k="ssr:gml_nr" v="1" />
	</node>
	<node id="-25873" lat="60.4506888935" lon="5.49750278466">
		<tag k="ssr:gml_id" v="GEOMETRY_a22e3d64-12a7-457a-b0bc-b4cd08549be1" />
		<tag k="ssr:gml_nr" v="0" />
	</node>
	<node id="-25872" lat="60.4530305544" lon="5.5028361095">
		<tag k="ssr:gml_id" v="GEOMETRY_4ae09bac-41e5-43b9-a7fe-9430263dcfe8" />
		<tag k="ssr:gml_nr" v="1" />
	</node>
	<node id="-26383" lat="60.602541663" lon="5.50912778402">
		<tag k="ssr:gml_id" v="GEOMETRY_71d077c5-b24a-4713-b0e6-11d4dc751336" />
		<tag k="ssr:gml_nr" v="1" />
	</node>
	<node id="-26382" lat="60.601738887" lon="5.50650277247">
		<tag k="ssr:gml_id" v="GEOMETRY_6d622542-a87b-4ef8-8e3d-600066e71fd2" />
		<tag k="ssr:gml_nr" v="0" />
	</node>
	<node id="-25357" lat="60.4379777743" lon="5.56656666195">
		<tag k="name" v="Blomavika" />
		<tag k="natural" v="bay" />
		<tag k="ssr:date" v="2016-05-10" />
		<tag k="ssr:stedsnr" v="45479" />
	</node>
	<node id="-25353" lat="60.6425833301" lon="5.5987944389">
		<tag k="name" v="Sjubbeneset" />
		<tag k="natural" v="cape" />
		<tag k="place" v="locality" />
		<tag k="ssr:date" v="2016-05-10" />
		<tag k="ssr:stedsnr" v="45407" />
	</node>
	<node id="-25351" lat="60.6816305558" lon="5.61426665984">
		<tag k="name" v="Eiketobukta" />
		<tag k="natural" v="bay" />
		<tag k="ssr:date" v="2016-05-10" />
		<tag k="ssr:stedsnr" v="45402" />
	</node>
	<node id="-24961" lat="60.4326472268" lon="5.55366389257">
		<tag k="ssr:gml_id" v="GEOMETRY_c8f96f8b-f654-4227-845d-6509b94d7423" />
		<tag k="ssr:gml_nr" v="1" />
	</node>
	<node id="-25348" lat="60.5610694451" lon="5.41969167545">
		<tag k="name" v="Holmen" />
		<tag k="place" v="islet" />
		<tag k="ssr:date" v="2016-05-10" />
		<tag k="ssr:stedsnr" v="45391" />
	</node>
	<node id="-26363" lat="60.4685249961" lon="5.6493027716">
		<tag k="ssr:gml_id" v="GEOMETRY_2be9ab37-51e7-4d9d-a4ea-e8f0a2a7d629" />
		<tag k="ssr:gml_nr" v="1" />
	</node>
	<node id="-26362" lat="60.4685249984" lon="5.64930000464">
		<tag k="ssr:gml_id" v="GEOMETRY_0b15baba-c1e7-497e-875c-0caaf80e7a92" />
		<tag k="ssr:gml_nr" v="0" />
	</node>
	<node id="-25129" lat="60.5590138852" lon="5.41128333195">
		<tag k="name" v="Eldsneset" />
		<tag k="natural" v="cape" />
		<tag k="place" v="locality" />
		<tag k="ssr:date" v="2016-05-10" />
		<tag k="ssr:stedsnr" v="370480" />
	</node>
	<node id="-26864" lat="60.5042861133" lon="5.40731943844">
		<tag k="name" v="Vindpollen" />
		<tag k="natural" v="cape" />
		<tag k="place" v="locality" />
		<tag k="ssr:date" v="2016-05-11" />
		<tag k="ssr:stedsnr" v="955836" />
	</node>
	<node id="-26865" lat="60.51452778" lon="5.39639166763">
		<tag k="name" v="Fusastøa" />
		<tag k="natural" v="bay" />
		<tag k="ssr:date" v="2016-05-11" />
		<tag k="ssr:stedsnr" v="955835" />
	</node>
	<node id="-25328" lat="60.4769333379" lon="5.68568888993">
		<tag k="ssr:gml_id" v="GEOMETRY_d0558507-90d0-41ba-865d-e3c3f4127e24" />
		<tag k="ssr:gml_nr" v="0" />
	</node>
	<node id="-26863" lat="60.5759722192" lon="5.46160554694">
		<tag k="name" v="Havnen" />
		<tag k="natural" v="bay" />
		<tag k="ssr:date" v="2016-05-11" />
		<tag k="ssr:stedsnr" v="955830" />
	</node>
	<node id="-26127" lat="60.611286109" lon="5.50664167537">
		<tag k="ssr:gml_id" v="GEOMETRY_5c2dde08-ab6e-4af8-a58a-f01b299b1fb1" />
		<tag k="ssr:gml_nr" v="0" />
	</node>
	<node id="-25324" lat="60.5219611086" lon="5.35809165867">
		<tag k="bay" v="fjord" />
		<tag k="name" v="SØRFJORDEN" />
		<tag k="natural" v="bay" />
		<tag k="ssr:date" v="2016-05-10" />
		<tag k="ssr:stedsnr" v="43285" />
	</node>
	<node id="-26578" lat="60.4561444482" lon="5.48749443615">
		<tag k="name" v="Eidsvika" />
		<tag k="natural" v="bay" />
		<tag k="ssr:date" v="2016-05-11" />
		<tag k="ssr:stedsnr" v="773820" />
	</node>
	<node id="-26860" lat="60.4917861141" lon="5.42290555053">
		<tag k="name" v="Rosshaganeset" />
		<tag k="natural" v="cape" />
		<tag k="place" v="locality" />
		<tag k="ssr:date" v="2016-05-11" />
		<tag k="ssr:stedsnr" v="955814" />
	</node>
	<node id="-26857" lat="60.4804527753" lon="5.44696945211">
		<tag k="name" v="Litletveithola" />
		<tag k="natural" v="bay" />
		<tag k="ssr:date" v="2016-05-11" />
		<tag k="ssr:stedsnr" v="955764" />
	</node>
	<node id="-26339" lat="60.5718722198" lon="5.44972778134">
		<tag k="name" v="Gardvika" />
		<tag k="natural" v="bay" />
		<tag k="ssr:date" v="2016-05-10" />
		<tag k="ssr:stedsnr" v="673107" />
	</node>
	<node id="-25211" lat="60.4978944418" lon="5.42224166559">
		<tag k="name" v="Storaneset" />
		<tag k="natural" v="cape" />
		<tag k="place" v="locality" />
		<tag k="ssr:date" v="2016-05-10" />
		<tag k="ssr:stedsnr" v="409800" />
	</node>
	<node id="-25307" lat="60.6116972194" lon="5.55225000851">
		<tag k="ssr:gml_id" v="GEOMETRY_8bb40faa-bc44-4bac-a4d8-4d27855c3678" />
		<tag k="ssr:gml_nr" v="2" />
	</node>
	<node id="-25306" lat="60.6061555598" lon="5.55264167493">
		<tag k="ssr:gml_id" v="GEOMETRY_c383db66-ec86-4d2f-8607-a0b7f19ecd53" />
		<tag k="ssr:gml_nr" v="1" />
	</node>
	<node id="-25305" lat="60.6061527735" lon="5.55264166163">
		<tag k="ssr:gml_id" v="GEOMETRY_9064d4b1-86ec-4028-b343-fd33a06c6314" />
		<tag k="ssr:gml_nr" v="0" />
	</node>
	<node id="-25304" lat="60.6099305588" lon="5.55500277354">
		<tag k="ssr:gml_id" v="GEOMETRY_7e3150db-b205-4b2a-88bf-f426dcdb9394" />
		<tag k="ssr:gml_nr" v="1" />
	</node>
	<node id="-25380" lat="60.5357861155" lon="5.47951944407">
		<tag k="name" v="Ervik" />
		<tag k="natural" v="bay" />
		<tag k="ssr:date" v="2016-05-10" />
		<tag k="ssr:stedsnr" v="45674" />
	</node>
	<node id="-25812" lat="60.5692222189" lon="5.4412888903">
		<tag k="ssr:gml_id" v="GEOMETRY_db563d2c-ec5b-4180-b0b0-907e174d4f69" />
		<tag k="ssr:gml_nr" v="1" />
	</node>
	<node id="-26835" lat="60.4727500001" lon="5.69943333815">
		<tag k="name" v="Klubben" />
		<tag k="natural" v="cape" />
		<tag k="place" v="locality" />
		<tag k="ssr:date" v="2016-05-11" />
		<tag k="ssr:stedsnr" v="955596" />
	</node>
	<node id="-26322" lat="60.5517527773" lon="5.39023888304">
		<tag k="name" v="Purkegilet" />
		<tag k="natural" v="cape" />
		<tag k="place" v="locality" />
		<tag k="ssr:date" v="2016-05-10" />
		<tag k="ssr:stedsnr" v="651836" />
	</node>
	<node id="-26833" lat="60.4776638913" lon="5.67823333434">
		<tag k="ssr:gml_id" v="GEOMETRY_7db58add-ba1c-4fc7-9a13-d2818dda426c" />
		<tag k="ssr:gml_nr" v="0" />
	</node>
	<node id="-25122" lat="60.5309555585" lon="5.53043333866">
		<tag k="ssr:gml_id" v="GEOMETRY_6f741a59-b35e-446a-b866-f7421b133333" />
		<tag k="ssr:gml_nr" v="5" />
	</node>
	<node id="-25290" lat="60.5532444434" lon="5.40735833641">
		<tag k="name" v="Hjellvikvågen" />
		<tag k="natural" v="bay" />
		<tag k="ssr:date" v="2016-05-10" />
		<tag k="ssr:stedsnr" v="6466" />
	</node>
	<node id="-26312" lat="60.5293111105" lon="5.34959166131">
		<tag k="name" v="Kvammen" />
		<tag k="natural" v="cape" />
		<tag k="place" v="locality" />
		<tag k="ssr:date" v="2016-05-10" />
		<tag k="ssr:stedsnr" v="651769" />
	</node>
	<node id="-26817" lat="60.4539749976" lon="5.50852222431">
		<tag k="name" v="Øyrane" />
		<tag k="place" v="island" />
		<tag k="ssr:date" v="2016-05-11" />
		<tag k="ssr:stedsnr" v="955494" />
	</node>
	<node id="-25280" lat="60.4649749968" lon="5.45883611938">
		<tag k="loc_name" v="Votløyna" />
		<tag k="name" v="Votleøyna" />
		<tag k="place" v="islet" />
		<tag k="ssr:date" v="2016-05-10" />
		<tag k="ssr:stedsnr" v="5549" />
	</node>
	<node id="-25279" lat="60.5377472179" lon="5.32167777161">
		<tag k="name" v="Sørfjordskallen" />
		<tag k="natural" v="shoal" />
		<tag k="place" v="locality" />
		<tag k="ssr:date" v="2016-05-10" />
		<tag k="ssr:stedsnr" v="267457" />
	</node>
	<node id="-25790" lat="60.4758472249" lon="5.68305554626">
		<tag k="name" v="Olsneset" />
		<tag k="natural" v="cape" />
		<tag k="place" v="locality" />
		<tag k="ssr:date" v="2016-05-10" />
		<tag k="ssr:stedsnr" v="227584" />
	</node>
	<node id="-26485" lat="60.5432444434" lon="5.45811945102">
		<tag k="name" v="Dalsholmen" />
		<tag k="place" v="islet" />
		<tag k="ssr:date" v="2016-05-11" />
		<tag k="ssr:stedsnr" v="734436" />
	</node>
	<node id="-25785" lat="60.4377055588" lon="5.59016111647">
		<tag k="name" v="Vimmelvik" />
		<tag k="natural" v="bay" />
		<tag k="ssr:date" v="2016-05-10" />
		<tag k="ssr:stedsnr" v="227558" />
	</node>
	<node id="-26806" lat="60.6090722187" lon="5.50054166932">
		<tag k="name" v="Bernestangen" />
		<tag k="natural" v="cape" />
		<tag k="place" v="locality" />
		<tag k="ssr:date" v="2016-05-11" />
		<tag k="ssr:stedsnr" v="954714" />
	</node>
	<node id="-26805" lat="60.4705666651" lon="5.70325000894">
		<tag k="name" v="Olsnessundet" />
		<tag k="natural" v="strait" />
		<tag k="place" v="locality" />
		<tag k="ssr:date" v="2016-05-11" />
		<tag k="ssr:stedsnr" v="954526" />
	</node>
	<node id="-26292" lat="60.5017222228" lon="5.42313055041">
		<tag k="name" v="Kaltræneset" />
		<tag k="natural" v="cape" />
		<tag k="place" v="locality" />
		<tag k="ssr:date" v="2016-05-10" />
		<tag k="ssr:stedsnr" v="651526" />
	</node>
	<node id="-25118" lat="60.4897888853" lon="5.44058611146">
		<tag k="ssr:gml_id" v="GEOMETRY_9d16d4de-9325-4b66-9247-66f9eb40a450" />
		<tag k="ssr:gml_nr" v="1" />
	</node>
	<node id="-26288" lat="60.5468972182" lon="5.59226943647">
		<tag k="name" v="Hukulten" />
		<tag k="natural" v="cape" />
		<tag k="place" v="locality" />
		<tag k="ssr:date" v="2016-05-10" />
		<tag k="ssr:stedsnr" v="651438" />
	</node>
	<node id="-26824" lat="60.446119448" lon="5.61263887979">
		<tag k="name" v="Vikaneset" />
		<tag k="natural" v="cape" />
		<tag k="place" v="locality" />
		<tag k="ssr:date" v="2016-05-11" />
		<tag k="ssr:stedsnr" v="955554" />
	</node>
	<node id="-25774" lat="60.6325555593" lon="5.58702221341">
		<tag k="name" v="Eikjaneset" />
		<tag k="natural" v="cape" />
		<tag k="place" v="locality" />
		<tag k="ssr:date" v="2016-05-10" />
		<tag k="ssr:stedsnr" v="227401" />
	</node>
	<node id="-25261" lat="60.5418750044" lon="5.46950000445">
		<tag k="ssr:gml_id" v="GEOMETRY_c6c28647-7935-4fbb-9825-98ba12eb4849" />
		<tag k="ssr:gml_nr" v="2" />
	</node>
	<node id="-26875" lat="60.5737720164" lon="5.45225264866">
		<tag k="name" v="Krossneset" />
		<tag k="natural" v="cape" />
		<tag k="place" v="locality" />
		<tag k="ssr:date" v="2016-05-31" />
		<tag k="ssr:stedsnr" v="970915" />
	</node>
	<node id="-25259" lat="60.5423555529" lon="5.46878056301">
		<tag k="ssr:gml_id" v="GEOMETRY_4ce24174-67c8-4e39-b2a6-e6bb4601b3c5" />
		<tag k="ssr:gml_nr" v="0" />
	</node>
	<node id="-25767" lat="60.4318888911" lon="5.54537499998">
		<tag k="name" v="Hundhammerneset" />
		<tag k="natural" v="cape" />
		<tag k="place" v="locality" />
		<tag k="ssr:date" v="2016-05-10" />
		<tag k="ssr:stedsnr" v="226509" />
	</node>
	<node id="-26737" lat="60.5618500033" lon="5.42091666768">
		<tag k="name" v="Steinaneset" />
		<tag k="natural" v="cape" />
		<tag k="place" v="locality" />
		<tag k="ssr:date" v="2016-05-11" />
		<tag k="ssr:stedsnr" v="856493" />
	</node>
	<node id="-25764" lat="60.6855944463" lon="5.6257249989">
		<tag k="name" v="Leirvikneset" />
		<tag k="natural" v="cape" />
		<tag k="place" v="locality" />
		<tag k="ssr:date" v="2016-05-10" />
		<tag k="ssr:stedsnr" v="226433" />
	</node>
	<node id="-26786" lat="60.4748888884" lon="5.69841944198">
		<tag k="ssr:gml_id" v="GEOMETRY_9463a308-0430-4324-b498-df965e60b13f" />
		<tag k="ssr:gml_nr" v="1" />
	</node>
	<node id="-26785" lat="60.4748861147" lon="5.69841666557">
		<tag k="ssr:gml_id" v="GEOMETRY_2a489bb2-5542-4465-b724-c5b0dca0bea9" />
		<tag k="ssr:gml_nr" v="0" />
	</node>
	<node id="-26480" lat="60.4608277782" lon="5.63202778526">
		<tag k="ssr:gml_id" v="GEOMETRY_5151d633-3ccd-4ba8-974c-9c77380bcd4c" />
		<tag k="ssr:gml_nr" v="0" />
	</node>
	<node id="-25246" lat="60.4544694464" lon="5.49399444334">
		<tag k="name" v="Straumen" />
		<tag k="natural" v="bay" />
		<tag k="ssr:date" v="2016-05-11" />
		<tag k="ssr:stedsnr" v="895483" />
	</node>
	<node id="-25245" lat="60.5651833354" lon="5.58856388158">
		<tag k="name" v="Kjørvikbrot" />
		<tag k="natural" v="cape" />
		<tag k="place" v="locality" />
		<tag k="ssr:date" v="2016-05-11" />
		<tag k="ssr:stedsnr" v="895415" />
	</node>
	<node id="-25323" lat="60.5525777755" lon="5.39206388499">
		<tag k="name" v="Birkelandsstø" />
		<tag k="natural" v="bay" />
		<tag k="ssr:date" v="2016-05-10" />
		<tag k="ssr:stedsnr" v="43282" />
	</node>
	<node id="-25243" lat="60.6520000033" lon="5.6097222261">
		<tag k="name" v="Smedviki" />
		<tag k="natural" v="bay" />
		<tag k="ssr:date" v="2016-05-11" />
		<tag k="ssr:stedsnr" v="895398" />
	</node>
	<node id="-25754" lat="60.5296833315" lon="5.69656111476">
		<tag k="name" v="Ormstunga" />
		<tag k="natural" v="cape" />
		<tag k="place" v="locality" />
		<tag k="ssr:date" v="2016-05-10" />
		<tag k="ssr:stedsnr" v="225688" />
	</node>
	<node id="-25241" lat="60.5735923716" lon="5.45492969098">
		<tag k="name" v="Sauvikneset" />
		<tag k="natural" v="cape" />
		<tag k="place" v="locality" />
		<tag k="ssr:date" v="2016-05-31" />
		<tag k="ssr:stedsnr" v="894843" />
	</node>
	<node id="-26775" lat="60.6148388914" lon="5.54750833588">
		<tag k="name" v="Øyatangen" />
		<tag k="natural" v="cape" />
		<tag k="place" v="locality" />
		<tag k="ssr:date" v="2016-05-11" />
		<tag k="ssr:stedsnr" v="916756" />
	</node>
	<node id="-26262" lat="60.5229277747" lon="5.49444444097">
		<tag k="ssr:gml_id" v="GEOMETRY_522a8d14-5bd0-4291-8b9d-affb6aaa06b0" />
		<tag k="ssr:gml_nr" v="4" />
	</node>
	<node id="-26261" lat="60.5553277759" lon="5.44811111637">
		<tag k="ssr:gml_id" v="GEOMETRY_a90d4ba0-5853-4c5e-a0fa-11ccf8036e8d" />
		<tag k="ssr:gml_nr" v="3" />
	</node>
	<node id="-25236" lat="60.6968444477" lon="5.62097221696">
		<tag k="name" v="Lyngneset" />
		<tag k="natural" v="cape" />
		<tag k="place" v="locality" />
		<tag k="ssr:date" v="2016-05-11" />
		<tag k="ssr:stedsnr" v="894482" />
	</node>
	<node id="-25747" lat="60.5625777739" lon="5.42812499836">
		<tag k="name" v="Lammaneset" />
		<tag k="natural" v="cape" />
		<tag k="place" v="locality" />
		<tag k="ssr:date" v="2016-05-10" />
		<tag k="ssr:stedsnr" v="189041" />
	</node>
	<node id="-26258" lat="60.5494666649" lon="5.45380832629">
		<tag k="ssr:gml_id" v="GEOMETRY_30200d1f-6a6a-4a09-9064-aac29810aa58" />
		<tag k="ssr:gml_nr" v="0" />
	</node>
	<node id="-25233" lat="60.6035777781" lon="5.54879167548">
		<tag k="name" v="Gamstøvågen" />
		<tag k="natural" v="bay" />
		<tag k="ssr:date" v="2016-05-11" />
		<tag k="ssr:stedsnr" v="893712" />
	</node>
	<node id="-26765" lat="60.5661999954" lon="5.43862499156">
		<tag k="name" v="Klungerholmen" />
		<tag k="place" v="islet" />
		<tag k="ssr:date" v="2016-05-11" />
		<tag k="ssr:stedsnr" v="916086" />
	</node>
	<node id="-25708" lat="60.5414888915" lon="5.34090000545">
		<tag k="alt_name" v="Hamarsneset" />
		<tag k="name" v="Klokkarneset" />
		<tag k="natural" v="cape" />
		<tag k="place" v="locality" />
		<tag k="ssr:date" v="2016-05-10" />
		<tag k="ssr:stedsnr" v="188452" />
	</node>
	<node id="-25793" lat="60.4584972205" lon="5.62655277576">
		<tag k="name" v="Einhammeren" />
		<tag k="natural" v="cape" />
		<tag k="place" v="locality" />
		<tag k="ssr:date" v="2016-05-10" />
		<tag k="ssr:stedsnr" v="227586" />
	</node>
	<node id="-25629" lat="60.6061888863" lon="5.55346666763">
		<tag k="name" v="Årvangstangen" />
		<tag k="natural" v="cape" />
		<tag k="place" v="locality" />
		<tag k="ssr:date" v="2016-05-10" />
		<tag k="ssr:stedsnr" v="166542" />
	</node>
	<node id="-26396" lat="60.5314027748" lon="5.49257500838">
		<tag k="name" v="Svennevika" />
		<tag k="natural" v="bay" />
		<tag k="old_name" v="Svenneviki" />
		<tag k="ssr:date" v="2016-05-11" />
		<tag k="ssr:stedsnr" v="711631" />
	</node>
	<node id="-26235" lat="60.6244527783" lon="5.58699443831">
		<tag k="name" v="Apalneset" />
		<tag k="natural" v="cape" />
		<tag k="place" v="locality" />
		<tag k="ssr:date" v="2016-05-10" />
		<tag k="ssr:stedsnr" v="612722" />
	</node>
	<node id="-25210" lat="60.4945361092" lon="5.42388888637">
		<tag k="name" v="Innegardsvika" />
		<tag k="natural" v="bay" />
		<tag k="ssr:date" v="2016-05-10" />
		<tag k="ssr:stedsnr" v="409797" />
	</node>
	<node id="-26771" lat="60.6578833374" lon="5.61579444788">
		<tag k="name" v="Hetlevika" />
		<tag k="natural" v="bay" />
		<tag k="ssr:date" v="2016-05-11" />
		<tag k="ssr:stedsnr" v="916676" />
	</node>
	<node id="-25714" lat="60.6003500032" lon="5.48256388874">
		<tag k="name" v="Kvernaneset" />
		<tag k="natural" v="cape" />
		<tag k="place" v="locality" />
		<tag k="ssr:date" v="2016-05-10" />
		<tag k="ssr:stedsnr" v="188566" />
	</node>
	<node id="-25875" lat="60.4385722265" lon="5.52839722991">
		<tag k="ssr:gml_id" v="GEOMETRY_071b4a73-6aae-4fe7-b02d-ed7041906738" />
		<tag k="ssr:gml_nr" v="0" />
	</node>
	<node id="-26224" lat="60.7111027797" lon="5.62581388255">
		<tag k="ssr:gml_id" v="GEOMETRY_3def1906-b35f-49ef-b15e-bfcf6239ddad" />
		<tag k="ssr:gml_nr" v="1" />
	</node>
	<node id="-26223" lat="60.6974361083" lon="5.61111666783">
		<tag k="ssr:gml_id" v="GEOMETRY_37b0eff2-3ae1-4476-ba4d-e6cee695cb78" />
		<tag k="ssr:gml_nr" v="0" />
	</node>
	<node id="-26222" lat="60.5832611148" lon="5.46707221978">
		<tag k="name" v="Mjøsvågen" />
		<tag k="natural" v="bay" />
		<tag k="ssr:date" v="2016-05-10" />
		<tag k="ssr:stedsnr" v="612140" />
	</node>
	<node id="-26221" lat="60.5853277795" lon="5.45928332923">
		<tag k="name" v="Hoshovdknappen" />
		<tag k="natural" v="cape" />
		<tag k="place" v="locality" />
		<tag k="ssr:date" v="2016-05-10" />
		<tag k="ssr:stedsnr" v="612075" />
	</node>
	<node id="-26225" lat="60.7111055549" lon="5.62581667236">
		<tag k="ssr:gml_id" v="GEOMETRY_58897c27-7393-412e-9dc3-84928b9265a9" />
		<tag k="ssr:gml_nr" v="2" />
	</node>
	<node id="-26259" lat="60.5396888925" lon="5.46981943714">
		<tag k="ssr:gml_id" v="GEOMETRY_380b387e-f236-4f06-a6ef-9c6c3f3ebe96" />
		<tag k="ssr:gml_nr" v="1" />
	</node>
	<node id="-26216" lat="60.5810083352" lon="5.47406388675">
		<tag k="ssr:gml_id" v="GEOMETRY_b0607f11-488f-4ca4-bccc-a38e5ba4a51b" />
		<tag k="ssr:gml_nr" v="1" />
	</node>
	<node id="-26215" lat="60.5808944446" lon="5.47511388201">
		<tag k="ssr:gml_id" v="GEOMETRY_3a8090fd-cd91-4f63-88a0-6c2419ca70a3" />
		<tag k="ssr:gml_nr" v="0" />
	</node>
	<node id="-25180" lat="60.5033527765" lon="5.41283333679">
		<tag k="name" v="Almeneset" />
		<tag k="natural" v="cape" />
		<tag k="place" v="locality" />
		<tag k="ssr:date" v="2016-05-10" />
		<tag k="ssr:stedsnr" v="409498" />
	</node>
	<node id="-26202" lat="60.4672277791" lon="5.46759722121">
		<tag k="name" v="Urane" />
		<tag k="natural" v="bay" />
		<tag k="ssr:date" v="2016-05-10" />
		<tag k="ssr:stedsnr" v="591801" />
	</node>
	<node id="-25871" lat="60.4530277764" lon="5.50283333359">
		<tag k="ssr:gml_id" v="GEOMETRY_f8e7c433-bb18-4000-a835-a7bea6918d9c" />
		<tag k="ssr:gml_nr" v="0" />
	</node>
	<node id="-25687" lat="60.4299750015" lon="5.53835555509">
		<tag k="ssr:gml_id" v="GEOMETRY_211ff04e-6e6f-4c1b-9ac7-57de09b8bd28" />
		<tag k="ssr:gml_nr" v="2" />
	</node>
	<node id="-25686" lat="60.4300138899" lon="5.53873333845">
		<tag k="ssr:gml_id" v="GEOMETRY_dd793e62-fe89-44cc-ab82-5b77c8c5adfa" />
		<tag k="ssr:gml_nr" v="1" />
	</node>
	<node id="-26809" lat="60.6149333337" lon="5.55553056312">
		<tag k="fixme" v="consider seamark:type=rock" />
		<tag k="name" v="Kleppeskjera" />
		<tag k="natural" v="islet" />
		<tag k="ssr:date" v="2016-05-11" />
		<tag k="ssr:stedsnr" v="954828" />
	</node>
	<node id="-25169" lat="60.6484222266" lon="5.60333888996">
		<tag k="name" v="Havnen" />
		<tag k="natural" v="bay" />
		<tag k="ssr:date" v="2016-05-10" />
		<tag k="ssr:stedsnr" v="409398" />
	</node>
	<node id="-25166" lat="60.5602694453" lon="5.44461111194">
		<tag k="name" v="Langtroneset" />
		<tag k="natural" v="cape" />
		<tag k="place" v="locality" />
		<tag k="ssr:date" v="2016-05-10" />
		<tag k="ssr:stedsnr" v="409375" />
	</node>
	<node id="-25117" lat="60.5349555575" lon="5.56444165855">
		<tag k="ssr:gml_id" v="GEOMETRY_8057dfff-6ea4-4466-a09f-1179e07a868c" />
		<tag k="ssr:gml_nr" v="0" />
	</node>
	<node id="-25672" lat="60.5174555588" lon="5.38817499825">
		<tag k="name" v="Utleneset" />
		<tag k="natural" v="cape" />
		<tag k="place" v="locality" />
		<tag k="ssr:date" v="2016-05-10" />
		<tag k="ssr:stedsnr" v="166835" />
	</node>
	<node id="-25670" lat="60.5176527762" lon="5.38609444172">
		<tag k="name" v="Utlevika" />
		<tag k="natural" v="bay" />
		<tag k="ssr:date" v="2016-05-10" />
		<tag k="ssr:stedsnr" v="166833" />
	</node>
	<node id="-25303" lat="60.6159861147" lon="5.56192777864">
		<tag k="ssr:gml_id" v="GEOMETRY_79d905bf-1836-43dc-b0ae-7349cb9f9bcb" />
		<tag k="ssr:gml_nr" v="0" />
	</node>
	<node id="-26690" lat="60.5550999999" lon="5.40834444671">
		<tag k="name" v="Holmen" />
		<tag k="place" v="islet" />
		<tag k="ssr:date" v="2016-05-11" />
		<tag k="ssr:stedsnr" v="834830" />
	</node>
	<node id="-26689" lat="60.5481833318" lon="5.3714694415">
		<tag k="name" v="Klenvågen" />
		<tag k="natural" v="bay" />
		<tag k="ssr:date" v="2016-05-11" />
		<tag k="ssr:stedsnr" v="834826" />
	</node>
	<node id="-26175" lat="60.4419166695" lon="5.61138888561">
		<tag k="name" v="Udjerneset" />
		<tag k="natural" v="cape" />
		<tag k="place" v="locality" />
		<tag k="ssr:date" v="2016-05-10" />
		<tag k="ssr:stedsnr" v="591538" />
	</node>
	<node id="-26173" lat="60.5980916677" lon="5.51170276887">
		<tag k="name" v="Hanstveitholmen" />
		<tag k="place" v="islet" />
		<tag k="ssr:date" v="2016-05-10" />
		<tag k="ssr:stedsnr" v="591518" />
	</node>
	<node id="-25660" lat="60.5377194488" lon="5.34215833691">
		<tag k="name" v="Øyjordvika" />
		<tag k="natural" v="bay" />
		<tag k="ssr:date" v="2016-05-10" />
		<tag k="ssr:stedsnr" v="166752" />
	</node>
	<node id="-26171" lat="60.6142361148" lon="5.54768056273">
		<tag k="name" v="Drangøen" />
		<tag k="natural" v="cape" />
		<tag k="place" v="locality" />
		<tag k="ssr:date" v="2016-05-10" />
		<tag k="ssr:stedsnr" v="591511" />
	</node>
	<node id="-25145" lat="60.6116333357" lon="5.511805555">
		<tag k="ssr:gml_id" v="GEOMETRY_1d4c6622-97e7-4f11-8d30-6deb395587eb" />
		<tag k="ssr:gml_nr" v="2" />
	</node>
	<node id="-25144" lat="60.6116361125" lon="5.51180554749">
		<tag k="ssr:gml_id" v="GEOMETRY_f292e972-f355-4125-a1fe-fe5e6e503dc6" />
		<tag k="ssr:gml_nr" v="1" />
	</node>
	<node id="-25143" lat="60.6110250017" lon="5.51266666774">
		<tag k="ssr:gml_id" v="GEOMETRY_e82f5b0a-3b03-4cc2-81a1-a466a7f59158" />
		<tag k="ssr:gml_nr" v="0" />
	</node>
	<node id="-25142" lat="60.6204583306" lon="5.5748333414">
		<tag k="alt_name" v="Tysseneset" />
		<tag k="name" v="Ytstaneset" />
		<tag k="natural" v="cape" />
		<tag k="place" v="locality" />
		<tag k="ssr:date" v="2016-05-10" />
		<tag k="ssr:stedsnr" v="370740" />
	</node>
	<node id="-25097" lat="60.5485305525" lon="5.37242777391">
		<tag k="name" v="Klubbatrynet" />
		<tag k="natural" v="cape" />
		<tag k="place" v="locality" />
		<tag k="ssr:date" v="2016-05-10" />
		<tag k="ssr:stedsnr" v="348800" />
	</node>
	<node id="-25652" lat="60.527850003" lon="5.4842444449">
		<tag k="name" v="Berdalsvika" />
		<tag k="natural" v="bay" />
		<tag k="ssr:date" v="2016-05-10" />
		<tag k="ssr:stedsnr" v="166672" />
	</node>
	<node id="-26162" lat="60.5844861097" lon="5.46551388664">
		<tag k="name" v="Langeflua" />
		<tag k="natural" v="shoal" />
		<tag k="place" v="locality" />
		<tag k="ssr:date" v="2016-05-10" />
		<tag k="ssr:stedsnr" v="590812" />
	</node>
	<node id="-26161" lat="60.5454138857" lon="5.4635583253">
		<tag k="name" v="Myraholmen" />
		<tag k="place" v="islet" />
		<tag k="ssr:date" v="2016-05-10" />
		<tag k="ssr:stedsnr" v="590811" />
	</node>
	<node id="-26156" lat="60.5292083291" lon="5.49082500014">
		<tag k="name" v="Barkavika" />
		<tag k="natural" v="bay" />
		<tag k="ssr:date" v="2016-05-10" />
		<tag k="ssr:stedsnr" v="590667" />
	</node>
	<node id="-25130" lat="60.5040777797" lon="5.4276249936">
		<tag k="name" v="Valestrandsvågen" />
		<tag k="natural" v="bay" />
		<tag k="ssr:date" v="2016-05-10" />
		<tag k="ssr:stedsnr" v="370512" />
	</node>
	<node id="-26153" lat="60.4369611109" lon="5.56006110474">
		<tag k="name" v="Kløvneset" />
		<tag k="natural" v="cape" />
		<tag k="place" v="locality" />
		<tag k="ssr:date" v="2016-05-10" />
		<tag k="ssr:stedsnr" v="590490" />
	</node>
	<node id="-25128" lat="60.556330555" lon="5.4198138976">
		<tag k="name" v="Raknesvågen" />
		<tag k="natural" v="bay" />
		<tag k="ssr:date" v="2016-05-10" />
		<tag k="ssr:stedsnr" v="370477" />
	</node>
	<node id="-25124" lat="60.5698388903" lon="5.4376361098">
		<tag k="name" v="Fjellskålholmen" />
		<tag k="place" v="islet" />
		<tag k="ssr:date" v="2016-05-10" />
		<tag k="ssr:stedsnr" v="370101" />
	</node>
	<node id="-26147" lat="60.4654611087" lon="5.4683555551">
		<tag k="loc_name" v="Votlavika" />
		<tag k="name" v="Votlevika" />
		<tag k="natural" v="bay" />
		<tag k="old_name" v="Votleviki" />
		<tag k="ssr:date" v="2016-05-10" />
		<tag k="ssr:stedsnr" v="589510" />
	</node>
	<node id="-26146" lat="60.4291666686" lon="5.53555833464">
		<tag k="name" v="Gloppeneset" />
		<tag k="natural" v="cape" />
		<tag k="place" v="locality" />
		<tag k="ssr:date" v="2016-05-10" />
		<tag k="ssr:stedsnr" v="589455" />
	</node>
	<node id="-25121" lat="60.5711083327" lon="5.59580832857">
		<tag k="ssr:gml_id" v="GEOMETRY_85796ce9-f4db-4f0a-94f7-f290577d0bf0" />
		<tag k="ssr:gml_nr" v="4" />
	</node>
	<node id="-25120" lat="60.5325250004" lon="5.51052500109">
		<tag k="ssr:gml_id" v="GEOMETRY_f62d0aeb-b031-4e57-82eb-0f3cf8aeaca6" />
		<tag k="ssr:gml_nr" v="3" />
	</node>
	<node id="-25119" lat="60.5328388928" lon="5.43286389248">
		<tag k="ssr:gml_id" v="GEOMETRY_12f1767b-680f-4256-9ad3-2c7873dae7ba" />
		<tag k="ssr:gml_nr" v="2" />
	</node>
	<node id="-25630" lat="60.436588892" lon="5.59696944008">
		<tag k="name" v="Kolgroneset" />
		<tag k="natural" v="cape" />
		<tag k="place" v="locality" />
		<tag k="ssr:date" v="2016-05-10" />
		<tag k="ssr:stedsnr" v="166547" />
	</node>
	<node id="-26141" lat="60.4696444484" lon="5.6767083313">
		<tag k="bay" v="fjord" />
		<tag k="name" v="SØRFJORDEN" />
		<tag k="natural" v="bay" />
		<tag k="ssr:date" v="2016-05-10" />
		<tag k="ssr:stedsnr" v="589284" />
	</node>
	<node id="-26799" lat="60.4293138916" lon="5.55320556257">
		<tag k="bay" v="fjord" />
		<tag k="name" v="SØRFJORDEN" />
		<tag k="natural" v="bay" />
		<tag k="ssr:date" v="2016-05-11" />
		<tag k="ssr:stedsnr" v="954268" />
	</node>
	<node id="-25262" lat="60.5421999995" lon="5.46887222727">
		<tag k="ssr:gml_id" v="GEOMETRY_7aa6bbec-a417-4c65-829e-297d8a67e408" />
		<tag k="ssr:gml_nr" v="3" />
	</node>
	<node id="-25618" lat="60.5501583312" lon="5.60361389312">
		<tag k="name" v="Grønevik" />
		<tag k="natural" v="bay" />
		<tag k="ssr:date" v="2016-05-10" />
		<tag k="ssr:stedsnr" v="166441" />
	</node>
	<node id="-25617" lat="60.5586611081" lon="5.59166388413">
		<tag k="name" v="Merkjesvik" />
		<tag k="natural" v="bay" />
		<tag k="ssr:date" v="2016-05-10" />
		<tag k="ssr:stedsnr" v="166437" />
	</node>
	<node id="-26128" lat="60.6124333302" lon="5.50914443822">
		<tag k="ssr:gml_id" v="GEOMETRY_d59ea4c2-0836-450e-864a-f608b36bf157" />
		<tag k="ssr:gml_nr" v="1" />
	</node>
	<node id="-26639" lat="60.4387611103" lon="5.6023277842">
		<tag k="name" v="Breivika" />
		<tag k="natural" v="bay" />
		<tag k="old_name" v="Breiviki" />
		<tag k="ssr:date" v="2016-05-11" />
		<tag k="ssr:stedsnr" v="833789" />
	</node>
	<node id="-25614" lat="60.7053333327" lon="5.65736665829">
		<tag k="name" v="Laksagilja" />
		<tag k="natural" v="cape" />
		<tag k="place" v="locality" />
		<tag k="ssr:date" v="2016-05-10" />
		<tag k="ssr:stedsnr" v="166410" />
	</node>
	<node id="-26637" lat="60.4737361143" lon="5.70789721703">
		<tag k="name" v="Olsnestangen" />
		<tag k="natural" v="cape" />
		<tag k="place" v="locality" />
		<tag k="ssr:date" v="2016-05-11" />
		<tag k="ssr:stedsnr" v="833549" />
	</node>
	<node id="-26636" lat="60.4286666695" lon="5.53202777745">
		<tag k="name" v="Kvisteinhella" />
		<tag k="natural" v="cape" />
		<tag k="place" v="locality" />
		<tag k="ssr:date" v="2016-05-11" />
		<tag k="ssr:stedsnr" v="833482" />
	</node>
	<node id="-26633" lat="60.4588555536" lon="5.62637499479">
		<tag k="name" v="Einhammaren" />
		<tag k="natural" v="cape" />
		<tag k="place" v="locality" />
		<tag k="ssr:date" v="2016-05-11" />
		<tag k="ssr:stedsnr" v="833419" />
	</node>
	<node id="-25607" lat="60.4297527762" lon="5.54086944699">
		<tag k="name" v="Nautneset" />
		<tag k="natural" v="cape" />
		<tag k="place" v="locality" />
		<tag k="ssr:date" v="2016-05-10" />
		<tag k="ssr:stedsnr" v="165479" />
	</node>
	<node id="-25606" lat="60.4300805566" lon="5.54217222264">
		<tag k="name" v="Vassaholet" />
		<tag k="natural" v="bay" />
		<tag k="ssr:date" v="2016-05-10" />
		<tag k="ssr:stedsnr" v="165469" />
	</node>
	<node id="-25602" lat="60.6926777802" lon="5.61261110571">
		<tag k="name" v="Havgulneset" />
		<tag k="natural" v="cape" />
		<tag k="place" v="locality" />
		<tag k="ssr:date" v="2016-05-10" />
		<tag k="ssr:stedsnr" v="165396" />
	</node>
	<way id="-6142">
		<tag k="name" v="Stoholmen" />
		<tag k="place" v="islet" />
		<tag k="ssr:date" v="2016-05-11" />
		<tag k="ssr:stedsnr" v="955594" />
		<nd ref="-26833" />
		<nd ref="-26834" />
	</way>
	<way id="-6137">
		<tag k="name" v="Kløvvika" />
		<tag k="natural" v="bay" />
		<tag k="ssr:date" v="2016-05-11" />
		<tag k="ssr:stedsnr" v="916959" />
		<nd ref="-26785" />
		<nd ref="-26786" />
	</way>
	<way id="-6007">
		<tag k="name" v="Viknabukta" />
		<tag k="natural" v="bay" />
		<tag k="old_name" v="Viknabukti" />
		<tag k="ssr:date" v="2016-05-10" />
		<tag k="ssr:stedsnr" v="430028" />
		<nd ref="-25875" />
		<nd ref="-25876" />
	</way>
	<way id="-6006">
		<tag k="name" v="Hausvika" />
		<tag k="natural" v="bay" />
		<tag k="ssr:date" v="2016-05-10" />
		<tag k="ssr:stedsnr" v="430002" />
		<nd ref="-25873" />
		<nd ref="-25874" />
	</way>
	<way id="-6005">
		<tag k="name" v="Mjeldavågen" />
		<tag k="natural" v="bay" />
		<tag k="ssr:date" v="2016-05-10" />
		<tag k="ssr:stedsnr" v="430001" />
		<nd ref="-25871" />
		<nd ref="-25872" />
	</way>
	<way id="-5998">
		<tag k="alt_name" v="Vossaneset" />
		<tag k="name" v="Vassneset" />
		<tag k="natural" v="cape" />
		<tag k="place" v="locality" />
		<tag k="ssr:date" v="2016-05-10" />
		<tag k="ssr:stedsnr" v="249270" />
		<nd ref="-25840" />
		<nd ref="-25841" />
	</way>
	<way id="-5988">
		<tag k="fixme" v="consider seamark:type=rock" />
		<tag k="loc_name" v="Kuskjeret" />
		<tag k="name" v="Kuskjæret" />
		<tag k="natural" v="islet" />
		<tag k="ssr:date" v="2016-05-10" />
		<tag k="ssr:stedsnr" v="227819" />
		<nd ref="-25811" />
		<nd ref="-25812" />
	</way>
	<way id="-6109">
		<tag k="name" v="Storaviki" />
		<tag k="natural" v="bay" />
		<tag k="ssr:date" v="2016-05-11" />
		<tag k="ssr:stedsnr" v="794035" />
		<nd ref="-26592" />
		<nd ref="-26593" />
	</way>
	<way id="-5964">
		<tag k="name" v="Sarevika" />
		<tag k="natural" v="bay" />
		<tag k="ssr:date" v="2016-05-10" />
		<tag k="ssr:stedsnr" v="187031" />
		<nd ref="-25685" />
		<nd ref="-25686" />
		<nd ref="-25687" />
	</way>
	<way id="-6091">
		<tag k="name" v="Grønevika" />
		<tag k="natural" v="bay" />
		<tag k="ssr:date" v="2016-05-11" />
		<tag k="ssr:stedsnr" v="734019" />
		<nd ref="-26480" />
		<nd ref="-26481" />
	</way>
	<way id="-5959">
		<tag k="name" v="Juvika" />
		<tag k="natural" v="bay" />
		<tag k="old_name" v="Juviki" />
		<tag k="ssr:date" v="2016-05-10" />
		<tag k="ssr:stedsnr" v="127944" />
		<nd ref="-25590" />
		<nd ref="-25591" />
	</way>
	<way id="-5957">
		<tag k="name" v="Olsnesøyna" />
		<tag k="place" v="island" />
		<tag k="ssr:date" v="2016-05-10" />
		<tag k="ssr:stedsnr" v="127943" />
		<nd ref="-25584" />
		<nd ref="-25585" />
		<nd ref="-25586" />
		<nd ref="-25587" />
	</way>
	<way id="-5955">
		<tag k="alt_name" v="Drangevåg" />
		<tag k="name" v="Drangevågen" />
		<tag k="natural" v="bay" />
		<tag k="ssr:date" v="2016-05-10" />
		<tag k="ssr:stedsnr" v="127757" />
		<nd ref="-25574" />
		<nd ref="-25575" />
	</way>
	<way id="-5954">
		<tag k="name" v="Askjelneset" />
		<tag k="natural" v="cape" />
		<tag k="place" v="locality" />
		<tag k="ssr:date" v="2016-05-10" />
		<tag k="ssr:stedsnr" v="127680" />
		<nd ref="-25571" />
		<nd ref="-25572" />
		<nd ref="-25573" />
	</way>
	<way id="-6080">
		<tag k="name" v="Bernesvika" />
		<tag k="natural" v="bay" />
		<tag k="ssr:date" v="2016-05-10" />
		<tag k="ssr:stedsnr" v="674508" />
		<nd ref="-26382" />
		<nd ref="-26383" />
	</way>
	<way id="-5920">
		<tag k="alt_name" v="Sætrevika" />
		<tag k="name" v="Sætevika" />
		<tag k="natural" v="bay" />
		<tag k="ssr:date" v="2016-05-10" />
		<tag k="ssr:stedsnr" v="6730" />
		<nd ref="-25303" />
		<nd ref="-25304" />
	</way>
	<way id="-6075">
		<tag k="name" v="Furneset" />
		<tag k="natural" v="cape" />
		<tag k="place" v="locality" />
		<tag k="ssr:date" v="2016-05-10" />
		<tag k="ssr:stedsnr" v="673945" />
		<nd ref="-26362" />
		<nd ref="-26363" />
	</way>
	<way id="-5935">
		<tag k="alt_name" v="Stokkeneset" />
		<tag k="name" v="Stokkaneset" />
		<tag k="natural" v="cape" />
		<tag k="place" v="locality" />
		<tag k="ssr:date" v="2016-05-10" />
		<tag k="ssr:stedsnr" v="66025" />
		<nd ref="-25414" />
		<nd ref="-25415" />
		<nd ref="-25416" />
	</way>
	<way id="-6062">
		<tag k="name" v="Lonevågen" />
		<tag k="natural" v="bay" />
		<tag k="ssr:date" v="2016-05-10" />
		<tag k="ssr:stedsnr" v="613426" />
		<nd ref="-26258" />
		<nd ref="-26259" />
		<nd ref="-26260" />
		<nd ref="-26261" />
		<nd ref="-26262" />
	</way>
	<way id="-6055">
		<tag k="bay" v="fjord" />
		<tag k="name" v="Romarheimsfjorden" />
		<tag k="natural" v="bay" />
		<tag k="ssr:date" v="2016-05-10" />
		<tag k="ssr:stedsnr" v="612284" />
		<nd ref="-26223" />
		<nd ref="-26224" />
		<nd ref="-26225" />
	</way>
	<way id="-5926">
		<tag k="name" v="Hamnevika" />
		<tag k="natural" v="strait" />
		<tag k="old_name" v="Hamneviki" />
		<tag k="place" v="locality" />
		<tag k="ssr:date" v="2016-05-10" />
		<tag k="ssr:stedsnr" v="43517" />
		<nd ref="-25328" />
		<nd ref="-25329" />
	</way>
	<way id="-6052">
		<tag k="loc_name" v="Skålevika" />
		<tag k="name" v="Skålvika" />
		<tag k="natural" v="bay" />
		<tag k="ssr:date" v="2016-05-10" />
		<tag k="ssr:stedsnr" v="596786" />
		<nd ref="-26215" />
		<nd ref="-26216" />
	</way>
	<way id="-5921">
		<tag k="alt_name" v="Kleppsvåg" />
		<tag k="name" v="Kleppsvågen" />
		<tag k="natural" v="bay" />
		<tag k="ssr:date" v="2016-05-10" />
		<tag k="ssr:stedsnr" v="6738" />
		<nd ref="-25305" />
		<nd ref="-25306" />
		<nd ref="-25307" />
	</way>
	<way id="-6048">
		<tag k="name" v="Kvalsida" />
		<tag k="natural" v="cape" />
		<tag k="place" v="locality" />
		<tag k="ssr:date" v="2016-05-10" />
		<tag k="ssr:stedsnr" v="552755" />
		<nd ref="-26127" />
		<nd ref="-26128" />
	</way>
	<way id="-6085">
		<tag k="name" v="Steffavika" />
		<tag k="natural" v="bay" />
		<tag k="ssr:date" v="2016-05-11" />
		<tag k="ssr:stedsnr" v="733037" />
		<nd ref="-26468" />
		<nd ref="-26469" />
	</way>
	<way id="-5915">
		<tag k="alt_name" v="Geitreimsholmen" />
		<tag k="name" v="Geitrheimsholmane" />
		<tag k="place" v="islet" />
		<tag k="ssr:date" v="2016-05-11" />
		<tag k="ssr:stedsnr" v="895770" />
		<nd ref="-25259" />
		<nd ref="-25260" />
		<nd ref="-25261" />
		<nd ref="-25262" />
	</way>
	<way id="-5910">
		<tag k="name" v="Osterhavna" />
		<tag k="natural" v="bay" />
		<tag k="ssr:date" v="2016-05-10" />
		<tag k="ssr:stedsnr" v="370741" />
		<nd ref="-25143" />
		<nd ref="-25144" />
		<nd ref="-25145" />
	</way>
	<way id="-5908">
		<tag k="name" v="Osterøy" />
		<tag k="place" v="island" />
		<tag k="ssr:date" v="2016-05-10" />
		<tag k="ssr:stedsnr" v="369377" />
		<nd ref="-25117" />
		<nd ref="-25118" />
		<nd ref="-25119" />
		<nd ref="-25120" />
		<nd ref="-25121" />
		<nd ref="-25122" />
	</way>
	<way id="-6034">
		<tag k="alt_name" v="Leiknes" />
		<tag k="loc_name" v="Leikneset" />
		<tag k="name" v="Lekneset" />
		<tag k="natural" v="cape" />
		<tag k="place" v="locality" />
		<tag k="ssr:date" v="2016-05-10" />
		<tag k="ssr:stedsnr" v="530523" />
		<nd ref="-26044" />
		<nd ref="-26045" />
	</way>
	<way id="-6025">
		<tag k="name" v="Heimvikvågen" />
		<tag k="natural" v="bay" />
		<tag k="ssr:date" v="2016-05-10" />
		<tag k="ssr:stedsnr" v="491382" />
		<nd ref="-25990" />
		<nd ref="-25991" />
	</way>
	<way id="-5891">
		<tag k="name" v="Vikaneset" />
		<tag k="natural" v="cape" />
		<tag k="place" v="locality" />
		<tag k="ssr:date" v="2016-05-10" />
		<tag k="ssr:stedsnr" v="287836" />
		<nd ref="-24960" />
		<nd ref="-24961" />
	</way>
</osm>
