<?xml version="1.0" encoding="UTF-8"?>
<osm generator="osmapis" version="0.6">
	<node id="-26621" lat="60.6506250043" lon="5.61113333906">
		<tag k="loc_name" v="Smedvika" />
		<tag k="name" v="Smedviki" />
		<tag k="place" v="farm" />
		<tag k="ssr:date" v="2016-05-11" />
		<tag k="ssr:stedsnr" v="795695" />
	</node>
	<node id="-26617" lat="60.5918777746" lon="5.52465555935">
		<tag k="name" v="Hanstveit" />
		<tag k="place" v="farm" />
		<tag k="ssr:date" v="2016-05-11" />
		<tag k="ssr:stedsnr" v="795579" />
	</node>
	<node id="-26614" lat="60.5596750008" lon="5.46497499466">
		<tag k="name" v="Litland" />
		<tag k="place" v="farm" />
		<tag k="ssr:date" v="2016-05-11" />
		<tag k="ssr:stedsnr" v="795490" />
	</node>
	<node id="-26612" lat="60.5511027785" lon="5.39591667195">
		<tag k="name" v="Byrkjelandsstøi" />
		<tag k="place" v="farm" />
		<tag k="ssr:date" v="2016-05-11" />
		<tag k="ssr:stedsnr" v="795477" />
	</node>
	<node id="-26611" lat="60.5499888857" lon="5.46227500144">
		<tag k="ssr:gml_id" v="GEOMETRY_a4fa74df-655b-46a0-8d18-bf8f8f635475" />
		<tag k="ssr:gml_nr" v="2" />
	</node>
	<node id="-26610" lat="60.5490305525" lon="5.46409443812">
		<tag k="ssr:gml_id" v="GEOMETRY_6a931332-ae8c-4921-9706-4bd1a8601a3c" />
		<tag k="ssr:gml_nr" v="1" />
	</node>
	<node id="-26609" lat="60.5490277741" lon="5.46409167581">
		<tag k="ssr:gml_id" v="GEOMETRY_88b35b5c-c97c-4c59-a366-85ba31f122c3" />
		<tag k="ssr:gml_nr" v="0" />
	</node>
	<node id="-26607" lat="60.5376611082" lon="5.42683888599">
		<tag k="name" v="Håland" />
		<tag k="place" v="farm" />
		<tag k="ssr:date" v="2016-05-11" />
		<tag k="ssr:stedsnr" v="795442" />
	</node>
	<node id="-26606" lat="60.5316694454" lon="5.34913332931">
		<tag k="ssr:gml_id" v="GEOMETRY_bb2088c9-151f-4635-978f-44582c4daf2e" />
		<tag k="ssr:gml_nr" v="1" />
	</node>
	<node id="-26605" lat="60.5301555579" lon="5.35505555985">
		<tag k="ssr:gml_id" v="GEOMETRY_34eb90d6-1167-4a9d-a57c-07cdcffb166d" />
		<tag k="ssr:gml_nr" v="0" />
	</node>
	<node id="-26602" lat="60.4940944488" lon="5.51992778208">
		<tag k="name" v="Kollitræd" />
		<tag k="place" v="farm" />
		<tag k="ssr:date" v="2016-05-11" />
		<tag k="ssr:stedsnr" v="794994" />
	</node>
	<node id="-26596" lat="60.4707750021" lon="5.65220000349">
		<tag k="ssr:gml_id" v="GEOMETRY_eddc7ea4-a29a-471c-8523-46f324062008" />
		<tag k="ssr:gml_nr" v="1" />
	</node>
	<node id="-26595" lat="60.470775004" lon="5.65219721819">
		<tag k="ssr:gml_id" v="GEOMETRY_6bcefe02-dab8-48dd-b9c8-ddfe687b2ad6" />
		<tag k="ssr:gml_nr" v="0" />
	</node>
	<node id="-26591" lat="60.4501166647" lon="5.61533056338">
		<tag k="ssr:gml_id" v="GEOMETRY_b2e41d39-21cc-4058-b8a3-40d191defecc" />
		<tag k="ssr:gml_nr" v="1" />
	</node>
	<node id="-26590" lat="60.4502749994" lon="5.6158722269">
		<tag k="ssr:gml_id" v="GEOMETRY_00964f74-97bb-4868-a97c-0fcb5deb222d" />
		<tag k="ssr:gml_nr" v="0" />
	</node>
	<node id="-26586" lat="60.4530972187" lon="5.49602776922">
		<tag k="ssr:gml_id" v="GEOMETRY_91c308c7-c77a-4b7b-a4c0-c77d5d60efa7" />
		<tag k="ssr:gml_nr" v="1" />
	</node>
	<node id="-26585" lat="60.4531638886" lon="5.49501388723">
		<tag k="ssr:gml_id" v="GEOMETRY_ea835a8c-bedf-43ed-bddc-56db650ad129" />
		<tag k="ssr:gml_nr" v="0" />
	</node>
	<node id="-26584" lat="60.4543111126" lon="5.52823054851">
		<tag k="ssr:gml_id" v="GEOMETRY_77e45720-183e-4c8a-a3c0-ac6a3cd5f099" />
		<tag k="ssr:gml_nr" v="1" />
	</node>
	<node id="-26583" lat="60.4543138886" lon="5.52822499344">
		<tag k="ssr:gml_id" v="GEOMETRY_f30bf070-68ad-40bc-9def-ff5717ace20b" />
		<tag k="ssr:gml_nr" v="0" />
	</node>
	<node id="-26548" lat="60.455455556" lon="5.6182361089">
		<tag k="name" v="Bruflåten" />
		<tag k="place" v="farm" />
		<tag k="ssr:date" v="2016-05-11" />
		<tag k="ssr:stedsnr" v="773529" />
	</node>
	<node id="-26546" lat="60.6095611085" lon="5.53645277505">
		<tag k="name" v="Drangen" />
		<tag k="place" v="farm" />
		<tag k="ssr:date" v="2016-05-11" />
		<tag k="ssr:stedsnr" v="773504" />
	</node>
	<node id="-26542" lat="60.5023277814" lon="5.44134444528">
		<tag k="ssr:gml_id" v="GEOMETRY_13846e53-411e-4319-97ab-0b5f3ea49ac6" />
		<tag k="ssr:gml_nr" v="1" />
	</node>
	<node id="-26541" lat="60.502327779" lon="5.44135277351">
		<tag k="ssr:gml_id" v="GEOMETRY_3d516737-b378-4b50-a694-91a6a64cc7b9" />
		<tag k="ssr:gml_nr" v="0" />
	</node>
	<node id="-26536" lat="60.5079833345" lon="5.64828332663">
		<tag k="name" v="Seilen" />
		<tag k="place" v="farm" />
		<tag k="ssr:date" v="2016-05-11" />
		<tag k="ssr:stedsnr" v="773434" />
	</node>
	<node id="-26533" lat="60.5443972192" lon="5.34648610727">
		<tag k="fixme" v="consider place=isolated_dwelling if not a farm" />
		<tag k="name" v="Skjerven" />
		<tag k="place" v="farm" />
		<tag k="ssr:date" v="2016-05-11" />
		<tag k="ssr:stedsnr" v="772771" />
	</node>
	<node id="-26525" lat="60.5081694486" lon="5.57707778153">
		<tag k="historic" v="summer_mountain_farm" />
		<tag k="name" v="Midtstølen" />
		<tag k="place" v="locality" />
		<tag k="ssr:date" v="2016-05-11" />
		<tag k="ssr:stedsnr" v="773705" />
	</node>
	<node id="-26524" lat="60.4396555542" lon="5.57518611156">
		<tag k="name" v="Havrå" />
		<tag k="place" v="farm" />
		<tag k="ssr:date" v="2016-05-11" />
		<tag k="ssr:stedsnr" v="754379" />
	</node>
	<node id="-26523" lat="60.4720416648" lon="5.56534721694">
		<tag k="ssr:gml_id" v="GEOMETRY_7dc3d76e-56ee-4a1b-bc8b-82996601564a" />
		<tag k="ssr:gml_nr" v="2" />
	</node>
	<node id="-26522" lat="60.4722944453" lon="5.56448055063">
		<tag k="ssr:gml_id" v="GEOMETRY_455ec21b-c92f-4eb4-8a92-306b803607d0" />
		<tag k="ssr:gml_nr" v="1" />
	</node>
	<node id="-26521" lat="60.4722916689" lon="5.56447778597">
		<tag k="ssr:gml_id" v="GEOMETRY_c291e99a-9ecb-4668-8746-7be3739a2502" />
		<tag k="ssr:gml_nr" v="0" />
	</node>
	<node id="-26518" lat="60.4751888906" lon="5.68553610828">
		<tag k="ssr:gml_id" v="GEOMETRY_46b77f1e-3d7d-4a25-bfc9-227f9f923a26" />
		<tag k="ssr:gml_nr" v="1" />
	</node>
	<node id="-26517" lat="60.4751861077" lon="5.68553333387">
		<tag k="ssr:gml_id" v="GEOMETRY_c7cbd4b1-0d59-45e5-9eeb-f340a30c63c8" />
		<tag k="ssr:gml_nr" v="0" />
	</node>
	<node id="-26516" lat="60.4619527814" lon="5.47475833131">
		<tag k="ssr:gml_id" v="GEOMETRY_f540f8f9-2b21-4df3-b4f0-e14d0450a2fc" />
		<tag k="ssr:gml_nr" v="1" />
	</node>
	<node id="-26515" lat="60.4619500028" lon="5.47475555708">
		<tag k="ssr:gml_id" v="GEOMETRY_1dbbd73b-05b4-40c0-ad36-c613983c63fa" />
		<tag k="ssr:gml_nr" v="0" />
	</node>
	<node id="-26514" lat="60.5153194467" lon="5.59423332844">
		<tag k="historic" v="summer_mountain_farm" />
		<tag k="name" v="Låstadsætra" />
		<tag k="place" v="locality" />
		<tag k="ssr:date" v="2016-05-11" />
		<tag k="ssr:stedsnr" v="734949" />
	</node>
	<node id="-26506" lat="60.5339916696" lon="5.53968334118">
		<tag k="ssr:gml_id" v="GEOMETRY_136af5f0-7ff3-4368-b75b-d3a8e582e61a" />
		<tag k="ssr:gml_nr" v="1" />
	</node>
	<node id="-26505" lat="60.5339944459" lon="5.53967777318">
		<tag k="ssr:gml_id" v="GEOMETRY_4fa9c1cd-d713-44ba-be97-6c44dabb76de" />
		<tag k="ssr:gml_nr" v="0" />
	</node>
	<node id="-26496" lat="60.5734944452" lon="5.50181110317">
		<tag k="name" v="Tveiten" />
		<tag k="place" v="farm" />
		<tag k="ssr:date" v="2016-05-11" />
		<tag k="ssr:stedsnr" v="734602" />
	</node>
	<node id="-26494" lat="60.5814444401" lon="5.53774722155">
		<tag k="ssr:gml_id" v="GEOMETRY_03adf6db-62b3-478a-96ff-88b7f32a72db" />
		<tag k="ssr:gml_nr" v="2" />
	</node>
	<node id="-26493" lat="60.5813333374" lon="5.53845000569">
		<tag k="ssr:gml_id" v="GEOMETRY_80bc4a89-358b-4440-8a5e-f1eb05dc632b" />
		<tag k="ssr:gml_nr" v="1" />
	</node>
	<node id="-26492" lat="60.5813305511" lon="5.53844999355">
		<tag k="ssr:gml_id" v="GEOMETRY_d880bca0-1c40-4406-bb6f-08ea4619d371" />
		<tag k="ssr:gml_nr" v="0" />
	</node>
	<node id="-26491" lat="60.5966638879" lon="5.54636944321">
		<tag k="ssr:gml_id" v="GEOMETRY_fa32877d-6bb5-4d5a-8c81-1c10a728fc72" />
		<tag k="ssr:gml_nr" v="1" />
	</node>
	<node id="-26490" lat="60.5967749984" lon="5.55130277656">
		<tag k="ssr:gml_id" v="GEOMETRY_3ffb5b80-5817-4a3c-8331-efc3d2b46709" />
		<tag k="ssr:gml_nr" v="0" />
	</node>
	<node id="-26484" lat="60.5321611133" lon="5.42351110284">
		<tag k="ssr:gml_id" v="GEOMETRY_7294a76f-ae34-4471-9556-b13d575cdbff" />
		<tag k="ssr:gml_nr" v="1" />
	</node>
	<node id="-26483" lat="60.5318083343" lon="5.42434721923">
		<tag k="ssr:gml_id" v="GEOMETRY_c913101e-efc6-4386-b66c-c0c7a18f0a3c" />
		<tag k="ssr:gml_nr" v="0" />
	</node>
	<node id="-26463" lat="60.4680499974" lon="5.64349444492">
		<tag k="fixme" v="consider place=farm" />
		<tag k="name" v="Hekland" />
		<tag k="place" v="hamlet" />
		<tag k="ssr:date" v="2016-05-11" />
		<tag k="ssr:stedsnr" v="728194" />
	</node>
	<node id="-26454" lat="60.4720194433" lon="5.47138054796">
		<tag k="fixme" v="consider place=farm" />
		<tag k="name" v="Votlo" />
		<tag k="place" v="hamlet" />
		<tag k="ssr:date" v="2016-05-11" />
		<tag k="ssr:stedsnr" v="712854" />
	</node>
	<node id="-26453" lat="60.459433331" lon="5.48363889627">
		<tag k="name" v="Bakkane" />
		<tag k="place" v="farm" />
		<tag k="ssr:date" v="2016-05-11" />
		<tag k="ssr:stedsnr" v="712846" />
	</node>
	<node id="-26451" lat="60.5424361093" lon="5.40307499487">
		<tag k="name" v="Mjeldstad" />
		<tag k="place" v="farm" />
		<tag k="ssr:date" v="2016-05-11" />
		<tag k="ssr:stedsnr" v="712817" />
	</node>
	<node id="-26442" lat="60.5430666677" lon="5.34686945266">
		<tag k="name" v="Nydal" />
		<tag k="place" v="farm" />
		<tag k="ssr:date" v="2016-05-11" />
		<tag k="ssr:stedsnr" v="712760" />
	</node>
	<node id="-26440" lat="60.5076944406" lon="5.57437221524">
		<tag k="historic" v="summer_mountain_farm" />
		<tag k="name" v="Framstølen" />
		<tag k="place" v="locality" />
		<tag k="ssr:date" v="2016-05-11" />
		<tag k="ssr:stedsnr" v="712726" />
	</node>
	<node id="-26439" lat="60.5134888887" lon="5.54941944433">
		<tag k="historic" v="summer_mountain_farm" />
		<tag k="name" v="Tropstølen" />
		<tag k="place" v="locality" />
		<tag k="ssr:date" v="2016-05-11" />
		<tag k="ssr:stedsnr" v="712720" />
	</node>
	<node id="-26416" lat="60.5787805526" lon="5.47596666436">
		<tag k="name" v="Holme" />
		<tag k="place" v="farm" />
		<tag k="ssr:date" v="2016-05-11" />
		<tag k="ssr:stedsnr" v="712484" />
	</node>
	<node id="-26391" lat="60.4849000011" lon="5.52585833721">
		<tag k="name" v="Grønstølen" />
		<tag k="place" v="farm" />
		<tag k="ssr:date" v="2016-05-11" />
		<tag k="ssr:stedsnr" v="711455" />
	</node>
	<node id="-26390" lat="60.4973157816" lon="5.48538066072">
		<tag k="alt_name" v="Kleivelandslii" />
		<tag k="name" v="Kleivelandslia" />
		<tag k="place" v="farm" />
		<tag k="ssr:date" v="2016-11-03" />
		<tag k="ssr:stedsnr" v="711447" />
	</node>
	<node id="-26381" lat="60.5567916645" lon="5.434074999">
		<tag k="alt_name" v="Raknes, nedre" />
		<tag k="fixme" v="consider place=farm" />
		<tag k="name" v="Nedre Raknes" />
		<tag k="place" v="hamlet" />
		<tag k="ssr:date" v="2017-10-05" />
		<tag k="ssr:stedsnr" v="674389" />
	</node>
	<node id="-26374" lat="60.4690000005" lon="5.46765833016">
		<tag k="ssr:gml_id" v="GEOMETRY_6e04fbde-3b8b-42bd-8b65-cc4fe654cc15" />
		<tag k="ssr:gml_nr" v="3" />
	</node>
	<node id="-26373" lat="60.4692333342" lon="5.46355833317">
		<tag k="ssr:gml_id" v="GEOMETRY_9a812324-7477-40a9-8c74-7afbe6d3f0fd" />
		<tag k="ssr:gml_nr" v="2" />
	</node>
	<node id="-26372" lat="60.4690027793" lon="5.46766110435">
		<tag k="ssr:gml_id" v="GEOMETRY_0e87d1aa-2340-429d-8eb1-2253a2d1003a" />
		<tag k="ssr:gml_nr" v="1" />
	</node>
	<node id="-26371" lat="60.4693277761" lon="5.46673333475">
		<tag k="ssr:gml_id" v="GEOMETRY_bd1837ba-cb43-41fc-a3ac-de8bffb2a86d" />
		<tag k="ssr:gml_nr" v="0" />
	</node>
	<node id="-26370" lat="60.4750944427" lon="5.52677222979">
		<tag k="ssr:gml_id" v="GEOMETRY_2134cddd-078c-424e-9224-b9c546815d3d" />
		<tag k="ssr:gml_nr" v="3" />
	</node>
	<node id="-26369" lat="60.4751861133" lon="5.52772222276">
		<tag k="ssr:gml_id" v="GEOMETRY_681e93ab-6fa3-446a-b9ba-9b1da7b277b6" />
		<tag k="ssr:gml_nr" v="2" />
	</node>
	<node id="-26368" lat="60.4751888908" lon="5.52772500265">
		<tag k="ssr:gml_id" v="GEOMETRY_ec227293-2ce9-4fd4-bbff-fb56852cad68" />
		<tag k="ssr:gml_nr" v="1" />
	</node>
	<node id="-26367" lat="60.4751916684" lon="5.52772778254">
		<tag k="ssr:gml_id" v="GEOMETRY_6b79cfcf-9e7a-4fe2-81c9-3c9627f86c58" />
		<tag k="ssr:gml_nr" v="0" />
	</node>
	<node id="-26361" lat="60.5216249966" lon="5.52294999958">
		<tag k="name" v="Solheim" />
		<tag k="place" v="farm" />
		<tag k="ssr:date" v="2016-05-10" />
		<tag k="ssr:stedsnr" v="673936" />
	</node>
	<node id="-26344" lat="60.5957277803" lon="5.48807500725">
		<tag k="name" v="Galteland" />
		<tag k="place" v="farm" />
		<tag k="ssr:date" v="2016-05-10" />
		<tag k="ssr:stedsnr" v="673539" />
	</node>
	<node id="-26342" lat="60.5098138912" lon="5.44923055587">
		<tag k="name" v="Loftås" />
		<tag k="place" v="farm" />
		<tag k="ssr:date" v="2016-05-10" />
		<tag k="ssr:stedsnr" v="673465" />
	</node>
	<node id="-26341" lat="60.4974333297" lon="5.42905277387">
		<tag k="alt_name" v="Reigstad" />
		<tag k="name" v="Reistad" />
		<tag k="place" v="hamlet" />
		<tag k="ssr:date" v="2016-05-10" />
		<tag k="ssr:stedsnr" v="673421" />
	</node>
	<node id="-26340" lat="60.5385944459" lon="5.45638333912">
		<tag k="name" v="Fugledal" />
		<tag k="place" v="farm" />
		<tag k="ssr:date" v="2016-05-10" />
		<tag k="ssr:stedsnr" v="673393" />
	</node>
	<node id="-26338" lat="60.4936083345" lon="5.46905832768">
		<tag k="ssr:gml_id" v="GEOMETRY_7a30ce4c-472a-470a-a082-a373747b4749" />
		<tag k="ssr:gml_nr" v="1" />
	</node>
	<node id="-26337" lat="60.4936055557" lon="5.46905555133">
		<tag k="ssr:gml_id" v="GEOMETRY_4888614f-d680-4f55-8b52-9c438cb97325" />
		<tag k="ssr:gml_nr" v="0" />
	</node>
	<node id="-26336" lat="60.4978138878" lon="5.52485000529">
		<tag k="ssr:gml_id" v="GEOMETRY_dfad0bb7-9e51-4145-ad2e-398314bf3652" />
		<tag k="ssr:gml_nr" v="1" />
	</node>
	<node id="-26335" lat="60.4978111102" lon="5.52484722377">
		<tag k="ssr:gml_id" v="GEOMETRY_054bda4b-de11-43db-8562-72c5178c583d" />
		<tag k="ssr:gml_nr" v="0" />
	</node>
	<node id="-26334" lat="60.4350916679" lon="5.5551749983">
		<tag k="ssr:gml_id" v="GEOMETRY_c17c2110-9a4a-4a7e-af18-8859201e7965" />
		<tag k="ssr:gml_nr" v="1" />
	</node>
	<node id="-26333" lat="60.4350888909" lon="5.55517221936">
		<tag k="ssr:gml_id" v="GEOMETRY_4aa8a0e0-7514-45ea-8eea-2ca4baa356d9" />
		<tag k="ssr:gml_nr" v="0" />
	</node>
	<node id="-26321" lat="60.5459500031" lon="5.36993055174">
		<tag k="name" v="Sandal" />
		<tag k="place" v="farm" />
		<tag k="ssr:date" v="2016-05-10" />
		<tag k="ssr:stedsnr" v="651832" />
	</node>
	<node id="-26320" lat="60.5458000012" lon="5.40807499297">
		<tag k="name" v="Birkeland" />
		<tag k="place" v="farm" />
		<tag k="ssr:date" v="2016-05-10" />
		<tag k="ssr:stedsnr" v="651830" />
	</node>
	<node id="-26315" lat="60.5322333365" lon="5.36040278399">
		<tag k="historic" v="summer_mountain_farm" />
		<tag k="name" v="Stølen" />
		<tag k="place" v="locality" />
		<tag k="ssr:date" v="2016-05-10" />
		<tag k="ssr:stedsnr" v="651803" />
	</node>
	<node id="-26314" lat="60.5380111149" lon="5.41214721555">
		<tag k="name" v="Mjelstad" />
		<tag k="place" v="farm" />
		<tag k="ssr:date" v="2016-05-10" />
		<tag k="ssr:stedsnr" v="651802" />
	</node>
	<node id="-26297" lat="60.5027138905" lon="5.62256389776">
		<tag k="historic" v="summer_mountain_farm" />
		<tag k="name" v="Prestettunsetret" />
		<tag k="place" v="locality" />
		<tag k="ssr:date" v="2016-05-10" />
		<tag k="ssr:stedsnr" v="651617" />
	</node>
	<node id="-26295" lat="60.4698499967" lon="5.62898333469">
		<tag k="historic" v="summer_mountain_farm" />
		<tag k="name" v="Heklandsseter" />
		<tag k="place" v="locality" />
		<tag k="ssr:date" v="2016-05-10" />
		<tag k="ssr:stedsnr" v="651596" />
	</node>
	<node id="-26286" lat="60.5062527784" lon="5.42093055912">
		<tag k="alt_name" v="Runhovda" />
		<tag k="fixme" v="consider place=farm" />
		<tag k="name" v="Runnhovda" />
		<tag k="place" v="hamlet" />
		<tag k="ssr:date" v="2016-09-09" />
		<tag k="ssr:stedsnr" v="651395" />
	</node>
	<node id="-26277" lat="60.4336472204" lon="5.54974166805">
		<tag k="name" v="Hundhammer" />
		<tag k="place" v="farm" />
		<tag k="ssr:date" v="2016-05-10" />
		<tag k="ssr:stedsnr" v="650447" />
	</node>
	<node id="-26269" lat="60.4295055578" lon="5.53301111791">
		<tag k="ssr:gml_id" v="GEOMETRY_f30d2b88-9292-4075-aee1-b5a997c3221c" />
		<tag k="ssr:gml_nr" v="1" />
	</node>
	<node id="-26268" lat="60.4308805581" lon="5.53283333389">
		<tag k="ssr:gml_id" v="GEOMETRY_074ff89a-e1db-492a-af15-3b1d072d5bf8" />
		<tag k="ssr:gml_nr" v="0" />
	</node>
	<node id="-26267" lat="60.5046999986" lon="5.55625833131">
		<tag k="ssr:gml_id" v="GEOMETRY_2d80139a-50ba-452c-898a-aef94829f092" />
		<tag k="ssr:gml_nr" v="1" />
	</node>
	<node id="-26266" lat="60.5038250004" lon="5.55906111975">
		<tag k="ssr:gml_id" v="GEOMETRY_4a389b70-91c3-4164-9820-363c79a65ab9" />
		<tag k="ssr:gml_nr" v="0" />
	</node>
	<node id="-26265" lat="60.5031000034" lon="5.63361667487">
		<tag k="historic" v="summer_mountain_farm" />
		<tag k="name" v="Borgasætra" />
		<tag k="place" v="locality" />
		<tag k="ssr:date" v="2016-05-10" />
		<tag k="ssr:stedsnr" v="613994" />
	</node>
	<node id="-26263" lat="60.5537555514" lon="5.43094444852">
		<tag k="alt_name" v="Raknes, øvre;Raknes" />
		<tag k="fixme" v="consider place=farm" />
		<tag k="name" v="Øvre Raknes" />
		<tag k="place" v="hamlet" />
		<tag k="ssr:date" v="2017-10-05" />
		<tag k="ssr:stedsnr" v="613428" />
	</node>
	<node id="-26256" lat="60.543894445" lon="5.44650000179">
		<tag k="name" v="Kolbakken" />
		<tag k="place" v="farm" />
		<tag k="ssr:date" v="2016-05-10" />
		<tag k="ssr:stedsnr" v="613404" />
	</node>
	<node id="-26253" lat="60.5557499974" lon="5.47427221894">
		<tag k="name" v="Litland" />
		<tag k="place" v="farm" />
		<tag k="ssr:date" v="2016-05-10" />
		<tag k="ssr:stedsnr" v="613024" />
	</node>
	<node id="-26252" lat="60.4871000004" lon="5.52945556206">
		<tag k="ssr:gml_id" v="GEOMETRY_30d67f3f-731a-4fa1-aba5-bafaa029f88b" />
		<tag k="ssr:gml_nr" v="1" />
	</node>
	<node id="-26251" lat="60.4870972229" lon="5.52945278104">
		<tag k="ssr:gml_id" v="GEOMETRY_476def01-f6d6-46e1-bb7e-497520a4eb7f" />
		<tag k="ssr:gml_nr" v="0" />
	</node>
	<node id="-26247" lat="60.4810083318" lon="5.56326665792">
		<tag k="ssr:gml_id" v="GEOMETRY_61d0d64f-edc4-437c-83f1-f1b0bdc75bc8" />
		<tag k="ssr:gml_nr" v="1" />
	</node>
	<node id="-26246" lat="60.4810055554" lon="5.56326389265">
		<tag k="ssr:gml_id" v="GEOMETRY_edc190e2-98f5-4fa1-8f52-1630d70bdba5" />
		<tag k="ssr:gml_nr" v="0" />
	</node>
	<node id="-26245" lat="60.4878611141" lon="5.60685833547">
		<tag k="ssr:gml_id" v="GEOMETRY_bf217d63-0627-4dfa-a307-edfb8833ed53" />
		<tag k="ssr:gml_nr" v="1" />
	</node>
	<node id="-26244" lat="60.4878583292" lon="5.60685554865">
		<tag k="ssr:gml_id" v="GEOMETRY_8a31cb1d-72f8-4f51-9761-e8ad7560b993" />
		<tag k="ssr:gml_nr" v="0" />
	</node>
	<node id="-26242" lat="60.5205555574" lon="5.62832221928">
		<tag k="ssr:gml_id" v="GEOMETRY_acd76eea-bbfe-433d-91b2-bfc605611c8c" />
		<tag k="ssr:gml_nr" v="1" />
	</node>
	<node id="-26241" lat="60.5202277751" lon="5.63341945199">
		<tag k="ssr:gml_id" v="GEOMETRY_6acc1ab6-e042-412d-9ab2-53aa388b53cd" />
		<tag k="ssr:gml_nr" v="0" />
	</node>
	<node id="-26240" lat="60.5250249982" lon="5.54585277519">
		<tag k="name" v="Låstad" />
		<tag k="place" v="farm" />
		<tag k="ssr:date" v="2016-05-10" />
		<tag k="ssr:stedsnr" v="612939" />
	</node>
	<node id="-26239" lat="60.5311555528" lon="5.57473055267">
		<tag k="ssr:gml_id" v="GEOMETRY_85c63fbc-9bde-4e90-94e7-0a2f33822a82" />
		<tag k="ssr:gml_nr" v="1" />
	</node>
	<node id="-26238" lat="60.5311527769" lon="5.57472499183">
		<tag k="ssr:gml_id" v="GEOMETRY_9a5e04fa-bd9a-4214-a42e-086f6fa1208b" />
		<tag k="ssr:gml_nr" v="0" />
	</node>
	<node id="-26234" lat="60.6536500003" lon="5.61315833171">
		<tag k="alt_name" v="Furnes" />
		<tag k="name" v="Fornes" />
		<tag k="place" v="farm" />
		<tag k="ssr:date" v="2016-05-10" />
		<tag k="ssr:stedsnr" v="612642" />
	</node>
	<node id="-26230" lat="60.5717555535" lon="5.583027769">
		<tag k="fixme" v="consider place=isolated_dwelling if not a farm" />
		<tag k="name" v="Haugen" />
		<tag k="place" v="farm" />
		<tag k="ssr:date" v="2016-05-10" />
		<tag k="ssr:stedsnr" v="612579" />
	</node>
	<node id="-26228" lat="60.5211249973" lon="5.41606388423">
		<tag k="name" v="Eversdalen" />
		<tag k="place" v="farm" />
		<tag k="ssr:date" v="2016-05-10" />
		<tag k="ssr:stedsnr" v="612523" />
	</node>
	<node id="-26227" lat="60.5648305517" lon="5.45623055398">
		<tag k="name" v="Fjellskål" />
		<tag k="place" v="farm" />
		<tag k="ssr:date" v="2016-05-10" />
		<tag k="ssr:stedsnr" v="612454" />
	</node>
	<node id="-26226" lat="60.5365555536" lon="5.41576111669">
		<tag k="name" v="Mosevoll" />
		<tag k="place" v="farm" />
		<tag k="ssr:date" v="2016-05-10" />
		<tag k="ssr:stedsnr" v="612404" />
	</node>
	<node id="-26220" lat="60.4377027824" lon="5.59874167375">
		<tag k="ssr:gml_id" v="GEOMETRY_385f8c12-d0a2-4e69-a496-112971bddd17" />
		<tag k="ssr:gml_nr" v="1" />
	</node>
	<node id="-26219" lat="60.4376999973" lon="5.59873889178">
		<tag k="ssr:gml_id" v="GEOMETRY_9df723fb-00c6-4b31-8293-bf6d3e890f5f" />
		<tag k="ssr:gml_nr" v="0" />
	</node>
	<node id="-26210" lat="60.4751999963" lon="5.47023333777">
		<tag k="name" v="Utegarden" />
		<tag k="place" v="farm" />
		<tag k="ssr:date" v="2016-05-10" />
		<tag k="ssr:stedsnr" v="591850" />
	</node>
	<node id="-26206" lat="60.5163750041" lon="5.39242222331">
		<tag k="historic" v="summer_mountain_farm" />
		<tag k="name" v="Nerdalsstølen" />
		<tag k="place" v="locality" />
		<tag k="ssr:date" v="2016-05-10" />
		<tag k="ssr:stedsnr" v="591833" />
	</node>
	<node id="-26201" lat="60.4954916628" lon="5.44386667351">
		<tag k="name" v="Haugland" />
		<tag k="place" v="farm" />
		<tag k="ssr:date" v="2016-05-10" />
		<tag k="ssr:stedsnr" v="591793" />
	</node>
	<node id="-26157" lat="60.5266777747" lon="5.50097222249">
		<tag k="name" v="Fossen" />
		<tag k="place" v="farm" />
		<tag k="ssr:date" v="2016-05-10" />
		<tag k="ssr:stedsnr" v="590679" />
	</node>
	<node id="-26145" lat="60.4817000007" lon="5.48110000378">
		<tag k="historic" v="summer_mountain_farm" />
		<tag k="name" v="Merkjedalsstølen" />
		<tag k="place" v="locality" />
		<tag k="ssr:date" v="2016-05-10" />
		<tag k="ssr:stedsnr" v="589444" />
	</node>
	<node id="-26144" lat="60.4857361098" lon="5.47597221348">
		<tag k="historic" v="summer_mountain_farm" />
		<tag k="name" v="Flakstølen" />
		<tag k="place" v="locality" />
		<tag k="ssr:date" v="2016-05-10" />
		<tag k="ssr:stedsnr" v="589440" />
	</node>
	<node id="-26140" lat="60.4400111138" lon="5.576597217">
		<tag k="name" v="Havrå" />
		<tag k="place" v="farm" />
		<tag k="ssr:date" v="2016-05-10" />
		<tag k="ssr:stedsnr" v="572348" />
	</node>
	<node id="-26126" lat="60.6234861112" lon="5.59311389339">
		<tag k="loc_name" v="Meltvika" />
		<tag k="name" v="Meltviki" />
		<tag k="place" v="farm" />
		<tag k="ssr:date" v="2016-05-10" />
		<tag k="ssr:stedsnr" v="552751" />
	</node>
	<node id="-26124" lat="60.5572138919" lon="5.53710555621">
		<tag k="name" v="Turdalen" />
		<tag k="place" v="farm" />
		<tag k="ssr:date" v="2016-05-10" />
		<tag k="ssr:stedsnr" v="552659" />
	</node>
	<node id="-26120" lat="60.5175944477" lon="5.43846388068">
		<tag k="ssr:gml_id" v="GEOMETRY_31859500-a80e-4699-9bd5-940d2d922419" />
		<tag k="ssr:gml_nr" v="1" />
	</node>
	<node id="-26119" lat="60.5188611069" lon="5.43268888407">
		<tag k="ssr:gml_id" v="GEOMETRY_e4482a78-6940-4760-878e-ac9eba911f1d" />
		<tag k="ssr:gml_nr" v="0" />
	</node>
	<node id="-26118" lat="60.5195722248" lon="5.38602778543">
		<tag k="ssr:gml_id" v="GEOMETRY_f0ee4fd1-7b9f-4796-be7e-3aafb5bc6101" />
		<tag k="ssr:gml_nr" v="1" />
	</node>
	<node id="-26117" lat="60.5195666666" lon="5.38602499575">
		<tag k="ssr:gml_id" v="GEOMETRY_2049694e-2d79-480e-a761-5feb2d4dbdf4" />
		<tag k="ssr:gml_nr" v="0" />
	</node>
	<node id="-26114" lat="60.5419388859" lon="5.3602444522">
		<tag k="name" v="Sanddalen" />
		<tag k="place" v="farm" />
		<tag k="ssr:date" v="2016-05-10" />
		<tag k="ssr:stedsnr" v="552443" />
	</node>
	<node id="-26113" lat="60.698938891" lon="5.62791389351">
		<tag k="name" v="Toni" />
		<tag k="place" v="farm" />
		<tag k="ssr:date" v="2016-05-10" />
		<tag k="ssr:stedsnr" v="552296" />
	</node>
	<node id="-26108" lat="60.4860583341" lon="5.50095833172">
		<tag k="ssr:gml_id" v="GEOMETRY_85e41552-1c37-4677-86f5-4a153915bf7f" />
		<tag k="ssr:gml_nr" v="2" />
	</node>
	<node id="-26107" lat="60.4860555552" lon="5.50095278489">
		<tag k="ssr:gml_id" v="GEOMETRY_870f7773-c1fb-44bb-88c3-4ee9ba3dd97e" />
		<tag k="ssr:gml_nr" v="1" />
	</node>
	<node id="-26106" lat="60.4860527771" lon="5.50095000641">
		<tag k="ssr:gml_id" v="GEOMETRY_1ef606c7-100b-4cd4-b15a-915b12085d71" />
		<tag k="ssr:gml_nr" v="0" />
	</node>
	<node id="-26097" lat="60.4398083293" lon="5.57603334063">
		<tag k="ssr:gml_id" v="GEOMETRY_fa8e7af5-247e-4d3e-a6a4-2b5d4821cbea" />
		<tag k="ssr:gml_nr" v="3" />
	</node>
	<node id="-26096" lat="60.4398722256" lon="5.57587222384">
		<tag k="ssr:gml_id" v="GEOMETRY_7f4fdd7c-6343-4165-9fd6-dab8304a61b6" />
		<tag k="ssr:gml_nr" v="2" />
	</node>
	<node id="-26095" lat="60.4398111144" lon="5.57603610268">
		<tag k="ssr:gml_id" v="GEOMETRY_aa7de666-22f4-4663-8469-377939d6ea68" />
		<tag k="ssr:gml_nr" v="1" />
	</node>
	<node id="-26094" lat="60.4392444402" lon="5.57568333384">
		<tag k="ssr:gml_id" v="GEOMETRY_a8382da5-b21a-4afb-9f35-60607751b837" />
		<tag k="ssr:gml_nr" v="0" />
	</node>
	<node id="-26091" lat="60.4598999982" lon="5.50950277435">
		<tag k="ssr:gml_id" v="GEOMETRY_3edc24f6-9642-4fe4-9a92-9a0238949cab" />
		<tag k="ssr:gml_nr" v="1" />
	</node>
	<node id="-26090" lat="60.4598999976" lon="5.50950000822">
		<tag k="ssr:gml_id" v="GEOMETRY_b8baba38-a2a9-4208-bf5b-146b94e93884" />
		<tag k="ssr:gml_nr" v="0" />
	</node>
	<node id="-26089" lat="60.4398083293" lon="5.57603334063">
		<tag k="ssr:gml_id" v="GEOMETRY_547d1110-9b85-4dd0-bb77-f32ff63b91fb" />
		<tag k="ssr:gml_nr" v="3" />
	</node>
	<node id="-26088" lat="60.4398722256" lon="5.57587222384">
		<tag k="ssr:gml_id" v="GEOMETRY_ffae39cd-864c-41fb-873a-e4d66cf50e55" />
		<tag k="ssr:gml_nr" v="2" />
	</node>
	<node id="-26087" lat="60.4398111144" lon="5.57603610268">
		<tag k="ssr:gml_id" v="GEOMETRY_c6cd60f2-990d-4d23-ac48-f1e1bfcbf684" />
		<tag k="ssr:gml_nr" v="1" />
	</node>
	<node id="-26086" lat="60.4392444402" lon="5.57568333384">
		<tag k="ssr:gml_id" v="GEOMETRY_ddccca46-3c6b-42f2-88e0-8f8e7eb9c6e9" />
		<tag k="ssr:gml_nr" v="0" />
	</node>
	<node id="-26055" lat="60.5301083367" lon="5.59057777298">
		<tag k="name" v="Sakslibruna" />
		<tag k="place" v="farm" />
		<tag k="ssr:date" v="2016-05-10" />
		<tag k="ssr:stedsnr" v="530614" />
	</node>
	<node id="-26050" lat="60.4871694476" lon="5.62542778162">
		<tag k="historic" v="summer_mountain_farm" />
		<tag k="name" v="Mjeldstadsetri" />
		<tag k="place" v="locality" />
		<tag k="ssr:date" v="2016-05-10" />
		<tag k="ssr:stedsnr" v="530584" />
	</node>
	<node id="-26046" lat="60.5500750013" lon="5.48784999649">
		<tag k="historic" v="summer_mountain_farm" />
		<tag k="name" v="Gamlesætre" />
		<tag k="place" v="locality" />
		<tag k="ssr:date" v="2016-05-10" />
		<tag k="ssr:stedsnr" v="530530" />
	</node>
	<node id="-26025" lat="60.4397722227" lon="5.57518333276">
		<tag k="name" v="Havrå" />
		<tag k="place" v="farm" />
		<tag k="ssr:date" v="2016-05-10" />
		<tag k="ssr:stedsnr" v="512336" />
	</node>
	<node id="-26023" lat="60.6460722214" lon="5.60706666425">
		<tag k="ssr:gml_id" v="GEOMETRY_178286ec-4db3-402c-af44-95176c4e66bf" />
		<tag k="ssr:gml_nr" v="1" />
	</node>
	<node id="-26022" lat="60.6454388883" lon="5.60682777887">
		<tag k="ssr:gml_id" v="GEOMETRY_87b876f1-2f55-4292-8463-48d496361788" />
		<tag k="ssr:gml_nr" v="0" />
	</node>
	<node id="-26020" lat="60.5022416669" lon="5.54616389571">
		<tag k="name" v="Gjerstad" />
		<tag k="place" v="farm" />
		<tag k="ssr:date" v="2016-05-10" />
		<tag k="ssr:stedsnr" v="492022" />
	</node>
	<node id="-26015" lat="60.5212527779" lon="5.58324721945">
		<tag k="historic" v="summer_mountain_farm" />
		<tag k="name" v="Fagerstølen" />
		<tag k="place" v="locality" />
		<tag k="ssr:date" v="2016-05-10" />
		<tag k="ssr:stedsnr" v="491964" />
	</node>
	<node id="-26011" lat="60.4750416703" lon="5.62168333256">
		<tag k="ssr:gml_id" v="GEOMETRY_c93a1a59-4036-43f8-ba31-398ac374b7e6" />
		<tag k="ssr:gml_nr" v="1" />
	</node>
	<node id="-26010" lat="60.4750388862" lon="5.62168056368">
		<tag k="ssr:gml_id" v="GEOMETRY_e49480f9-4ee7-4dbd-9dbe-35004884b2b3" />
		<tag k="ssr:gml_nr" v="0" />
	</node>
	<node id="-26009" lat="60.4747194465" lon="5.70442777796">
		<tag k="ssr:gml_id" v="GEOMETRY_c062e6b7-e62a-4ac7-b333-86979255a14e" />
		<tag k="ssr:gml_nr" v="2" />
	</node>
	<node id="-26008" lat="60.4760861145" lon="5.70428611597">
		<tag k="ssr:gml_id" v="GEOMETRY_46f1163b-3261-42a6-a566-0e8b5a33e6e8" />
		<tag k="ssr:gml_nr" v="1" />
	</node>
	<node id="-26007" lat="60.4760833319" lon="5.70428333986">
		<tag k="ssr:gml_id" v="GEOMETRY_38b16fcf-aa79-470c-b981-12d84c11fc49" />
		<tag k="ssr:gml_nr" v="0" />
	</node>
	<node id="-26000" lat="60.5259638867" lon="5.55370278302">
		<tag k="name" v="Kleppe" />
		<tag k="place" v="farm" />
		<tag k="ssr:date" v="2016-05-10" />
		<tag k="ssr:stedsnr" v="491932" />
	</node>
	<node id="-25998" lat="60.517386112" lon="5.48400556456">
		<tag k="name" v="Borgo" />
		<tag k="place" v="farm" />
		<tag k="ssr:date" v="2016-05-10" />
		<tag k="ssr:stedsnr" v="491918" />
	</node>
	<node id="-25996" lat="60.5693416643" lon="5.55528888469">
		<tag k="loc_name" v="Selvika" />
		<tag k="name" v="Selviki" />
		<tag k="place" v="locality" />
		<tag k="ssr:date" v="2016-05-10" />
		<tag k="ssr:stedsnr" v="491588" />
	</node>
	<node id="-25995" lat="60.51539444" lon="5.39952499379">
		<tag k="ssr:gml_id" v="GEOMETRY_4549e32e-1073-4be8-92eb-ca9785d5fe22" />
		<tag k="ssr:gml_nr" v="2" />
	</node>
	<node id="-25994" lat="60.5205888905" lon="5.39007777616">
		<tag k="ssr:gml_id" v="GEOMETRY_8ebffa6f-3403-44c3-81e0-fb3478481319" />
		<tag k="ssr:gml_nr" v="1" />
	</node>
	<node id="-25993" lat="60.5181527768" lon="5.39657500908">
		<tag k="ssr:gml_id" v="GEOMETRY_d97a7556-9fba-4119-839f-dad8851328bb" />
		<tag k="ssr:gml_nr" v="0" />
	</node>
	<node id="-25987" lat="60.4591749965" lon="5.49607777586">
		<tag k="ssr:gml_id" v="GEOMETRY_065b1209-bfe7-4c71-bec7-18e56de2e44d" />
		<tag k="ssr:gml_nr" v="1" />
	</node>
	<node id="-25986" lat="60.4591750041" lon="5.4960749907">
		<tag k="ssr:gml_id" v="GEOMETRY_b1c2f81f-aea5-4220-9032-b2e3ec7f664f" />
		<tag k="ssr:gml_nr" v="0" />
	</node>
	<node id="-25985" lat="60.4956361068" lon="5.51168888598">
		<tag k="ssr:gml_id" v="GEOMETRY_85a2c457-eae8-4b38-95bf-a98f66120e2c" />
		<tag k="ssr:gml_nr" v="1" />
	</node>
	<node id="-25984" lat="60.4956333289" lon="5.51168610579">
		<tag k="ssr:gml_id" v="GEOMETRY_8bc6fd84-c545-481a-901b-ea21c28371c0" />
		<tag k="ssr:gml_nr" v="0" />
	</node>
	<node id="-25961" lat="60.4856666639" lon="5.66506111099">
		<tag k="historic" v="summer_mountain_farm" />
		<tag k="name" v="Øverstølen" />
		<tag k="place" v="locality" />
		<tag k="ssr:date" v="2016-05-10" />
		<tag k="ssr:stedsnr" v="470572" />
	</node>
	<node id="-25960" lat="60.5928111116" lon="5.53792499111">
		<tag k="name" v="Vestre Kleppe" />
		<tag k="place" v="farm" />
		<tag k="ssr:date" v="2016-05-10" />
		<tag k="ssr:stedsnr" v="470538" />
	</node>
	<node id="-25950" lat="60.5449277817" lon="5.48534444726">
		<tag k="name" v="Nordås" />
		<tag k="place" v="farm" />
		<tag k="ssr:date" v="2016-05-10" />
		<tag k="ssr:stedsnr" v="469779" />
	</node>
	<node id="-25938" lat="60.6669722208" lon="5.6133583334">
		<tag k="name" v="Indre Askjellneset" />
		<tag k="place" v="farm" />
		<tag k="ssr:date" v="2016-05-10" />
		<tag k="ssr:stedsnr" v="469450" />
	</node>
	<node id="-25935" lat="60.5664250004" lon="5.54057221822">
		<tag k="historic" v="summer_mountain_farm" />
		<tag k="name" v="Holasæter" />
		<tag k="place" v="locality" />
		<tag k="ssr:date" v="2016-05-10" />
		<tag k="ssr:stedsnr" v="469409" />
	</node>
	<node id="-25932" lat="60.5704361144" lon="5.46836389431">
		<tag k="name" v="Heldal" />
		<tag k="place" v="farm" />
		<tag k="ssr:date" v="2016-05-10" />
		<tag k="ssr:stedsnr" v="469402" />
	</node>
	<node id="-25931" lat="60.5049861113" lon="5.46955000677">
		<tag k="name" v="Oksadrepet" />
		<tag k="place" v="farm" />
		<tag k="ssr:date" v="2016-05-10" />
		<tag k="ssr:stedsnr" v="470705" />
	</node>
	<node id="-25920" lat="60.439449997" lon="5.5752972252">
		<tag k="name" v="Havrå" />
		<tag k="place" v="farm" />
		<tag k="ssr:date" v="2016-05-10" />
		<tag k="ssr:stedsnr" v="451350" />
	</node>
	<node id="-25916" lat="60.5185944451" lon="5.65337499133">
		<tag k="ssr:gml_id" v="GEOMETRY_d09e2866-6a02-4564-a530-bab642b9d568" />
		<tag k="ssr:gml_nr" v="1" />
	</node>
	<node id="-25915" lat="60.5185916639" lon="5.65336944488">
		<tag k="ssr:gml_id" v="GEOMETRY_e457e8e5-98ba-406f-b5f3-83a6d1287ac4" />
		<tag k="ssr:gml_nr" v="0" />
	</node>
	<node id="-25914" lat="60.5239583364" lon="5.50951945032">
		<tag k="ssr:gml_id" v="GEOMETRY_51857ca7-1f98-47f3-8ef0-614800143995" />
		<tag k="ssr:gml_nr" v="1" />
	</node>
	<node id="-25913" lat="60.5239527812" lon="5.5095166572">
		<tag k="ssr:gml_id" v="GEOMETRY_86f01c77-0865-4999-a083-01e9fa5614cd" />
		<tag k="ssr:gml_nr" v="0" />
	</node>
	<node id="-25912" lat="60.5255611086" lon="5.49563332628">
		<tag k="name" v="Lonevåg" />
		<tag k="place" v="village" />
		<tag k="ssr:date" v="2016-05-10" />
		<tag k="ssr:stedsnr" v="431934" />
	</node>
	<node id="-25909" lat="60.5387749998" lon="5.48956944466">
		<tag k="ssr:gml_id" v="GEOMETRY_d4f70abc-c877-430f-8d18-13172c78ffb1" />
		<tag k="ssr:gml_nr" v="1" />
	</node>
	<node id="-25908" lat="60.538324999" lon="5.49158888634">
		<tag k="ssr:gml_id" v="GEOMETRY_7618b78d-7c59-4e0d-8e6e-2eb6167d07b1" />
		<tag k="ssr:gml_nr" v="0" />
	</node>
	<node id="-25904" lat="60.6641750009" lon="5.61855277234">
		<tag k="name" v="Bogen" />
		<tag k="place" v="farm" />
		<tag k="ssr:date" v="2016-05-10" />
		<tag k="ssr:stedsnr" v="431660" />
	</node>
	<node id="-25903" lat="60.5662333312" lon="5.4853444405">
		<tag k="alt_name" v="Hola" />
		<tag k="name" v="Holo" />
		<tag k="place" v="farm" />
		<tag k="ssr:date" v="2016-05-10" />
		<tag k="ssr:stedsnr" v="431612" />
	</node>
	<node id="-25901" lat="60.5750027797" lon="5.49553054992">
		<tag k="name" v="Åsheim" />
		<tag k="place" v="farm" />
		<tag k="ssr:date" v="2016-05-10" />
		<tag k="ssr:stedsnr" v="431582" />
	</node>
	<node id="-25900" lat="60.5859277784" lon="5.61507222731">
		<tag k="historic" v="summer_mountain_farm" />
		<tag k="name" v="Bernessætra" />
		<tag k="place" v="locality" />
		<tag k="ssr:date" v="2016-05-10" />
		<tag k="ssr:stedsnr" v="431579" />
	</node>
	<node id="-25898" lat="60.6071944435" lon="5.66985555863">
		<tag k="building" v="cabin" />
		<tag k="name" v="Høgaheimshytta" />
		<tag k="place" v="isolated_dwelling" />
		<tag k="ssr:date" v="2016-05-10" />
		<tag k="ssr:stedsnr" v="431560" />
	</node>
	<node id="-25897" lat="60.4950138928" lon="5.4283444495">
		<tag k="ssr:gml_id" v="GEOMETRY_7596fb7f-7324-4c3b-88b2-ec59c8cd7991" />
		<tag k="ssr:gml_nr" v="2" />
	</node>
	<node id="-25896" lat="60.4955166669" lon="5.43811388385">
		<tag k="ssr:gml_id" v="GEOMETRY_ff9989e5-021e-410f-a83b-56ba6d6b3647" />
		<tag k="ssr:gml_nr" v="1" />
	</node>
	<node id="-25895" lat="60.4949888872" lon="5.42830278489">
		<tag k="ssr:gml_id" v="GEOMETRY_45746b74-a852-4122-bc6c-22d8eca3746d" />
		<tag k="ssr:gml_nr" v="0" />
	</node>
	<node id="-25891" lat="60.5099638861" lon="5.43162499916">
		<tag k="name" v="Bakken" />
		<tag k="place" v="farm" />
		<tag k="ssr:date" v="2016-05-10" />
		<tag k="ssr:stedsnr" v="431507" />
	</node>
	<node id="-25883" lat="60.4795444438" lon="5.56678888609">
		<tag k="ssr:gml_id" v="GEOMETRY_20acc9b4-a148-42d8-9c6b-e9336d729cf9" />
		<tag k="ssr:gml_nr" v="1" />
	</node>
	<node id="-25882" lat="60.4795416671" lon="5.56678610248">
		<tag k="ssr:gml_id" v="GEOMETRY_364d4ec1-9065-4e48-bdf4-71652a8e9eb9" />
		<tag k="ssr:gml_nr" v="0" />
	</node>
	<node id="-25881" lat="60.4807277807" lon="5.683336106">
		<tag k="ssr:gml_id" v="GEOMETRY_d5f96ce2-c780-4797-9fbe-94420addab36" />
		<tag k="ssr:gml_nr" v="1" />
	</node>
	<node id="-25880" lat="60.4785638905" lon="5.68618889301">
		<tag k="ssr:gml_id" v="GEOMETRY_7477c44b-8756-4b23-ad17-a4d631b4a2ef" />
		<tag k="ssr:gml_nr" v="0" />
	</node>
	<node id="-25879" lat="60.4628249957" lon="5.54831944209">
		<tag k="ssr:gml_id" v="GEOMETRY_3c30d219-b701-4935-a37e-113c60ce8ac4" />
		<tag k="ssr:gml_nr" v="2" />
	</node>
	<node id="-25878" lat="60.4620833364" lon="5.54843332896">
		<tag k="ssr:gml_id" v="GEOMETRY_da601953-e2eb-4447-8eca-3a620f9c807c" />
		<tag k="ssr:gml_nr" v="1" />
	</node>
	<node id="-25877" lat="60.4620805592" lon="5.54843054837">
		<tag k="ssr:gml_id" v="GEOMETRY_2369f750-0ec1-45e3-b78e-598c68f4c07c" />
		<tag k="ssr:gml_nr" v="0" />
	</node>
	<node id="-25865" lat="60.5440583292" lon="5.48505555232">
		<tag k="ssr:gml_id" v="GEOMETRY_35ff83dd-5994-4001-9fb0-0ad74c74743c" />
		<tag k="ssr:gml_nr" v="1" />
	</node>
	<node id="-25864" lat="60.5448361132" lon="5.48429722765">
		<tag k="ssr:gml_id" v="GEOMETRY_506544a9-b232-44e7-a4a3-691e0ec0a21b" />
		<tag k="ssr:gml_nr" v="0" />
	</node>
	<node id="-25859" lat="60.6016638852" lon="5.51248332862">
		<tag k="ssr:gml_id" v="GEOMETRY_b91fd292-5c84-4bc5-8971-36e5a83ded01" />
		<tag k="ssr:gml_nr" v="2" />
	</node>
	<node id="-25858" lat="60.605458334" lon="5.5152472227">
		<tag k="ssr:gml_id" v="GEOMETRY_f45f14f4-2792-4837-a1f4-35bd9da385b9" />
		<tag k="ssr:gml_nr" v="1" />
	</node>
	<node id="-25857" lat="60.6054527787" lon="5.51524166167">
		<tag k="ssr:gml_id" v="GEOMETRY_11961fe6-4614-4f24-95c9-417aada055c7" />
		<tag k="ssr:gml_nr" v="0" />
	</node>
	<node id="-25851" lat="60.5779166647" lon="5.57742499678">
		<tag k="name" v="Vare" />
		<tag k="place" v="farm" />
		<tag k="ssr:date" v="2016-05-10" />
		<tag k="ssr:stedsnr" v="249561" />
	</node>
	<node id="-25849" lat="60.6015499998" lon="5.51738611559">
		<tag k="ssr:gml_id" v="GEOMETRY_3823634f-6cd4-4f3c-8b18-f6c377b65c6e" />
		<tag k="ssr:gml_nr" v="3" />
	</node>
	<node id="-25848" lat="60.601552775" lon="5.51737777384">
		<tag k="ssr:gml_id" v="GEOMETRY_41f89988-d362-4c3b-9fe8-8117839a3b78" />
		<tag k="ssr:gml_nr" v="2" />
	</node>
	<node id="-25847" lat="60.6015472209" lon="5.5173777696">
		<tag k="ssr:gml_id" v="GEOMETRY_5b35dee8-8027-4f24-86b7-858de923c3b7" />
		<tag k="ssr:gml_nr" v="1" />
	</node>
	<node id="-25846" lat="60.6015499987" lon="5.51738055909">
		<tag k="ssr:gml_id" v="GEOMETRY_a27b4fe1-2975-4bf0-bd9d-30e5f4d224ff" />
		<tag k="ssr:gml_nr" v="0" />
	</node>
	<node id="-25844" lat="60.5477805536" lon="5.40774444465">
		<tag k="ssr:gml_id" v="GEOMETRY_09602079-f463-4520-a8e6-3db564c0605f" />
		<tag k="ssr:gml_nr" v="1" />
	</node>
	<node id="-25843" lat="60.5478749983" lon="5.4131222276">
		<tag k="ssr:gml_id" v="GEOMETRY_4bf6997c-721c-4a7c-aac1-70381762d6b5" />
		<tag k="ssr:gml_nr" v="0" />
	</node>
	<node id="-25839" lat="60.4855472231" lon="5.55373888232">
		<tag k="ssr:gml_id" v="GEOMETRY_2b177660-192c-49a3-879a-331a829336b5" />
		<tag k="ssr:gml_nr" v="1" />
	</node>
	<node id="-25838" lat="60.4850249959" lon="5.55542499774">
		<tag k="ssr:gml_id" v="GEOMETRY_86fc0d24-c82b-4603-9710-8e5a48a7c23c" />
		<tag k="ssr:gml_nr" v="0" />
	</node>
	<node id="-25831" lat="60.5793500001" lon="5.56588054769">
		<tag k="ssr:gml_id" v="GEOMETRY_ad7ac0a6-75b5-4187-a652-7e2bbaf0bcf2" />
		<tag k="ssr:gml_nr" v="1" />
	</node>
	<node id="-25830" lat="60.5793500011" lon="5.56587499494">
		<tag k="ssr:gml_id" v="GEOMETRY_586b9b86-10c3-4844-be7c-6b31cbbdd68a" />
		<tag k="ssr:gml_nr" v="0" />
	</node>
	<node id="-25827" lat="60.5363944486" lon="5.39445278196">
		<tag k="name" v="Bleiklii" />
		<tag k="place" v="farm" />
		<tag k="ssr:date" v="2016-05-10" />
		<tag k="ssr:stedsnr" v="248375" />
	</node>
	<node id="-25826" lat="60.4451888895" lon="5.51091944554">
		<tag k="ssr:gml_id" v="GEOMETRY_1d6f156e-6146-4e09-9b23-fe58da5c7123" />
		<tag k="ssr:gml_nr" v="1" />
	</node>
	<node id="-25825" lat="60.4451861116" lon="5.51091666957">
		<tag k="ssr:gml_id" v="GEOMETRY_1863cdb2-7ff0-4dc6-ab93-d6861d25ec5b" />
		<tag k="ssr:gml_nr" v="0" />
	</node>
	<node id="-25824" lat="60.4539750029" lon="5.54115832751">
		<tag k="ssr:gml_id" v="GEOMETRY_6eb0b640-0f78-49c9-9253-70bc2db53f39" />
		<tag k="ssr:gml_nr" v="1" />
	</node>
	<node id="-25823" lat="60.4539777802" lon="5.5411611068">
		<tag k="ssr:gml_id" v="GEOMETRY_6516ec99-41bc-4ad0-bb24-106a003ca5b2" />
		<tag k="ssr:gml_nr" v="0" />
	</node>
	<node id="-25816" lat="60.4588527778" lon="5.48799167488">
		<tag k="name" v="Verkane" />
		<tag k="place" v="farm" />
		<tag k="ssr:date" v="2016-05-10" />
		<tag k="ssr:stedsnr" v="227860" />
	</node>
	<node id="-25813" lat="60.4638833311" lon="5.47439999826">
		<tag k="historic" v="summer_mountain_farm" />
		<tag k="name" v="Gloppestølen" />
		<tag k="place" v="locality" />
		<tag k="ssr:date" v="2016-05-10" />
		<tag k="ssr:stedsnr" v="227845" />
	</node>
	<node id="-25808" lat="60.4893611116" lon="5.43233889628">
		<tag k="name" v="Øydegarden" />
		<tag k="place" v="farm" />
		<tag k="ssr:date" v="2016-05-10" />
		<tag k="ssr:stedsnr" v="227803" />
	</node>
	<node id="-25799" lat="60.4645611087" lon="5.54638611693">
		<tag k="name" v="Veset" />
		<tag k="place" v="farm" />
		<tag k="ssr:date" v="2016-05-10" />
		<tag k="ssr:stedsnr" v="227626" />
	</node>
	<node id="-25779" lat="60.4400583295" lon="5.53711112002">
		<tag k="name" v="Setri" />
		<tag k="place" v="farm" />
		<tag k="ssr:date" v="2016-05-10" />
		<tag k="ssr:stedsnr" v="227477" />
	</node>
	<node id="-25756" lat="60.4994722186" lon="5.59023055064">
		<tag k="historic" v="summer_mountain_farm" />
		<tag k="name" v="Solbjørgsetra" />
		<tag k="place" v="locality" />
		<tag k="ssr:date" v="2016-05-10" />
		<tag k="ssr:stedsnr" v="226318" />
	</node>
	<node id="-25753" lat="60.4396500036" lon="5.57669443978">
		<tag k="name" v="Havrå" />
		<tag k="place" v="farm" />
		<tag k="ssr:date" v="2016-05-10" />
		<tag k="ssr:stedsnr" v="208324" />
	</node>
	<node id="-25752" lat="60.4295055523" lon="5.53303333612">
		<tag k="ssr:gml_id" v="GEOMETRY_8c51e3b4-a429-493e-8649-7fb490030743" />
		<tag k="ssr:gml_nr" v="4" />
	</node>
	<node id="-25751" lat="60.4295027749" lon="5.53303055955">
		<tag k="ssr:gml_id" v="GEOMETRY_e5815b5c-9edb-40ba-8973-0b30dc708ebc" />
		<tag k="ssr:gml_nr" v="3" />
	</node>
	<node id="-25750" lat="60.430525004" lon="5.53220556268">
		<tag k="ssr:gml_id" v="GEOMETRY_348c7dad-c39c-4d7b-bd5e-29d8e57b298f" />
		<tag k="ssr:gml_nr" v="2" />
	</node>
	<node id="-25749" lat="60.4295055578" lon="5.53301111791">
		<tag k="ssr:gml_id" v="GEOMETRY_014c3722-f441-486c-8ee6-8f679e03f377" />
		<tag k="ssr:gml_nr" v="1" />
	</node>
	<node id="-25748" lat="60.4295083298" lon="5.53303611269">
		<tag k="ssr:gml_id" v="GEOMETRY_3b5c85ff-6799-453b-b590-abc6e471d976" />
		<tag k="ssr:gml_nr" v="0" />
	</node>
	<node id="-25740" lat="60.5002444446" lon="5.60539999332">
		<tag k="historic" v="summer_mountain_farm" />
		<tag k="name" v="Melesætra" />
		<tag k="place" v="locality" />
		<tag k="ssr:date" v="2016-05-10" />
		<tag k="ssr:stedsnr" v="188996" />
	</node>
	<node id="-25735" lat="60.4623888927" lon="5.48206389004">
		<tag k="ssr:gml_id" v="GEOMETRY_3cffdb0b-cf6c-4ff7-88c2-15e99f1407dd" />
		<tag k="ssr:gml_nr" v="1" />
	</node>
	<node id="-25734" lat="60.4623861142" lon="5.48206111515">
		<tag k="ssr:gml_id" v="GEOMETRY_53d570d7-3bd0-4cc0-a000-4a097e05a131" />
		<tag k="ssr:gml_nr" v="0" />
	</node>
	<node id="-25730" lat="60.4656027812" lon="5.56327778355">
		<tag k="ssr:gml_id" v="GEOMETRY_6f9c8b71-eed3-4ba2-8713-15f58d4b794f" />
		<tag k="ssr:gml_nr" v="1" />
	</node>
	<node id="-25729" lat="60.4656000043" lon="5.56327500139">
		<tag k="ssr:gml_id" v="GEOMETRY_f8738fd8-0d40-4df8-b892-b7c36002aa4e" />
		<tag k="ssr:gml_nr" v="0" />
	</node>
	<node id="-25724" lat="60.5249861157" lon="5.48790555899">
		<tag k="loc_name" v="Kårvika" />
		<tag k="name" v="Kårviki" />
		<tag k="place" v="farm" />
		<tag k="ssr:date" v="2016-05-10" />
		<tag k="ssr:stedsnr" v="188936" />
	</node>
	<node id="-25723" lat="60.5433277799" lon="5.54917500099">
		<tag k="name" v="Fossdal" />
		<tag k="place" v="farm" />
		<tag k="ssr:date" v="2016-05-10" />
		<tag k="ssr:stedsnr" v="188914" />
	</node>
	<node id="-25722" lat="60.5395861081" lon="5.49414999913">
		<tag k="ssr:gml_id" v="GEOMETRY_4dd3ecc2-17b0-4e87-99db-b080c34c1211" />
		<tag k="ssr:gml_nr" v="1" />
	</node>
	<node id="-25721" lat="60.5395861091" lon="5.49415277205">
		<tag k="ssr:gml_id" v="GEOMETRY_58df3239-1aca-44f6-bf2c-dff1deb4a2ae" />
		<tag k="ssr:gml_nr" v="0" />
	</node>
	<node id="-25719" lat="60.5571916675" lon="5.47987222816">
		<tag k="ssr:gml_id" v="GEOMETRY_c0d63747-6630-4504-8d8a-1b8654b51967" />
		<tag k="ssr:gml_nr" v="1" />
	</node>
	<node id="-25718" lat="60.5569805586" lon="5.48105555575">
		<tag k="ssr:gml_id" v="GEOMETRY_70eeb94e-27ab-4da5-b0bc-a6dcfbf842e0" />
		<tag k="ssr:gml_nr" v="0" />
	</node>
	<node id="-25713" lat="60.5765333303" lon="5.55487500826">
		<tag k="historic" v="summer_mountain_farm" />
		<tag k="name" v="Hellandsætra" />
		<tag k="place" v="locality" />
		<tag k="ssr:date" v="2016-05-10" />
		<tag k="ssr:stedsnr" v="188611" />
	</node>
	<node id="-25709" lat="60.5491361108" lon="5.39294166304">
		<tag k="name" v="Teppstad" />
		<tag k="place" v="farm" />
		<tag k="ssr:date" v="2016-05-10" />
		<tag k="ssr:stedsnr" v="188467" />
	</node>
	<node id="-25707" lat="60.541111108" lon="5.44746943703">
		<tag k="ssr:gml_id" v="GEOMETRY_806254f5-1bb3-48b7-ade2-1ba8badd142e" />
		<tag k="ssr:gml_nr" v="1" />
	</node>
	<node id="-25706" lat="60.5409361077" lon="5.45390000009">
		<tag k="ssr:gml_id" v="GEOMETRY_8d783f19-5d07-4493-b107-ade45643aa6d" />
		<tag k="ssr:gml_nr" v="0" />
	</node>
	<node id="-25695" lat="60.4765000018" lon="5.47340276911">
		<tag k="ssr:gml_id" v="GEOMETRY_bd02e79d-bef7-4764-a85b-54a46d18006e" />
		<tag k="ssr:gml_nr" v="2" />
	</node>
	<node id="-25694" lat="60.4761499988" lon="5.46911944463">
		<tag k="ssr:gml_id" v="GEOMETRY_602ab4c5-6022-4ec4-9d4a-b9ceed6f852e" />
		<tag k="ssr:gml_nr" v="1" />
	</node>
	<node id="-25693" lat="60.47614722" lon="5.46911666972">
		<tag k="ssr:gml_id" v="GEOMETRY_c250cab7-d64d-4fb1-9067-5f634a15e744" />
		<tag k="ssr:gml_nr" v="0" />
	</node>
	<node id="-25690" lat="60.4772277782" lon="5.57358889725">
		<tag k="ssr:gml_id" v="GEOMETRY_7420fbbb-e62e-4669-8748-240d5a31a2af" />
		<tag k="ssr:gml_nr" v="1" />
	</node>
	<node id="-25689" lat="60.4772250015" lon="5.57358611323">
		<tag k="ssr:gml_id" v="GEOMETRY_6dda98c4-7c0d-4dfb-9240-ee75cda6f76a" />
		<tag k="ssr:gml_nr" v="0" />
	</node>
	<node id="-25688" lat="60.4796927472" lon="5.67094241245">
		<tag k="name" v="Kløve" />
		<tag k="place" v="farm" />
		<tag k="ssr:date" v="2016-12-20" />
		<tag k="ssr:stedsnr" v="187942" />
	</node>
	<node id="-25676" lat="60.4621500037" lon="5.51216110308">
		<tag k="historic" v="summer_mountain_farm" />
		<tag k="name" v="Kronasætra" />
		<tag k="place" v="locality" />
		<tag k="ssr:date" v="2016-05-10" />
		<tag k="ssr:stedsnr" v="166858" />
	</node>
	<node id="-25659" lat="60.5441166623" lon="5.34735833544">
		<tag k="ssr:gml_id" v="GEOMETRY_bd1dd00d-7b5d-4771-ab1c-c3a16d085b96" />
		<tag k="ssr:gml_nr" v="1" />
	</node>
	<node id="-25658" lat="60.5441194444" lon="5.34735555804">
		<tag k="ssr:gml_id" v="GEOMETRY_3c1e9073-4bcb-4b57-b952-e9647fe5f5f3" />
		<tag k="ssr:gml_nr" v="0" />
	</node>
	<node id="-25656" lat="60.5188416697" lon="5.54098056426">
		<tag k="historic" v="summer_mountain_farm" />
		<tag k="name" v="Kjerringastøleitet" />
		<tag k="place" v="locality" />
		<tag k="ssr:date" v="2016-05-10" />
		<tag k="ssr:stedsnr" v="166742" />
	</node>
	<node id="-25654" lat="60.506875004" lon="5.54469999567">
		<tag k="name" v="Øvstebøen" />
		<tag k="place" v="farm" />
		<tag k="ssr:date" v="2016-05-10" />
		<tag k="ssr:stedsnr" v="166719" />
	</node>
	<node id="-25648" lat="60.5260944435" lon="5.50713611276">
		<tag k="name" v="Hatland" />
		<tag k="place" v="farm" />
		<tag k="ssr:date" v="2016-05-10" />
		<tag k="ssr:stedsnr" v="166647" />
	</node>
	<node id="-25631" lat="60.4979694489" lon="5.6000611172">
		<tag k="historic" v="summer_mountain_farm" />
		<tag k="loc_name" v="Geitrheimssetra" />
		<tag k="name" v="Geitremsetra" />
		<tag k="place" v="locality" />
		<tag k="ssr:date" v="2016-05-10" />
		<tag k="ssr:stedsnr" v="166548" />
	</node>
	<node id="-25625" lat="60.6072249969" lon="5.51289999819">
		<tag k="name" v="Bernes" />
		<tag k="place" v="farm" />
		<tag k="ssr:date" v="2016-05-10" />
		<tag k="ssr:stedsnr" v="166514" />
	</node>
	<node id="-25624" lat="60.5448472219" lon="5.48251111592">
		<tag k="name" v="Nordås" />
		<tag k="place" v="farm" />
		<tag k="ssr:date" v="2016-05-10" />
		<tag k="ssr:stedsnr" v="166507" />
	</node>
	<node id="-25611" lat="60.5150805559" lon="5.40308056455">
		<tag k="name" v="Øyjordi" />
		<tag k="place" v="farm" />
		<tag k="ssr:date" v="2016-05-10" />
		<tag k="ssr:stedsnr" v="165805" />
	</node>
	<node id="-25610" lat="60.5929055564" lon="5.52224722777">
		<tag k="fixme" v="consider place=isolated_dwelling if not a farm" />
		<tag k="name" v="Hella" />
		<tag k="place" v="farm" />
		<tag k="ssr:date" v="2016-05-10" />
		<tag k="ssr:stedsnr" v="165729" />
	</node>
	<node id="-25597" lat="60.4941166651" lon="5.5206500082">
		<tag k="name" v="Kollii" />
		<tag k="place" v="farm" />
		<tag k="ssr:date" v="2016-05-10" />
		<tag k="ssr:stedsnr" v="165302" />
	</node>
	<node id="-25592" lat="60.5110055511" lon="5.59322777478">
		<tag k="historic" v="summer_mountain_farm" />
		<tag k="name" v="Lonasætra" />
		<tag k="place" v="locality" />
		<tag k="ssr:date" v="2016-05-10" />
		<tag k="ssr:stedsnr" v="127951" />
	</node>
	<node id="-25582" lat="60.5468305582" lon="5.51036945163">
		<tag k="name" v="Svenheim" />
		<tag k="place" v="farm" />
		<tag k="ssr:date" v="2016-05-10" />
		<tag k="ssr:stedsnr" v="127912" />
	</node>
	<node id="-25580" lat="60.513333334" lon="5.514147231">
		<tag k="ssr:gml_id" v="GEOMETRY_8b621742-d6de-4ce1-8a2b-9ff86a59edcd" />
		<tag k="ssr:gml_nr" v="1" />
	</node>
	<node id="-25579" lat="60.5132194427" lon="5.51701388138">
		<tag k="ssr:gml_id" v="GEOMETRY_3bcbce4a-9ac7-43c2-b91f-5456036ede3f" />
		<tag k="ssr:gml_nr" v="0" />
	</node>
	<node id="-25578" lat="60.5189111092" lon="5.52435277226">
		<tag k="name" v="Åsen" />
		<tag k="place" v="farm" />
		<tag k="ssr:date" v="2016-05-10" />
		<tag k="ssr:stedsnr" v="127966" />
	</node>
	<node id="-25577" lat="60.5071250035" lon="5.51349722079">
		<tag k="name" v="Revheim" />
		<tag k="place" v="farm" />
		<tag k="ssr:date" v="2016-05-10" />
		<tag k="ssr:stedsnr" v="127956" />
	</node>
	<node id="-25567" lat="60.5212583346" lon="5.47135277471">
		<tag k="ssr:gml_id" v="GEOMETRY_651c4da2-153f-41b3-a598-51824acf8fd2" />
		<tag k="ssr:gml_nr" v="3" />
	</node>
	<node id="-25566" lat="60.5284722206" lon="5.45406388756">
		<tag k="ssr:gml_id" v="GEOMETRY_5107e200-ad55-4759-ad9c-01c122ed081e" />
		<tag k="ssr:gml_nr" v="2" />
	</node>
	<node id="-25565" lat="60.5291749979" lon="5.45367500393">
		<tag k="ssr:gml_id" v="GEOMETRY_04d70f16-2998-42b4-b95c-fc5836bf2301" />
		<tag k="ssr:gml_nr" v="1" />
	</node>
	<node id="-25564" lat="60.5287333378" lon="5.45243334159">
		<tag k="ssr:gml_id" v="GEOMETRY_bafe43e4-a5f9-4941-89f1-25733a06f4b7" />
		<tag k="ssr:gml_nr" v="0" />
	</node>
	<node id="-25561" lat="60.5578000031" lon="5.43501943609">
		<tag k="building" v="cabin" />
		<tag k="name" v="Johamnen" />
		<tag k="place" v="isolated_dwelling" />
		<tag k="ssr:date" v="2016-05-10" />
		<tag k="ssr:stedsnr" v="127465" />
	</node>
	<node id="-25560" lat="60.688238885" lon="5.63701666627">
		<tag k="ssr:gml_id" v="GEOMETRY_5d9e902a-7496-4bf4-bfe9-c7ad6db468f4" />
		<tag k="ssr:gml_nr" v="1" />
	</node>
	<node id="-25559" lat="60.6888805595" lon="5.64221944886">
		<tag k="ssr:gml_id" v="GEOMETRY_7e31048c-6949-4f33-adb2-3e6a456d29d4" />
		<tag k="ssr:gml_nr" v="0" />
	</node>
	<node id="-25556" lat="60.5844805512" lon="5.4756305502">
		<tag k="fixme" v="consider place=isolated_dwelling if not a farm" />
		<tag k="name" v="Børo" />
		<tag k="place" v="farm" />
		<tag k="ssr:date" v="2016-05-10" />
		<tag k="ssr:stedsnr" v="127569" />
	</node>
	<node id="-25554" lat="60.4882916623" lon="5.46446388168">
		<tag k="name" v="Erstad" />
		<tag k="place" v="farm" />
		<tag k="ssr:date" v="2016-05-10" />
		<tag k="ssr:stedsnr" v="127451" />
	</node>
	<node id="-25552" lat="60.5517499989" lon="5.40939166211">
		<tag k="fixme" v="consider place=farm" />
		<tag k="loc_name" v="Hjellvika" />
		<tag k="name" v="Hjellviki" />
		<tag k="place" v="hamlet" />
		<tag k="ssr:date" v="2016-05-10" />
		<tag k="ssr:stedsnr" v="127445" />
	</node>
	<node id="-25551" lat="60.5390333356" lon="5.34604999533">
		<tag k="name" v="Øyjordi" />
		<tag k="place" v="farm" />
		<tag k="ssr:date" v="2016-05-10" />
		<tag k="ssr:stedsnr" v="127431" />
	</node>
	<node id="-25550" lat="60.5429277772" lon="5.41157499456">
		<tag k="ssr:gml_id" v="GEOMETRY_da032b4a-5fe2-4e2d-8787-c1241ec30b8d" />
		<tag k="ssr:gml_nr" v="1" />
	</node>
	<node id="-25549" lat="60.5424888844" lon="5.41243888118">
		<tag k="ssr:gml_id" v="GEOMETRY_c48cdd5f-842c-45d3-8830-3bc83d5092b6" />
		<tag k="ssr:gml_nr" v="0" />
	</node>
	<node id="-25548" lat="60.5448499997" lon="5.38172500388">
		<tag k="name" v="Hustrelii" />
		<tag k="place" v="farm" />
		<tag k="ssr:date" v="2016-05-10" />
		<tag k="ssr:stedsnr" v="127417" />
	</node>
	<node id="-25545" lat="60.4790472253" lon="5.5437138935">
		<tag k="ssr:gml_id" v="GEOMETRY_d038ce41-caf0-4d6c-8edf-aeb5bf533ff6" />
		<tag k="ssr:gml_nr" v="3" />
	</node>
	<node id="-25544" lat="60.4790500028" lon="5.54372222881">
		<tag k="ssr:gml_id" v="GEOMETRY_f079072b-8a78-42b3-bb6b-36e76b73bc5c" />
		<tag k="ssr:gml_nr" v="2" />
	</node>
	<node id="-25543" lat="60.4790500025" lon="5.54371667509">
		<tag k="ssr:gml_id" v="GEOMETRY_69dcb7f4-be0b-475d-875f-d6e1e55492e9" />
		<tag k="ssr:gml_nr" v="1" />
	</node>
	<node id="-25542" lat="60.4790500024" lon="5.54371944287">
		<tag k="ssr:gml_id" v="GEOMETRY_3d027ec8-8c82-4849-b9d5-e42e6eac8622" />
		<tag k="ssr:gml_nr" v="0" />
	</node>
	<node id="-25522" lat="60.5400694472" lon="5.40899166705">
		<tag k="name" v="Mjeldstad" />
		<tag k="place" v="farm" />
		<tag k="ssr:date" v="2016-05-10" />
		<tag k="ssr:stedsnr" v="106809" />
	</node>
	<node id="-25516" lat="60.5060666706" lon="5.5399083406">
		<tag k="name" v="Solbjørg" />
		<tag k="place" v="farm" />
		<tag k="ssr:date" v="2016-05-10" />
		<tag k="ssr:stedsnr" v="106756" />
	</node>
	<node id="-25499" lat="60.4784222223" lon="5.63221667238">
		<tag k="historic" v="summer_mountain_farm" />
		<tag k="name" v="Brøksetri" />
		<tag k="place" v="locality" />
		<tag k="ssr:date" v="2016-05-10" />
		<tag k="ssr:stedsnr" v="106547" />
	</node>
	<node id="-25495" lat="60.590305556" lon="5.51714444271">
		<tag k="name" v="Fotland" />
		<tag k="place" v="farm" />
		<tag k="ssr:date" v="2016-05-10" />
		<tag k="ssr:stedsnr" v="106522" />
	</node>
	<node id="-25491" lat="60.5493499961" lon="5.53910832519">
		<tag k="name" v="Dalen" />
		<tag k="place" v="farm" />
		<tag k="ssr:date" v="2016-05-10" />
		<tag k="ssr:stedsnr" v="106512" />
	</node>
	<node id="-25465" lat="60.511305557" lon="5.52595554674">
		<tag k="name" v="Haukelii" />
		<tag k="place" v="farm" />
		<tag k="ssr:date" v="2016-05-10" />
		<tag k="ssr:stedsnr" v="104699" />
	</node>
	<node id="-25459" lat="60.4394944416" lon="5.57566111175">
		<tag k="name" v="Havrå" />
		<tag k="place" v="farm" />
		<tag k="ssr:date" v="2016-05-10" />
		<tag k="ssr:stedsnr" v="87321" />
	</node>
	<node id="-25455" lat="60.5404750029" lon="5.53900276928">
		<tag k="name" v="Åsen" />
		<tag k="place" v="farm" />
		<tag k="ssr:date" v="2016-05-10" />
		<tag k="ssr:stedsnr" v="67882" />
	</node>
	<node id="-25450" lat="60.5030027786" lon="5.5016194453">
		<tag k="name" v="Vevletveit" />
		<tag k="place" v="farm" />
		<tag k="ssr:date" v="2016-05-10" />
		<tag k="ssr:stedsnr" v="67960" />
	</node>
	<node id="-25448" lat="60.5059750038" lon="5.47779444165">
		<tag k="ssr:gml_id" v="GEOMETRY_cb5a187b-94d2-45a8-bd89-1022f7cb38d8" />
		<tag k="ssr:gml_nr" v="1" />
	</node>
	<node id="-25447" lat="60.5059750026" lon="5.47779167162">
		<tag k="ssr:gml_id" v="GEOMETRY_30aac551-e4a2-4794-a654-e648e5ee5247" />
		<tag k="ssr:gml_nr" v="0" />
	</node>
	<node id="-25443" lat="60.5434333312" lon="5.51725000799">
		<tag k="name" v="Halvalii" />
		<tag k="place" v="farm" />
		<tag k="ssr:date" v="2016-05-10" />
		<tag k="ssr:stedsnr" v="67907" />
	</node>
	<node id="-25442" lat="60.5483805587" lon="5.55277500489">
		<tag k="name" v="Sørmyking" />
		<tag k="place" v="farm" />
		<tag k="ssr:date" v="2016-05-10" />
		<tag k="ssr:stedsnr" v="67622" />
	</node>
	<node id="-25438" lat="60.5652305585" lon="5.54261667253">
		<tag k="name" v="Mykingatræet" />
		<tag k="place" v="farm" />
		<tag k="ssr:date" v="2016-05-10" />
		<tag k="ssr:stedsnr" v="67596" />
	</node>
	<node id="-25431" lat="60.5527777748" lon="5.46109445159">
		<tag k="ssr:gml_id" v="GEOMETRY_879db614-454c-4d7e-8792-f11fa673b312" />
		<tag k="ssr:gml_nr" v="5" />
	</node>
	<node id="-25430" lat="60.5527805515" lon="5.46109443993">
		<tag k="ssr:gml_id" v="GEOMETRY_e5ab6a3a-bdb4-43e4-8d4e-fe48045aa505" />
		<tag k="ssr:gml_nr" v="4" />
	</node>
	<node id="-25429" lat="60.5527555569" lon="5.46114999286">
		<tag k="ssr:gml_id" v="GEOMETRY_f73c682f-3c8a-4dc3-912f-622e1745f911" />
		<tag k="ssr:gml_nr" v="3" />
	</node>
	<node id="-25428" lat="60.5527638883" lon="5.46114999427">
		<tag k="ssr:gml_id" v="GEOMETRY_ed2682d8-5c5b-40e9-9677-757c6276e79d" />
		<tag k="ssr:gml_nr" v="2" />
	</node>
	<node id="-25427" lat="60.5527583325" lon="5.46114722538">
		<tag k="ssr:gml_id" v="GEOMETRY_0a16ea46-4e59-410f-9586-b6af0dbc7d1b" />
		<tag k="ssr:gml_nr" v="1" />
	</node>
	<node id="-25426" lat="60.5527583342" lon="5.4611499994">
		<tag k="ssr:gml_id" v="GEOMETRY_8e97ec81-fb0e-437c-bbda-6429d7b85769" />
		<tag k="ssr:gml_nr" v="0" />
	</node>
	<node id="-25425" lat="60.5414000011" lon="5.40571944058">
		<tag k="name" v="Mjelstad" />
		<tag k="place" v="farm" />
		<tag k="ssr:date" v="2016-05-10" />
		<tag k="ssr:stedsnr" v="67419" />
	</node>
	<node id="-25423" lat="60.5698944471" lon="5.45116388228">
		<tag k="name" v="Fjellskålnes" />
		<tag k="place" v="farm" />
		<tag k="ssr:date" v="2016-05-10" />
		<tag k="ssr:stedsnr" v="67101" />
	</node>
	<node id="-25422" lat="60.4730583346" lon="5.65629999199">
		<tag k="ssr:gml_id" v="GEOMETRY_80a8ffb8-1889-4dc3-b5d2-dc22d4a886fc" />
		<tag k="ssr:gml_nr" v="1" />
	</node>
	<node id="-25421" lat="60.4730555581" lon="5.65630000486">
		<tag k="ssr:gml_id" v="GEOMETRY_4ee521bb-7b5b-4a3f-a733-9c2f88ae40f2" />
		<tag k="ssr:gml_nr" v="0" />
	</node>
	<node id="-25419" lat="60.4955333368" lon="5.45579166768">
		<tag k="ssr:gml_id" v="GEOMETRY_31dd829a-b592-483e-ab8f-826a11e1ecbc" />
		<tag k="ssr:gml_nr" v="1" />
	</node>
	<node id="-25418" lat="60.4957250026" lon="5.45640278598">
		<tag k="ssr:gml_id" v="GEOMETRY_f6cc07ee-8476-415a-865b-dc70590dc154" />
		<tag k="ssr:gml_nr" v="0" />
	</node>
	<node id="-25411" lat="60.456897221" lon="5.62093611784">
		<tag k="ssr:gml_id" v="GEOMETRY_ccec3117-80fe-44f3-a6b5-16ca0e620edc" />
		<tag k="ssr:gml_nr" v="2" />
	</node>
	<node id="-25410" lat="60.456436115" lon="5.62255000478">
		<tag k="ssr:gml_id" v="GEOMETRY_c03c384a-74f5-4176-890b-48d8269d437c" />
		<tag k="ssr:gml_nr" v="1" />
	</node>
	<node id="-25409" lat="60.4564333291" lon="5.62255000326">
		<tag k="ssr:gml_id" v="GEOMETRY_af840f13-f987-443e-a461-a63f01b656ed" />
		<tag k="ssr:gml_nr" v="0" />
	</node>
	<node id="-25405" lat="60.4971833348" lon="5.58946388076">
		<tag k="ssr:gml_id" v="GEOMETRY_1ed43178-af76-475d-a6c8-555ccfc987c6" />
		<tag k="ssr:gml_nr" v="1" />
	</node>
	<node id="-25404" lat="60.497180559" lon="5.5894611119">
		<tag k="ssr:gml_id" v="GEOMETRY_f1be45e7-24f9-43d8-9c4c-b9c580189ef9" />
		<tag k="ssr:gml_nr" v="0" />
	</node>
	<node id="-25403" lat="60.4707749983" lon="5.46950276946">
		<tag k="ssr:gml_id" v="GEOMETRY_6f794b9e-20f0-4e80-ad48-102c8445db9a" />
		<tag k="ssr:gml_nr" v="1" />
	</node>
	<node id="-25402" lat="60.4707749968" lon="5.46950000244">
		<tag k="ssr:gml_id" v="GEOMETRY_828ac5ce-d443-4e67-bbbb-66e327fccbe8" />
		<tag k="ssr:gml_nr" v="0" />
	</node>
	<node id="-25392" lat="60.5202194401" lon="5.442397222">
		<tag k="name" v="Burkeland" />
		<tag k="place" v="farm" />
		<tag k="ssr:date" v="2016-05-10" />
		<tag k="ssr:stedsnr" v="45824" />
	</node>
	<node id="-25389" lat="60.5206805576" lon="5.38472222577">
		<tag k="name" v="Kvamme" />
		<tag k="place" v="farm" />
		<tag k="ssr:date" v="2016-05-10" />
		<tag k="ssr:stedsnr" v="45787" />
	</node>
	<node id="-25388" lat="60.5410916686" lon="5.38901944091">
		<tag k="name" v="Hustrulid" />
		<tag k="place" v="farm" />
		<tag k="ssr:date" v="2016-05-10" />
		<tag k="ssr:stedsnr" v="45783" />
	</node>
	<node id="-25383" lat="60.5077083298" lon="5.57892222707">
		<tag k="historic" v="summer_mountain_farm" />
		<tag k="name" v="Storsåtstølane" />
		<tag k="place" v="locality" />
		<tag k="ssr:date" v="2016-05-10" />
		<tag k="ssr:stedsnr" v="45733" />
	</node>
	<node id="-25364" lat="60.4474861142" lon="5.61303888765">
		<tag k="name" v="Heiæ" />
		<tag k="place" v="farm" />
		<tag k="ssr:date" v="2016-05-10" />
		<tag k="ssr:stedsnr" v="45530" />
	</node>
	<node id="-25362" lat="60.6117666645" lon="5.5666000072">
		<tag k="name" v="Nyland" />
		<tag k="place" v="farm" />
		<tag k="ssr:date" v="2016-05-10" />
		<tag k="ssr:stedsnr" v="45513" />
	</node>
	<node id="-25361" lat="60.5492916662" lon="5.52416665882">
		<tag k="name" v="Haugstveit" />
		<tag k="place" v="farm" />
		<tag k="ssr:date" v="2016-05-10" />
		<tag k="ssr:stedsnr" v="45506" />
	</node>
	<node id="-25352" lat="60.643416663" lon="5.60344445082">
		<tag k="name" v="Kleiveland" />
		<tag k="place" v="farm" />
		<tag k="ssr:date" v="2016-05-10" />
		<tag k="ssr:stedsnr" v="45408" />
	</node>
	<node id="-25347" lat="60.4468611121" lon="5.61237777048">
		<tag k="loc_name" v="Leikneset" />
		<tag k="name" v="Leknes" />
		<tag k="place" v="farm" />
		<tag k="ssr:date" v="2016-05-10" />
		<tag k="ssr:stedsnr" v="44771" />
	</node>
	<node id="-25344" lat="60.5256472228" lon="5.53706389558">
		<tag k="name" v="Langheii" />
		<tag k="place" v="farm" />
		<tag k="ssr:date" v="2016-05-10" />
		<tag k="ssr:stedsnr" v="44707" />
	</node>
	<node id="-25343" lat="60.5981638918" lon="5.50164999975">
		<tag k="fixme" v="consider place=isolated_dwelling if not a farm" />
		<tag k="name" v="Strand" />
		<tag k="place" v="farm" />
		<tag k="ssr:date" v="2016-05-10" />
		<tag k="ssr:stedsnr" v="44706" />
	</node>
	<node id="-25336" lat="60.4889611078" lon="5.52651944369">
		<tag k="name" v="Rongve" />
		<tag k="place" v="farm" />
		<tag k="ssr:date" v="2016-05-10" />
		<tag k="ssr:stedsnr" v="44451" />
	</node>
	<node id="-25320" lat="60.4395305544" lon="5.57591388391">
		<tag k="name" v="Havrå" />
		<tag k="place" v="farm" />
		<tag k="ssr:date" v="2016-05-10" />
		<tag k="ssr:stedsnr" v="26342" />
	</node>
	<node id="-25319" lat="60.4394944441" lon="5.57547777301">
		<tag k="name" v="Havrå" />
		<tag k="place" v="farm" />
		<tag k="ssr:date" v="2016-05-10" />
		<tag k="ssr:stedsnr" v="26341" />
	</node>
	<node id="-25316" lat="60.5109416621" lon="5.55369999509">
		<tag k="ssr:gml_id" v="GEOMETRY_5cb62fd5-d645-4bca-ba8e-936e2b23411c" />
		<tag k="ssr:gml_nr" v="1" />
	</node>
	<node id="-25315" lat="60.5109388853" lon="5.55369999869">
		<tag k="ssr:gml_id" v="GEOMETRY_764f5590-d623-4996-b03a-e747d2c58109" />
		<tag k="ssr:gml_nr" v="0" />
	</node>
	<node id="-25311" lat="60.5464027811" lon="5.51840832406">
		<tag k="name" v="Grimstad" />
		<tag k="place" v="farm" />
		<tag k="ssr:date" v="2016-05-10" />
		<tag k="ssr:stedsnr" v="6915" />
	</node>
	<node id="-25309" lat="60.5419472201" lon="5.61220554772">
		<tag k="ssr:gml_id" v="GEOMETRY_2ba26130-824c-40ae-8c3c-dfa24a57b029" />
		<tag k="ssr:gml_nr" v="1" />
	</node>
	<node id="-25308" lat="60.5438500025" lon="5.61290277735">
		<tag k="ssr:gml_id" v="GEOMETRY_a3c026c4-dc9a-4717-a37b-7d619c927824" />
		<tag k="ssr:gml_nr" v="0" />
	</node>
	<node id="-25296" lat="60.5764166663" lon="5.58585832436">
		<tag k="building" v="farm_auxiliary" />
		<tag k="name" v="Gangstø" />
		<tag k="place" v="locality" />
		<tag k="ssr:date" v="2016-05-10" />
		<tag k="ssr:stedsnr" v="6591" />
	</node>
	<node id="-25295" lat="60.5751555526" lon="5.4776388961">
		<tag k="fixme" v="consider place=suburb, village or hamlet" />
		<tag k="name" v="Hosanger" />
		<tag k="place" v="neighbourhood" />
		<tag k="ssr:date" v="2016-05-10" />
		<tag k="ssr:stedsnr" v="6590" />
	</node>
	<node id="-25292" lat="60.5057027816" lon="5.43275555494">
		<tag k="alt_name" v="Valestrandfossen" />
		<tag k="name" v="Valestrandsfossen" />
		<tag k="place" v="village" />
		<tag k="ssr:date" v="2016-05-10" />
		<tag k="ssr:stedsnr" v="6507" />
	</node>
	<node id="-25287" lat="60.5363750016" lon="5.43818333614">
		<tag k="name" v="Børtveit" />
		<tag k="place" v="farm" />
		<tag k="ssr:date" v="2016-05-10" />
		<tag k="ssr:stedsnr" v="6415" />
	</node>
	<node id="-25286" lat="60.489983334" lon="5.52490555852">
		<tag k="ssr:gml_id" v="GEOMETRY_4223f7b4-529a-4fc5-82b7-3c4670cc1b4f" />
		<tag k="ssr:gml_nr" v="1" />
	</node>
	<node id="-25285" lat="60.4882333358" lon="5.52457499889">
		<tag k="ssr:gml_id" v="GEOMETRY_3340bb69-c36a-4809-932e-c55922413650" />
		<tag k="ssr:gml_nr" v="0" />
	</node>
	<node id="-25278" lat="60.466177774" lon="5.47188612013">
		<tag k="name" v="Tveitane" />
		<tag k="place" v="farm" />
		<tag k="ssr:date" v="2016-05-11" />
		<tag k="ssr:stedsnr" v="897820" />
	</node>
	<node id="-25274" lat="60.5706111126" lon="5.46706389318">
		<tag k="ssr:gml_id" v="GEOMETRY_e56fa10e-15ef-4fa2-82f0-d33a44478860" />
		<tag k="ssr:gml_nr" v="1" />
	</node>
	<node id="-25273" lat="60.5706111142" lon="5.46706666874">
		<tag k="ssr:gml_id" v="GEOMETRY_5831962c-b131-4f18-b8ce-640956d9fa65" />
		<tag k="ssr:gml_nr" v="0" />
	</node>
	<node id="-25264" lat="60.5231722196" lon="5.38443333288">
		<tag k="name" v="Kleiva" />
		<tag k="place" v="farm" />
		<tag k="ssr:date" v="2016-05-11" />
		<tag k="ssr:stedsnr" v="895784" />
	</node>
	<node id="-25253" lat="60.502908329" lon="5.6020694503">
		<tag k="historic" v="summer_mountain_farm" />
		<tag k="name" v="Hatlandsetre" />
		<tag k="place" v="locality" />
		<tag k="ssr:date" v="2016-05-11" />
		<tag k="ssr:stedsnr" v="895589" />
	</node>
	<node id="-25251" lat="60.4978777809" lon="5.6758694351">
		<tag k="historic" v="summer_mountain_farm" />
		<tag k="name" v="Ulfnessetra" />
		<tag k="place" v="locality" />
		<tag k="ssr:date" v="2016-05-11" />
		<tag k="ssr:stedsnr" v="895545" />
	</node>
	<node id="-25249" lat="60.4540722241" lon="5.61792777502">
		<tag k="name" v="Tødna" />
		<tag k="place" v="farm" />
		<tag k="ssr:date" v="2016-05-11" />
		<tag k="ssr:stedsnr" v="895518" />
	</node>
	<node id="-25240" lat="60.5463138846" lon="5.3709250016">
		<tag k="name" v="Sanddal" />
		<tag k="place" v="farm" />
		<tag k="ssr:date" v="2016-05-11" />
		<tag k="ssr:stedsnr" v="894774" />
	</node>
	<node id="-25238" lat="60.5262222243" lon="5.55113333244">
		<tag k="name" v="Kleppe" />
		<tag k="place" v="farm" />
		<tag k="ssr:date" v="2016-05-11" />
		<tag k="ssr:stedsnr" v="894704" />
	</node>
	<node id="-25232" lat="60.5041499988" lon="5.4835222234">
		<tag k="name" v="Kleiveland" />
		<tag k="place" v="farm" />
		<tag k="ssr:date" v="2016-05-11" />
		<tag k="ssr:stedsnr" v="893710" />
	</node>
	<node id="-25227" lat="60.485427779" lon="5.48145277355">
		<tag k="historic" v="summer_mountain_farm" />
		<tag k="name" v="Fjellstølen" />
		<tag k="place" v="locality" />
		<tag k="ssr:date" v="2016-05-11" />
		<tag k="ssr:stedsnr" v="893460" />
	</node>
	<node id="-25225" lat="60.4919916637" lon="5.52157776941">
		<tag k="name" v="Oppetræ" />
		<tag k="place" v="farm" />
		<tag k="ssr:date" v="2016-05-11" />
		<tag k="ssr:stedsnr" v="893448" />
	</node>
	<node id="-25224" lat="60.4947111074" lon="5.51725556354">
		<tag k="name" v="Håhaugen" />
		<tag k="place" v="farm" />
		<tag k="ssr:date" v="2016-05-11" />
		<tag k="ssr:stedsnr" v="893436" />
	</node>
	<node id="-25222" lat="60.5267527781" lon="5.49510556379">
		<tag k="name" v="Nausthaugen" />
		<tag k="place" v="farm" />
		<tag k="ssr:date" v="2016-05-11" />
		<tag k="ssr:stedsnr" v="893279" />
	</node>
	<node id="-25201" lat="60.4752583311" lon="5.53899999472">
		<tag k="name" v="Orrheii" />
		<tag k="place" v="farm" />
		<tag k="ssr:date" v="2016-05-10" />
		<tag k="ssr:stedsnr" v="409662" />
	</node>
	<node id="-25199" lat="60.5221222228" lon="5.52361111679">
		<tag k="name" v="Åstun" />
		<tag k="old_name" v="Aastun" />
		<tag k="place" v="farm" />
		<tag k="ssr:date" v="2016-05-10" />
		<tag k="ssr:stedsnr" v="409646" />
	</node>
	<node id="-25198" lat="60.5088250002" lon="5.63575000242">
		<tag k="name" v="Setertufta" />
		<tag k="place" v="farm" />
		<tag k="ssr:date" v="2016-05-10" />
		<tag k="ssr:stedsnr" v="409610" />
	</node>
	<node id="-25187" lat="60.4971638854" lon="5.6175083349">
		<tag k="historic" v="summer_mountain_farm" />
		<tag k="name" v="Espevollsetra" />
		<tag k="place" v="locality" />
		<tag k="ssr:date" v="2016-05-10" />
		<tag k="ssr:stedsnr" v="409549" />
	</node>
	<node id="-25185" lat="60.4506166677" lon="5.61819166607">
		<tag k="name" v="Skare" />
		<tag k="place" v="farm" />
		<tag k="ssr:date" v="2016-05-10" />
		<tag k="ssr:stedsnr" v="409537" />
	</node>
	<node id="-25181" lat="60.5431277737" lon="5.47084444154">
		<tag k="name" v="Geitrheim" />
		<tag k="place" v="farm" />
		<tag k="ssr:date" v="2016-05-10" />
		<tag k="ssr:stedsnr" v="409501" />
	</node>
	<node id="-25179" lat="60.4505611078" lon="5.52375000203">
		<tag k="name" v="Hola" />
		<tag k="place" v="farm" />
		<tag k="ssr:date" v="2016-05-10" />
		<tag k="ssr:stedsnr" v="409482" />
	</node>
	<node id="-25173" lat="60.6185111075" lon="5.58757500563">
		<tag k="name" v="Tysse" />
		<tag k="place" v="farm" />
		<tag k="ssr:date" v="2016-05-10" />
		<tag k="ssr:stedsnr" v="409417" />
	</node>
	<node id="-25164" lat="60.5404916678" lon="5.47788888596">
		<tag k="ssr:gml_id" v="GEOMETRY_3c6992b9-60c3-47b9-8e46-8343fc7f391d" />
		<tag k="ssr:gml_nr" v="1" />
	</node>
	<node id="-25163" lat="60.5410472206" lon="5.47859444293">
		<tag k="ssr:gml_id" v="GEOMETRY_6b196471-4d46-4d1e-b6c0-0f6a9b54326a" />
		<tag k="ssr:gml_nr" v="0" />
	</node>
	<node id="-25162" lat="60.5081194418" lon="5.42966389412">
		<tag k="fixme" v="consider place=isolated_dwelling if not a farm" />
		<tag k="name" v="Eide" />
		<tag k="place" v="farm" />
		<tag k="ssr:date" v="2016-05-10" />
		<tag k="ssr:stedsnr" v="408790" />
	</node>
	<node id="-25154" lat="60.4400388901" lon="5.58476943643">
		<tag k="name" v="Havrå" />
		<tag k="place" v="farm" />
		<tag k="ssr:date" v="2016-05-10" />
		<tag k="ssr:stedsnr" v="390318" />
	</node>
	<node id="-25152" lat="60.5010555525" lon="5.54444999424">
		<tag k="name" v="Skistad" />
		<tag k="place" v="farm" />
		<tag k="ssr:date" v="2016-05-10" />
		<tag k="ssr:stedsnr" v="370997" />
	</node>
	<node id="-25147" lat="60.5186555541" lon="5.4776138946">
		<tag k="name" v="Greve" />
		<tag k="place" v="farm" />
		<tag k="ssr:date" v="2016-05-10" />
		<tag k="ssr:stedsnr" v="370921" />
	</node>
	<node id="-25140" lat="60.6468555599" lon="5.63035000449">
		<tag k="historic" v="summer_mountain_farm" />
		<tag k="name" v="Kleivelandssætra" />
		<tag k="place" v="locality" />
		<tag k="ssr:date" v="2016-05-10" />
		<tag k="ssr:stedsnr" v="370685" />
	</node>
	<node id="-25136" lat="60.5772749977" lon="5.48184167537">
		<tag k="name" v="Øvsthus" />
		<tag k="place" v="farm" />
		<tag k="ssr:date" v="2016-05-10" />
		<tag k="ssr:stedsnr" v="370583" />
	</node>
	<node id="-25134" lat="60.6004194451" lon="5.49419999792">
		<tag k="industrial" v="factory" />
		<tag k="landuse" v="industrial" />
		<tag k="name" v="Saltverket" />
		<tag k="ssr:date" v="2016-05-10" />
		<tag k="ssr:stedsnr" v="370555" />
	</node>
	<node id="-25133" lat="60.5199749985" lon="5.44553334013">
		<tag k="ssr:gml_id" v="GEOMETRY_318f367e-a8fd-452e-922f-b05cf7331a06" />
		<tag k="ssr:gml_nr" v="1" />
	</node>
	<node id="-25132" lat="60.5199750031" lon="5.44552777856">
		<tag k="ssr:gml_id" v="GEOMETRY_0d99f81b-cf31-4674-990d-5db0d6384c74" />
		<tag k="ssr:gml_nr" v="0" />
	</node>
	<node id="-25127" lat="60.546622221" lon="5.35851667134">
		<tag k="fixme" v="consider place=hamlet" />
		<tag k="name" v="Hamre" />
		<tag k="place" v="village" />
		<tag k="ssr:date" v="2016-05-10" />
		<tag k="ssr:stedsnr" v="370464" />
	</node>
	<node id="-25115" lat="60.4375944452" lon="5.53188610845">
		<tag k="ssr:gml_id" v="GEOMETRY_843fe6fb-1f28-4d43-bd04-0706f75a27db" />
		<tag k="ssr:gml_nr" v="1" />
	</node>
	<node id="-25114" lat="60.4375916677" lon="5.53188333131">
		<tag k="ssr:gml_id" v="GEOMETRY_5242cdd0-aff2-42fb-9dac-379fec7da566" />
		<tag k="ssr:gml_nr" v="0" />
	</node>
	<node id="-25111" lat="60.4949166638" lon="5.54958611591">
		<tag k="ssr:gml_id" v="GEOMETRY_8ebf3d3d-4559-4bb3-bb44-9b2da2bb967e" />
		<tag k="ssr:gml_nr" v="1" />
	</node>
	<node id="-25110" lat="60.4949138866" lon="5.5495833325">
		<tag k="ssr:gml_id" v="GEOMETRY_38c0c0b8-9ee4-470b-a038-fc776b2d71d7" />
		<tag k="ssr:gml_nr" v="0" />
	</node>
	<node id="-25109" lat="60.4984527746" lon="5.67566943949">
		<tag k="ssr:gml_id" v="GEOMETRY_c30ec2b2-78ac-4de2-8d2b-162c744c3845" />
		<tag k="ssr:gml_nr" v="1" />
	</node>
	<node id="-25108" lat="60.4984500005" lon="5.67566666309">
		<tag k="ssr:gml_id" v="GEOMETRY_d6eb32f5-43fb-41d4-9657-e0863505368e" />
		<tag k="ssr:gml_nr" v="0" />
	</node>
	<node id="-25098" lat="60.5200861104" lon="5.42126111022">
		<tag k="name" v="Stykke" />
		<tag k="place" v="farm" />
		<tag k="ssr:date" v="2016-05-10" />
		<tag k="ssr:stedsnr" v="348810" />
	</node>
	<node id="-25095" lat="60.4713805577" lon="5.46511945251">
		<tag k="name" v="Midtteigen" />
		<tag k="place" v="farm" />
		<tag k="ssr:date" v="2016-05-10" />
		<tag k="ssr:stedsnr" v="348794" />
	</node>
	<node id="-25086" lat="60.4863250033" lon="5.54817222246">
		<tag k="name" v="Hartveit" />
		<tag k="place" v="farm" />
		<tag k="ssr:date" v="2016-05-10" />
		<tag k="ssr:stedsnr" v="348628" />
	</node>
	<node id="-25073" lat="60.4882305517" lon="5.58836111822">
		<tag k="historic" v="summer_mountain_farm" />
		<tag k="name" v="Vesetsetra" />
		<tag k="place" v="locality" />
		<tag k="ssr:date" v="2016-05-10" />
		<tag k="ssr:stedsnr" v="348546" />
	</node>
	<node id="-25068" lat="60.518947222" lon="5.43309999209">
		<tag k="name" v="Røskeland" />
		<tag k="place" v="farm" />
		<tag k="ssr:date" v="2016-05-10" />
		<tag k="ssr:stedsnr" v="348471" />
	</node>
	<node id="-25046" lat="60.4395555576" lon="5.57534999481">
		<tag k="name" v="Havrå" />
		<tag k="place" v="farm" />
		<tag k="ssr:date" v="2016-05-10" />
		<tag k="ssr:stedsnr" v="330358" />
	</node>
	<node id="-25045" lat="60.4404944476" lon="5.5739555494">
		<tag k="name" v="Havrå" />
		<tag k="place" v="farm" />
		<tag k="ssr:date" v="2016-05-10" />
		<tag k="ssr:stedsnr" v="330356" />
	</node>
	<node id="-25044" lat="60.611161113" lon="5.64127500613">
		<tag k="name" v="Tyssebotnen" />
		<tag k="place" v="farm" />
		<tag k="ssr:date" v="2016-05-10" />
		<tag k="ssr:stedsnr" v="310737" />
	</node>
	<node id="-25036" lat="60.4697944458" lon="5.4780194459">
		<tag k="ssr:gml_id" v="GEOMETRY_505145b3-823d-4d71-8806-526e4b9c9098" />
		<tag k="ssr:gml_nr" v="1" />
	</node>
	<node id="-25035" lat="60.4697916672" lon="5.47801667075">
		<tag k="ssr:gml_id" v="GEOMETRY_b3f1215b-e299-4330-8647-f9882b53a997" />
		<tag k="ssr:gml_nr" v="0" />
	</node>
	<node id="-25031" lat="60.5412388881" lon="5.56061666293">
		<tag k="ssr:gml_id" v="GEOMETRY_afaaf19d-fe41-4e68-8528-0b8e8322ff56" />
		<tag k="ssr:gml_nr" v="1" />
	</node>
	<node id="-25030" lat="60.5425833319" lon="5.56180278552">
		<tag k="ssr:gml_id" v="GEOMETRY_a7c58d28-789c-4157-aa07-62cf37a2c8bf" />
		<tag k="ssr:gml_nr" v="0" />
	</node>
	<node id="-25026" lat="60.6184416711" lon="5.58622777589">
		<tag k="name" v="Tysso" />
		<tag k="place" v="village" />
		<tag k="ssr:date" v="2016-05-10" />
		<tag k="ssr:stedsnr" v="309724" />
	</node>
	<node id="-25024" lat="60.5053583363" lon="5.42894722719">
		<tag k="fixme" v="consider place=suburb, village or hamlet" />
		<tag k="name" v="Valestrand" />
		<tag k="place" v="neighbourhood" />
		<tag k="ssr:date" v="2016-05-10" />
		<tag k="ssr:stedsnr" v="309500" />
	</node>
	<node id="-25023" lat="60.5584166687" lon="5.42219165866">
		<tag k="name" v="Myrane" />
		<tag k="place" v="farm" />
		<tag k="ssr:date" v="2016-05-10" />
		<tag k="ssr:stedsnr" v="309480" />
	</node>
	<node id="-25017" lat="60.5875166697" lon="5.51480555084">
		<tag k="historic" v="summer_mountain_farm" />
		<tag k="name" v="Fotlandssætra" />
		<tag k="place" v="locality" />
		<tag k="ssr:date" v="2016-05-10" />
		<tag k="ssr:stedsnr" v="309562" />
	</node>
	<node id="-25016" lat="60.5160353325" lon="5.45098782439">
		<tag k="fixme" v="consider place=farm" />
		<tag k="name" v="Småland" />
		<tag k="place" v="hamlet" />
		<tag k="ssr:date" v="2016-06-06" />
		<tag k="ssr:stedsnr" v="309516" />
	</node>
	<node id="-25015" lat="60.4543111111" lon="5.52822221523">
		<tag k="ssr:gml_id" v="GEOMETRY_7d8a8789-66d9-408e-b311-05bdf5bb9fff" />
		<tag k="ssr:gml_nr" v="2" />
	</node>
	<node id="-25014" lat="60.4543111126" lon="5.52823054851">
		<tag k="ssr:gml_id" v="GEOMETRY_c4e8097d-53fd-4d94-b97b-35b46db82c58" />
		<tag k="ssr:gml_nr" v="1" />
	</node>
	<node id="-25013" lat="60.4543138886" lon="5.52822499344">
		<tag k="ssr:gml_id" v="GEOMETRY_cccec332-267a-4105-a86b-3256b212e746" />
		<tag k="ssr:gml_nr" v="0" />
	</node>
	<node id="-25012" lat="60.4808888857" lon="5.55626667582">
		<tag k="ssr:gml_id" v="GEOMETRY_cd781aed-ec46-4dab-9622-b480665261f6" />
		<tag k="ssr:gml_nr" v="1" />
	</node>
	<node id="-25011" lat="60.4808861087" lon="5.55626389299">
		<tag k="ssr:gml_id" v="GEOMETRY_a95a77ac-129b-4b35-8838-f86de34044c7" />
		<tag k="ssr:gml_nr" v="0" />
	</node>
	<node id="-25010" lat="60.4505666673" lon="5.52076389317">
		<tag k="ssr:gml_id" v="GEOMETRY_d2602b28-bff8-4923-a966-6b6b8f2b13f8" />
		<tag k="ssr:gml_nr" v="1" />
	</node>
	<node id="-25009" lat="60.450569445" lon="5.52076667043">
		<tag k="ssr:gml_id" v="GEOMETRY_81125525-0ae4-4000-9a8e-4d35ce57f1fc" />
		<tag k="ssr:gml_nr" v="0" />
	</node>
	<node id="-25008" lat="60.4484138848" lon="5.57311667529">
		<tag k="ssr:gml_id" v="GEOMETRY_a6717252-67b6-46fd-b7d7-a6dd0402a3ce" />
		<tag k="ssr:gml_nr" v="1" />
	</node>
	<node id="-25007" lat="60.4484111081" lon="5.57311389371">
		<tag k="ssr:gml_id" v="GEOMETRY_7c868f0e-4e60-42d0-8913-a7833f40dfd3" />
		<tag k="ssr:gml_nr" v="0" />
	</node>
	<node id="-24995" lat="60.4810055583" lon="5.5609499921">
		<tag k="name" v="Sprengjakvilet" />
		<tag k="place" v="farm" />
		<tag k="ssr:date" v="2016-05-10" />
		<tag k="ssr:stedsnr" v="288859" />
	</node>
	<node id="-24985" lat="60.5056944429" lon="5.53190556468">
		<tag k="name" v="Moldkvilet" />
		<tag k="place" v="farm" />
		<tag k="ssr:date" v="2016-05-10" />
		<tag k="ssr:stedsnr" v="288723" />
	</node>
	<node id="-24983" lat="60.5724749981" lon="5.47884999246">
		<tag k="name" v="Hole" />
		<tag k="place" v="farm" />
		<tag k="ssr:date" v="2016-05-10" />
		<tag k="ssr:stedsnr" v="288710" />
	</node>
	<node id="-24977" lat="60.4906555512" lon="5.55408888485">
		<tag k="historic" v="summer_mountain_farm" />
		<tag k="name" v="Stølen" />
		<tag k="place" v="locality" />
		<tag k="ssr:date" v="2016-05-10" />
		<tag k="ssr:stedsnr" v="288590" />
	</node>
	<node id="-24966" lat="60.4529138889" lon="5.53755833449">
		<tag k="name" v="Kalvtræet" />
		<tag k="place" v="farm" />
		<tag k="ssr:date" v="2016-05-10" />
		<tag k="ssr:stedsnr" v="288430" />
	</node>
	<node id="-24959" lat="60.6149833344" lon="5.56488610248">
		<tag k="name" v="Raudberg" />
		<tag k="place" v="farm" />
		<tag k="ssr:date" v="2016-05-10" />
		<tag k="ssr:stedsnr" v="287827" />
	</node>
	<node id="-24953" lat="60.5262083362" lon="5.50442221816">
		<tag k="name" v="Træet" />
		<tag k="place" v="farm" />
		<tag k="ssr:date" v="2016-05-10" />
		<tag k="ssr:stedsnr" v="287704" />
	</node>
	<node id="-24950" lat="60.4611805582" lon="5.55140278185">
		<tag k="historic" v="summer_mountain_farm" />
		<tag k="name" v="Høgstallen" />
		<tag k="place" v="locality" />
		<tag k="ssr:date" v="2016-05-10" />
		<tag k="ssr:stedsnr" v="287686" />
	</node>
	<node id="-26893" lat="60.5543314494" lon="5.43330007532">
		<tag k="name" v="Raknes" />
		<tag k="place" v="hamlet" />
		<tag k="ssr:date" v="2017-10-05" />
		<tag k="ssr:stedsnr" v="979093" />
	</node>
	<node id="-26891" lat="60.4799947384" lon="5.67312136377">
		<tag k="fixme" v="consider place=farm" />
		<tag k="name" v="Kyrkjebruvik" />
		<tag k="place" v="hamlet" />
		<tag k="ssr:date" v="2016-12-20" />
		<tag k="ssr:stedsnr" v="973454" />
	</node>
	<node id="-26868" lat="60.4804638874" lon="5.5599388818">
		<tag k="name" v="Skjerping" />
		<tag k="place" v="farm" />
		<tag k="ssr:date" v="2016-05-11" />
		<tag k="ssr:stedsnr" v="955864" />
	</node>
	<node id="-26852" lat="60.5764000006" lon="5.48146111103">
		<tag k="name" v="Øvsthus" />
		<tag k="place" v="farm" />
		<tag k="ssr:date" v="2016-05-11" />
		<tag k="ssr:stedsnr" v="955740" />
	</node>
	<node id="-26840" lat="60.5105194432" lon="5.63221388314">
		<tag k="historic" v="summer_mountain_farm" />
		<tag k="name" v="Tverrastøl" />
		<tag k="place" v="locality" />
		<tag k="ssr:date" v="2016-05-11" />
		<tag k="ssr:stedsnr" v="955626" />
	</node>
	<node id="-26821" lat="60.5452138927" lon="5.54890554719">
		<tag k="name" v="Kletten" />
		<tag k="place" v="farm" />
		<tag k="ssr:date" v="2016-05-11" />
		<tag k="ssr:stedsnr" v="955517" />
	</node>
	<node id="-26815" lat="60.5434694406" lon="5.61411110375">
		<tag k="name" v="Ormanipa" />
		<tag k="place" v="farm" />
		<tag k="ssr:date" v="2016-05-11" />
		<tag k="ssr:stedsnr" v="955437" />
	</node>
	<node id="-26810" lat="60.5700555514" lon="5.46794999225">
		<tag k="fixme" v="consider place=farm" />
		<tag k="name" v="Helldal" />
		<tag k="place" v="hamlet" />
		<tag k="ssr:date" v="2016-05-11" />
		<tag k="ssr:stedsnr" v="954835" />
	</node>
	<node id="-26797" lat="60.5390416656" lon="5.50148889377">
		<tag k="ssr:gml_id" v="GEOMETRY_f05b80eb-43a0-4119-8ea1-8c1f65e7746c" />
		<tag k="ssr:gml_nr" v="2" />
	</node>
	<node id="-26796" lat="60.5396611088" lon="5.5014416617">
		<tag k="ssr:gml_id" v="GEOMETRY_86a24f1f-963f-40f8-8f0b-21fd7ac9d9a6" />
		<tag k="ssr:gml_nr" v="1" />
	</node>
	<node id="-26795" lat="60.5390388875" lon="5.50148611086">
		<tag k="ssr:gml_id" v="GEOMETRY_ff4595a9-f53f-4c2a-a237-c6cf2e1c57e5" />
		<tag k="ssr:gml_nr" v="0" />
	</node>
	<node id="-26794" lat="60.5006861081" lon="5.50578888846">
		<tag k="name" v="Vevle" />
		<tag k="place" v="farm" />
		<tag k="ssr:date" v="2016-05-11" />
		<tag k="ssr:stedsnr" v="917016" />
	</node>
	<node id="-26793" lat="60.5036138896" lon="5.66658055942">
		<tag k="historic" v="summer_mountain_farm" />
		<tag k="name" v="Olsnessætra" />
		<tag k="place" v="locality" />
		<tag k="ssr:date" v="2016-05-11" />
		<tag k="ssr:stedsnr" v="916995" />
	</node>
	<node id="-26790" lat="60.4814916687" lon="5.53615555993">
		<tag k="ssr:gml_id" v="GEOMETRY_83c2dd43-f120-440e-bb63-659fa02f8f0a" />
		<tag k="ssr:gml_nr" v="1" />
	</node>
	<node id="-26789" lat="60.4814888913" lon="5.53615277879">
		<tag k="ssr:gml_id" v="GEOMETRY_ea275867-733d-4939-9f39-30fcd114e5b8" />
		<tag k="ssr:gml_nr" v="0" />
	</node>
	<node id="-26777" lat="60.5488527812" lon="5.53522499296">
		<tag k="name" v="Langeland" />
		<tag k="place" v="farm" />
		<tag k="ssr:date" v="2016-05-11" />
		<tag k="ssr:stedsnr" v="916920" />
	</node>
	<node id="-26776" lat="60.605774999" lon="5.50476943636">
		<tag k="alt_name" v="Bernes, ytre" />
		<tag k="name" v="Ytre Bernes" />
		<tag k="place" v="farm" />
		<tag k="ssr:date" v="2016-05-11" />
		<tag k="ssr:stedsnr" v="916763" />
	</node>
	<node id="-26772" lat="60.6563500031" lon="5.61351389638">
		<tag k="name" v="Stokken" />
		<tag k="place" v="farm" />
		<tag k="ssr:date" v="2016-05-11" />
		<tag k="ssr:stedsnr" v="916675" />
	</node>
	<node id="-26766" lat="60.5107499994" lon="5.43212499525">
		<tag k="alt_name" v="Valestrand, nordre" />
		<tag k="name" v="Nordre Valestrand" />
		<tag k="place" v="farm" />
		<tag k="ssr:date" v="2016-05-11" />
		<tag k="ssr:stedsnr" v="916483" />
	</node>
	<node id="-26764" lat="60.4992499976" lon="5.54956666177">
		<tag k="name" v="Gjerstad" />
		<tag k="place" v="farm" />
		<tag k="ssr:date" v="2016-05-11" />
		<tag k="ssr:stedsnr" v="915996" />
	</node>
	<node id="-26763" lat="60.4910111122" lon="5.50426111931">
		<tag k="ssr:gml_id" v="GEOMETRY_d8176afa-25d7-42b9-8ae4-212595f712a3" />
		<tag k="ssr:gml_nr" v="1" />
	</node>
	<node id="-26762" lat="60.4910083342" lon="5.50425834014">
		<tag k="ssr:gml_id" v="GEOMETRY_235a32f9-b06d-4eb6-b20d-525d6ecad9a3" />
		<tag k="ssr:gml_nr" v="0" />
	</node>
	<node id="-26761" lat="60.4899083375" lon="5.55299443633">
		<tag k="ssr:gml_id" v="GEOMETRY_9d5a49b1-9f38-49ab-8e40-088e50528741" />
		<tag k="ssr:gml_nr" v="2" />
	</node>
	<node id="-26760" lat="60.4888444471" lon="5.55460277937">
		<tag k="ssr:gml_id" v="GEOMETRY_430b47d5-6c05-4c27-a858-2ff1dd1bb2bc" />
		<tag k="ssr:gml_nr" v="1" />
	</node>
	<node id="-26759" lat="60.48884167" lon="5.55459999603">
		<tag k="ssr:gml_id" v="GEOMETRY_1ec53663-455c-41de-a5cf-411ace5a0eba" />
		<tag k="ssr:gml_nr" v="0" />
	</node>
	<node id="-26750" lat="60.4396999985" lon="5.57533056015">
		<tag k="name" v="Havrå" />
		<tag k="place" v="farm" />
		<tag k="ssr:date" v="2016-05-11" />
		<tag k="ssr:stedsnr" v="876329" />
	</node>
	<node id="-26747" lat="60.547538888" lon="5.52860000626">
		<tag k="name" v="Haustveit" />
		<tag k="place" v="farm" />
		<tag k="ssr:date" v="2016-05-11" />
		<tag k="ssr:stedsnr" v="856923" />
	</node>
	<node id="-26746" lat="60.6047611115" lon="5.54398054821">
		<tag k="name" v="Haugo" />
		<tag k="place" v="farm" />
		<tag k="ssr:date" v="2016-05-11" />
		<tag k="ssr:stedsnr" v="856746" />
	</node>
	<node id="-26743" lat="60.5529000024" lon="5.54383056044">
		<tag k="ssr:gml_id" v="GEOMETRY_a8b45025-3793-47fe-97b9-1253d457c617" />
		<tag k="ssr:gml_nr" v="1" />
	</node>
	<node id="-26742" lat="60.5528944483" lon="5.54382500319">
		<tag k="ssr:gml_id" v="GEOMETRY_7734b61d-bec9-4aa5-a84a-65892eceed5f" />
		<tag k="ssr:gml_nr" v="0" />
	</node>
	<node id="-26738" lat="60.5141750021" lon="5.43271111754">
		<tag k="fixme" v="consider place=farm" />
		<tag k="loc_name" v="Ellvika" />
		<tag k="name" v="Ellviki" />
		<tag k="place" v="hamlet" />
		<tag k="ssr:date" v="2016-05-11" />
		<tag k="ssr:stedsnr" v="856536" />
	</node>
	<node id="-26735" lat="60.5790138879" lon="5.46192499868">
		<tag k="name" v="Hoshovde" />
		<tag k="place" v="farm" />
		<tag k="ssr:date" v="2016-05-11" />
		<tag k="ssr:stedsnr" v="856068" />
	</node>
	<node id="-26734" lat="60.5003694438" lon="5.42599167204">
		<tag k="fixme" v="consider place=farm" />
		<tag k="name" v="Nordre Reistad" />
		<tag k="place" v="hamlet" />
		<tag k="ssr:date" v="2016-05-11" />
		<tag k="ssr:stedsnr" v="856042" />
	</node>
	<node id="-26733" lat="60.4977750039" lon="5.51186388021">
		<tag k="ssr:gml_id" v="GEOMETRY_ab306a45-2a26-4c15-a051-75c204fdd5d4" />
		<tag k="ssr:gml_nr" v="2" />
	</node>
	<node id="-26732" lat="60.4977750034" lon="5.51186111085">
		<tag k="ssr:gml_id" v="GEOMETRY_c1e243b2-677a-4ef2-84cc-ff96956aec20" />
		<tag k="ssr:gml_nr" v="1" />
	</node>
	<node id="-26731" lat="60.4977722255" lon="5.51185833046">
		<tag k="ssr:gml_id" v="GEOMETRY_ef604947-890d-4a7c-8e63-a747ff1275d6" />
		<tag k="ssr:gml_nr" v="0" />
	</node>
	<node id="-26730" lat="60.4965138924" lon="5.56896666515">
		<tag k="ssr:gml_id" v="GEOMETRY_0c3a75c9-7ac4-4458-a9c5-9c8ac512183a" />
		<tag k="ssr:gml_nr" v="1" />
	</node>
	<node id="-26729" lat="60.4965111067" lon="5.56896388089">
		<tag k="ssr:gml_id" v="GEOMETRY_67516e1e-5613-4ece-b69e-e44ce8dd5199" />
		<tag k="ssr:gml_nr" v="0" />
	</node>
	<node id="-26726" lat="60.4962972225" lon="5.60889166089">
		<tag k="ssr:gml_id" v="GEOMETRY_035b1935-d6c7-4b75-bd14-b74b909d69ab" />
		<tag k="ssr:gml_nr" v="1" />
	</node>
	<node id="-26725" lat="60.4962944471" lon="5.60888889042">
		<tag k="ssr:gml_id" v="GEOMETRY_e9b92732-9c0c-47d6-a32f-354dd65769ca" />
		<tag k="ssr:gml_nr" v="0" />
	</node>
	<node id="-26715" lat="60.5896361114" lon="5.52406111676">
		<tag k="name" v="Fotlandsvåg" />
		<tag k="place" v="village" />
		<tag k="ssr:date" v="2016-05-11" />
		<tag k="ssr:stedsnr" v="855512" />
	</node>
	<node id="-26712" lat="60.5392388863" lon="5.44107777741">
		<tag k="name" v="Tirevoll" />
		<tag k="place" v="farm" />
		<tag k="ssr:date" v="2016-05-11" />
		<tag k="ssr:stedsnr" v="855378" />
	</node>
	<node id="-26711" lat="60.5243305573" lon="5.36448333997">
		<tag k="name" v="Angskori" />
		<tag k="place" v="farm" />
		<tag k="ssr:date" v="2016-05-11" />
		<tag k="ssr:stedsnr" v="855372" />
	</node>
	<node id="-26710" lat="60.4398638907" lon="5.56496111678">
		<tag k="ssr:gml_id" v="GEOMETRY_190b6a4b-19d2-4a0f-8616-8b1a9106041e" />
		<tag k="ssr:gml_nr" v="1" />
	</node>
	<node id="-26709" lat="60.4398611139" lon="5.5649583366">
		<tag k="ssr:gml_id" v="GEOMETRY_e6fd2cc2-603e-491f-aa36-1684729a0aeb" />
		<tag k="ssr:gml_nr" v="0" />
	</node>
	<node id="-26708" lat="60.4440861097" lon="5.6102833395">
		<tag k="ssr:gml_id" v="GEOMETRY_23a7e369-c5f3-449e-8765-7a41048d849f" />
		<tag k="ssr:gml_nr" v="3" />
	</node>
	<node id="-26707" lat="60.4444416673" lon="5.60800277775">
		<tag k="ssr:gml_id" v="GEOMETRY_fb1e6d52-331c-426c-830c-a8e36259385b" />
		<tag k="ssr:gml_nr" v="2" />
	</node>
	<node id="-26706" lat="60.4440805569" lon="5.61028055364">
		<tag k="ssr:gml_id" v="GEOMETRY_26cf153c-c940-4d89-b010-cfb7e03687ac" />
		<tag k="ssr:gml_nr" v="1" />
	</node>
	<node id="-26705" lat="60.444077781" lon="5.61027776921">
		<tag k="ssr:gml_id" v="GEOMETRY_b72b9347-3759-4c2c-94fb-d34361888e4b" />
		<tag k="ssr:gml_nr" v="0" />
	</node>
	<node id="-26704" lat="60.4474138925" lon="5.50731388344">
		<tag k="ssr:gml_id" v="GEOMETRY_e765f660-0588-46d4-bb6d-e01c6df886fc" />
		<tag k="ssr:gml_nr" v="2" />
	</node>
	<node id="-26703" lat="60.4474138846" lon="5.50731666761">
		<tag k="ssr:gml_id" v="GEOMETRY_b77ddffc-1feb-4c08-91f8-7f4fdfbe200d" />
		<tag k="ssr:gml_nr" v="1" />
	</node>
	<node id="-26702" lat="60.4474111156" lon="5.50731389081">
		<tag k="ssr:gml_id" v="GEOMETRY_56f64fde-e018-49b9-9721-bad9b60f7b21" />
		<tag k="ssr:gml_nr" v="0" />
	</node>
	<node id="-26701" lat="60.5607083379" lon="5.46629723006">
		<tag k="name" v="Heldal" />
		<tag k="place" v="farm" />
		<tag k="ssr:date" v="2016-05-11" />
		<tag k="ssr:stedsnr" v="837019" />
	</node>
	<node id="-26693" lat="60.522800003" lon="5.4673138915">
		<tag k="name" v="Grøve" />
		<tag k="place" v="farm" />
		<tag k="ssr:date" v="2016-05-11" />
		<tag k="ssr:stedsnr" v="834841" />
	</node>
	<node id="-26687" lat="60.5330777796" lon="5.40368334194">
		<tag k="name" v="Tveiten" />
		<tag k="place" v="farm" />
		<tag k="ssr:date" v="2016-05-11" />
		<tag k="ssr:stedsnr" v="834795" />
	</node>
	<node id="-26679" lat="60.5168194412" lon="5.57893332914">
		<tag k="historic" v="summer_mountain_farm" />
		<tag k="name" v="Svastølen" />
		<tag k="place" v="locality" />
		<tag k="ssr:date" v="2016-05-11" />
		<tag k="ssr:stedsnr" v="834731" />
	</node>
	<node id="-26677" lat="60.5115416699" lon="5.54992499964">
		<tag k="name" v="Anntun" />
		<tag k="place" v="farm" />
		<tag k="ssr:date" v="2016-05-11" />
		<tag k="ssr:stedsnr" v="834728" />
	</node>
	<node id="-26668" lat="60.4806027784" lon="5.55644444135">
		<tag k="name" v="Litun" />
		<tag k="place" v="farm" />
		<tag k="ssr:date" v="2016-05-11" />
		<tag k="ssr:stedsnr" v="834651" />
	</node>
	<node id="-26655" lat="60.4454361068" lon="5.60690832536">
		<tag k="name" v="Garsenden" />
		<tag k="place" v="farm" />
		<tag k="ssr:date" v="2016-05-11" />
		<tag k="ssr:stedsnr" v="834553" />
	</node>
	<node id="-26654" lat="60.5964777732" lon="5.55060555033">
		<tag k="name" v="Austre Kleppe" />
		<tag k="place" v="farm" />
		<tag k="ssr:date" v="2016-05-11" />
		<tag k="ssr:stedsnr" v="834544" />
	</node>
	<node id="-26653" lat="60.5968138885" lon="5.53559721818">
		<tag k="name" v="Byrkjeland" />
		<tag k="place" v="farm" />
		<tag k="ssr:date" v="2016-05-11" />
		<tag k="ssr:stedsnr" v="834541" />
	</node>
	<node id="-26627" lat="60.5081750024" lon="5.64963332776">
		<tag k="name" v="Storsøyli" />
		<tag k="place" v="farm" />
		<tag k="ssr:date" v="2016-05-11" />
		<tag k="ssr:stedsnr" v="795996" />
	</node>
	<way id="-6141">
		<tag k="fixme" v="consider place=farm" />
		<tag k="name" v="Grønås" />
		<tag k="place" v="hamlet" />
		<tag k="ssr:date" v="2016-05-11" />
		<tag k="ssr:stedsnr" v="917878" />
		<nd ref="-26795" />
		<nd ref="-26796" />
		<nd ref="-26797" />
	</way>
	<way id="-6139">
		<tag k="name" v="Espevoll" />
		<tag k="place" v="farm" />
		<tag k="ssr:date" v="2016-05-11" />
		<tag k="ssr:stedsnr" v="916964" />
		<nd ref="-26789" />
		<nd ref="-26790" />
	</way>
	<way id="-6133">
		<tag k="name" v="Koppen" />
		<tag k="place" v="farm" />
		<tag k="ssr:date" v="2016-05-11" />
		<tag k="ssr:stedsnr" v="915990" />
		<nd ref="-26762" />
		<nd ref="-26763" />
	</way>
	<way id="-6132">
		<tag k="name" v="Hartveit" />
		<tag k="place" v="farm" />
		<tag k="ssr:date" v="2016-05-11" />
		<tag k="ssr:stedsnr" v="915988" />
		<nd ref="-26759" />
		<nd ref="-26760" />
		<nd ref="-26761" />
	</way>
	<way id="-6127">
		<tag k="alt_name" v="Myking" />
		<tag k="name" v="Nordmyking" />
		<tag k="place" v="farm" />
		<tag k="ssr:date" v="2016-05-11" />
		<tag k="ssr:stedsnr" v="856633" />
		<nd ref="-26742" />
		<nd ref="-26743" />
	</way>
	<way id="-6125">
		<tag k="name" v="Vevle" />
		<tag k="place" v="farm" />
		<tag k="ssr:date" v="2016-05-11" />
		<tag k="ssr:stedsnr" v="855999" />
		<nd ref="-26731" />
		<nd ref="-26732" />
		<nd ref="-26733" />
	</way>
	<way id="-6124">
		<tag k="name" v="Hovdo" />
		<tag k="place" v="farm" />
		<tag k="ssr:date" v="2016-05-11" />
		<tag k="ssr:stedsnr" v="855992" />
		<nd ref="-26729" />
		<nd ref="-26730" />
	</way>
	<way id="-6122">
		<tag k="historic" v="summer_mountain_farm" />
		<tag k="name" v="Rongvesætra" />
		<tag k="place" v="locality" />
		<tag k="ssr:date" v="2016-05-11" />
		<tag k="ssr:stedsnr" v="855983" />
		<nd ref="-26725" />
		<nd ref="-26726" />
	</way>
	<way id="-6119">
		<tag k="name" v="Blom" />
		<tag k="place" v="farm" />
		<tag k="ssr:date" v="2016-05-11" />
		<tag k="ssr:stedsnr" v="855032" />
		<nd ref="-26709" />
		<nd ref="-26710" />
	</way>
	<way id="-6118">
		<tag k="alt_name" v="Stokke" />
		<tag k="name" v="Stokko" />
		<tag k="place" v="farm" />
		<tag k="ssr:date" v="2016-05-11" />
		<tag k="ssr:stedsnr" v="855027" />
		<nd ref="-26705" />
		<nd ref="-26706" />
		<nd ref="-26707" />
		<nd ref="-26708" />
	</way>
	<way id="-6117">
		<tag k="alt_name" v="Åseim" />
		<tag k="name" v="Åsheim" />
		<tag k="place" v="farm" />
		<tag k="ssr:date" v="2016-05-11" />
		<tag k="ssr:stedsnr" v="855016" />
		<nd ref="-26702" />
		<nd ref="-26703" />
		<nd ref="-26704" />
	</way>
	<way id="-6114">
		<tag k="alt_name" v="Byseim, s;Søre Byseim" />
		<tag k="name" v="Søre Bysheim" />
		<tag k="place" v="farm" />
		<tag k="ssr:date" v="2017-03-06" />
		<tag k="ssr:stedsnr" v="795468" />
		<nd ref="-26609" />
		<nd ref="-26610" />
		<nd ref="-26611" />
	</way>
	<way id="-6113">
		<tag k="name" v="Eikeland" />
		<tag k="place" v="farm" />
		<tag k="ssr:date" v="2016-05-11" />
		<tag k="ssr:stedsnr" v="795440" />
		<nd ref="-26605" />
		<nd ref="-26606" />
	</way>
	<way id="-6110">
		<tag k="alt_name" v="Bruvik, yt" />
		<tag k="name" v="Ytre Bruvik" />
		<tag k="place" v="farm" />
		<tag k="ssr:date" v="2016-05-11" />
		<tag k="ssr:stedsnr" v="794950" />
		<nd ref="-26595" />
		<nd ref="-26596" />
	</way>
	<way id="-6108">
		<tag k="name" v="Vik" />
		<tag k="place" v="village" />
		<tag k="ssr:date" v="2016-05-11" />
		<tag k="ssr:stedsnr" v="794019" />
		<nd ref="-26590" />
		<nd ref="-26591" />
	</way>
	<way id="-6106">
		<tag k="name" v="Haus" />
		<tag k="place" v="village" />
		<tag k="ssr:date" v="2016-05-11" />
		<tag k="ssr:stedsnr" v="794004" />
		<nd ref="-26585" />
		<nd ref="-26586" />
	</way>
	<way id="-6105">
		<tag k="name" v="Mjelda" />
		<tag k="place" v="hamlet" />
		<tag k="ssr:date" v="2016-05-11" />
		<tag k="ssr:stedsnr" v="788239" />
		<nd ref="-26583" />
		<nd ref="-26584" />
	</way>
	<way id="-6104">
		<tag k="loc_name" v="Nedsterinden" />
		<tag k="name" v="Nesterinden" />
		<tag k="place" v="farm" />
		<tag k="ssr:date" v="2016-05-11" />
		<tag k="ssr:stedsnr" v="773487" />
		<nd ref="-26541" />
		<nd ref="-26542" />
	</way>
	<way id="-6103">
		<tag k="name" v="Tjelland" />
		<tag k="place" v="farm" />
		<tag k="ssr:date" v="2016-05-11" />
		<tag k="ssr:stedsnr" v="734972" />
		<nd ref="-26521" />
		<nd ref="-26522" />
		<nd ref="-26523" />
	</way>
	<way id="-6101">
		<tag k="alt_name" v="Ulsnes" />
		<tag k="name" v="Neset" />
		<tag k="place" v="farm" />
		<tag k="ssr:date" v="2016-05-11" />
		<tag k="ssr:stedsnr" v="734959" />
		<nd ref="-26517" />
		<nd ref="-26518" />
	</way>
	<way id="-6100">
		<tag k="name" v="Rivenes" />
		<tag k="place" v="farm" />
		<tag k="ssr:date" v="2016-05-11" />
		<tag k="ssr:stedsnr" v="734948" />
		<nd ref="-26515" />
		<nd ref="-26516" />
	</way>
	<way id="-6096">
		<tag k="name" v="Fitje" />
		<tag k="place" v="farm" />
		<tag k="ssr:date" v="2016-05-11" />
		<tag k="ssr:stedsnr" v="734870" />
		<nd ref="-26505" />
		<nd ref="-26506" />
	</way>
	<way id="-6094">
		<tag k="alt_name" v="Herland" />
		<tag k="fixme" v="consider place=farm" />
		<tag k="name" v="Helland" />
		<tag k="place" v="hamlet" />
		<tag k="ssr:date" v="2016-05-11" />
		<tag k="ssr:stedsnr" v="734586" />
		<nd ref="-26492" />
		<nd ref="-26493" />
		<nd ref="-26494" />
	</way>
	<way id="-6093">
		<tag k="name" v="Kleppe" />
		<tag k="place" v="farm" />
		<tag k="ssr:date" v="2016-05-11" />
		<tag k="ssr:stedsnr" v="734577" />
		<nd ref="-26490" />
		<nd ref="-26491" />
	</way>
	<way id="-6092">
		<tag k="name" v="Horsås" />
		<tag k="place" v="farm" />
		<tag k="ssr:date" v="2016-05-11" />
		<tag k="ssr:stedsnr" v="734420" />
		<nd ref="-26483" />
		<nd ref="-26484" />
	</way>
	<way id="-6077">
		<tag k="fixme" v="consider place=hamlet" />
		<tag k="name" v="Votlo" />
		<tag k="place" v="village" />
		<tag k="ssr:date" v="2016-05-10" />
		<tag k="ssr:stedsnr" v="673966" />
		<nd ref="-26371" />
		<nd ref="-26372" />
		<nd ref="-26373" />
		<nd ref="-26374" />
	</way>
	<way id="-6076">
		<tag k="alt_name" v="Rolland" />
		<tag k="fixme" v="consider place=farm" />
		<tag k="name" v="Rødland" />
		<tag k="place" v="hamlet" />
		<tag k="ssr:date" v="2016-05-10" />
		<tag k="ssr:stedsnr" v="673965" />
		<nd ref="-26367" />
		<nd ref="-26368" />
		<nd ref="-26369" />
		<nd ref="-26370" />
	</way>
	<way id="-6070">
		<tag k="name" v="Daltveit" />
		<tag k="place" v="farm" />
		<tag k="ssr:date" v="2016-05-10" />
		<tag k="ssr:stedsnr" v="672995" />
		<nd ref="-26337" />
		<nd ref="-26338" />
	</way>
	<way id="-6069">
		<tag k="name" v="Kleivi" />
		<tag k="place" v="farm" />
		<tag k="ssr:date" v="2016-05-10" />
		<tag k="ssr:stedsnr" v="672994" />
		<nd ref="-26335" />
		<nd ref="-26336" />
	</way>
	<way id="-6068">
		<tag k="name" v="Hundhammer" />
		<tag k="place" v="farm" />
		<tag k="ssr:date" v="2016-05-10" />
		<tag k="ssr:stedsnr" v="672043" />
		<nd ref="-26333" />
		<nd ref="-26334" />
	</way>
	<way id="-6064">
		<tag k="name" v="Kvisti" />
		<tag k="place" v="farm" />
		<tag k="ssr:date" v="2016-05-10" />
		<tag k="ssr:stedsnr" v="627466" />
		<nd ref="-26268" />
		<nd ref="-26269" />
	</way>
	<way id="-6063">
		<tag k="alt_name" v="Byrkeland" />
		<tag k="name" v="Byrkjeland" />
		<tag k="place" v="farm" />
		<tag k="ssr:date" v="2016-05-10" />
		<tag k="ssr:stedsnr" v="614000" />
		<nd ref="-26266" />
		<nd ref="-26267" />
	</way>
	<way id="-6061">
		<tag k="name" v="Rongve" />
		<tag k="place" v="farm" />
		<tag k="ssr:date" v="2016-05-10" />
		<tag k="ssr:stedsnr" v="612990" />
		<nd ref="-26251" />
		<nd ref="-26252" />
	</way>
	<way id="-6059">
		<tag k="name" v="Vedo" />
		<tag k="place" v="farm" />
		<tag k="ssr:date" v="2016-05-10" />
		<tag k="ssr:stedsnr" v="612976" />
		<nd ref="-26246" />
		<nd ref="-26247" />
	</way>
	<way id="-6058">
		<tag k="alt_name" v="Reveimssætra" />
		<tag k="historic" v="summer_mountain_farm" />
		<tag k="name" v="Revheimssætra" />
		<tag k="place" v="locality" />
		<tag k="ssr:date" v="2016-05-10" />
		<tag k="ssr:stedsnr" v="612967" />
		<nd ref="-26244" />
		<nd ref="-26245" />
	</way>
	<way id="-6057">
		<tag k="name" v="Løtveit" />
		<tag k="place" v="farm" />
		<tag k="ssr:date" v="2016-05-10" />
		<tag k="ssr:stedsnr" v="612961" />
		<nd ref="-26241" />
		<nd ref="-26242" />
	</way>
	<way id="-6056">
		<tag k="name" v="Njåstad" />
		<tag k="place" v="farm" />
		<tag k="ssr:date" v="2016-05-10" />
		<tag k="ssr:stedsnr" v="612928" />
		<nd ref="-26238" />
		<nd ref="-26239" />
	</way>
	<way id="-6054">
		<tag k="fixme" v="consider place=farm" />
		<tag k="loc_name" v="Vemmalvika" />
		<tag k="name" v="Vemmalviki" />
		<tag k="place" v="hamlet" />
		<tag k="ssr:date" v="2016-05-10" />
		<tag k="ssr:stedsnr" v="611040" />
		<nd ref="-26219" />
		<nd ref="-26220" />
	</way>
	<way id="-6046">
		<tag k="fixme" v="consider place=farm" />
		<tag k="name" v="Røskeland" />
		<tag k="place" v="hamlet" />
		<tag k="ssr:date" v="2016-05-10" />
		<tag k="ssr:stedsnr" v="552560" />
		<nd ref="-26119" />
		<nd ref="-26120" />
	</way>
	<way id="-6045">
		<tag k="name" v="Kvamme" />
		<tag k="place" v="farm" />
		<tag k="ssr:date" v="2016-05-10" />
		<tag k="ssr:stedsnr" v="552552" />
		<nd ref="-26117" />
		<nd ref="-26118" />
	</way>
	<way id="-6042">
		<tag k="name" v="Hannisdalen" />
		<tag k="place" v="farm" />
		<tag k="ssr:date" v="2016-05-10" />
		<tag k="ssr:stedsnr" v="551978" />
		<nd ref="-26106" />
		<nd ref="-26107" />
		<nd ref="-26108" />
	</way>
	<way id="-6040">
		<tag k="fixme" v="consider place=farm" />
		<tag k="name" v="Havrå" />
		<tag k="place" v="hamlet" />
		<tag k="ssr:date" v="2016-05-10" />
		<tag k="ssr:stedsnr" v="551035" />
		<nd ref="-26094" />
		<nd ref="-26095" />
		<nd ref="-26096" />
		<nd ref="-26097" />
	</way>
	<way id="-6038">
		<tag k="historic" v="summer_mountain_farm" />
		<tag k="name" v="Kausstølen" />
		<tag k="place" v="locality" />
		<tag k="ssr:date" v="2016-05-10" />
		<tag k="ssr:stedsnr" v="551002" />
		<nd ref="-26090" />
		<nd ref="-26091" />
	</way>
	<way id="-6037">
		<tag k="name" v="Havrå" />
		<tag k="place" v="farm" />
		<tag k="ssr:date" v="2016-05-10" />
		<tag k="ssr:stedsnr" v="545961" />
		<nd ref="-26086" />
		<nd ref="-26087" />
		<nd ref="-26088" />
		<nd ref="-26089" />
	</way>
	<way id="-6032">
		<tag k="name" v="Kleiveland" />
		<tag k="place" v="farm" />
		<tag k="ssr:date" v="2016-05-10" />
		<tag k="ssr:stedsnr" v="492655" />
		<nd ref="-26022" />
		<nd ref="-26023" />
	</way>
	<way id="-6029">
		<tag k="historic" v="summer_mountain_farm" />
		<tag k="name" v="Stølane" />
		<tag k="place" v="locality" />
		<tag k="ssr:date" v="2016-05-10" />
		<tag k="ssr:stedsnr" v="491956" />
		<nd ref="-26010" />
		<nd ref="-26011" />
	</way>
	<way id="-6028">
		<tag k="name" v="Olsneset" />
		<tag k="place" v="farm" />
		<tag k="ssr:date" v="2016-05-10" />
		<tag k="ssr:stedsnr" v="491953" />
		<nd ref="-26007" />
		<nd ref="-26008" />
		<nd ref="-26009" />
	</way>
	<way id="-6026">
		<tag k="alt_name" v="Skår" />
		<tag k="fixme" v="consider place=farm" />
		<tag k="name" v="Skor" />
		<tag k="old_name" v="Skaar" />
		<tag k="place" v="hamlet" />
		<tag k="ssr:date" v="2016-05-10" />
		<tag k="ssr:stedsnr" v="491499" />
		<nd ref="-25993" />
		<nd ref="-25994" />
		<nd ref="-25995" />
	</way>
	<way id="-6024">
		<tag k="name" v="Hausberg" />
		<tag k="place" v="farm" />
		<tag k="ssr:date" v="2016-05-10" />
		<tag k="ssr:stedsnr" v="491004" />
		<nd ref="-25986" />
		<nd ref="-25987" />
	</way>
	<way id="-6023">
		<tag k="name" v="Lii" />
		<tag k="place" v="farm" />
		<tag k="ssr:date" v="2016-05-10" />
		<tag k="ssr:stedsnr" v="490990" />
		<nd ref="-25984" />
		<nd ref="-25985" />
	</way>
	<way id="-6016">
		<tag k="name" v="Vassdal" />
		<tag k="place" v="farm" />
		<tag k="ssr:date" v="2016-05-10" />
		<tag k="ssr:stedsnr" v="431966" />
		<nd ref="-25915" />
		<nd ref="-25916" />
	</way>
	<way id="-6015">
		<tag k="name" v="Hatland" />
		<tag k="place" v="farm" />
		<tag k="ssr:date" v="2016-05-10" />
		<tag k="ssr:stedsnr" v="431937" />
		<nd ref="-25913" />
		<nd ref="-25914" />
	</way>
	<way id="-6014">
		<tag k="alt_name" v="Nonås" />
		<tag k="fixme" v="consider place=farm" />
		<tag k="name" v="Nunnås" />
		<tag k="place" v="hamlet" />
		<tag k="ssr:date" v="2016-05-10" />
		<tag k="ssr:stedsnr" v="431903" />
		<nd ref="-25908" />
		<nd ref="-25909" />
	</way>
	<way id="-6013">
		<tag k="fixme" v="consider place=farm" />
		<tag k="name" v="Søre Reistad" />
		<tag k="place" v="hamlet" />
		<tag k="ssr:date" v="2016-05-10" />
		<tag k="ssr:stedsnr" v="431551" />
		<nd ref="-25895" />
		<nd ref="-25896" />
		<nd ref="-25897" />
	</way>
	<way id="-6010">
		<tag k="name" v="Midttun" />
		<tag k="place" v="farm" />
		<tag k="ssr:date" v="2016-05-10" />
		<tag k="ssr:stedsnr" v="430963" />
		<nd ref="-25882" />
		<nd ref="-25883" />
	</way>
	<way id="-6009">
		<tag k="name" v="Bruvik" />
		<tag k="place" v="village" />
		<tag k="ssr:date" v="2016-05-10" />
		<tag k="ssr:stedsnr" v="430956" />
		<nd ref="-25880" />
		<nd ref="-25881" />
	</way>
	<way id="-6008">
		<tag k="name" v="Veset" />
		<tag k="place" v="farm" />
		<tag k="ssr:date" v="2016-05-10" />
		<tag k="ssr:stedsnr" v="430942" />
		<nd ref="-25877" />
		<nd ref="-25878" />
		<nd ref="-25879" />
	</way>
	<way id="-6003">
		<tag k="fixme" v="consider place=farm" />
		<tag k="name" v="Nordås" />
		<tag k="place" v="hamlet" />
		<tag k="ssr:date" v="2016-05-10" />
		<tag k="ssr:stedsnr" v="249893" />
		<nd ref="-25864" />
		<nd ref="-25865" />
	</way>
	<way id="-6002">
		<tag k="alt_name" v="Bernes, indre;Bernes" />
		<tag k="name" v="Indre Bernes" />
		<tag k="place" v="farm" />
		<tag k="ssr:date" v="2016-05-10" />
		<tag k="ssr:stedsnr" v="249723" />
		<nd ref="-25857" />
		<nd ref="-25858" />
		<nd ref="-25859" />
	</way>
	<way id="-6000">
		<tag k="alt_name" v="Byrkeland" />
		<tag k="name" v="Byrkjeland" />
		<tag k="place" v="farm" />
		<tag k="ssr:date" v="2016-05-10" />
		<tag k="ssr:stedsnr" v="249517" />
		<nd ref="-25846" />
		<nd ref="-25847" />
		<nd ref="-25848" />
		<nd ref="-25849" />
	</way>
	<way id="-5999">
		<tag k="loc_name" v="Hjellvika" />
		<tag k="name" v="Hjellviki" />
		<tag k="place" v="farm" />
		<tag k="ssr:date" v="2016-05-10" />
		<tag k="ssr:stedsnr" v="249428" />
		<nd ref="-25843" />
		<nd ref="-25844" />
	</way>
	<way id="-5997">
		<tag k="fixme" v="consider place=hamlet" />
		<tag k="name" v="Austbygdi" />
		<tag k="place" v="village" />
		<tag k="ssr:date" v="2016-05-10" />
		<tag k="ssr:stedsnr" v="248987" />
		<nd ref="-25838" />
		<nd ref="-25839" />
	</way>
	<way id="-5994">
		<tag k="name" v="Løtveit" />
		<tag k="old_name" v="Løiveit" />
		<tag k="place" v="farm" />
		<tag k="ssr:date" v="2016-05-10" />
		<tag k="ssr:stedsnr" v="248544" />
		<nd ref="-25830" />
		<nd ref="-25831" />
	</way>
	<way id="-5993">
		<tag k="name" v="Tveiti" />
		<tag k="place" v="farm" />
		<tag k="ssr:date" v="2016-05-10" />
		<tag k="ssr:stedsnr" v="248018" />
		<nd ref="-25825" />
		<nd ref="-25826" />
	</way>
	<way id="-5992">
		<tag k="alt_name" v="Mjelda, øvre" />
		<tag k="fixme" v="consider place=farm" />
		<tag k="name" v="Øvre Mjelda" />
		<tag k="place" v="hamlet" />
		<tag k="ssr:date" v="2016-05-10" />
		<tag k="ssr:stedsnr" v="248015" />
		<nd ref="-25823" />
		<nd ref="-25824" />
	</way>
	<way id="-5984">
		<tag k="name" v="Kvisti" />
		<tag k="place" v="farm" />
		<tag k="ssr:date" v="2016-05-10" />
		<tag k="ssr:stedsnr" v="203465" />
		<nd ref="-25748" />
		<nd ref="-25749" />
		<nd ref="-25750" />
		<nd ref="-25751" />
		<nd ref="-25752" />
	</way>
	<way id="-5980">
		<tag k="name" v="Sundland" />
		<tag k="place" v="farm" />
		<tag k="ssr:date" v="2016-05-10" />
		<tag k="ssr:stedsnr" v="188962" />
		<nd ref="-25734" />
		<nd ref="-25735" />
	</way>
	<way id="-5978">
		<tag k="name" v="Austad" />
		<tag k="place" v="farm" />
		<tag k="ssr:date" v="2016-05-10" />
		<tag k="ssr:stedsnr" v="188955" />
		<nd ref="-25729" />
		<nd ref="-25730" />
	</way>
	<way id="-5975">
		<tag k="fixme" v="consider place=farm" />
		<tag k="name" v="Flatås" />
		<tag k="place" v="hamlet" />
		<tag k="ssr:date" v="2016-05-10" />
		<tag k="ssr:stedsnr" v="188909" />
		<nd ref="-25721" />
		<nd ref="-25722" />
	</way>
	<way id="-5974">
		<tag k="name" v="Røssland" />
		<tag k="place" v="farm" />
		<tag k="ssr:date" v="2016-05-10" />
		<tag k="ssr:stedsnr" v="188653" />
		<nd ref="-25718" />
		<nd ref="-25719" />
	</way>
	<way id="-5972">
		<tag k="name" v="Dale" />
		<tag k="place" v="farm" />
		<tag k="ssr:date" v="2016-05-10" />
		<tag k="ssr:stedsnr" v="188440" />
		<nd ref="-25706" />
		<nd ref="-25707" />
	</way>
	<way id="-5967">
		<tag k="name" v="Askeland" />
		<tag k="place" v="farm" />
		<tag k="ssr:date" v="2016-05-10" />
		<tag k="ssr:stedsnr" v="187957" />
		<nd ref="-25693" />
		<nd ref="-25694" />
		<nd ref="-25695" />
	</way>
	<way id="-5965">
		<tag k="name" v="Tveitaråsen" />
		<tag k="place" v="farm" />
		<tag k="ssr:date" v="2016-05-10" />
		<tag k="ssr:stedsnr" v="187944" />
		<nd ref="-25689" />
		<nd ref="-25690" />
	</way>
	<way id="-5961">
		<tag k="alt_name" v="Hamre prestegård" />
		<tag k="name" v="Hamre prestegard" />
		<tag k="place" v="farm" />
		<tag k="ssr:date" v="2016-05-10" />
		<tag k="ssr:stedsnr" v="166751" />
		<nd ref="-25658" />
		<nd ref="-25659" />
	</way>
	<way id="-5956">
		<tag k="name" v="Lono" />
		<tag k="place" v="farm" />
		<tag k="ssr:date" v="2016-05-10" />
		<tag k="ssr:stedsnr" v="127968" />
		<nd ref="-25579" />
		<nd ref="-25580" />
	</way>
	<way id="-5952">
		<tag k="alt_name" v="Skår" />
		<tag k="fixme" v="consider place=farm" />
		<tag k="name" v="Skor" />
		<tag k="place" v="hamlet" />
		<tag k="ssr:date" v="2016-05-10" />
		<tag k="ssr:stedsnr" v="127536" />
		<nd ref="-25564" />
		<nd ref="-25565" />
		<nd ref="-25566" />
		<nd ref="-25567" />
	</way>
	<way id="-5951">
		<tag k="fixme" v="consider place=farm" />
		<tag k="loc_name" v="Heimvika" />
		<tag k="name" v="Heimviki" />
		<tag k="place" v="hamlet" />
		<tag k="ssr:date" v="2016-05-10" />
		<tag k="ssr:stedsnr" v="127380" />
		<nd ref="-25559" />
		<nd ref="-25560" />
	</way>
	<way id="-5950">
		<tag k="alt_name" v="Birkeland" />
		<tag k="name" v="Byrkjeland" />
		<tag k="place" v="farm" />
		<tag k="ssr:date" v="2016-05-10" />
		<tag k="ssr:stedsnr" v="127423" />
		<nd ref="-25549" />
		<nd ref="-25550" />
	</way>
	<way id="-5948">
		<tag k="name" v="Mele" />
		<tag k="place" v="farm" />
		<tag k="ssr:date" v="2016-05-10" />
		<tag k="ssr:stedsnr" v="126968" />
		<nd ref="-25542" />
		<nd ref="-25543" />
		<nd ref="-25544" />
		<nd ref="-25545" />
	</way>
	<way id="-5940">
		<tag k="name" v="Haugo" />
		<tag k="place" v="farm" />
		<tag k="ssr:date" v="2016-05-10" />
		<tag k="ssr:stedsnr" v="67946" />
		<nd ref="-25447" />
		<nd ref="-25448" />
	</way>
	<way id="-5938">
		<tag k="alt_name" v="Byseim, nordre;Byseim;Nordre Byseim" />
		<tag k="name" v="Nordre Bysheim" />
		<tag k="place" v="farm" />
		<tag k="ssr:date" v="2017-03-06" />
		<tag k="ssr:stedsnr" v="67432" />
		<nd ref="-25426" />
		<nd ref="-25427" />
		<nd ref="-25428" />
		<nd ref="-25429" />
		<nd ref="-25430" />
		<nd ref="-25431" />
	</way>
	<way id="-5937">
		<tag k="alt_name" v="Bruvik, midtre" />
		<tag k="name" v="Midtre Bruvik" />
		<tag k="place" v="farm" />
		<tag k="ssr:date" v="2016-05-10" />
		<tag k="ssr:stedsnr" v="66929" />
		<nd ref="-25421" />
		<nd ref="-25422" />
	</way>
	<way id="-5936">
		<tag k="alt_name" v="Brakvatn" />
		<tag k="fixme" v="consider place=farm" />
		<tag k="name" v="Brakvatne" />
		<tag k="place" v="hamlet" />
		<tag k="ssr:date" v="2016-05-10" />
		<tag k="ssr:stedsnr" v="66385" />
		<nd ref="-25418" />
		<nd ref="-25419" />
	</way>
	<way id="-5933">
		<tag k="name" v="Skaftå" />
		<tag k="place" v="farm" />
		<tag k="ssr:date" v="2016-05-10" />
		<tag k="ssr:stedsnr" v="66012" />
		<nd ref="-25409" />
		<nd ref="-25410" />
		<nd ref="-25411" />
	</way>
	<way id="-5931">
		<tag k="historic" v="summer_mountain_farm" />
		<tag k="name" v="Gamlestølen" />
		<tag k="place" v="locality" />
		<tag k="ssr:date" v="2016-05-10" />
		<tag k="ssr:stedsnr" v="66987" />
		<nd ref="-25404" />
		<nd ref="-25405" />
	</way>
	<way id="-5930">
		<tag k="name" v="Trådi" />
		<tag k="place" v="farm" />
		<tag k="ssr:date" v="2016-05-10" />
		<tag k="ssr:stedsnr" v="66953" />
		<nd ref="-25402" />
		<nd ref="-25403" />
	</way>
	<way id="-5923">
		<tag k="fixme" v="consider place=farm" />
		<tag k="loc_name" v="Kupo" />
		<tag k="name" v="Hagebø" />
		<tag k="place" v="hamlet" />
		<tag k="ssr:date" v="2016-05-10" />
		<tag k="ssr:stedsnr" v="6962" />
		<nd ref="-25315" />
		<nd ref="-25316" />
	</way>
	<way id="-5922">
		<tag k="name" v="Hakanes" />
		<tag k="place" v="farm" />
		<tag k="ssr:date" v="2016-05-10" />
		<tag k="ssr:stedsnr" v="6904" />
		<nd ref="-25308" />
		<nd ref="-25309" />
	</way>
	<way id="-5919">
		<tag k="fixme" v="consider place=hamlet" />
		<tag k="name" v="Vestbygdi" />
		<tag k="place" v="village" />
		<tag k="ssr:date" v="2016-05-10" />
		<tag k="ssr:stedsnr" v="5990" />
		<nd ref="-25285" />
		<nd ref="-25286" />
	</way>
	<way id="-5916">
		<tag k="name" v="Heldal" />
		<tag k="place" v="farm" />
		<tag k="ssr:date" v="2016-05-11" />
		<tag k="ssr:stedsnr" v="897023" />
		<nd ref="-25273" />
		<nd ref="-25274" />
	</way>
	<way id="-5913">
		<tag k="alt_name" v="Geitrem" />
		<tag k="fixme" v="consider place=farm" />
		<tag k="loc_name" v="Geitrheim" />
		<tag k="name" v="Geitreim" />
		<tag k="place" v="hamlet" />
		<tag k="ssr:date" v="2016-05-10" />
		<tag k="ssr:stedsnr" v="408835" />
		<nd ref="-25163" />
		<nd ref="-25164" />
	</way>
	<way id="-5909">
		<tag k="name" v="Burkeland" />
		<tag k="place" v="farm" />
		<tag k="ssr:date" v="2016-05-10" />
		<tag k="ssr:stedsnr" v="370531" />
		<nd ref="-25132" />
		<nd ref="-25133" />
	</way>
	<way id="-5907">
		<tag k="name" v="Vikno" />
		<tag k="place" v="farm" />
		<tag k="ssr:date" v="2016-05-10" />
		<tag k="ssr:stedsnr" v="369019" />
		<nd ref="-25114" />
		<nd ref="-25115" />
	</way>
	<way id="-5905">
		<tag k="name" v="Presttun" />
		<tag k="place" v="farm" />
		<tag k="ssr:date" v="2016-05-10" />
		<tag k="ssr:stedsnr" v="369981" />
		<nd ref="-25110" />
		<nd ref="-25111" />
	</way>
	<way id="-5904">
		<tag k="historic" v="summer_mountain_farm" />
		<tag k="name" v="Øyasætret" />
		<tag k="place" v="locality" />
		<tag k="ssr:date" v="2016-05-10" />
		<tag k="ssr:stedsnr" v="369979" />
		<nd ref="-25108" />
		<nd ref="-25109" />
	</way>
	<way id="-5901">
		<tag k="name" v="Hushammaren" />
		<tag k="place" v="farm" />
		<tag k="ssr:date" v="2016-05-10" />
		<tag k="ssr:stedsnr" v="309958" />
		<nd ref="-25035" />
		<nd ref="-25036" />
	</way>
	<way id="-5900">
		<tag k="name" v="Kalleklauv" />
		<tag k="place" v="farm" />
		<tag k="ssr:date" v="2016-05-10" />
		<tag k="ssr:stedsnr" v="309909" />
		<nd ref="-25030" />
		<nd ref="-25031" />
	</way>
	<way id="-5898">
		<tag k="alt_name" v="Mjelda;Mjelda, midtre" />
		<tag k="fixme" v="consider place=farm" />
		<tag k="name" v="Midtre Mjelda" />
		<tag k="place" v="hamlet" />
		<tag k="ssr:date" v="2016-05-10" />
		<tag k="ssr:stedsnr" v="309001" />
		<nd ref="-25013" />
		<nd ref="-25014" />
		<nd ref="-25015" />
	</way>
	<way id="-5897">
		<tag k="name" v="Litun" />
		<tag k="place" v="farm" />
		<tag k="ssr:date" v="2016-05-10" />
		<tag k="ssr:stedsnr" v="308967" />
		<nd ref="-25011" />
		<nd ref="-25012" />
	</way>
	<way id="-5896">
		<tag k="alt_name" v="Mjelda, nedre;Mjelda" />
		<tag k="fixme" v="consider place=farm" />
		<tag k="name" v="Nedre Mjelda" />
		<tag k="place" v="hamlet" />
		<tag k="ssr:date" v="2016-05-10" />
		<tag k="ssr:stedsnr" v="309002" />
		<nd ref="-25009" />
		<nd ref="-25010" />
	</way>
	<way id="-5895">
		<tag k="historic" v="summer_mountain_farm" />
		<tag k="name" v="Steinsætret" />
		<tag k="place" v="locality" />
		<tag k="ssr:date" v="2016-05-10" />
		<tag k="ssr:stedsnr" v="308009" />
		<nd ref="-25007" />
		<nd ref="-25008" />
	</way>
</osm>
