<?xml version="1.0" encoding="UTF-8"?>
<osm generator="osmapis" version="0.6">
	<node id="-25408" lat="60.4536499979" lon="5.49283889556">
		<tag k="ssr:gml_id" v="GEOMETRY_b2723622-c8cf-41f1-8c5e-4ec0637174c9" />
		<tag k="ssr:gml_nr" v="2" />
	</node>
	<node id="-25887" lat="60.5453833336" lon="5.35231389363">
		<tag k="ssr:gml_id" v="GEOMETRY_d0c8deb2-1b75-4d75-bb18-9d48bec7a8ba" />
		<tag k="ssr:gml_nr" v="2" />
	</node>
	<node id="-25886" lat="60.542502782" lon="5.34997222887">
		<tag k="ssr:gml_id" v="GEOMETRY_b21358c7-3de2-4c62-8d57-d6e8456f8012" />
		<tag k="ssr:gml_nr" v="1" />
	</node>
	<node id="-25885" lat="60.5448000023" lon="5.35209443805">
		<tag k="ssr:gml_id" v="GEOMETRY_054ac6f2-8fcd-4022-ad2f-61301c1ea937" />
		<tag k="ssr:gml_nr" v="0" />
	</node>
	<node id="-26874" lat="60.4970916702" lon="5.66745278069">
		<tag k="name" v="BÃ¥taleitet" />
		<tag k="ssr:date" v="2016-05-11" />
		<tag k="ssr:stedsnr" v="970332" />
		<tag k="tourism" v="viewpoint" />
	</node>
	<node id="-25018" lat="60.5822777792" lon="5.54282499957">
		<tag k="loc_name" v="Herlandsfoss kraftverk" />
		<tag k="name" v="Hellandsfossen" />
		<tag k="ssr:date" v="2016-05-10" />
		<tag k="ssr:stedsnr" v="309581" />
		<tag k="tourism" v="museum" />
	</node>
	<node id="-26137" lat="60.47953889" lon="5.67644166866">
		<tag k="ssr:gml_id" v="GEOMETRY_11ae0559-a4f5-4c32-8e56-53306dbd7bce" />
		<tag k="ssr:gml_nr" v="0" />
	</node>
	<node id="-26138" lat="60.4791083314" lon="5.67763333308">
		<tag k="ssr:gml_id" v="GEOMETRY_eed6ea08-10d0-4a76-b008-bfe0cfdba5a7" />
		<tag k="ssr:gml_nr" v="1" />
	</node>
	<node id="-25407" lat="60.4538055542" lon="5.49332777132">
		<tag k="ssr:gml_id" v="GEOMETRY_e1974cb2-53fd-4e26-8afc-24f2d475ef03" />
		<tag k="ssr:gml_nr" v="1" />
	</node>
	<node id="-26139" lat="60.4795361069" lon="5.67643889467">
		<tag k="ssr:gml_id" v="GEOMETRY_7e4935bb-6997-4549-8d01-ad1c77d0bf89" />
		<tag k="ssr:gml_nr" v="2" />
	</node>
	<node id="-25744" lat="60.4988999971" lon="5.54888056027">
		<tag k="ssr:gml_id" v="GEOMETRY_8f66579f-1c6e-47b3-a2fb-c1d6c6d96328" />
		<tag k="ssr:gml_nr" v="2" />
	</node>
	<node id="-25406" lat="60.4538027759" lon="5.49332499616">
		<tag k="ssr:gml_id" v="GEOMETRY_9a686be9-fc3b-487c-9c39-61302039484e" />
		<tag k="ssr:gml_nr" v="0" />
	</node>
	<node id="-25745" lat="60.5000861098" lon="5.54926111228">
		<tag k="ssr:gml_id" v="GEOMETRY_9692dd67-0b53-466a-acbf-07e9506b6c18" />
		<tag k="ssr:gml_nr" v="3" />
	</node>
	<node id="-26352" lat="60.5733361074" lon="5.47108054994">
		<tag k="ssr:gml_id" v="GEOMETRY_354437a7-533b-4c44-9316-e632a418105c" />
		<tag k="ssr:gml_nr" v="2" />
	</node>
	<node id="-26351" lat="60.5733333292" lon="5.47107778503">
		<tag k="ssr:gml_id" v="GEOMETRY_2d8c135f-f88d-4c8a-9634-b2b7932cdce6" />
		<tag k="ssr:gml_nr" v="1" />
	</node>
	<node id="-26350" lat="60.5773749962" lon="5.47474443975">
		<tag k="ssr:gml_id" v="GEOMETRY_1640a201-4ab8-4541-9f56-13f1e6da447a" />
		<tag k="ssr:gml_nr" v="0" />
	</node>
	<node id="-25742" lat="60.4999611091" lon="5.54740833788">
		<tag k="ssr:gml_id" v="GEOMETRY_f94368f0-ceae-406b-8917-7d1f8b79e3df" />
		<tag k="ssr:gml_nr" v="0" />
	</node>
	<node id="-25743" lat="60.4999638858" lon="5.54741110335">
		<tag k="ssr:gml_id" v="GEOMETRY_da7d87a0-e0e6-4f5d-b7f7-5627a29827f1" />
		<tag k="ssr:gml_nr" v="1" />
	</node>
	<way id="-6072">
		<tag k="alt_name" v="Hosanger" />
		<tag k="amenity" v="place_of_worship" />
		<tag k="denomination" v="lutheran" />
		<tag k="name" v="Hosanger kyrkje" />
		<tag k="religion" v="christian" />
		<tag k="ssr:date" v="2016-05-10" />
		<tag k="ssr:stedsnr" v="673569" />
		<nd ref="-26350" />
		<nd ref="-26351" />
		<nd ref="-26352" />
	</way>
	<way id="-5983">
		<tag k="alt_name" v="Gjerstad" />
		<tag k="amenity" v="place_of_worship" />
		<tag k="denomination" v="lutheran" />
		<tag k="name" v="Gjerstad kyrkje" />
		<tag k="religion" v="christian" />
		<tag k="ssr:date" v="2016-05-10" />
		<tag k="ssr:stedsnr" v="188999" />
		<nd ref="-25742" />
		<nd ref="-25743" />
		<nd ref="-25744" />
		<nd ref="-25745" />
	</way>
	<way id="-5932">
		<tag k="alt_name" v="Haus" />
		<tag k="amenity" v="place_of_worship" />
		<tag k="denomination" v="lutheran" />
		<tag k="name" v="Haus kyrkje" />
		<tag k="religion" v="christian" />
		<tag k="ssr:date" v="2016-05-10" />
		<tag k="ssr:stedsnr" v="66004" />
		<nd ref="-25406" />
		<nd ref="-25407" />
		<nd ref="-25408" />
	</way>
	<way id="-6011">
		<tag k="alt_name" v="Hamre" />
		<tag k="amenity" v="place_of_worship" />
		<tag k="denomination" v="lutheran" />
		<tag k="name" v="Hamre kyrkje" />
		<tag k="religion" v="christian" />
		<tag k="ssr:date" v="2016-05-10" />
		<tag k="ssr:stedsnr" v="431431" />
		<nd ref="-25885" />
		<nd ref="-25886" />
		<nd ref="-25887" />
	</way>
	<way id="-6050">
		<tag k="alt_name" v="Bruvik" />
		<tag k="amenity" v="place_of_worship" />
		<tag k="denomination" v="lutheran" />
		<tag k="name" v="Bruvik kyrkje" />
		<tag k="religion" v="christian" />
		<tag k="ssr:date" v="2016-05-10" />
		<tag k="ssr:stedsnr" v="570964" />
		<nd ref="-26137" />
		<nd ref="-26138" />
		<nd ref="-26139" />
	</way>
</osm>
