<?xml version="1.0" encoding="UTF-8"?>
<osm generator="osmapis" version="0.6">
	<node id="-26880" lat="60.5082154412" lon="5.45108729692">
		<tag k="name" v="Nova" />
		<tag k="ssr:date" v="2016-10-05" />
		<tag k="ssr:stedsnr" v="971929" />
	</node>
	<node id="-26879" lat="60.5099183499" lon="5.44988182189">
		<tag k="name" v="Storkjelda" />
		<tag k="ssr:date" v="2016-10-05" />
		<tag k="ssr:stedsnr" v="971927" />
	</node>
	<node id="-26878" lat="60.5716626529" lon="5.4658226899">
		<tag k="name" v="Helldalskaien" />
		<tag k="ssr:date" v="2016-10-05" />
		<tag k="ssr:stedsnr" v="971924" />
	</node>
	<node id="-26877" lat="60.5724745195" lon="5.46347977773">
		<tag k="name" v="Helldalsmarka" />
		<tag k="ssr:date" v="2016-10-05" />
		<tag k="ssr:stedsnr" v="971926" />
	</node>
	<node id="-26876" lat="60.5264046968" lon="5.49811007716">
		<tag k="name" v="Nausthaugen" />
		<tag k="ssr:date" v="2016-10-05" />
		<tag k="ssr:stedsnr" v="971923" />
	</node>
	<node id="-25339" lat="60.449847221" lon="5.54109166036">
		<tag k="ssr:gml_id" v="GEOMETRY_0c8d46f8-424a-475a-a093-11375fbd24c1" />
		<tag k="ssr:gml_nr" v="1" />
	</node>
	<node id="-25338" lat="60.4319722251" lon="5.53683611376">
		<tag k="ssr:gml_id" v="GEOMETRY_73563cbd-5e1b-49e6-987a-3e89e182bfcd" />
		<tag k="ssr:gml_nr" v="0" />
	</node>
	<node id="-25089" lat="60.5138333334" lon="5.55964445096">
		<tag k="highway" v="path" />
		<tag k="name" v="Kleivane" />
		<tag k="ssr:date" v="2016-05-10" />
		<tag k="ssr:stedsnr" v="348717" />
	</node>
	<node id="-26871" lat="60.5899722254" lon="5.52450000451">
		<tag k="bridge" v="yes" />
		<tag k="layer" v="1" />
		<tag k="name" v="Fotlandsvåg" />
		<tag k="ssr:date" v="2016-05-11" />
		<tag k="ssr:stedsnr" v="957052" />
	</node>
	<node id="-26870" lat="60.5091083292" lon="5.50189721516">
		<tag k="bridge" v="yes" />
		<tag k="layer" v="1" />
		<tag k="name" v="Revheim" />
		<tag k="ssr:date" v="2016-05-11" />
		<tag k="ssr:stedsnr" v="957011" />
	</node>
	<node id="-25973" lat="60.5113611077" lon="5.51983055037">
		<tag k="bridge" v="yes" />
		<tag k="layer" v="1" />
		<tag k="name" v="Lone" />
		<tag k="ssr:date" v="2016-05-10" />
		<tag k="ssr:stedsnr" v="472035" />
	</node>
	<node id="-25332" lat="60.4287249985" lon="5.53350555826">
		<tag k="ssr:gml_id" v="GEOMETRY_1316c836-ed95-4236-b1ac-5d8a911e5bcf" />
		<tag k="ssr:gml_nr" v="2" />
	</node>
	<node id="-25331" lat="60.4287277759" lon="5.53350833481">
		<tag k="ssr:gml_id" v="GEOMETRY_a2078b58-82b1-42c7-914a-e8d66857d008" />
		<tag k="ssr:gml_nr" v="1" />
	</node>
	<node id="-25330" lat="60.4284166671" lon="5.53372222794">
		<tag k="ssr:gml_id" v="GEOMETRY_e7cd36d4-4855-4f5d-a86e-5189ae030395" />
		<tag k="ssr:gml_nr" v="0" />
	</node>
	<node id="-24944" lat="60.5375361132" lon="5.48106666592">
		<tag k="ssr:gml_id" v="GEOMETRY_9bf509c3-6b95-40cb-ad5f-564fe3722594" />
		<tag k="ssr:gml_nr" v="2" />
	</node>
	<node id="-24943" lat="60.5361027809" lon="5.48795278221">
		<tag k="ssr:gml_id" v="GEOMETRY_4100fbe6-f04f-4419-ab78-34cb89503312" />
		<tag k="ssr:gml_nr" v="1" />
	</node>
	<node id="-25454" lat="60.6115972215" lon="5.50535000345">
		<tag k="alt_name" v="Bernestangen" />
		<tag k="name" v="Bernestangen lykt" />
		<tag k="ssr:date" v="2016-05-10" />
		<tag k="ssr:stedsnr" v="67743" />
	</node>
	<node id="-25533" lat="60.5019888922" lon="5.47561388147">
		<tag k="ssr:gml_id" v="GEOMETRY_77eea579-62b5-4562-8a8a-3a77eea3c289" />
		<tag k="ssr:gml_nr" v="0" />
	</node>
	<node id="-25321" lat="60.4642861095" lon="5.45927499586">
		<tag k="alt_name" v="Votløy" />
		<tag k="loc_name" v="Votløyna lykt" />
		<tag k="name" v="Votløy lykt" />
		<tag k="ssr:date" v="2016-05-10" />
		<tag k="ssr:stedsnr" v="36383" />
	</node>
	<node id="-25276" lat="60.4905888904" lon="5.54951945027">
		<tag k="bridge" v="yes" />
		<tag k="layer" v="1" />
		<tag k="name" v="Hartveit Nordre" />
		<tag k="ssr:date" v="2016-05-11" />
		<tag k="ssr:stedsnr" v="897043" />
	</node>
	<node id="-26214" lat="60.4726805578" lon="5.52872499657">
		<tag k="bridge" v="yes" />
		<tag k="layer" v="1" />
		<tag k="name" v="Rolland" />
		<tag k="ssr:date" v="2016-05-10" />
		<tag k="ssr:stedsnr" v="593017" />
	</node>
	<node id="-26213" lat="60.5051694431" lon="5.42959443975">
		<tag k="bridge" v="yes" />
		<tag k="layer" v="1" />
		<tag k="name" v="Valestrandsfossen" />
		<tag k="ssr:date" v="2016-05-10" />
		<tag k="ssr:stedsnr" v="593013" />
	</node>
	<node id="-26084" lat="60.509708336" lon="5.44068056415">
		<tag k="bridge" v="yes" />
		<tag k="layer" v="1" />
		<tag k="name" v="Kringastemma" />
		<tag k="ssr:date" v="2016-05-10" />
		<tag k="ssr:stedsnr" v="533049" />
	</node>
	<node id="-26083" lat="60.4729611108" lon="5.65563332455">
		<tag k="bridge" v="yes" />
		<tag k="layer" v="1" />
		<tag k="name" v="Botnen" />
		<tag k="ssr:date" v="2016-05-10" />
		<tag k="ssr:stedsnr" v="533050" />
	</node>
	<node id="-26082" lat="60.5149305562" lon="5.44562222819">
		<tag k="bridge" v="yes" />
		<tag k="layer" v="1" />
		<tag k="name" v="Småland" />
		<tag k="ssr:date" v="2016-05-10" />
		<tag k="ssr:stedsnr" v="533017" />
	</node>
	<node id="-25182" lat="60.6117833338" lon="5.50404167363">
		<tag k="name" v="Osterhavnneset lykt" />
		<tag k="ssr:date" v="2016-05-10" />
		<tag k="ssr:stedsnr" v="409512" />
	</node>
	<node id="-26460" lat="60.5286861072" lon="5.53066667224">
		<tag k="bridge" v="yes" />
		<tag k="layer" v="1" />
		<tag k="name" v="Fitjestokken" />
		<tag k="ssr:date" v="2016-05-11" />
		<tag k="ssr:stedsnr" v="715046" />
	</node>
	<node id="-26459" lat="60.5148416682" lon="5.44341110905">
		<tag k="bridge" v="yes" />
		<tag k="layer" v="1" />
		<tag k="name" v="Loftås" />
		<tag k="ssr:date" v="2016-05-11" />
		<tag k="ssr:stedsnr" v="715042" />
	</node>
	<node id="-26458" lat="60.4540388883" lon="5.53032221958">
		<tag k="bridge" v="yes" />
		<tag k="layer" v="1" />
		<tag k="name" v="Smed" />
		<tag k="ssr:date" v="2016-05-11" />
		<tag k="ssr:stedsnr" v="715015" />
	</node>
	<node id="-26457" lat="60.490622224" lon="5.66903333444">
		<tag k="bridge" v="yes" />
		<tag k="layer" v="1" />
		<tag k="name" v="Olsnes" />
		<tag k="ssr:date" v="2016-05-11" />
		<tag k="ssr:stedsnr" v="715013" />
	</node>
	<node id="-26456" lat="60.5102472218" lon="5.65718054932">
		<tag k="bridge" v="yes" />
		<tag k="layer" v="1" />
		<tag k="name" v="Søyla" />
		<tag k="ssr:date" v="2016-05-11" />
		<tag k="ssr:stedsnr" v="715011" />
	</node>
	<node id="-26455" lat="60.5540444453" lon="5.42382500747">
		<tag k="bridge" v="yes" />
		<tag k="layer" v="1" />
		<tag k="name" v="Raknes" />
		<tag k="ssr:date" v="2016-05-11" />
		<tag k="ssr:stedsnr" v="715012" />
	</node>
	<node id="-26838" lat="60.5360277809" lon="5.66538332884">
		<tag k="highway" v="path" />
		<tag k="name" v="Rypestien" />
		<tag k="ssr:date" v="2016-05-11" />
		<tag k="ssr:stedsnr" v="955622" />
	</node>
	<node id="-25679" lat="60.5276277752" lon="5.49257222199">
		<tag k="bridge" v="yes" />
		<tag k="layer" v="1" />
		<tag k="name" v="Lonevåg" />
		<tag k="ssr:date" v="2016-05-10" />
		<tag k="ssr:stedsnr" v="168053" />
	</node>
	<node id="-26317" lat="60.4686444407" lon="5.46158888672">
		<tag k="loc_name" v="Votlakaien" />
		<tag k="man_made" v="quay" />
		<tag k="name" v="Votlokaien" />
		<tag k="place" v="locality" />
		<tag k="ssr:date" v="2016-05-10" />
		<tag k="ssr:stedsnr" v="651812" />
	</node>
	<node id="-26700" lat="60.4540611132" lon="5.52974722687">
		<tag k="bridge" v="yes" />
		<tag k="layer" v="1" />
		<tag k="name" v="Jørn" />
		<tag k="ssr:date" v="2016-05-11" />
		<tag k="ssr:stedsnr" v="836034" />
	</node>
	<node id="-26699" lat="60.5180000044" lon="5.64649166786">
		<tag k="bridge" v="yes" />
		<tag k="layer" v="1" />
		<tag k="name" v="Vassdal" />
		<tag k="ssr:date" v="2016-05-11" />
		<tag k="ssr:stedsnr" v="836006" />
	</node>
	<node id="-26698" lat="60.4478833327" lon="5.61141945226">
		<tag k="bridge" v="yes" />
		<tag k="layer" v="1" />
		<tag k="name" v="Stokko" />
		<tag k="ssr:date" v="2016-05-11" />
		<tag k="ssr:stedsnr" v="836004" />
	</node>
	<node id="-25333" lat="60.4658583312" lon="5.69797222988">
		<tag k="ssr:gml_id" v="GEOMETRY_af111353-1256-424e-9580-da0167fe5bed" />
		<tag k="ssr:gml_nr" v="0" />
	</node>
	<node id="-26311" lat="60.5018638922" lon="5.53508055701">
		<tag k="highway" v="path" />
		<tag k="name" v="Kleivane" />
		<tag k="ssr:date" v="2016-05-10" />
		<tag k="ssr:stedsnr" v="651756" />
	</node>
	<node id="-25156" lat="60.6662666627" lon="5.61013333157">
		<tag k="ssr:gml_id" v="GEOMETRY_676f21f9-10a8-4d98-b056-b428b7529f34" />
		<tag k="ssr:gml_nr" v="1" />
	</node>
	<node id="-25974" lat="60.5073777791" lon="5.48916666382">
		<tag k="bridge" v="yes" />
		<tag k="layer" v="1" />
		<tag k="name" v="Haugvik" />
		<tag k="ssr:date" v="2016-05-10" />
		<tag k="ssr:stedsnr" v="472041" />
	</node>
	<node id="-26187" lat="60.5123138924" lon="5.64129445207">
		<tag k="highway" v="path" />
		<tag k="name" v="Nebbå" />
		<tag k="ssr:date" v="2016-05-10" />
		<tag k="ssr:stedsnr" v="591596" />
	</node>
	<node id="-25536" lat="60.5142027783" lon="5.47575277567">
		<tag k="ssr:gml_id" v="GEOMETRY_378a6778-5aa5-43be-aa26-83ba2dd9013c" />
		<tag k="ssr:gml_nr" v="1" />
	</node>
	<node id="-25535" lat="60.5206333335" lon="5.47840555372">
		<tag k="ssr:gml_id" v="GEOMETRY_7076e13d-3da1-437e-88c3-14f9e214a46a" />
		<tag k="ssr:gml_nr" v="0" />
	</node>
	<node id="-25534" lat="60.5026750009" lon="5.47570555394">
		<tag k="ssr:gml_id" v="GEOMETRY_e94e65f3-4c2b-44da-9974-aca72f2392b2" />
		<tag k="ssr:gml_nr" v="1" />
	</node>
	<node id="-25277" lat="60.5332972266" lon="5.5392361076">
		<tag k="bridge" v="yes" />
		<tag k="layer" v="1" />
		<tag k="name" v="Fitje" />
		<tag k="ssr:date" v="2016-05-11" />
		<tag k="ssr:stedsnr" v="897045" />
	</node>
	<node id="-25532" lat="60.5037611152" lon="5.53831666029">
		<tag k="bridge" v="yes" />
		<tag k="layer" v="1" />
		<tag k="name" v="Solbjørg" />
		<tag k="ssr:date" v="2016-05-10" />
		<tag k="ssr:stedsnr" v="108013" />
	</node>
	<node id="-25275" lat="60.5107722261" lon="5.43616388596">
		<tag k="bridge" v="yes" />
		<tag k="layer" v="1" />
		<tag k="name" v="Bullbrekka" />
		<tag k="ssr:date" v="2016-05-11" />
		<tag k="ssr:stedsnr" v="897044" />
	</node>
	<node id="-26426" lat="60.5243694446" lon="5.61604445181">
		<tag k="highway" v="path" />
		<tag k="name" v="Bustistallen" />
		<tag k="ssr:date" v="2016-05-11" />
		<tag k="ssr:stedsnr" v="712575" />
	</node>
	<node id="-25401" lat="60.5078361113" lon="5.49880833894">
		<tag k="bridge" v="yes" />
		<tag k="layer" v="1" />
		<tag k="name" v="Vevleelv" />
		<tag k="ssr:date" v="2016-05-10" />
		<tag k="ssr:stedsnr" v="47008" />
	</node>
	<node id="-25537" lat="60.5254749986" lon="5.48815277091">
		<tag k="ssr:gml_id" v="GEOMETRY_4f0e194a-2baf-4a9e-817d-05bfc0131c96" />
		<tag k="ssr:gml_nr" v="2" />
	</node>
	<node id="-25992" lat="60.5504250005" lon="5.50832499595">
		<tag k="name" v="Kossdalssvingane" />
		<tag k="ssr:date" v="2016-05-10" />
		<tag k="ssr:stedsnr" v="491618" />
	</node>
	<node id="-25818" lat="60.5046805552" lon="5.42622222066">
		<tag k="ssr:gml_id" v="GEOMETRY_df769654-c572-4551-b889-c9d2d68ffe7e" />
		<tag k="ssr:gml_nr" v="1" />
	</node>
	<node id="-25002" lat="60.6023777761" lon="5.51689443937">
		<tag k="bridge" v="yes" />
		<tag k="layer" v="1" />
		<tag k="name" v="Bernes" />
		<tag k="ssr:date" v="2016-05-10" />
		<tag k="ssr:stedsnr" v="290058" />
	</node>
	<node id="-25001" lat="60.5150305539" lon="5.5248388825">
		<tag k="bridge" v="yes" />
		<tag k="layer" v="1" />
		<tag k="name" v="Flatevad" />
		<tag k="ssr:date" v="2016-05-10" />
		<tag k="ssr:stedsnr" v="290053" />
	</node>
	<node id="-25000" lat="60.4792027802" lon="5.53935833054">
		<tag k="ssr:gml_id" v="GEOMETRY_30dbf793-d133-4843-8fd9-b0ded25b6545" />
		<tag k="ssr:gml_nr" v="1" />
	</node>
	<node id="-24999" lat="60.4789055574" lon="5.53863888156">
		<tag k="ssr:gml_id" v="GEOMETRY_b181ac72-3dad-4324-9f43-28cadf736f26" />
		<tag k="ssr:gml_nr" v="0" />
	</node>
	<node id="-26150" lat="60.4390805521" lon="5.60976666794">
		<tag k="ssr:gml_id" v="GEOMETRY_41805925-90e0-45c0-b82a-4bf70bfc607e" />
		<tag k="ssr:gml_nr" v="0" />
	</node>
	<node id="-24997" lat="60.4696055535" lon="5.53614999697">
		<tag k="bridge" v="yes" />
		<tag k="layer" v="1" />
		<tag k="name" v="Veset" />
		<tag k="ssr:date" v="2016-05-10" />
		<tag k="ssr:stedsnr" v="290005" />
	</node>
	<node id="-25191" lat="60.4702027736" lon="5.64132500853">
		<tag k="highway" v="path" />
		<tag k="name" v="Bjørnstien" />
		<tag k="ssr:date" v="2016-05-10" />
		<tag k="ssr:stedsnr" v="409573" />
	</node>
	<node id="-25221" lat="60.4565861092" lon="5.62114999529">
		<tag k="bridge" v="yes" />
		<tag k="layer" v="1" />
		<tag k="name" v="Skaftå" />
		<tag k="ssr:date" v="2016-05-10" />
		<tag k="ssr:stedsnr" v="411012" />
	</node>
	<node id="-26330" lat="60.4878194416" lon="5.55300833701">
		<tag k="bridge" v="yes" />
		<tag k="layer" v="1" />
		<tag k="name" v="Hartveit Sør" />
		<tag k="ssr:date" v="2016-05-10" />
		<tag k="ssr:stedsnr" v="654039" />
	</node>
	<node id="-25340" lat="60.4395138868" lon="5.54000832619">
		<tag k="ssr:gml_id" v="GEOMETRY_c7ac7fff-d588-4bd9-b529-47943bf112e5" />
		<tag k="ssr:gml_nr" v="2" />
	</node>
	<node id="-26884" lat="60.5059158294" lon="5.41683191018">
		<tag k="name" v="Runnhovda" />
		<tag k="ssr:date" v="2016-10-05" />
		<tag k="ssr:stedsnr" v="971932" />
	</node>
	<node id="-25334" lat="60.4658611138" lon="5.6979750046">
		<tag k="ssr:gml_id" v="GEOMETRY_9b71e6a8-6f39-4cb8-b1c3-b648e2e359ee" />
		<tag k="ssr:gml_nr" v="1" />
	</node>
	<node id="-25817" lat="60.5050694454" lon="5.42720555571">
		<tag k="ssr:gml_id" v="GEOMETRY_87b4ce8f-74fd-49db-b4e6-e4146f848d00" />
		<tag k="ssr:gml_nr" v="0" />
	</node>
	<node id="-24942" lat="60.5319972197" lon="5.49447223083">
		<tag k="ssr:gml_id" v="GEOMETRY_6351ba26-66f7-4de1-aeeb-523f39d559e2" />
		<tag k="ssr:gml_nr" v="0" />
	</node>
	<node id="-25234" lat="60.5507305593" lon="5.45705555728">
		<tag k="man_made" v="quay" />
		<tag k="name" v="Bysheim kai" />
		<tag k="place" v="locality" />
		<tag k="ssr:date" v="2016-05-11" />
		<tag k="ssr:stedsnr" v="894432" />
	</node>
	<node id="-25155" lat="60.6662638872" lon="5.61013054688">
		<tag k="ssr:gml_id" v="GEOMETRY_8490042f-cd81-4183-8528-c380974137c7" />
		<tag k="ssr:gml_nr" v="0" />
	</node>
	<node id="-25103" lat="60.5510944466" lon="5.54521110608">
		<tag k="bridge" v="yes" />
		<tag k="layer" v="1" />
		<tag k="name" v="Myking" />
		<tag k="ssr:date" v="2016-05-10" />
		<tag k="ssr:stedsnr" v="350043" />
	</node>
	<node id="-25102" lat="60.4535083296" lon="5.51182222347">
		<tag k="bridge" v="yes" />
		<tag k="layer" v="1" />
		<tag k="name" v="Stokke" />
		<tag k="ssr:date" v="2016-05-10" />
		<tag k="ssr:stedsnr" v="350006" />
	</node>
	<node id="-26151" lat="60.4390833369" lon="5.60976945098">
		<tag k="ssr:gml_id" v="GEOMETRY_8ebd2ab9-e35b-406b-9ee6-9acced4597d0" />
		<tag k="ssr:gml_nr" v="1" />
	</node>
	<node id="-26890" lat="60.4790427568" lon="5.52985168361">
		<tag k="name" v="Svehaugvegen" />
		<tag k="ssr:date" v="2016-10-05" />
		<tag k="ssr:stedsnr" v="971940" />
	</node>
	<node id="-26889" lat="60.5026689476" lon="5.50279427201">
		<tag k="name" v="Vevleheiane" />
		<tag k="ssr:date" v="2016-10-05" />
		<tag k="ssr:stedsnr" v="971942" />
	</node>
	<node id="-26888" lat="60.4729182618" lon="5.53864359537">
		<tag k="name" v="Hestabakken" />
		<tag k="ssr:date" v="2016-10-05" />
		<tag k="ssr:stedsnr" v="971938" />
	</node>
	<node id="-26887" lat="60.477123731" lon="5.6903500809">
		<tag k="name" v="Håhaugen" />
		<tag k="ssr:date" v="2016-10-05" />
		<tag k="ssr:stedsnr" v="971937" />
	</node>
	<node id="-26886" lat="60.5208711154" lon="5.50829424838">
		<tag k="name" v="Fugledalsåsen" />
		<tag k="ssr:date" v="2016-10-05" />
		<tag k="ssr:stedsnr" v="971936" />
	</node>
	<node id="-26885" lat="60.5223059323" lon="5.50171657045">
		<tag k="name" v="Fugledalsvegen" />
		<tag k="ssr:date" v="2016-10-05" />
		<tag k="ssr:stedsnr" v="971934" />
	</node>
	<node id="-24998" lat="60.6184777803" lon="5.5863583312">
		<tag k="bridge" v="yes" />
		<tag k="layer" v="1" />
		<tag k="name" v="Tyssebotn" />
		<tag k="ssr:date" v="2016-05-10" />
		<tag k="ssr:stedsnr" v="290013" />
	</node>
	<node id="-26883" lat="60.5118587671" lon="5.48035834894">
		<tag k="name" v="Stuttåsen" />
		<tag k="ssr:date" v="2016-10-05" />
		<tag k="ssr:stedsnr" v="971933" />
	</node>
	<node id="-26882" lat="60.5076314212" lon="5.45209063725">
		<tag k="name" v="Træshaugledet" />
		<tag k="ssr:date" v="2016-10-05" />
		<tag k="ssr:stedsnr" v="971930" />
	</node>
	<node id="-26881" lat="60.5086446845" lon="5.45115119435">
		<tag k="name" v="Godversstykket" />
		<tag k="ssr:date" v="2016-10-05" />
		<tag k="ssr:stedsnr" v="971928" />
	</node>
	<way id="-5945">
		<tag k="layer" v="-1" />
		<tag k="name" v="Borgatunnelen" />
		<tag k="ssr:date" v="2016-05-10" />
		<tag k="ssr:stedsnr" v="120260" />
		<tag k="tunnel" v="yes" />
		<nd ref="-25535" />
		<nd ref="-25536" />
		<nd ref="-25537" />
	</way>
	<way id="-5944">
		<tag k="bridge" v="yes" />
		<tag k="layer" v="1" />
		<tag k="name" v="Hauge Sør" />
		<tag k="ssr:date" v="2016-05-10" />
		<tag k="ssr:stedsnr" v="108045" />
		<nd ref="-25533" />
		<nd ref="-25534" />
	</way>
	<way id="-5912">
		<tag k="name" v="Askjelneset lykt" />
		<tag k="old_name" v="Askildsnes;Askilnes" />
		<tag k="ssr:date" v="2016-05-10" />
		<tag k="ssr:stedsnr" v="391673" />
		<nd ref="-25155" />
		<nd ref="-25156" />
	</way>
	<way id="-5929">
		<tag k="layer" v="-1" />
		<tag k="name" v="Tirås" />
		<tag k="ssr:date" v="2016-05-10" />
		<tag k="ssr:stedsnr" v="44691" />
		<tag k="tunnel" v="yes" />
		<nd ref="-25338" />
		<nd ref="-25339" />
		<nd ref="-25340" />
	</way>
	<way id="-5928">
		<tag k="alt_name" v="Ulsnesøy" />
		<tag k="name" v="Ulsnesøy lykt" />
		<tag k="ssr:date" v="2016-05-10" />
		<tag k="ssr:stedsnr" v="43843" />
		<nd ref="-25333" />
		<nd ref="-25334" />
	</way>
	<way id="-5927">
		<tag k="alt_name" v="Kvitsteinhella" />
		<tag k="name" v="Kvitsteinhella lykt" />
		<tag k="ssr:date" v="2016-05-10" />
		<tag k="ssr:stedsnr" v="43837" />
		<nd ref="-25330" />
		<nd ref="-25331" />
		<nd ref="-25332" />
	</way>
	<way id="-5989">
		<tag k="alt_name" v="Ferjekai" />
		<tag k="amenity" v="ferry_terminal" />
		<tag k="name" v="Valestrand ferjekai" />
		<tag k="ssr:date" v="2016-05-10" />
		<tag k="ssr:stedsnr" v="229012" />
		<nd ref="-25817" />
		<nd ref="-25818" />
	</way>
	<way id="-5892">
		<tag k="bridge" v="yes" />
		<tag k="layer" v="1" />
		<tag k="name" v="Mæle" />
		<tag k="ssr:date" v="2016-05-10" />
		<tag k="ssr:stedsnr" v="290016" />
		<nd ref="-24999" />
		<nd ref="-25000" />
	</way>
	<way id="-6051">
		<tag k="alt_name" v="Stokkenes" />
		<tag k="name" v="Stokkenes lykt" />
		<tag k="ssr:date" v="2016-05-10" />
		<tag k="ssr:stedsnr" v="589854" />
		<nd ref="-26150" />
		<nd ref="-26151" />
	</way>
	<way id="-5889">
		<tag k="layer" v="-1" />
		<tag k="name" v="Lonevåg" />
		<tag k="ssr:date" v="2016-05-10" />
		<tag k="ssr:stedsnr" v="287332" />
		<tag k="tunnel" v="yes" />
		<nd ref="-24942" />
		<nd ref="-24943" />
		<nd ref="-24944" />
	</way>
</osm>
