<?xml version="1.0" encoding="UTF-8"?>
<osm generator="osmapis" version="0.6">
	<node id="-18431" lat="60.6758555568" lon="10.6866499937">
		<tag k="landuse" v="meadow" />
		<tag k="name" v="Blåflat" />
		<tag k="ssr:date" v="2016-05-10" />
		<tag k="ssr:stedsnr" v="116521" />
	</node>
	<node id="-19453" lat="60.5186000033" lon="10.6998305519">
		<tag k="ssr:gml_id" v="GEOMETRY_1fd4ef9c-75d5-4234-be9e-1fd724ab69b3" />
		<tag k="ssr:gml_nr" v="1" />
	</node>
	<node id="-19452" lat="60.5186000026" lon="10.6998277827">
		<tag k="ssr:gml_id" v="GEOMETRY_cb45e102-0630-4b7d-bba6-2b108e7493cf" />
		<tag k="ssr:gml_nr" v="0" />
	</node>
	<node id="-18341" lat="60.5640138901" lon="10.5478249989">
		<tag k="ssr:gml_id" v="GEOMETRY_747f98e9-8f1a-4a33-8a6b-51f336f3f30e" />
		<tag k="ssr:gml_nr" v="1" />
	</node>
	<node id="-18297" lat="60.6788916654" lon="10.5154527696">
		<tag k="ssr:gml_id" v="GEOMETRY_22558652-c239-4c3d-8697-5f61b56605db" />
		<tag k="ssr:gml_nr" v="1" />
	</node>
	<node id="-18296" lat="60.6788944447" lon="10.515455555">
		<tag k="ssr:gml_id" v="GEOMETRY_8d3f4632-f5e5-4c04-9606-bed3abf87780" />
		<tag k="ssr:gml_nr" v="0" />
	</node>
	<node id="-19060" lat="60.5970277743" lon="10.5405305618">
		<tag k="name" v="Hågårmoen" />
		<tag k="natural" v="wood" />
		<tag k="ssr:date" v="2016-05-10" />
		<tag k="ssr:stedsnr" v="645569" />
	</node>
	<node id="-19059" lat="60.5565694428" lon="10.5748250049">
		<tag k="name" v="Prestemarka" />
		<tag k="natural" v="wood" />
		<tag k="ssr:date" v="2016-05-10" />
		<tag k="ssr:stedsnr" v="639716" />
	</node>
	<node id="-18930" lat="60.5655500037" lon="10.6777388878">
		<tag k="ssr:gml_id" v="GEOMETRY_00a47832-797d-422e-ba97-cb16c75d88be" />
		<tag k="ssr:gml_nr" v="1" />
	</node>
	<node id="-18033" lat="60.6377000029" lon="10.5865555587">
		<tag k="historic" v="summer_mountain_farm" />
		<tag k="landuse" v="meadow" />
		<tag k="name" v="Hermanrudvollen" />
		<tag k="place" v="locality" />
		<tag k="ssr:date" v="2016-05-10" />
		<tag k="ssr:stedsnr" v="284386" />
	</node>
	<node id="-19439" lat="60.7119666657" lon="10.556761112">
		<tag k="ssr:gml_id" v="GEOMETRY_7f9aa2a2-c592-4b90-8cc9-bc470c11601c" />
		<tag k="ssr:gml_nr" v="1" />
	</node>
	<node id="-19438" lat="60.7105361098" lon="10.5545361152">
		<tag k="ssr:gml_id" v="GEOMETRY_9de4c5d1-c3d0-4638-9dbd-9a9ca6a41ff6" />
		<tag k="ssr:gml_nr" v="0" />
	</node>
	<node id="-18669" lat="60.5175297038" lon="10.6474772728">
		<tag k="name" v="Stormyra" />
		<tag k="natural" v="wetland" />
		<tag k="ssr:date" v="2018-02-21" />
		<tag k="ssr:stedsnr" v="250065" />
	</node>
	<node id="-19475" lat="60.7028861099" lon="10.5278388811">
		<tag k="ssr:gml_id" v="GEOMETRY_b0dc5af1-6f6e-4f54-b5a1-d9778e94a446" />
		<tag k="ssr:gml_nr" v="0" />
	</node>
	<node id="-18411" lat="60.5752277793" lon="10.5534166676">
		<tag k="name" v="Teljemyra" />
		<tag k="natural" v="wetland" />
		<tag k="ssr:date" v="2016-05-10" />
		<tag k="ssr:stedsnr" v="97591" />
	</node>
	<node id="-18922" lat="60.7070500028" lon="10.6157111033">
		<tag k="ssr:gml_id" v="GEOMETRY_d3194038-d8bf-44d1-93a6-4ace233a00c2" />
		<tag k="ssr:gml_nr" v="1" />
	</node>
	<node id="-18921" lat="60.7070499962" lon="10.6157138883">
		<tag k="ssr:gml_id" v="GEOMETRY_a1281a54-f25c-4f75-b99f-e62a1ed7ba34" />
		<tag k="ssr:gml_nr" v="0" />
	</node>
	<node id="-19044" lat="60.7376777786" lon="10.5869750028">
		<tag k="alt_name" v="Villåsengen" />
		<tag k="landuse" v="meadow" />
		<tag k="name" v="Villåsenga" />
		<tag k="ssr:date" v="2016-05-10" />
		<tag k="ssr:stedsnr" v="613461" />
	</node>
	<node id="-18657" lat="60.7087916688" lon="10.702624991">
		<tag k="ssr:gml_id" v="GEOMETRY_7bd66273-bc9f-4917-b579-0b53d8e7af33" />
		<tag k="ssr:gml_nr" v="1" />
	</node>
	<node id="-18528" lat="60.6710638928" lon="10.5384472237">
		<tag k="name" v="Granumsmyra" />
		<tag k="natural" v="wetland" />
		<tag k="ssr:date" v="2016-05-10" />
		<tag k="ssr:stedsnr" v="162783" />
	</node>
	<node id="-18143" lat="60.6324361086" lon="10.5888916722">
		<tag k="name" v="Vadmyra" />
		<tag k="natural" v="wetland" />
		<tag k="ssr:date" v="2016-05-10" />
		<tag k="ssr:stedsnr" v="344403" />
	</node>
	<node id="-18141" lat="60.6374805513" lon="10.5492972186">
		<tag k="name" v="Skriverskogen" />
		<tag k="natural" v="wood" />
		<tag k="ssr:date" v="2016-05-10" />
		<tag k="ssr:stedsnr" v="344384" />
	</node>
	<node id="-18523" lat="60.7145527819" lon="10.52921667">
		<tag k="historic" v="summer_mountain_farm" />
		<tag k="landuse" v="meadow" />
		<tag k="name" v="Nordsetervollen" />
		<tag k="place" v="locality" />
		<tag k="ssr:date" v="2016-05-10" />
		<tag k="ssr:stedsnr" v="162339" />
	</node>
	<node id="-18776" lat="60.7180638865" lon="10.6979361156">
		<tag k="name" v="Refsmyra" />
		<tag k="natural" v="wetland" />
		<tag k="ssr:date" v="2016-05-10" />
		<tag k="ssr:stedsnr" v="466798" />
	</node>
	<node id="-18340" lat="60.5640166649" lon="10.5478250038">
		<tag k="ssr:gml_id" v="GEOMETRY_f60c6acf-a037-49de-aa31-0abac34b1380" />
		<tag k="ssr:gml_nr" v="0" />
	</node>
	<node id="-18902" lat="60.6539361098" lon="10.5574916692">
		<tag k="ssr:gml_id" v="GEOMETRY_13a2378c-fb00-4101-8af7-a957aa7321c6" />
		<tag k="ssr:gml_nr" v="1" />
	</node>
	<node id="-18901" lat="60.6554194432" lon="10.5581722179">
		<tag k="ssr:gml_id" v="GEOMETRY_3a4ba3ae-6b1c-4767-a046-937ea6a4a31d" />
		<tag k="ssr:gml_nr" v="0" />
	</node>
	<node id="-18388" lat="60.6838527755" lon="10.5190000066">
		<tag k="ssr:gml_id" v="GEOMETRY_79d0a11f-317b-4dbb-93d9-da38c1b5a545" />
		<tag k="ssr:gml_nr" v="1" />
	</node>
	<node id="-18387" lat="60.6893416669" lon="10.5169027729">
		<tag k="ssr:gml_id" v="GEOMETRY_881b013c-4b30-4f6b-9231-d7c60ec70259" />
		<tag k="ssr:gml_nr" v="0" />
	</node>
	<node id="-18770" lat="60.6540555531" lon="10.5657527867">
		<tag k="name" v="Saksebøle" />
		<tag k="natural" v="wood" />
		<tag k="ssr:date" v="2016-05-10" />
		<tag k="ssr:stedsnr" v="466408" />
	</node>
	<node id="-19152" lat="60.5741916685" lon="10.591069452">
		<tag k="name" v="Stormyra" />
		<tag k="natural" v="wetland" />
		<tag k="ssr:date" v="2016-05-11" />
		<tag k="ssr:stedsnr" v="703611" />
	</node>
	<node id="-18766" lat="60.6846694467" lon="10.5148527758">
		<tag k="historic" v="summer_mountain_farm" />
		<tag k="landuse" v="meadow" />
		<tag k="name" v="Lunnasetervollen" />
		<tag k="place" v="locality" />
		<tag k="ssr:date" v="2016-05-10" />
		<tag k="ssr:stedsnr" v="465450" />
	</node>
	<node id="-19019" lat="60.661397226" lon="10.5750749986">
		<tag k="ssr:gml_id" v="GEOMETRY_46d3fe94-0608-4c19-a6a0-f1b46a473402" />
		<tag k="ssr:gml_nr" v="1" />
	</node>
	<node id="-19530" lat="60.574708335" lon="10.5337722286">
		<tag k="name" v="Skreppmarka" />
		<tag k="natural" v="wood" />
		<tag k="ssr:date" v="2016-05-11" />
		<tag k="ssr:stedsnr" v="951819" />
	</node>
	<node id="-18761" lat="60.5183861108" lon="10.6676333294">
		<tag k="historic" v="summer_mountain_farm" />
		<tag k="landuse" v="meadow" />
		<tag k="name" v="Lundvollen" />
		<tag k="place" v="locality" />
		<tag k="ssr:date" v="2016-05-10" />
		<tag k="ssr:stedsnr" v="457524" />
	</node>
	<node id="-18245" lat="60.6756611132" lon="10.4934500003">
		<tag k="name" v="Skjærdalsmarka" />
		<tag k="natural" v="wood" />
		<tag k="ssr:date" v="2016-05-11" />
		<tag k="ssr:stedsnr" v="890493" />
	</node>
	<node id="-18656" lat="60.7094833293" lon="10.697538886">
		<tag k="ssr:gml_id" v="GEOMETRY_c02e28e9-179b-481c-9fce-69dc8342b39b" />
		<tag k="ssr:gml_nr" v="0" />
	</node>
	<node id="-18626" lat="60.6116666695" lon="10.5643750091">
		<tag k="name" v="Hågårmoen" />
		<tag k="natural" v="wood" />
		<tag k="ssr:date" v="2016-05-10" />
		<tag k="ssr:stedsnr" v="223638" />
	</node>
	<node id="-18624" lat="60.6630277813" lon="10.5981583294">
		<tag k="name" v="Karlstad" />
		<tag k="natural" v="wood" />
		<tag k="ssr:date" v="2016-05-10" />
		<tag k="ssr:stedsnr" v="223402" />
	</node>
	<node id="-18623" lat="60.6350083344" lon="10.5479194426">
		<tag k="name" v="Skjelbreimyra" />
		<tag k="natural" v="wetland" />
		<tag k="ssr:date" v="2016-05-10" />
		<tag k="ssr:stedsnr" v="223388" />
	</node>
	<node id="-19517" lat="60.6566694447" lon="10.5877083411">
		<tag k="name" v="Evjumyra" />
		<tag k="natural" v="wetland" />
		<tag k="ssr:date" v="2016-05-11" />
		<tag k="ssr:stedsnr" v="951381" />
	</node>
	<node id="-19516" lat="60.7090611101" lon="10.5248527826">
		<tag k="name" v="Koppmyra" />
		<tag k="natural" v="wetland" />
		<tag k="ssr:date" v="2016-05-11" />
		<tag k="ssr:stedsnr" v="951324" />
	</node>
	<node id="-19018" lat="60.6614000041" lon="10.5750777692">
		<tag k="ssr:gml_id" v="GEOMETRY_c06fa86d-982d-4efc-aec8-35011a30a6b0" />
		<tag k="ssr:gml_nr" v="0" />
	</node>
	<node id="-18874" lat="60.6943999994" lon="10.6858972241">
		<tag k="name" v="Finstadmyra" />
		<tag k="natural" v="wetland" />
		<tag k="ssr:date" v="2016-05-10" />
		<tag k="ssr:stedsnr" v="541083" />
	</node>
	<node id="-19511" lat="60.6311666685" lon="10.6660000019">
		<tag k="name" v="Furumyra" />
		<tag k="natural" v="wetland" />
		<tag k="ssr:date" v="2016-05-11" />
		<tag k="ssr:stedsnr" v="936555" />
	</node>
	<node id="-19264" lat="60.5924083293" lon="10.5890611055">
		<tag k="name" v="Prestmarka" />
		<tag k="natural" v="wood" />
		<tag k="ssr:date" v="2016-05-11" />
		<tag k="ssr:stedsnr" v="767580" />
	</node>
	<node id="-18356" lat="60.667677774" lon="10.5711861087">
		<tag k="ssr:gml_id" v="GEOMETRY_68f91e16-dcc8-4c9f-8435-68b936226dc4" />
		<tag k="ssr:gml_nr" v="1" />
	</node>
	<node id="-18355" lat="60.6676805523" lon="10.5711888796">
		<tag k="ssr:gml_id" v="GEOMETRY_2141a516-cda6-4a5a-9a1d-097b65198ba2" />
		<tag k="ssr:gml_nr" v="0" />
	</node>
	<node id="-18931" lat="60.5665444412" lon="10.6769611115">
		<tag k="ssr:gml_id" v="GEOMETRY_d28303e1-ed22-435e-b584-a624efa26b5f" />
		<tag k="ssr:gml_nr" v="2" />
	</node>
	<node id="-18093" lat="60.6293138908" lon="10.639441668">
		<tag k="ssr:gml_id" v="GEOMETRY_f0de30c1-6518-409c-ae15-c5e6ac5a4e9b" />
		<tag k="ssr:gml_nr" v="1" />
	</node>
	<node id="-18092" lat="60.6293166677" lon="10.6394444414">
		<tag k="ssr:gml_id" v="GEOMETRY_840587ed-cd10-4864-8b7a-69a8edb2a992" />
		<tag k="ssr:gml_nr" v="0" />
	</node>
	<node id="-19240" lat="60.71924167" lon="10.5614999926">
		<tag k="ssr:gml_id" v="GEOMETRY_7ce03e43-48b5-4e70-8961-56f8c8bd9a32" />
		<tag k="ssr:gml_nr" v="1" />
	</node>
	<node id="-19239" lat="60.7192388916" lon="10.5614972181">
		<tag k="ssr:gml_id" v="GEOMETRY_96ab4ee8-8491-4f15-bb18-73b0b82e9b7c" />
		<tag k="ssr:gml_nr" v="0" />
	</node>
	<node id="-18470" lat="60.654408337" lon="10.5401888888">
		<tag k="ssr:gml_id" v="GEOMETRY_3069d0fb-d3f1-497b-93ac-e4f6f1be8b1e" />
		<tag k="ssr:gml_nr" v="2" />
	</node>
	<node id="-18929" lat="60.5655500026" lon="10.6777361145">
		<tag k="ssr:gml_id" v="GEOMETRY_9df79609-b0f1-4222-a81c-69d586314405" />
		<tag k="ssr:gml_nr" v="0" />
	</node>
	<node id="-18468" lat="60.6570583316" lon="10.5437444464">
		<tag k="ssr:gml_id" v="GEOMETRY_529fe2c8-b49b-4a59-b313-4deb8bdad997" />
		<tag k="ssr:gml_nr" v="0" />
	</node>
	<node id="-18081" lat="60.5852083322" lon="10.5399055521">
		<tag k="ssr:gml_id" v="GEOMETRY_f57000a0-3aa9-4b59-b060-33fce251ff19" />
		<tag k="ssr:gml_nr" v="1" />
	</node>
	<node id="-18080" lat="60.585211111" lon="10.5399083314">
		<tag k="ssr:gml_id" v="GEOMETRY_85b33c1f-a5b4-45a5-9ecb-cc3a5364b2ce" />
		<tag k="ssr:gml_nr" v="0" />
	</node>
	<node id="-19482" lat="60.7177499979" lon="10.6951999909">
		<tag k="ssr:gml_id" v="GEOMETRY_4f915c1d-da9c-4a93-934d-b00a53d5c0f7" />
		<tag k="ssr:gml_nr" v="1" />
	</node>
	<node id="-19481" lat="60.7177527735" lon="10.6952027768">
		<tag k="ssr:gml_id" v="GEOMETRY_c7661df3-c313-4b49-8579-8c893d63f011" />
		<tag k="ssr:gml_nr" v="0" />
	</node>
	<node id="-18200" lat="60.6968888889" lon="10.5578111103">
		<tag k="ssr:gml_id" v="GEOMETRY_631ad5f6-6871-4960-9d05-2949b073bfac" />
		<tag k="ssr:gml_nr" v="0" />
	</node>
	<node id="-18840" lat="60.694608335" lon="10.5304833413">
		<tag k="ssr:gml_id" v="GEOMETRY_58f16fa8-302d-4637-825c-ecf922e2df66" />
		<tag k="ssr:gml_nr" v="0" />
	</node>
	<node id="-18326" lat="60.7068527744" lon="10.5600750006">
		<tag k="name" v="Rundmyra" />
		<tag k="natural" v="wetland" />
		<tag k="ssr:date" v="2016-05-10" />
		<tag k="ssr:stedsnr" v="40440" />
	</node>
	<node id="-18841" lat="60.6946055561" lon="10.5304805533">
		<tag k="ssr:gml_id" v="GEOMETRY_db02daf4-d1c9-456f-8aa7-1c6e1d473e0b" />
		<tag k="ssr:gml_nr" v="1" />
	</node>
	<node id="-19476" lat="60.7032222193" lon="10.5268777825">
		<tag k="ssr:gml_id" v="GEOMETRY_4c10c0d8-9de5-497a-ae74-9ec1ffbdeeb8" />
		<tag k="ssr:gml_nr" v="1" />
	</node>
	<node id="-18323" lat="60.5970416644" lon="10.5548833317">
		<tag k="name" v="Mærramyra" />
		<tag k="natural" v="wetland" />
		<tag k="ssr:date" v="2016-05-10" />
		<tag k="ssr:stedsnr" v="39534" />
	</node>
	<node id="-18469" lat="60.6518666667" lon="10.5384277814">
		<tag k="ssr:gml_id" v="GEOMETRY_e403a372-02e6-41f0-b84a-f6e753797397" />
		<tag k="ssr:gml_nr" v="1" />
	</node>
	<node id="-18448" lat="60.6053277782" lon="10.5583999962">
		<tag k="ssr:gml_id" v="GEOMETRY_ed2086ab-690e-41e8-80b1-cf7a143e0008" />
		<tag k="ssr:gml_nr" v="1" />
	</node>
	<node id="-18447" lat="60.6053305566" lon="10.5584027788">
		<tag k="ssr:gml_id" v="GEOMETRY_66887bd4-f331-4dc4-af61-4d844e138150" />
		<tag k="ssr:gml_nr" v="0" />
	</node>
	<node id="-18201" lat="60.6968861104" lon="10.5578083381">
		<tag k="ssr:gml_id" v="GEOMETRY_16af9b79-a748-4d89-ad68-5f42acbc34c5" />
		<tag k="ssr:gml_nr" v="1" />
	</node>
	<node id="-18976" lat="60.7208861087" lon="10.5854694417">
		<tag k="landuse" v="farmland" />
		<tag k="name" v="Nysethagen" />
		<tag k="ssr:date" v="2016-05-10" />
		<tag k="ssr:stedsnr" v="587928" />
	</node>
	<node id="-19464" lat="60.6366138919" lon="10.5493444478">
		<tag k="ssr:gml_id" v="GEOMETRY_fa50bf1a-30a2-4d65-95fe-972ce720d546" />
		<tag k="ssr:gml_nr" v="1" />
	</node>
	<node id="-19463" lat="60.6366111134" lon="10.5493416633">
		<tag k="ssr:gml_id" v="GEOMETRY_1e98077e-e6cf-4e5f-b8cd-8c693e96b10b" />
		<tag k="ssr:gml_nr" v="0" />
	</node>
	<node id="-18305" lat="60.7348111087" lon="10.6676194367">
		<tag k="ssr:gml_id" v="GEOMETRY_3cc276c1-9e28-4e5f-94a6-f47913084a4d" />
		<tag k="ssr:gml_nr" v="0" />
	</node>
	<node id="-19075" lat="60.7255444464" lon="10.5492944493">
		<tag k="name" v="Nysetermarka" />
		<tag k="natural" v="wood" />
		<tag k="ssr:date" v="2016-05-10" />
		<tag k="ssr:stedsnr" v="647933" />
	</node>
	<node id="-18306" lat="60.7348083323" lon="10.66761667">
		<tag k="ssr:gml_id" v="GEOMETRY_57a9cd95-13d0-499a-879b-127959658a1c" />
		<tag k="ssr:gml_nr" v="1" />
	</node>
	<node id="-18689" lat="60.679644445" lon="10.685786108">
		<tag k="name" v="Danmark" />
		<tag k="natural" v="wetland" />
		<tag k="ssr:date" v="2016-05-10" />
		<tag k="ssr:stedsnr" v="419499" />
	</node>
	<way id="-4988">
		<tag k="alt_name" v="Setermyra" />
		<tag k="name" v="Sætermyrene" />
		<tag k="natural" v="wetland" />
		<tag k="ssr:date" v="2016-05-10" />
		<tag k="ssr:stedsnr" v="67305" />
		<nd ref="-18355" />
		<nd ref="-18356" />
	</way>
	<way id="-4981">
		<tag k="name" v="Demningsmyra" />
		<tag k="natural" v="wetland" />
		<tag k="ssr:date" v="2016-05-10" />
		<tag k="ssr:stedsnr" v="67156" />
		<nd ref="-18340" />
		<nd ref="-18341" />
	</way>
	<way id="-5352">
		<tag k="name" v="Rørmyra" />
		<tag k="natural" v="wetland" />
		<tag k="ssr:date" v="2016-05-11" />
		<tag k="ssr:stedsnr" v="917327" />
		<nd ref="-19475" />
		<nd ref="-19476" />
	</way>
	<way id="-4972">
		<tag k="name" v="Lerudmyra" />
		<tag k="natural" v="wetland" />
		<tag k="ssr:date" v="2016-05-10" />
		<tag k="ssr:stedsnr" v="7417" />
		<nd ref="-18305" />
		<nd ref="-18306" />
	</way>
	<way id="-5355">
		<tag k="alt_name" v="Malterudmyra" />
		<tag k="name" v="Malterudmyrene" />
		<tag k="natural" v="wetland" />
		<tag k="ssr:date" v="2016-05-11" />
		<tag k="ssr:stedsnr" v="917357" />
		<nd ref="-19481" />
		<nd ref="-19482" />
	</way>
	<way id="-4968">
		<tag k="name" v="Hellingsmyra" />
		<tag k="natural" v="wetland" />
		<tag k="ssr:date" v="2016-05-10" />
		<tag k="ssr:stedsnr" v="7330" />
		<nd ref="-18296" />
		<nd ref="-18297" />
	</way>
	<way id="-5346">
		<tag k="name" v="Jønnmyra" />
		<tag k="natural" v="wetland" />
		<tag k="ssr:date" v="2016-05-11" />
		<tag k="ssr:stedsnr" v="917185" />
		<nd ref="-19463" />
		<nd ref="-19464" />
	</way>
	<way id="-5087">
		<tag k="name" v="Helsetmyra" />
		<tag k="natural" v="wetland" />
		<tag k="ssr:date" v="2016-05-10" />
		<tag k="ssr:stedsnr" v="249397" />
		<nd ref="-18656" />
		<nd ref="-18657" />
	</way>
	<way id="-5341">
		<tag k="name" v="Rundmyra" />
		<tag k="natural" v="wetland" />
		<tag k="ssr:date" v="2016-05-11" />
		<tag k="ssr:stedsnr" v="917060" />
		<nd ref="-19452" />
		<nd ref="-19453" />
	</way>
	<way id="-5340">
		<tag k="name" v="Bradalsmyra" />
		<tag k="natural" v="wetland" />
		<tag k="ssr:date" v="2016-05-11" />
		<tag k="ssr:stedsnr" v="857438" />
		<nd ref="-19438" />
		<nd ref="-19439" />
	</way>
	<way id="-5206">
		<tag k="alt_name" v="Sorgenmyra" />
		<tag k="name" v="Sørgenmyra" />
		<tag k="natural" v="wetland" />
		<tag k="ssr:date" v="2016-05-10" />
		<tag k="ssr:stedsnr" v="613314" />
		<nd ref="-19018" />
		<nd ref="-19019" />
	</way>
	<way id="-4940">
		<tag k="name" v="Langmyra" />
		<tag k="natural" v="wetland" />
		<tag k="ssr:date" v="2016-05-10" />
		<tag k="ssr:stedsnr" v="371335" />
		<nd ref="-18200" />
		<nd ref="-18201" />
	</way>
	<way id="-5178">
		<tag k="alt_name" v="Geitryggmyra" />
		<tag k="name" v="Geiteryggmyra" />
		<tag k="natural" v="wetland" />
		<tag k="ssr:date" v="2016-05-10" />
		<tag k="ssr:stedsnr" v="553119" />
		<nd ref="-18929" />
		<nd ref="-18930" />
		<nd ref="-18931" />
	</way>
	<way id="-5174">
		<tag k="landuse" v="farmland" />
		<tag k="name" v="Dragerskogen" />
		<tag k="ssr:date" v="2016-05-10" />
		<tag k="ssr:stedsnr" v="552439" />
		<nd ref="-18921" />
		<nd ref="-18922" />
	</way>
	<way id="-5165">
		<tag k="name" v="Langmyra" />
		<tag k="natural" v="wetland" />
		<tag k="ssr:date" v="2016-05-10" />
		<tag k="ssr:stedsnr" v="552276" />
		<nd ref="-18901" />
		<nd ref="-18902" />
	</way>
	<way id="-4902">
		<tag k="name" v="Fjerdingsmyra" />
		<tag k="natural" v="wetland" />
		<tag k="ssr:date" v="2016-05-10" />
		<tag k="ssr:stedsnr" v="310207" />
		<nd ref="-18092" />
		<nd ref="-18093" />
	</way>
	<way id="-5029">
		<tag k="name" v="Stormyra" />
		<tag k="natural" v="wetland" />
		<tag k="ssr:date" v="2016-05-10" />
		<tag k="ssr:stedsnr" v="128225" />
		<nd ref="-18468" />
		<nd ref="-18469" />
		<nd ref="-18470" />
	</way>
	<way id="-4897">
		<tag k="name" v="Smalvikmyra" />
		<tag k="natural" v="wetland" />
		<tag k="ssr:date" v="2016-05-10" />
		<tag k="ssr:stedsnr" v="310151" />
		<nd ref="-18080" />
		<nd ref="-18081" />
	</way>
	<way id="-5150">
		<tag k="name" v="Driterbakkmyra" />
		<tag k="natural" v="wetland" />
		<tag k="ssr:date" v="2016-05-10" />
		<tag k="ssr:stedsnr" v="492362" />
		<nd ref="-18840" />
		<nd ref="-18841" />
	</way>
	<way id="-5019">
		<tag k="name" v="Snurumyra" />
		<tag k="natural" v="wetland" />
		<tag k="ssr:date" v="2016-05-10" />
		<tag k="ssr:stedsnr" v="128171" />
		<nd ref="-18447" />
		<nd ref="-18448" />
	</way>
	<way id="-5273">
		<tag k="name" v="Rosetmyra" />
		<tag k="natural" v="wetland" />
		<tag k="ssr:date" v="2016-05-11" />
		<tag k="ssr:stedsnr" v="735414" />
		<nd ref="-19239" />
		<nd ref="-19240" />
	</way>
	<way id="-5003">
		<tag k="name" v="Lunnasætermyra" />
		<tag k="natural" v="wetland" />
		<tag k="ssr:date" v="2016-05-10" />
		<tag k="ssr:stedsnr" v="68342" />
		<nd ref="-18387" />
		<nd ref="-18388" />
	</way>
</osm>
