<?xml version="1.0" encoding="UTF-8"?>
<osm generator="osmapis" version="0.6">
	<node id="-18432" lat="60.6598416682" lon="10.6629583249">
		<tag k="name" v="Tjernvegen" />
		<tag k="ssr:date" v="2016-05-10" />
		<tag k="ssr:stedsnr" v="116745" />
	</node>
	<node id="-18428" lat="60.7093361122" lon="10.6052944431">
		<tag k="name" v="Hunnselvvegen" />
		<tag k="ssr:date" v="2016-05-10" />
		<tag k="ssr:stedsnr" v="116919" />
	</node>
	<node id="-18427" lat="60.5915333364" lon="10.5738666582">
		<tag k="bridge" v="yes" />
		<tag k="layer" v="1" />
		<tag k="name" v="Skreppa" />
		<tag k="ssr:date" v="2016-05-10" />
		<tag k="ssr:stedsnr" v="107080" />
	</node>
	<node id="-19450" lat="60.7138361149" lon="10.617927774">
		<tag k="name" v="Harevegen" />
		<tag k="ssr:date" v="2016-05-11" />
		<tag k="ssr:stedsnr" v="905925" />
	</node>
	<node id="-19449" lat="60.7241694477" lon="10.6166333274">
		<tag k="name" v="Korterudvegen" />
		<tag k="ssr:date" v="2016-05-11" />
		<tag k="ssr:stedsnr" v="905867" />
	</node>
	<node id="-19448" lat="60.7227166694" lon="10.610344441">
		<tag k="name" v="Pumpevegen" />
		<tag k="ssr:date" v="2016-05-11" />
		<tag k="ssr:stedsnr" v="905812" />
	</node>
	<node id="-19446" lat="60.6606555551" lon="10.6711055541">
		<tag k="name" v="Tyttebærstien" />
		<tag k="ssr:date" v="2016-05-11" />
		<tag k="ssr:stedsnr" v="905755" />
	</node>
	<node id="-18420" lat="60.7277944404" lon="10.6235638901">
		<tag k="name" v="Øvre Kortaveg" />
		<tag k="ssr:date" v="2016-05-10" />
		<tag k="ssr:stedsnr" v="101882" />
	</node>
	<node id="-19443" lat="60.6800805552" lon="10.6250944428">
		<tag k="name" v="Myrvegen" />
		<tag k="ssr:date" v="2016-05-11" />
		<tag k="ssr:stedsnr" v="905236" />
	</node>
	<node id="-18771" lat="60.6568638897" lon="10.5642444424">
		<tag k="junction" v="yes" />
		<tag k="name" v="Vesteråsvegskillet" />
		<tag k="place" v="locality" />
		<tag k="ssr:date" v="2016-05-10" />
		<tag k="ssr:stedsnr" v="466409" />
	</node>
	<node id="-18415" lat="60.7202916646" lon="10.6045027834">
		<tag k="name" v="Badelandvegen" />
		<tag k="ssr:date" v="2016-05-10" />
		<tag k="ssr:stedsnr" v="101161" />
	</node>
	<node id="-18414" lat="60.7178999998" lon="10.5918277798">
		<tag k="name" v="Lønnbergvegen" />
		<tag k="ssr:date" v="2016-05-10" />
		<tag k="ssr:stedsnr" v="101158" />
	</node>
	<node id="-18404" lat="60.7514583376" lon="10.6262527749">
		<tag k="ssr:gml_id" v="GEOMETRY_6a3df704-cc8e-42f3-a7a8-ef7d3e44f6e2" />
		<tag k="ssr:gml_nr" v="1" />
	</node>
	<node id="-18403" lat="60.7514166674" lon="10.6262055618">
		<tag k="ssr:gml_id" v="GEOMETRY_ca225c9c-cf91-4126-95c8-5200580641bd" />
		<tag k="ssr:gml_nr" v="0" />
	</node>
	<node id="-18426" lat="60.5276333325" lon="10.6314000012">
		<tag k="bridge" v="yes" />
		<tag k="layer" v="1" />
		<tag k="name" v="Sandbakken" />
		<tag k="ssr:date" v="2016-05-10" />
		<tag k="ssr:stedsnr" v="107078" />
	</node>
	<node id="-18425" lat="60.6193722184" lon="10.6045583253">
		<tag k="bridge" v="yes" />
		<tag k="layer" v="1" />
		<tag k="name" v="Thune" />
		<tag k="ssr:date" v="2016-05-10" />
		<tag k="ssr:stedsnr" v="107062" />
	</node>
	<node id="-18339" lat="60.7125138865" lon="10.6172944413">
		<tag k="name" v="Rådyrvegen" />
		<tag k="ssr:date" v="2016-05-10" />
		<tag k="ssr:stedsnr" v="56934" />
	</node>
	<node id="-18424" lat="60.7322916668" lon="10.5622527693">
		<tag k="name" v="Skytebanevegen" />
		<tag k="ssr:date" v="2016-05-10" />
		<tag k="ssr:stedsnr" v="102929" />
	</node>
	<node id="-18338" lat="60.7182638852" lon="10.6259416626">
		<tag k="name" v="Svevegen" />
		<tag k="ssr:date" v="2016-05-10" />
		<tag k="ssr:stedsnr" v="56868" />
	</node>
	<node id="-18252" lat="60.6543805572" lon="10.6038472169">
		<tag k="bridge" v="yes" />
		<tag k="layer" v="1" />
		<tag k="name" v="Bruflat" />
		<tag k="ssr:date" v="2016-05-11" />
		<tag k="ssr:stedsnr" v="896092" />
	</node>
	<node id="-18337" lat="60.7341972218" lon="10.6167333288">
		<tag k="name" v="Trogstadvegen" />
		<tag k="ssr:date" v="2016-05-10" />
		<tag k="ssr:stedsnr" v="56832" />
	</node>
	<node id="-18884" lat="60.7199944415" lon="10.6224916662">
		<tag k="name" v="Korterudbakken" />
		<tag k="ssr:date" v="2016-05-10" />
		<tag k="ssr:stedsnr" v="541877" />
	</node>
	<node id="-18883" lat="60.7160777743" lon="10.6255555464">
		<tag k="name" v="Skogsrudvegen" />
		<tag k="ssr:date" v="2016-05-10" />
		<tag k="ssr:stedsnr" v="541874" />
	</node>
	<node id="-18882" lat="60.7171249994" lon="10.629513898">
		<tag k="name" v="Skogsrudsvingen" />
		<tag k="ssr:date" v="2016-05-10" />
		<tag k="ssr:stedsnr" v="541873" />
	</node>
	<node id="-18881" lat="60.7294361138" lon="10.6146416596">
		<tag k="name" v="Kortosvegen" />
		<tag k="ssr:date" v="2016-05-10" />
		<tag k="ssr:stedsnr" v="541835" />
	</node>
	<node id="-18880" lat="60.6683527754" lon="10.6769416596">
		<tag k="name" v="Køllavegen" />
		<tag k="ssr:date" v="2016-05-10" />
		<tag k="ssr:stedsnr" v="541772" />
	</node>
	<node id="-18879" lat="60.6697111116" lon="10.6760583248">
		<tag k="name" v="Øvre Karlsborgveg" />
		<tag k="ssr:date" v="2016-05-10" />
		<tag k="ssr:stedsnr" v="541768" />
	</node>
	<node id="-18878" lat="60.6589472245" lon="10.6626722152">
		<tag k="name" v="Steinbruddvegen" />
		<tag k="ssr:date" v="2016-05-10" />
		<tag k="ssr:stedsnr" v="541759" />
	</node>
	<node id="-18876" lat="60.6811833313" lon="10.6163972297">
		<tag k="name" v="Industrivegen" />
		<tag k="ssr:date" v="2016-05-10" />
		<tag k="ssr:stedsnr" v="541382" />
	</node>
	<node id="-18871" lat="60.6596444479" lon="10.537480552">
		<tag k="junction" v="yes" />
		<tag k="name" v="Rudsvebakken" />
		<tag k="place" v="locality" />
		<tag k="ssr:date" v="2016-05-10" />
		<tag k="ssr:stedsnr" v="526772" />
	</node>
	<node id="-18870" lat="60.7273583311" lon="10.6061222202">
		<tag k="name" v="Lunders veg" />
		<tag k="ssr:date" v="2016-05-10" />
		<tag k="ssr:stedsnr" v="526672" />
	</node>
	<node id="-18869" lat="60.7257194474" lon="10.602555548">
		<tag k="name" v="Dr. Lunds veg" />
		<tag k="ssr:date" v="2016-05-10" />
		<tag k="ssr:stedsnr" v="526671" />
	</node>
	<node id="-19380" lat="60.712802781" lon="10.6149250004">
		<tag k="name" v="Mårvegen" />
		<tag k="ssr:date" v="2016-05-11" />
		<tag k="ssr:stedsnr" v="845943" />
	</node>
	<node id="-19379" lat="60.7127999981" lon="10.6130194384">
		<tag k="name" v="Jervvegen" />
		<tag k="ssr:date" v="2016-05-11" />
		<tag k="ssr:stedsnr" v="845935" />
	</node>
	<node id="-19378" lat="60.7177222247" lon="10.6210555527">
		<tag k="name" v="Bjørkestien" />
		<tag k="ssr:date" v="2016-05-11" />
		<tag k="ssr:stedsnr" v="845888" />
	</node>
	<node id="-19377" lat="60.7213444438" lon="10.6412944406">
		<tag k="ssr:gml_id" v="GEOMETRY_18f30553-7d9d-4ead-a218-c051fb0bc606" />
		<tag k="ssr:gml_nr" v="1" />
	</node>
	<node id="-18864" lat="60.6862694434" lon="10.6168555491">
		<tag k="name" v="Engelstadvegen" />
		<tag k="ssr:date" v="2016-05-10" />
		<tag k="ssr:stedsnr" v="526382" />
	</node>
	<node id="-19375" lat="60.7214111135" lon="10.640399996">
		<tag k="name" v="Nordsetvegen" />
		<tag k="ssr:date" v="2016-05-11" />
		<tag k="ssr:stedsnr" v="845884" />
	</node>
	<node id="-19374" lat="60.6684361114" lon="10.6469277735">
		<tag k="name" v="Bergsjøvegen" />
		<tag k="ssr:date" v="2016-05-11" />
		<tag k="ssr:stedsnr" v="845829" />
	</node>
	<node id="-18861" lat="60.7518388876" lon="10.6246861175">
		<tag k="name" v="Gamlevegen" />
		<tag k="ssr:date" v="2016-05-10" />
		<tag k="ssr:stedsnr" v="526001" />
	</node>
	<node id="-19372" lat="60.679536112" lon="10.6188777782">
		<tag k="name" v="Prestesetervegen" />
		<tag k="ssr:date" v="2016-05-11" />
		<tag k="ssr:stedsnr" v="845385" />
	</node>
	<node id="-19371" lat="60.6753527774" lon="10.6196944493">
		<tag k="name" v="Seljevegen" />
		<tag k="ssr:date" v="2016-05-11" />
		<tag k="ssr:stedsnr" v="845261" />
	</node>
	<node id="-19370" lat="60.7133027781" lon="10.6137416731">
		<tag k="name" v="Severin Olsens veg" />
		<tag k="ssr:date" v="2016-05-11" />
		<tag k="ssr:stedsnr" v="844871" />
	</node>
	<node id="-19369" lat="60.7172333378" lon="10.602775002">
		<tag k="name" v="Lyngvegen" />
		<tag k="ssr:date" v="2016-05-11" />
		<tag k="ssr:stedsnr" v="844807" />
	</node>
	<node id="-19368" lat="60.6788111118" lon="10.6081888845">
		<tag k="bridge" v="yes" />
		<tag k="layer" v="1" />
		<tag k="name" v="Reinsvoll" />
		<tag k="ssr:date" v="2016-05-11" />
		<tag k="ssr:stedsnr" v="835103" />
	</node>
	<node id="-19367" lat="60.6769527801" lon="10.6156111164">
		<tag k="bridge" v="yes" />
		<tag k="layer" v="1" />
		<tag k="name" v="Reinsvoll" />
		<tag k="ssr:date" v="2016-05-11" />
		<tag k="ssr:stedsnr" v="835102" />
	</node>
	<node id="-19366" lat="60.5224555551" lon="10.6311138959">
		<tag k="bridge" v="yes" />
		<tag k="layer" v="1" />
		<tag k="name" v="Sløbråten" />
		<tag k="ssr:date" v="2016-05-11" />
		<tag k="ssr:stedsnr" v="835100" />
	</node>
	<node id="-19365" lat="60.7212666675" lon="10.6063861127">
		<tag k="bridge" v="yes" />
		<tag k="layer" v="1" />
		<tag k="name" v="Veltmannå" />
		<tag k="ssr:date" v="2016-05-11" />
		<tag k="ssr:stedsnr" v="835064" />
	</node>
	<node id="-19364" lat="60.7263972194" lon="10.6009222285">
		<tag k="name" v="Veltmanåvegen" />
		<tag k="ssr:date" v="2016-05-11" />
		<tag k="ssr:stedsnr" v="830857" />
	</node>
	<node id="-19363" lat="60.7357972182" lon="10.6210888946">
		<tag k="name" v="Kløvervegen" />
		<tag k="ssr:date" v="2016-05-11" />
		<tag k="ssr:stedsnr" v="830657" />
	</node>
	<node id="-19362" lat="60.7339916708" lon="10.6198055484">
		<tag k="name" v="Grubbebakken" />
		<tag k="ssr:date" v="2016-05-11" />
		<tag k="ssr:stedsnr" v="830656" />
	</node>
	<node id="-19361" lat="60.7290055538" lon="10.6183250059">
		<tag k="name" v="Knut Hamsuns veg" />
		<tag k="ssr:date" v="2016-05-11" />
		<tag k="ssr:stedsnr" v="830649" />
	</node>
	<node id="-18336" lat="60.6629083329" lon="10.6791638898">
		<tag k="name" v="Gimlesvingen" />
		<tag k="ssr:date" v="2016-05-10" />
		<tag k="ssr:stedsnr" v="56810" />
	</node>
	<node id="-18335" lat="60.676208333" lon="10.6171749917">
		<tag k="name" v="Skolevegen" />
		<tag k="ssr:date" v="2016-05-10" />
		<tag k="ssr:stedsnr" v="56371" />
	</node>
	<node id="-19357" lat="60.740302779" lon="10.6229472194">
		<tag k="name" v="Åkersvebakken" />
		<tag k="ssr:date" v="2016-05-11" />
		<tag k="ssr:stedsnr" v="830474" />
	</node>
	<node id="-18332" lat="60.7275861143" lon="10.5914083394">
		<tag k="ssr:gml_id" v="GEOMETRY_433d8d77-2985-4aa2-ab49-9bf811a7b206" />
		<tag k="ssr:gml_nr" v="0" />
	</node>
	<node id="-18331" lat="60.6857111092" lon="10.6147388799">
		<tag k="name" v="Røstøenvegen" />
		<tag k="ssr:date" v="2016-05-10" />
		<tag k="ssr:stedsnr" v="41395" />
	</node>
	<node id="-18328" lat="60.7288055572" lon="10.6186277864">
		<tag k="name" v="Rudstadvegen" />
		<tag k="ssr:date" v="2016-05-10" />
		<tag k="ssr:stedsnr" v="40649" />
	</node>
	<node id="-18244" lat="60.7401166673" lon="10.6218194481">
		<tag k="name" v="Hauglidvegen" />
		<tag k="ssr:date" v="2016-05-11" />
		<tag k="ssr:stedsnr" v="890491" />
	</node>
	<node id="-18325" lat="60.7167527761" lon="10.5939527695">
		<tag k="name" v="Nordsvevegen" />
		<tag k="ssr:date" v="2016-05-10" />
		<tag k="ssr:stedsnr" v="40207" />
	</node>
	<node id="-18242" lat="60.7102833361" lon="10.5929166671">
		<tag k="name" v="Rosetsvingen" />
		<tag k="ssr:date" v="2016-05-11" />
		<tag k="ssr:stedsnr" v="890449" />
	</node>
	<node id="-18792" lat="60.7142055591" lon="10.6193027717">
		<tag k="name" v="Bjørnvegen" />
		<tag k="ssr:date" v="2016-05-10" />
		<tag k="ssr:stedsnr" v="480926" />
	</node>
	<node id="-18790" lat="60.7190055582" lon="10.6045861145">
		<tag k="name" v="Tverrvegen" />
		<tag k="ssr:date" v="2016-05-10" />
		<tag k="ssr:stedsnr" v="480821" />
	</node>
	<node id="-18789" lat="60.7191500027" lon="10.606097218">
		<tag k="name" v="Tiurvegen" />
		<tag k="ssr:date" v="2016-05-10" />
		<tag k="ssr:stedsnr" v="480820" />
	</node>
	<node id="-18787" lat="60.6639138863" lon="10.6755750075">
		<tag k="name" v="Storgata" />
		<tag k="ssr:date" v="2016-05-10" />
		<tag k="ssr:stedsnr" v="480812" />
	</node>
	<node id="-18785" lat="60.667641671" lon="10.6770861193">
		<tag k="name" v="Nedre Kølla veg" />
		<tag k="ssr:date" v="2016-05-10" />
		<tag k="ssr:stedsnr" v="480777" />
	</node>
	<node id="-18783" lat="60.6891000031" lon="10.660730559">
		<tag k="name" v="Ihlevegen" />
		<tag k="ssr:date" v="2016-05-10" />
		<tag k="ssr:stedsnr" v="480641" />
	</node>
	<node id="-18782" lat="60.676174999" lon="10.6192055494">
		<tag k="name" v="Kretavegen" />
		<tag k="ssr:date" v="2016-05-10" />
		<tag k="ssr:stedsnr" v="480329" />
	</node>
	<node id="-18781" lat="60.6736833296" lon="10.6216416586">
		<tag k="name" v="Rognvegen" />
		<tag k="ssr:date" v="2016-05-10" />
		<tag k="ssr:stedsnr" v="480210" />
	</node>
	<node id="-18779" lat="60.6796861099" lon="10.6220916608">
		<tag k="name" v="Skogvegen" />
		<tag k="ssr:date" v="2016-05-10" />
		<tag k="ssr:stedsnr" v="480204" />
	</node>
	<node id="-19289" lat="60.6693000008" lon="10.5697888892">
		<tag k="ssr:gml_id" v="GEOMETRY_bf1b8b53-3b24-41d5-9a0b-abe390187599" />
		<tag k="ssr:gml_nr" v="2" />
	</node>
	<node id="-19288" lat="60.6757944442" lon="10.56433888">
		<tag k="ssr:gml_id" v="GEOMETRY_6b85dcbd-0d17-4baa-9dba-c5938f96576a" />
		<tag k="ssr:gml_nr" v="1" />
	</node>
	<node id="-19287" lat="60.6728833303" lon="10.5666861105">
		<tag k="ssr:gml_id" v="GEOMETRY_3ce72193-eb10-4d02-a952-31d440c7104e" />
		<tag k="ssr:gml_nr" v="0" />
	</node>
	<node id="-19286" lat="60.7354583356" lon="10.6165777784">
		<tag k="name" v="Melbyvegen" />
		<tag k="ssr:date" v="2016-05-11" />
		<tag k="ssr:stedsnr" v="784846" />
	</node>
	<node id="-19283" lat="60.6652638922" lon="10.6733583319">
		<tag k="name" v="Gimlevegen" />
		<tag k="ssr:date" v="2016-05-11" />
		<tag k="ssr:stedsnr" v="784783" />
	</node>
	<node id="-19282" lat="60.684300001" lon="10.6342083298">
		<tag k="name" v="Markvegen" />
		<tag k="ssr:date" v="2016-05-11" />
		<tag k="ssr:stedsnr" v="784261" />
	</node>
	<node id="-18769" lat="60.7238833348" lon="10.6283166695">
		<tag k="name" v="Bakkevegen" />
		<tag k="ssr:date" v="2016-05-10" />
		<tag k="ssr:stedsnr" v="465874" />
	</node>
	<node id="-18768" lat="60.7292638886" lon="10.6268638951">
		<tag k="name" v="Skogvegen" />
		<tag k="ssr:date" v="2016-05-10" />
		<tag k="ssr:stedsnr" v="465870" />
	</node>
	<node id="-18767" lat="60.7282916698" lon="10.6015111075">
		<tag k="name" v="Tollerudbakken" />
		<tag k="ssr:date" v="2016-05-10" />
		<tag k="ssr:stedsnr" v="465654" />
	</node>
	<node id="-19278" lat="60.7250833326" lon="10.6166777772">
		<tag k="name" v="Pellyvegen" />
		<tag k="ssr:date" v="2016-05-11" />
		<tag k="ssr:stedsnr" v="783817" />
	</node>
	<node id="-18049" lat="60.7230472236" lon="10.6097555615">
		<tag k="name" v="Kirkevegen" />
		<tag k="ssr:date" v="2016-05-10" />
		<tag k="ssr:stedsnr" v="298770" />
	</node>
	<node id="-18764" lat="60.7027500018" lon="10.5844638817">
		<tag k="name" v="Sagvollvegen" />
		<tag k="ssr:date" v="2016-05-10" />
		<tag k="ssr:stedsnr" v="465417" />
	</node>
	<node id="-18251" lat="60.7216972203" lon="10.635244453">
		<tag k="name" v="Skjervevegen" />
		<tag k="ssr:date" v="2016-05-11" />
		<tag k="ssr:stedsnr" v="891868" />
	</node>
	<node id="-19274" lat="60.5171916636" lon="10.6378972189">
		<tag k="bridge" v="yes" />
		<tag k="layer" v="1" />
		<tag k="name" v="Evjua" />
		<tag k="ssr:date" v="2016-05-11" />
		<tag k="ssr:stedsnr" v="774113" />
	</node>
	<node id="-18249" lat="60.6649527779" lon="10.5129750003">
		<tag k="name" v="Skjerdalsvegen" />
		<tag k="ssr:date" v="2016-05-11" />
		<tag k="ssr:stedsnr" v="890762" />
	</node>
	<node id="-18248" lat="60.7285666661" lon="10.6019472236">
		<tag k="name" v="Nedre Tollerudveg" />
		<tag k="ssr:date" v="2016-05-11" />
		<tag k="ssr:stedsnr" v="890684" />
	</node>
	<node id="-19271" lat="60.7500611073" lon="10.6231277686">
		<tag k="name" v="Skumsjøvegen" />
		<tag k="ssr:date" v="2016-05-11" />
		<tag k="ssr:stedsnr" v="769002" />
	</node>
	<node id="-19270" lat="60.7275444433" lon="10.6249611185">
		<tag k="name" v="Rotvegen" />
		<tag k="ssr:date" v="2016-05-11" />
		<tag k="ssr:stedsnr" v="768871" />
	</node>
	<node id="-19269" lat="60.7354749974" lon="10.6255277825">
		<tag k="name" v="Simensbakken" />
		<tag k="ssr:date" v="2016-05-11" />
		<tag k="ssr:stedsnr" v="768647" />
	</node>
	<node id="-19268" lat="60.7326722211" lon="10.622561112">
		<tag k="name" v="Rudsengvegen" />
		<tag k="ssr:date" v="2016-05-11" />
		<tag k="ssr:stedsnr" v="768648" />
	</node>
	<node id="-19266" lat="60.7197944443" lon="10.6002805511">
		<tag k="name" v="Humlevegen" />
		<tag k="ssr:date" v="2016-05-11" />
		<tag k="ssr:stedsnr" v="768184" />
	</node>
	<node id="-19265" lat="60.7185499964" lon="10.6005861117">
		<tag k="name" v="Liavegen" />
		<tag k="ssr:date" v="2016-05-11" />
		<tag k="ssr:stedsnr" v="768181" />
	</node>
	<node id="-19068" lat="60.732325002" lon="10.6200694374">
		<tag k="name" v="Skogstien" />
		<tag k="ssr:date" v="2016-05-10" />
		<tag k="ssr:stedsnr" v="647652" />
	</node>
	<node id="-18236" lat="60.7228138892" lon="10.6115916714">
		<tag k="bridge" v="yes" />
		<tag k="layer" v="1" />
		<tag k="name" v="Raufoss" />
		<tag k="ssr:date" v="2016-05-10" />
		<tag k="ssr:stedsnr" v="410107" />
	</node>
	<node id="-18235" lat="60.6209527819" lon="10.5843777784">
		<tag k="bridge" v="yes" />
		<tag k="layer" v="1" />
		<tag k="name" v="Strømselva" />
		<tag k="ssr:date" v="2016-05-10" />
		<tag k="ssr:stedsnr" v="410066" />
	</node>
	<node id="-18232" lat="60.6867194455" lon="10.6189638819">
		<tag k="name" v="Bekkesvingen" />
		<tag k="ssr:date" v="2016-05-10" />
		<tag k="ssr:stedsnr" v="405401" />
	</node>
	<node id="-18231" lat="60.7520416679" lon="10.6272666598">
		<tag k="name" v="Dalborgskogvegen" />
		<tag k="ssr:date" v="2016-05-10" />
		<tag k="ssr:stedsnr" v="405001" />
	</node>
	<node id="-18230" lat="60.7226111129" lon="10.6289111133">
		<tag k="name" v="Skogheimvegen" />
		<tag k="ssr:date" v="2016-05-10" />
		<tag k="ssr:stedsnr" v="404851" />
	</node>
	<node id="-18229" lat="60.7212305557" lon="10.6278138835">
		<tag k="name" v="Korta Skoleveg" />
		<tag k="ssr:date" v="2016-05-10" />
		<tag k="ssr:stedsnr" v="404850" />
	</node>
	<node id="-18228" lat="60.6590611084" lon="10.5295694407">
		<tag k="junction" v="yes" />
		<tag k="name" v="Smetoptåjet" />
		<tag k="place" v="locality" />
		<tag k="ssr:date" v="2016-05-10" />
		<tag k="ssr:stedsnr" v="404721" />
	</node>
	<node id="-18227" lat="60.730047223" lon="10.6035611089">
		<tag k="name" v="Bassengvegen" />
		<tag k="ssr:date" v="2016-05-10" />
		<tag k="ssr:stedsnr" v="404640" />
	</node>
	<node id="-18226" lat="60.7391777815" lon="10.6260833321">
		<tag k="name" v="Beitevegen" />
		<tag k="ssr:date" v="2016-05-10" />
		<tag k="ssr:stedsnr" v="404443" />
	</node>
	<node id="-18225" lat="60.7403555517" lon="10.6191888881">
		<tag k="name" v="Napstadvegen" />
		<tag k="ssr:date" v="2016-05-10" />
		<tag k="ssr:stedsnr" v="404377" />
	</node>
	<node id="-18224" lat="60.7173499986" lon="10.5981055572">
		<tag k="name" v="Granittvegen" />
		<tag k="ssr:date" v="2016-05-10" />
		<tag k="ssr:stedsnr" v="404190" />
	</node>
	<node id="-18700" lat="60.7225916636" lon="10.6222194467">
		<tag k="name" v="P. A. Aanneruds veg" />
		<tag k="ssr:date" v="2016-05-10" />
		<tag k="ssr:stedsnr" v="420874" />
	</node>
	<node id="-18693" lat="60.6662555522" lon="10.6829611068">
		<tag k="name" v="Parkvegen" />
		<tag k="ssr:date" v="2016-05-10" />
		<tag k="ssr:stedsnr" v="420771" />
	</node>
	<node id="-18692" lat="60.6784861153" lon="10.6174361131">
		<tag k="name" v="Storgata" />
		<tag k="ssr:date" v="2016-05-10" />
		<tag k="ssr:stedsnr" v="420370" />
	</node>
	<node id="-18691" lat="60.6854222256" lon="10.6356555587">
		<tag k="name" v="Grevlingvegen" />
		<tag k="ssr:date" v="2016-05-10" />
		<tag k="ssr:stedsnr" v="420255" />
	</node>
	<node id="-19180" lat="60.7211750033" lon="10.6220194391">
		<tag k="name" v="Ridevegen" />
		<tag k="ssr:date" v="2016-05-11" />
		<tag k="ssr:stedsnr" v="723834" />
	</node>
	<node id="-19179" lat="60.7178833305" lon="10.6291666659">
		<tag k="name" v="Svebakken" />
		<tag k="ssr:date" v="2016-05-11" />
		<tag k="ssr:stedsnr" v="723830" />
	</node>
	<node id="-18154" lat="60.7147416695" lon="10.6209444497">
		<tag k="name" v="Elgvegen" />
		<tag k="ssr:date" v="2016-05-10" />
		<tag k="ssr:stedsnr" v="359920" />
	</node>
	<node id="-19177" lat="60.7162583343" lon="10.6045416712">
		<tag k="name" v="Prøvenvegen" />
		<tag k="ssr:date" v="2016-05-11" />
		<tag k="ssr:stedsnr" v="723781" />
	</node>
	<node id="-18152" lat="60.7213444438" lon="10.6412944406">
		<tag k="name" v="Hermanrudvegen" />
		<tag k="ssr:date" v="2016-05-10" />
		<tag k="ssr:stedsnr" v="359855" />
	</node>
	<node id="-18151" lat="60.6726194408" lon="10.6221750063">
		<tag k="name" v="Tyrivegen" />
		<tag k="ssr:date" v="2016-05-10" />
		<tag k="ssr:stedsnr" v="359261" />
	</node>
	<node id="-19173" lat="60.6625583332" lon="10.6611027711">
		<tag k="name" v="Holevegen" />
		<tag k="ssr:date" v="2016-05-11" />
		<tag k="ssr:stedsnr" v="723739" />
	</node>
	<node id="-19172" lat="60.679916671" lon="10.6201444382">
		<tag k="name" v="Ytterskogvegen" />
		<tag k="ssr:date" v="2016-05-11" />
		<tag k="ssr:stedsnr" v="723239" />
	</node>
	<node id="-18147" lat="60.7284861146" lon="10.6293194423">
		<tag k="name" v="Roterudvegen" />
		<tag k="ssr:date" v="2016-05-10" />
		<tag k="ssr:stedsnr" v="344865" />
	</node>
	<node id="-19170" lat="60.657152778" lon="10.6014333412">
		<tag k="bridge" v="yes" />
		<tag k="layer" v="1" />
		<tag k="name" v="Bruflat" />
		<tag k="ssr:date" v="2016-05-11" />
		<tag k="ssr:stedsnr" v="714094" />
	</node>
	<node id="-19169" lat="60.6297222208" lon="10.6015722237">
		<tag k="bridge" v="yes" />
		<tag k="layer" v="1" />
		<tag k="name" v="Eina" />
		<tag k="ssr:date" v="2016-05-11" />
		<tag k="ssr:stedsnr" v="714092" />
	</node>
	<node id="-19167" lat="60.7246444421" lon="10.6293638939">
		<tag k="name" v="Bakkesvingen" />
		<tag k="ssr:date" v="2016-05-11" />
		<tag k="ssr:stedsnr" v="708841" />
	</node>
	<node id="-19164" lat="60.7337777769" lon="10.6263416652">
		<tag k="name" v="Rudslåtten" />
		<tag k="ssr:date" v="2016-05-11" />
		<tag k="ssr:stedsnr" v="708653" />
	</node>
	<node id="-19163" lat="60.73210556" lon="10.6241111174">
		<tag k="name" v="Rognlivegen" />
		<tag k="ssr:date" v="2016-05-11" />
		<tag k="ssr:stedsnr" v="708651" />
	</node>
	<node id="-19162" lat="60.7298861101" lon="10.623502771">
		<tag k="name" v="Vestrumvegen" />
		<tag k="ssr:date" v="2016-05-11" />
		<tag k="ssr:stedsnr" v="708648" />
	</node>
	<node id="-18137" lat="60.5977861104" lon="10.5755388894">
		<tag k="name" v="Hågår" />
		<tag k="railway" v="station" />
		<tag k="ssr:date" v="2016-05-10" />
		<tag k="ssr:stedsnr" v="342536" />
		<tag k="train" v="yes" />
	</node>
	<node id="-19159" lat="60.7347027814" lon="10.6277638847">
		<tag k="ssr:gml_id" v="GEOMETRY_6064dd4a-c99b-49fb-b087-ceac0b6eadd8" />
		<tag k="ssr:gml_nr" v="1" />
	</node>
	<node id="-19158" lat="60.7388972229" lon="10.6253722292">
		<tag k="ssr:gml_id" v="GEOMETRY_f312e8be-8490-48bf-97f2-6fb80a9f0684" />
		<tag k="ssr:gml_nr" v="0" />
	</node>
	<node id="-19157" lat="60.7392611132" lon="10.6220138947">
		<tag k="name" v="Myhrevegen" />
		<tag k="ssr:date" v="2016-05-11" />
		<tag k="ssr:stedsnr" v="708489" />
	</node>
	<node id="-18644" lat="60.6633222237" lon="10.6769888903">
		<tag k="name" v="Skolevegen" />
		<tag k="ssr:date" v="2016-05-10" />
		<tag k="ssr:stedsnr" v="238812" />
	</node>
	<node id="-19150" lat="60.7217666693" lon="10.6146972167">
		<tag k="ssr:gml_id" v="GEOMETRY_5b054009-6228-4bd9-8274-126b59d23675" />
		<tag k="ssr:gml_nr" v="0" />
	</node>
	<node id="-18640" lat="60.6699805598" lon="10.676019437">
		<tag k="name" v="Gjestrumbakkgutua" />
		<tag k="ssr:date" v="2016-05-10" />
		<tag k="ssr:stedsnr" v="238782" />
	</node>
	<node id="-18639" lat="60.667041671" lon="10.6689666614">
		<tag k="name" v="Gjestrumvegen" />
		<tag k="ssr:date" v="2016-05-10" />
		<tag k="ssr:stedsnr" v="238778" />
	</node>
	<node id="-18638" lat="60.660474999" lon="10.6733277778">
		<tag k="name" v="Blåbærstien" />
		<tag k="ssr:date" v="2016-05-10" />
		<tag k="ssr:stedsnr" v="238776" />
	</node>
	<node id="-18635" lat="60.7204944437" lon="10.6153472287">
		<tag k="name" v="Sagvegen" />
		<tag k="ssr:date" v="2016-05-10" />
		<tag k="ssr:stedsnr" v="237851" />
	</node>
	<node id="-18634" lat="60.7238166643" lon="10.6183027831">
		<tag k="name" v="Eventyrvegen" />
		<tag k="ssr:date" v="2016-05-10" />
		<tag k="ssr:stedsnr" v="237849" />
	</node>
	<node id="-18632" lat="60.540636112" lon="10.6575361069">
		<tag k="bridge" v="yes" />
		<tag k="layer" v="1" />
		<tag k="name" v="Blåkorshjemmet" />
		<tag k="ssr:date" v="2016-05-10" />
		<tag k="ssr:stedsnr" v="228113" />
	</node>
	<node id="-18630" lat="60.7277138858" lon="10.625044437">
		<tag k="name" v="Rudstadslåtten" />
		<tag k="ssr:date" v="2016-05-10" />
		<tag k="ssr:stedsnr" v="223875" />
	</node>
	<node id="-18628" lat="60.7358305572" lon="10.6229416657">
		<tag k="name" v="Snøggvegen" />
		<tag k="ssr:date" v="2016-05-10" />
		<tag k="ssr:stedsnr" v="223678" />
	</node>
	<node id="-18620" lat="60.7176638892" lon="10.5944555634">
		<tag k="name" v="Lønnbergsvingen" />
		<tag k="ssr:date" v="2016-05-10" />
		<tag k="ssr:stedsnr" v="223197" />
	</node>
	<node id="-18619" lat="60.7166388902" lon="10.5930666737">
		<tag k="name" v="Kvartsvegen" />
		<tag k="ssr:date" v="2016-05-10" />
		<tag k="ssr:stedsnr" v="223185" />
	</node>
	<node id="-18027" lat="60.7246194467" lon="10.626941665">
		<tag k="name" v="Mauervegen" />
		<tag k="ssr:date" v="2016-05-10" />
		<tag k="ssr:stedsnr" v="283864" />
	</node>
	<node id="-18146" lat="60.726861107" lon="10.6018611133">
		<tag k="name" v="Svartåsvegen" />
		<tag k="ssr:date" v="2016-05-10" />
		<tag k="ssr:stedsnr" v="344858" />
	</node>
	<node id="-18084" lat="60.600277775" lon="10.569047222">
		<tag k="name" v="Hågår" />
		<tag k="railway" v="station" />
		<tag k="ssr:date" v="2016-05-10" />
		<tag k="ssr:stedsnr" v="310180" />
		<tag k="train" v="yes" />
	</node>
	<node id="-18333" lat="60.7271777789" lon="10.6031972143">
		<tag k="ssr:gml_id" v="GEOMETRY_7222203e-0874-454a-8bf1-f98cbcd4ef6f" />
		<tag k="ssr:gml_nr" v="1" />
	</node>
	<node id="-18043" lat="60.6892305563" lon="10.6502638893">
		<tag k="name" v="Sagvegen" />
		<tag k="ssr:date" v="2016-05-10" />
		<tag k="ssr:stedsnr" v="298225" />
	</node>
	<node id="-18580" lat="60.6776611083" lon="10.6743305633">
		<tag k="junction" v="yes" />
		<tag k="name" v="Krekerud" />
		<tag k="place" v="locality" />
		<tag k="ssr:date" v="2016-05-10" />
		<tag k="ssr:stedsnr" v="189313" />
	</node>
	<node id="-19151" lat="60.7219416703" lon="10.6149055551">
		<tag k="ssr:gml_id" v="GEOMETRY_228fb395-7792-4bc6-ba3e-676283190a02" />
		<tag k="ssr:gml_nr" v="1" />
	</node>
	<node id="-18145" lat="60.7311083331" lon="10.6056305567">
		<tag k="name" v="Enggata" />
		<tag k="ssr:date" v="2016-05-10" />
		<tag k="ssr:stedsnr" v="344665" />
	</node>
	<node id="-19087" lat="60.7157555516" lon="10.6121416712">
		<tag k="name" v="Framstadvegen" />
		<tag k="ssr:date" v="2016-05-10" />
		<tag k="ssr:stedsnr" v="662854" />
	</node>
	<node id="-19085" lat="60.7163111086" lon="10.6129388972">
		<tag k="name" v="Vinkelvegen" />
		<tag k="ssr:date" v="2016-05-10" />
		<tag k="ssr:stedsnr" v="662853" />
	</node>
	<node id="-19084" lat="60.7182388866" lon="10.6243444408">
		<tag k="name" v="Vestbyvegen" />
		<tag k="ssr:date" v="2016-05-10" />
		<tag k="ssr:stedsnr" v="662846" />
	</node>
	<node id="-19083" lat="60.7154138905" lon="10.6446388815">
		<tag k="name" v="Hellanrudvegen" />
		<tag k="ssr:date" v="2016-05-10" />
		<tag k="ssr:stedsnr" v="662840" />
	</node>
	<node id="-19082" lat="60.723372223" lon="10.6141361153">
		<tag k="name" v="Korterudsvingen" />
		<tag k="ssr:date" v="2016-05-10" />
		<tag k="ssr:stedsnr" v="662808" />
	</node>
	<node id="-19081" lat="60.6659138851" lon="10.6751305486">
		<tag k="name" v="Tajevegen" />
		<tag k="ssr:date" v="2016-05-10" />
		<tag k="ssr:stedsnr" v="662759" />
	</node>
	<node id="-18056" lat="60.675116669" lon="10.622702777">
		<tag k="name" v="Frøsakervegen" />
		<tag k="ssr:date" v="2016-05-10" />
		<tag k="ssr:stedsnr" v="56236" />
	</node>
	<node id="-18054" lat="60.7202694438" lon="10.6205611154">
		<tag k="name" v="Gevirvegen" />
		<tag k="ssr:date" v="2016-05-10" />
		<tag k="ssr:stedsnr" v="299862" />
	</node>
	<node id="-19077" lat="60.6282083316" lon="10.5968722145">
		<tag k="bridge" v="yes" />
		<tag k="layer" v="1" />
		<tag k="name" v="Eina" />
		<tag k="ssr:date" v="2016-05-10" />
		<tag k="ssr:stedsnr" v="653095" />
	</node>
	<node id="-19076" lat="60.7503916624" lon="10.6208999943">
		<tag k="bridge" v="yes" />
		<tag k="layer" v="1" />
		<tag k="name" v="Hunnselva" />
		<tag k="ssr:date" v="2016-05-10" />
		<tag k="ssr:stedsnr" v="653093" />
	</node>
	<node id="-18051" lat="60.7189166643" lon="10.6135833326">
		<tag k="name" v="Framstadbakken" />
		<tag k="ssr:date" v="2016-05-10" />
		<tag k="ssr:stedsnr" v="298827" />
	</node>
	<node id="-18050" lat="60.7171555588" lon="10.6137333373">
		<tag k="name" v="Bureiservegen" />
		<tag k="ssr:date" v="2016-05-10" />
		<tag k="ssr:stedsnr" v="298825" />
	</node>
	<node id="-19073" lat="60.7256444454" lon="10.6260583333">
		<tag k="name" v="Mauerstien" />
		<tag k="ssr:date" v="2016-05-10" />
		<tag k="ssr:stedsnr" v="647868" />
	</node>
	<node id="-18048" lat="60.716494447" lon="10.6036000048">
		<tag k="name" v="Furuvegen" />
		<tag k="ssr:date" v="2016-05-10" />
		<tag k="ssr:stedsnr" v="298764" />
	</node>
	<node id="-18047" lat="60.7164777792" lon="10.6019499909">
		<tag k="name" v="Lyngbakken" />
		<tag k="ssr:date" v="2016-05-10" />
		<tag k="ssr:stedsnr" v="298765" />
	</node>
	<node id="-18044" lat="60.6834722218" lon="10.6218222309">
		<tag k="name" v="Lundheimvegen" />
		<tag k="ssr:date" v="2016-05-10" />
		<tag k="ssr:stedsnr" v="298331" />
	</node>
	<node id="-19067" lat="60.732205554" lon="10.6212555514">
		<tag k="name" v="Rognerudvegen" />
		<tag k="ssr:date" v="2016-05-10" />
		<tag k="ssr:stedsnr" v="647646" />
	</node>
	<node id="-18042" lat="60.6823388911" lon="10.6291833256">
		<tag k="name" v="Nils Juls gate" />
		<tag k="ssr:date" v="2016-05-10" />
		<tag k="ssr:stedsnr" v="298223" />
	</node>
	<node id="-19064" lat="60.718216664" lon="10.6016138855">
		<tag k="name" v="Ekornvegen" />
		<tag k="ssr:date" v="2016-05-10" />
		<tag k="ssr:stedsnr" v="647215" />
	</node>
	<node id="-18038" lat="60.725952781" lon="10.6169972247">
		<tag k="ssr:gml_id" v="GEOMETRY_eb6db824-a02c-4e13-85ce-cb60eaac59b1" />
		<tag k="ssr:gml_nr" v="1" />
	</node>
	<node id="-18037" lat="60.7216333344" lon="10.6404472241">
		<tag k="ssr:gml_id" v="GEOMETRY_67411cbb-7549-4e28-9e97-7035da46790e" />
		<tag k="ssr:gml_nr" v="0" />
	</node>
	<node id="-18034" lat="60.682874997" lon="10.6191027815">
		<tag k="name" v="Nordbyvegen" />
		<tag k="ssr:date" v="2016-05-10" />
		<tag k="ssr:stedsnr" v="284388" />
	</node>
	<node id="-18024" lat="60.737219446" lon="10.6217277743">
		<tag k="name" v="Åkersvevegen" />
		<tag k="ssr:date" v="2016-05-10" />
		<tag k="ssr:stedsnr" v="283419" />
	</node>
	<node id="-18541" lat="60.7126749971" lon="10.6119861103">
		<tag k="name" v="Grimsrudvegen" />
		<tag k="ssr:date" v="2016-05-10" />
		<tag k="ssr:stedsnr" v="177934" />
	</node>
	<node id="-18539" lat="60.7205305517" lon="10.6205194376">
		<tag k="name" v="Østvegen" />
		<tag k="ssr:date" v="2016-05-10" />
		<tag k="ssr:stedsnr" v="177868" />
	</node>
	<node id="-18134" lat="60.5507333324" lon="10.6880999915">
		<tag k="name" v="Kjølvegen" />
		<tag k="ssr:date" v="2016-05-10" />
		<tag k="ssr:stedsnr" v="329717" />
	</node>
	<node id="-18025" lat="60.7279888927" lon="10.6185111179">
		<tag k="name" v="Kortabakken" />
		<tag k="ssr:date" v="2016-05-10" />
		<tag k="ssr:stedsnr" v="283615" />
	</node>
	<node id="-18536" lat="60.6803555587" lon="10.6166305637">
		<tag k="name" v="Lysvegen" />
		<tag k="ssr:date" v="2016-05-10" />
		<tag k="ssr:stedsnr" v="177369" />
	</node>
	<node id="-18023" lat="60.7355416622" lon="10.6199555563">
		<tag k="name" v="Negardsvegen" />
		<tag k="ssr:date" v="2016-05-10" />
		<tag k="ssr:stedsnr" v="283418" />
	</node>
	<node id="-18532" lat="60.6638611112" lon="10.6727694471">
		<tag k="bridge" v="yes" />
		<tag k="layer" v="1" />
		<tag k="name" v="Bøvra" />
		<tag k="ssr:date" v="2016-05-10" />
		<tag k="ssr:stedsnr" v="168120" />
	</node>
	<node id="-18531" lat="60.7420361135" lon="10.5754777855">
		<tag k="ssr:gml_id" v="GEOMETRY_4ac67688-b657-4c9f-bb09-c3e5522d99cf" />
		<tag k="ssr:gml_nr" v="1" />
	</node>
	<node id="-18530" lat="60.7347916704" lon="10.5746666755">
		<tag k="ssr:gml_id" v="GEOMETRY_d3f464d7-38d3-427d-95e3-7ead85b7367b" />
		<tag k="ssr:gml_nr" v="0" />
	</node>
	<node id="-18525" lat="60.7392444434" lon="10.6257194439">
		<tag k="name" v="Kornvegen" />
		<tag k="ssr:date" v="2016-05-10" />
		<tag k="ssr:stedsnr" v="162494" />
	</node>
	<node id="-18521" lat="60.7194027738" lon="10.6036722151">
		<tag k="name" v="Ringvegen" />
		<tag k="ssr:date" v="2016-05-10" />
		<tag k="ssr:stedsnr" v="162187" />
	</node>
	<node id="-18520" lat="60.7171611067" lon="10.5882916606">
		<tag k="loc_name" v="Fredrik Aas' veg" />
		<tag k="name" v="Fredrik Aas veg" />
		<tag k="ssr:date" v="2016-05-10" />
		<tag k="ssr:stedsnr" v="162176" />
	</node>
	<node id="-19542" lat="60.7119749996" lon="10.6225444395">
		<tag k="name" v="Alstadvegen" />
		<tag k="ssr:date" v="2016-05-11" />
		<tag k="ssr:stedsnr" v="966931" />
	</node>
	<node id="-18517" lat="60.6141555517" lon="10.6051499977">
		<tag k="name" v="Sundsvegen" />
		<tag k="ssr:date" v="2016-05-10" />
		<tag k="ssr:stedsnr" v="162074" />
	</node>
	<node id="-19538" lat="60.6665083379" lon="10.6792611054">
		<tag k="name" v="Engevegen" />
		<tag k="ssr:date" v="2016-05-11" />
		<tag k="ssr:stedsnr" v="966787" />
	</node>
	<node id="-19537" lat="60.6600777755" lon="10.6700333407">
		<tag k="name" v="Moltestien" />
		<tag k="ssr:date" v="2016-05-11" />
		<tag k="ssr:stedsnr" v="966777" />
	</node>
	<node id="-19535" lat="60.6803472179" lon="10.6275444394">
		<tag k="name" v="Torvevegen" />
		<tag k="ssr:date" v="2016-05-11" />
		<tag k="ssr:stedsnr" v="966243" />
	</node>
	<node id="-19533" lat="60.7276583339" lon="10.6183861148">
		<tag k="name" v="Granvegen" />
		<tag k="ssr:date" v="2016-05-11" />
		<tag k="ssr:stedsnr" v="965817" />
	</node>
	<node id="-19532" lat="60.7228999962" lon="10.6130861108">
		<tag k="name" v="Storgata" />
		<tag k="ssr:date" v="2016-05-11" />
		<tag k="ssr:stedsnr" v="965811" />
	</node>
	<node id="-19531" lat="60.6598472235" lon="10.6029722269">
		<tag k="bridge" v="yes" />
		<tag k="layer" v="1" />
		<tag k="name" v="Reinsvollsveen" />
		<tag k="ssr:date" v="2016-05-11" />
		<tag k="ssr:stedsnr" v="957105" />
	</node>
	<node id="-19528" lat="60.7503777794" lon="10.6997527721">
		<tag k="name" v="Markestadvegen" />
		<tag k="ssr:date" v="2016-05-11" />
		<tag k="ssr:stedsnr" v="951754" />
	</node>
	<node id="-19527" lat="60.729211109" lon="10.6191611061">
		<tag k="name" v="Øverbyvegen" />
		<tag k="ssr:date" v="2016-05-11" />
		<tag k="ssr:stedsnr" v="951656" />
	</node>
	<node id="-19523" lat="60.7496388901" lon="10.6200611141">
		<tag k="generator:source" v="hydro" />
		<tag k="landuse" v="industrial" />
		<tag k="name" v="Elvelia" />
		<tag k="power" v="generator" />
		<tag k="ssr:date" v="2016-05-11" />
		<tag k="ssr:stedsnr" v="951419" />
	</node>
	<node id="-19522" lat="60.6845250026" lon="10.6229555621">
		<tag k="name" v="Morterudvegen" />
		<tag k="ssr:date" v="2016-05-11" />
		<tag k="ssr:stedsnr" v="951387" />
	</node>
	<node id="-19521" lat="60.6948694406" lon="10.6060222266">
		<tag k="ssr:gml_id" v="GEOMETRY_04e1d55f-9c66-4a03-8af1-d81219f820fe" />
		<tag k="ssr:gml_nr" v="1" />
	</node>
	<node id="-19520" lat="60.6884916652" lon="10.6090916688">
		<tag k="ssr:gml_id" v="GEOMETRY_425af65f-42d9-473d-a571-f8666353228f" />
		<tag k="ssr:gml_nr" v="0" />
	</node>
	<node id="-19519" lat="60.6912416645" lon="10.6067000083">
		<tag k="name" v="Roksvollvegen" />
		<tag k="ssr:date" v="2016-05-11" />
		<tag k="ssr:stedsnr" v="951384" />
	</node>
	<node id="-19518" lat="60.6823527814" lon="10.6154499985">
		<tag k="name" v="Jernbanevegen" />
		<tag k="ssr:date" v="2016-05-11" />
		<tag k="ssr:stedsnr" v="951382" />
	</node>
	<node id="-19515" lat="60.6104472251" lon="10.6326444373">
		<tag k="name" v="Næssvegen" />
		<tag k="ssr:date" v="2016-05-11" />
		<tag k="ssr:stedsnr" v="951078" />
	</node>
	<node id="-18868" lat="60.7355722232" lon="10.6226361082">
		<tag k="name" v="Rudivegen" />
		<tag k="ssr:date" v="2016-05-10" />
		<tag k="ssr:stedsnr" v="526659" />
	</node>
	<node id="-18867" lat="60.7318194476" lon="10.628625001">
		<tag k="name" v="Plogvegen" />
		<tag k="ssr:date" v="2016-05-10" />
		<tag k="ssr:stedsnr" v="526654" />
	</node>
	<node id="-18987" lat="60.7188527793" lon="10.6225611054">
		<tag k="name" v="Korterudlia" />
		<tag k="ssr:date" v="2016-05-10" />
		<tag k="ssr:stedsnr" v="602859" />
	</node>
	<node id="-18986" lat="60.7318749993" lon="10.6173138898">
		<tag k="name" v="Furulybakken" />
		<tag k="ssr:date" v="2016-05-10" />
		<tag k="ssr:stedsnr" v="602839" />
	</node>
	<node id="-18985" lat="60.7265361076" lon="10.6177249911">
		<tag k="name" v="Granbakken" />
		<tag k="ssr:date" v="2016-05-10" />
		<tag k="ssr:stedsnr" v="602834" />
	</node>
	<node id="-18983" lat="60.7205861104" lon="10.6136861174">
		<tag k="name" v="Løvåsbakken" />
		<tag k="ssr:date" v="2016-05-10" />
		<tag k="ssr:stedsnr" v="601842" />
	</node>
	<node id="-18981" lat="60.66557778" lon="10.673997228">
		<tag k="name" v="Kluftvegen" />
		<tag k="ssr:date" v="2016-05-10" />
		<tag k="ssr:stedsnr" v="601748" />
	</node>
	<node id="-18980" lat="60.7528027791" lon="10.6239888932">
		<tag k="bridge" v="yes" />
		<tag k="layer" v="1" />
		<tag k="name" v="Breiskallen" />
		<tag k="ssr:date" v="2016-05-10" />
		<tag k="ssr:stedsnr" v="592111" />
	</node>
	<node id="-18979" lat="60.5167222205" lon="10.6364833279">
		<tag k="bridge" v="yes" />
		<tag k="layer" v="1" />
		<tag k="name" v="Einavoll" />
		<tag k="ssr:date" v="2016-05-10" />
		<tag k="ssr:stedsnr" v="592109" />
	</node>
	<node id="-18465" lat="60.6308972237" lon="10.597586118">
		<tag k="ssr:gml_id" v="GEOMETRY_0c5bf8fa-01b0-4bfc-9985-2d23bba9923e" />
		<tag k="ssr:gml_nr" v="1" />
	</node>
	<node id="-18464" lat="60.6318194436" lon="10.596905549">
		<tag k="ssr:gml_id" v="GEOMETRY_2d62e19d-4710-476a-aff9-bc74ba6d874d" />
		<tag k="ssr:gml_nr" v="0" />
	</node>
	<node id="-19376" lat="60.7207111099" lon="10.6418500087">
		<tag k="ssr:gml_id" v="GEOMETRY_23aee110-a679-4788-b870-26a15a7f1a7f" />
		<tag k="ssr:gml_nr" v="0" />
	</node>
	<node id="-18970" lat="60.7285250033" lon="10.6201888979">
		<tag k="name" v="Bjerkevegen" />
		<tag k="ssr:date" v="2016-05-10" />
		<tag k="ssr:stedsnr" v="586855" />
	</node>
	<node id="-18969" lat="60.7269500004" lon="10.6219805562">
		<tag k="name" v="Nedre Kortavegen" />
		<tag k="ssr:date" v="2016-05-10" />
		<tag k="ssr:stedsnr" v="586854" />
	</node>
	<node id="-18966" lat="60.7318999963" lon="10.6286666752">
		<tag k="name" v="Langåkervegen" />
		<tag k="ssr:date" v="2016-05-10" />
		<tag k="ssr:stedsnr" v="586645" />
	</node>
	<node id="-18965" lat="60.7064416631" lon="10.5873416606">
		<tag k="name" v="Fjellvegen" />
		<tag k="ssr:date" v="2016-05-10" />
		<tag k="ssr:stedsnr" v="586442" />
	</node>
	<node id="-18862" lat="60.6134805561" lon="10.6489694379">
		<tag k="name" v="Midtbuvegen" />
		<tag k="ssr:date" v="2016-05-10" />
		<tag k="ssr:stedsnr" v="526075" />
	</node>
	<node id="-18947" lat="60.6787388931" lon="10.6167805643">
		<tag k="ssr:gml_id" v="GEOMETRY_6c723e08-2c63-401a-a34e-83c4713999ac" />
		<tag k="ssr:gml_nr" v="1" />
	</node>
	<node id="-18959" lat="60.5163444459" lon="10.6356138961">
		<tag k="junction" v="yes" />
		<tag k="name" v="Einavollen" />
		<tag k="place" v="locality" />
		<tag k="ssr:date" v="2016-05-10" />
		<tag k="ssr:stedsnr" v="578473" />
	</node>
	<node id="-18946" lat="60.6788527748" lon="10.616722217">
		<tag k="ssr:gml_id" v="GEOMETRY_98337d85-33c4-42bf-a3e8-a46d58d77728" />
		<tag k="ssr:gml_nr" v="0" />
	</node>
	<node id="-18537" lat="60.6690222199" lon="10.6765361111">
		<tag k="name" v="Karlsborgvegen" />
		<tag k="ssr:date" v="2016-05-10" />
		<tag k="ssr:stedsnr" v="177793" />
	</node>
	<node id="-18435" lat="60.7247888849" lon="10.6204222231">
		<tag k="name" v="Almevegen" />
		<tag k="ssr:date" v="2016-05-10" />
		<tag k="ssr:stedsnr" v="116854" />
	</node>
	<node id="-18434" lat="60.6686027737" lon="10.6704555558">
		<tag k="name" v="Sandvegen" />
		<tag k="ssr:date" v="2016-05-10" />
		<tag k="ssr:stedsnr" v="116758" />
	</node>
	<way id="-5248">
		<tag k="name" v="Frydenlundvegen" />
		<tag k="ssr:date" v="2016-05-11" />
		<tag k="ssr:stedsnr" v="708493" />
		<nd ref="-19158" />
		<nd ref="-19159" />
	</way>
	<way id="-5246">
		<tag k="name" v="Raufoss" />
		<tag k="railway" v="station" />
		<tag k="ssr:date" v="2016-05-11" />
		<tag k="ssr:stedsnr" v="694790" />
		<tag k="train" v="yes" />
		<nd ref="-19150" />
		<nd ref="-19151" />
	</way>
	<way id="-5049">
		<tag k="name" v="Villåsvegen" />
		<tag k="ssr:date" v="2016-05-10" />
		<tag k="ssr:stedsnr" v="162939" />
		<nd ref="-18530" />
		<nd ref="-18531" />
	</way>
	<way id="-5366">
		<tag k="name" v="Reinsvollvegen" />
		<tag k="ssr:date" v="2016-05-11" />
		<tag k="ssr:stedsnr" v="951385" />
		<nd ref="-19520" />
		<nd ref="-19521" />
	</way>
	<way id="-4980">
		<tag k="name" v="Nysethvegen" />
		<tag k="ssr:date" v="2016-05-10" />
		<tag k="ssr:stedsnr" v="41856" />
		<nd ref="-18332" />
		<nd ref="-18333" />
	</way>
	<way id="-5011">
		<tag k="name" v="Breiskallen" />
		<tag k="railway" v="station" />
		<tag k="ssr:date" v="2016-05-10" />
		<tag k="ssr:stedsnr" v="70099" />
		<tag k="train" v="yes" />
		<nd ref="-18403" />
		<nd ref="-18404" />
	</way>
	<way id="-5186">
		<tag k="name" v="Reinsvoll" />
		<tag k="railway" v="station" />
		<tag k="ssr:date" v="2016-05-10" />
		<tag k="ssr:stedsnr" v="553323" />
		<tag k="train" v="yes" />
		<nd ref="-18946" />
		<nd ref="-18947" />
	</way>
	<way id="-4886">
		<tag k="name" v="Østvollvegen" />
		<tag k="ssr:date" v="2016-05-10" />
		<tag k="ssr:stedsnr" v="284881" />
		<nd ref="-18037" />
		<nd ref="-18038" />
	</way>
	<way id="-5284">
		<tag k="aeroway" v="aerodrome" />
		<tag k="alt_name" v="Reinsvoll" />
		<tag k="name" v="Reinsvoll flyplass" />
		<tag k="ssr:date" v="2016-05-11" />
		<tag k="ssr:stedsnr" v="787252" />
		<nd ref="-19287" />
		<nd ref="-19288" />
		<nd ref="-19289" />
	</way>
	<way id="-5027">
		<tag k="name" v="Eina" />
		<tag k="railway" v="station" />
		<tag k="ssr:date" v="2016-05-10" />
		<tag k="ssr:stedsnr" v="128204" />
		<tag k="train" v="yes" />
		<nd ref="-18464" />
		<nd ref="-18465" />
	</way>
	<way id="-5314">
		<tag k="name" v="Karsrudvegen" />
		<tag k="ssr:date" v="2016-05-11" />
		<tag k="ssr:stedsnr" v="845883" />
		<nd ref="-19376" />
		<nd ref="-19377" />
	</way>
</osm>
