<?xml version="1.0" encoding="UTF-8"?>
<osm generator="osmapis" version="0.6">
	<node id="-56320" lat="59.2908666698" lon="10.1925611108">
		<tag k="name" v="Askjem" />
		<tag k="place" v="locality" />
		<tag k="ssr:date" v="2017-01-19" />
		<tag k="ssr:stedsnr" v="695502" />
	</node>
	<node id="-56319" lat="59.3273777807" lon="10.2053555583">
		<tag k="name" v="Storemyr" />
		<tag k="natural" v="wetland" />
		<tag k="ssr:date" v="2017-01-19" />
		<tag k="ssr:stedsnr" v="695462" />
	</node>
	<node id="-56317" lat="59.3042138873" lon="10.1626722208">
		<tag k="landuse" v="meadow" />
		<tag k="name" v="Døvlehamna" />
		<tag k="ssr:date" v="2017-01-19" />
		<tag k="ssr:stedsnr" v="695444" />
	</node>
	<node id="-53312" lat="59.3166138896" lon="10.1161972159">
		<tag k="name" v="Bjønnehiet" />
		<tag k="place" v="locality" />
		<tag k="ssr:date" v="2017-01-19" />
		<tag k="ssr:stedsnr" v="270232" />
	</node>
	<node id="-56315" lat="59.3030611113" lon="10.2497083365">
		<tag k="name" v="Solberg" />
		<tag k="place" v="locality" />
		<tag k="ssr:date" v="2017-01-19" />
		<tag k="ssr:stedsnr" v="695373" />
	</node>
	<node id="-56314" lat="59.3056888846" lon="10.2430555536">
		<tag k="name" v="Fuskeskogen" />
		<tag k="natural" v="wood" />
		<tag k="ssr:date" v="2017-01-19" />
		<tag k="ssr:stedsnr" v="695368" />
	</node>
	<node id="-56063" lat="59.3127888924" lon="10.0601583419">
		<tag k="name" v="Dørnemyr" />
		<tag k="natural" v="wetland" />
		<tag k="ssr:date" v="2017-01-19" />
		<tag k="ssr:stedsnr" v="633245" />
	</node>
	<node id="-54100" lat="59.1181972264" lon="10.1525916699">
		<tag k="name" v="Stangeskogen" />
		<tag k="natural" v="wood" />
		<tag k="ssr:date" v="2017-01-19" />
		<tag k="ssr:stedsnr" v="27142" />
	</node>
	<node id="-56310" lat="59.3567944455" lon="10.0474416607">
		<tag k="name" v="Åsesmyrer" />
		<tag k="natural" v="wetland" />
		<tag k="ssr:date" v="2017-01-19" />
		<tag k="ssr:stedsnr" v="695257" />
	</node>
	<node id="-56308" lat="59.3055972262" lon="10.1051083347">
		<tag k="name" v="Bøllehølet" />
		<tag k="place" v="locality" />
		<tag k="ssr:date" v="2017-01-19" />
		<tag k="ssr:stedsnr" v="695243" />
	</node>
	<node id="-56307" lat="59.3072694444" lon="10.1096333321">
		<tag k="name" v="Tørkopp" />
		<tag k="place" v="locality" />
		<tag k="ssr:date" v="2017-01-19" />
		<tag k="ssr:stedsnr" v="695240" />
	</node>
	<node id="-55282" lat="59.2512777754" lon="10.2346833325">
		<tag k="landuse" v="farmland" />
		<tag k="name" v="Dammen" />
		<tag k="ssr:date" v="2017-01-19" />
		<tag k="ssr:stedsnr" v="452398" />
	</node>
	<node id="-55793" lat="59.2840250005" lon="10.1214972232">
		<tag k="landuse" v="meadow" />
		<tag k="name" v="Byttingane" />
		<tag k="ssr:date" v="2017-01-19" />
		<tag k="ssr:stedsnr" v="572806" />
	</node>
	<node id="-55280" lat="59.3103305517" lon="10.2249777823">
		<tag k="name" v="Huflåttenskogen" />
		<tag k="natural" v="wood" />
		<tag k="ssr:date" v="2017-01-19" />
		<tag k="ssr:stedsnr" v="452349" />
	</node>
	<node id="-55790" lat="59.317341669" lon="10.0216777782">
		<tag k="name" v="Raumyr" />
		<tag k="natural" v="wetland" />
		<tag k="ssr:date" v="2017-01-19" />
		<tag k="ssr:stedsnr" v="572642" />
	</node>
	<node id="-55789" lat="59.3307777734" lon="10.0238249934">
		<tag k="name" v="Storemyr" />
		<tag k="natural" v="wetland" />
		<tag k="ssr:date" v="2017-01-19" />
		<tag k="ssr:stedsnr" v="572632" />
	</node>
	<node id="-56300" lat="59.1398055576" lon="10.1322416594">
		<tag k="name" v="Damsmyra" />
		<tag k="natural" v="wetland" />
		<tag k="ssr:date" v="2017-01-19" />
		<tag k="ssr:stedsnr" v="694820" />
	</node>
	<node id="-56810" lat="59.2785194434" lon="10.2151888831">
		<tag k="name" v="Årholt" />
		<tag k="place" v="locality" />
		<tag k="ssr:date" v="2017-01-19" />
		<tag k="ssr:stedsnr" v="817424" />
	</node>
	<node id="-56809" lat="59.2723083299" lon="10.2171333256">
		<tag k="name" v="Holt" />
		<tag k="place" v="locality" />
		<tag k="ssr:date" v="2017-01-19" />
		<tag k="ssr:stedsnr" v="817420" />
	</node>
	<node id="-55272" lat="59.3617611069" lon="10.1136861037">
		<tag k="landuse" v="farmland" />
		<tag k="name" v="Steinshagen" />
		<tag k="ssr:date" v="2017-01-19" />
		<tag k="ssr:stedsnr" v="452124" />
	</node>
	<node id="-55548" lat="59.2532083372" lon="10.2163222271">
		<tag k="name" v="Fjeldstad" />
		<tag k="place" v="locality" />
		<tag k="ssr:date" v="2017-01-19" />
		<tag k="ssr:stedsnr" v="512401" />
	</node>
	<node id="-56294" lat="59.2742555544" lon="10.0535916593">
		<tag k="name" v="Håv" />
		<tag k="place" v="locality" />
		<tag k="ssr:date" v="2017-01-19" />
		<tag k="ssr:stedsnr" v="694794" />
	</node>
	<node id="-56293" lat="59.2737527789" lon="10.0581250067">
		<tag k="name" v="Viermyr" />
		<tag k="natural" v="wetland" />
		<tag k="ssr:date" v="2017-01-19" />
		<tag k="ssr:stedsnr" v="694792" />
	</node>
	<node id="-56292" lat="59.2753333302" lon="10.1222277854">
		<tag k="name" v="Blekkemyr" />
		<tag k="natural" v="wetland" />
		<tag k="ssr:date" v="2017-01-19" />
		<tag k="ssr:stedsnr" v="694788" />
	</node>
	<node id="-55779" lat="59.2236527785" lon="10.3263916647">
		<tag k="name" v="Melsomskogen" />
		<tag k="natural" v="wood" />
		<tag k="ssr:date" v="2017-01-19" />
		<tag k="ssr:stedsnr" v="571423" />
	</node>
	<node id="-56802" lat="59.2784805544" lon="10.1184916585">
		<tag k="name" v="Skamyr" />
		<tag k="natural" v="wetland" />
		<tag k="ssr:date" v="2017-01-19" />
		<tag k="ssr:stedsnr" v="816840" />
	</node>
	<node id="-55777" lat="59.2137638859" lon="10.3346138835">
		<tag k="name" v="Askskogen" />
		<tag k="natural" v="wood" />
		<tag k="ssr:date" v="2017-01-19" />
		<tag k="ssr:stedsnr" v="571417" />
	</node>
	<node id="-53328" lat="59.2983944459" lon="10.0278750019">
		<tag k="name" v="Tørfurumyr" />
		<tag k="natural" v="wetland" />
		<tag k="ssr:date" v="2017-01-19" />
		<tag k="ssr:stedsnr" v="270555" />
	</node>
	<node id="-56798" lat="59.2448055528" lon="10.0727972229">
		<tag k="landuse" v="meadow" />
		<tag k="name" v="Storeng" />
		<tag k="ssr:date" v="2017-01-19" />
		<tag k="ssr:stedsnr" v="816808" />
	</node>
	<node id="-57253" lat="59.270669448" lon="10.2664305477">
		<tag k="landuse" v="farmland" />
		<tag k="name" v="Asbjørnrød" />
		<tag k="ssr:date" v="2017-01-19" />
		<tag k="ssr:stedsnr" v="937417" />
	</node>
	<node id="-56796" lat="59.2499277816" lon="10.1330583258">
		<tag k="name" v="Jammermyr" />
		<tag k="natural" v="wetland" />
		<tag k="ssr:date" v="2017-01-19" />
		<tag k="ssr:stedsnr" v="816804" />
	</node>
	<node id="-56794" lat="59.2560166637" lon="10.1408305618">
		<tag k="name" v="Åkermyra" />
		<tag k="natural" v="wetland" />
		<tag k="ssr:date" v="2017-01-19" />
		<tag k="ssr:stedsnr" v="816800" />
	</node>
	<node id="-56793" lat="59.1279305516" lon="10.1772500025">
		<tag k="name" v="Krokenskogen" />
		<tag k="natural" v="wood" />
		<tag k="ssr:date" v="2017-01-19" />
		<tag k="ssr:stedsnr" v="816791" />
	</node>
	<node id="-54180" lat="59.2223805554" lon="10.0877861044">
		<tag k="name" v="Klarinetomtene" />
		<tag k="place" v="locality" />
		<tag k="ssr:date" v="2017-01-19" />
		<tag k="ssr:stedsnr" v="27972" />
	</node>
	<node id="-55254" lat="59.1648583366" lon="10.317416664">
		<tag k="name" v="Skravestadskogen" />
		<tag k="natural" v="wood" />
		<tag k="ssr:date" v="2017-01-19" />
		<tag k="ssr:stedsnr" v="450457" />
	</node>
	<node id="-56277" lat="59.248844442" lon="10.2934305544">
		<tag k="name" v="Myren" />
		<tag k="natural" v="wetland" />
		<tag k="ssr:date" v="2017-01-19" />
		<tag k="ssr:stedsnr" v="693477" />
	</node>
	<node id="-56276" lat="59.2337583357" lon="10.2708694412">
		<tag k="name" v="Gjennestad østre" />
		<tag k="place" v="locality" />
		<tag k="ssr:date" v="2017-01-19" />
		<tag k="ssr:stedsnr" v="693472" />
	</node>
	<node id="-53838" lat="59.3170277763" lon="10.1964611121">
		<tag k="name" v="Skåtan" />
		<tag k="place" v="locality" />
		<tag k="ssr:date" v="2017-01-19" />
		<tag k="ssr:stedsnr" v="391461" />
	</node>
	<node id="-53291" lat="59.3342916703" lon="10.0388944434">
		<tag k="name" v="Atlegdmyr" />
		<tag k="natural" v="wetland" />
		<tag k="ssr:date" v="2017-01-19" />
		<tag k="ssr:stedsnr" v="269644" />
	</node>
	<node id="-57294" lat="59.2186138926" lon="10.089152773">
		<tag k="name" v="Kirkemyra" />
		<tag k="natural" v="wetland" />
		<tag k="ssr:date" v="2017-01-19" />
		<tag k="ssr:stedsnr" v="937976" />
	</node>
	<node id="-57293" lat="59.1216083374" lon="10.1477722263">
		<tag k="name" v="Haugenskogen" />
		<tag k="natural" v="wood" />
		<tag k="ssr:date" v="2017-01-19" />
		<tag k="ssr:stedsnr" v="937858" />
	</node>
	<node id="-56268" lat="59.0987527735" lon="10.296736114">
		<tag k="name" v="Strandskogen" />
		<tag k="natural" v="wood" />
		<tag k="ssr:date" v="2017-01-19" />
		<tag k="ssr:stedsnr" v="693368" />
	</node>
	<node id="-57290" lat="59.2917888913" lon="10.1426777735">
		<tag k="landuse" v="farmland" />
		<tag k="name" v="Ødegården" />
		<tag k="ssr:date" v="2017-01-19" />
		<tag k="ssr:stedsnr" v="937828" />
	</node>
	<node id="-54092" lat="59.1666611143" lon="10.3219555498">
		<tag k="name" v="Sandskogen" />
		<tag k="natural" v="wood" />
		<tag k="ssr:date" v="2017-01-19" />
		<tag k="ssr:stedsnr" v="24443" />
	</node>
	<node id="-57285" lat="59.1401999966" lon="10.1634194425">
		<tag k="name" v="Bøskogen" />
		<tag k="natural" v="wood" />
		<tag k="ssr:date" v="2017-01-19" />
		<tag k="ssr:stedsnr" v="937795" />
	</node>
	<node id="-57280" lat="59.1885138912" lon="10.2328555485">
		<tag k="name" v="Orerødskogen" />
		<tag k="natural" v="wood" />
		<tag k="ssr:date" v="2017-01-19" />
		<tag k="ssr:stedsnr" v="937756" />
	</node>
	<node id="-55231" lat="59.2766138884" lon="10.0317611145">
		<tag k="ssr:gml_id" v="GEOMETRY_b5e06462-c569-447a-a862-f2fb2f7dbfa8" />
		<tag k="ssr:gml_nr" v="1" />
	</node>
	<node id="-57278" lat="59.2199388888" lon="10.1699305634">
		<tag k="ssr:gml_id" v="GEOMETRY_ba4dbb41-c5e2-48b8-ba5c-3a6f42bc1a3a" />
		<tag k="ssr:gml_nr" v="1" />
	</node>
	<node id="-56765" lat="59.3450333324" lon="10.1908805541">
		<tag k="name" v="Seterskogen" />
		<tag k="natural" v="wood" />
		<tag k="ssr:date" v="2017-01-19" />
		<tag k="ssr:stedsnr" v="816354" />
	</node>
	<node id="-53361" lat="59.2703777796" lon="10.2045694428">
		<tag k="name" v="Årholt" />
		<tag k="place" v="locality" />
		<tag k="ssr:date" v="2017-01-19" />
		<tag k="ssr:stedsnr" v="271457" />
	</node>
	<node id="-57270" lat="59.322844444" lon="10.0302833372">
		<tag k="name" v="Kinnmyr" />
		<tag k="natural" v="wetland" />
		<tag k="ssr:date" v="2017-01-19" />
		<tag k="ssr:stedsnr" v="937655" />
	</node>
	<node id="-53321" lat="59.3114944409" lon="10.1574472237">
		<tag k="name" v="Orerønningen" />
		<tag k="place" v="locality" />
		<tag k="ssr:date" v="2017-01-19" />
		<tag k="ssr:stedsnr" v="270426" />
	</node>
	<node id="-53804" lat="59.2226222249" lon="10.3498444391">
		<tag k="name" v="Melsomskogen" />
		<tag k="natural" v="wood" />
		<tag k="ssr:date" v="2017-01-19" />
		<tag k="ssr:stedsnr" v="389443" />
	</node>
	<node id="-56754" lat="59.3200944436" lon="10.0756388809">
		<tag k="name" v="Storemyr" />
		<tag k="natural" v="wetland" />
		<tag k="ssr:date" v="2017-01-19" />
		<tag k="ssr:stedsnr" v="816205" />
	</node>
	<node id="-53320" lat="59.2635583317" lon="10.2538611071">
		<tag k="landuse" v="farmland" />
		<tag k="name" v="Torimyr S" />
		<tag k="ssr:date" v="2017-01-19" />
		<tag k="ssr:stedsnr" v="270397" />
	</node>
	<node id="-53490" lat="59.2534694482" lon="10.1382694506">
		<tag k="ssr:gml_id" v="GEOMETRY_6bcf84ae-147f-4a27-ad0a-728be2dcfc37" />
		<tag k="ssr:gml_nr" v="0" />
	</node>
	<node id="-56746" lat="59.3170638882" lon="10.0241916643">
		<tag k="name" v="Setermyra" />
		<tag k="natural" v="wetland" />
		<tag k="ssr:date" v="2017-01-19" />
		<tag k="ssr:stedsnr" v="815579" />
	</node>
	<node id="-57254" lat="59.3095972268" lon="10.1874416608">
		<tag k="landuse" v="meadow" />
		<tag k="name" v="Bruenga" />
		<tag k="ssr:date" v="2017-01-19" />
		<tag k="ssr:stedsnr" v="937442" />
	</node>
	<node id="-56741" lat="59.2476472226" lon="10.3015666611">
		<tag k="name" v="Lundskogen" />
		<tag k="natural" v="wood" />
		<tag k="ssr:date" v="2017-01-19" />
		<tag k="ssr:stedsnr" v="814475" />
	</node>
	<node id="-57252" lat="59.2582555519" lon="10.2556638914">
		<tag k="name" v="Skogly" />
		<tag k="place" v="locality" />
		<tag k="ssr:date" v="2017-01-19" />
		<tag k="ssr:stedsnr" v="937414" />
	</node>
	<node id="-57250" lat="59.308452775" lon="10.2171750018">
		<tag k="name" v="Bjørnemyr" />
		<tag k="natural" v="wetland" />
		<tag k="ssr:date" v="2017-01-19" />
		<tag k="ssr:stedsnr" v="937371" />
	</node>
	<node id="-56737" lat="59.2441722179" lon="10.3611138941">
		<tag k="name" v="Sjuestokkmyra" />
		<tag k="natural" v="wetland" />
		<tag k="ssr:date" v="2017-01-19" />
		<tag k="ssr:stedsnr" v="814468" />
	</node>
	<node id="-54171" lat="59.2496138877" lon="10.0551666588">
		<tag k="name" v="Kjerringdalsmyr" />
		<tag k="natural" v="wetland" />
		<tag k="ssr:date" v="2017-01-19" />
		<tag k="ssr:stedsnr" v="27811" />
	</node>
	<node id="-57241" lat="59.3170666672" lon="10.0684750051">
		<tag k="name" v="Vintermyr" />
		<tag k="natural" v="wetland" />
		<tag k="ssr:date" v="2017-01-19" />
		<tag k="ssr:stedsnr" v="937247" />
	</node>
	<node id="-57240" lat="59.3156305574" lon="10.0591472283">
		<tag k="name" v="Hamnedalsmyra" />
		<tag k="natural" v="wetland" />
		<tag k="ssr:date" v="2017-01-19" />
		<tag k="ssr:stedsnr" v="937237" />
	</node>
	<node id="-54163" lat="59.2570361115" lon="10.0614194425">
		<tag k="name" v="Krullfurua" />
		<tag k="place" v="locality" />
		<tag k="ssr:date" v="2017-01-19" />
		<tag k="ssr:stedsnr" v="27799" />
	</node>
	<node id="-54162" lat="59.2466527806" lon="10.0520305546">
		<tag k="name" v="Nommedammen" />
		<tag k="natural" v="wetland" />
		<tag k="ssr:date" v="2017-01-19" />
		<tag k="ssr:stedsnr" v="27792" />
	</node>
	<node id="-54161" lat="59.2557833308" lon="10.1510250087">
		<tag k="name" v="Riseskogen" />
		<tag k="natural" v="wood" />
		<tag k="ssr:date" v="2017-01-19" />
		<tag k="ssr:stedsnr" v="27791" />
	</node>
	<node id="-54160" lat="59.2434833337" lon="10.0788277713">
		<tag k="name" v="Sørensmyr" />
		<tag k="natural" v="wetland" />
		<tag k="ssr:date" v="2017-01-19" />
		<tag k="ssr:stedsnr" v="27788" />
	</node>
	<node id="-57231" lat="59.1954194458" lon="10.3189083254">
		<tag k="name" v="Feenskogen" />
		<tag k="natural" v="wood" />
		<tag k="ssr:date" v="2017-01-19" />
		<tag k="ssr:stedsnr" v="935483" />
	</node>
	<node id="-54158" lat="59.2564944451" lon="10.1174833328">
		<tag k="name" v="Jammermyra" />
		<tag k="natural" v="wetland" />
		<tag k="ssr:date" v="2017-01-19" />
		<tag k="ssr:stedsnr" v="27785" />
	</node>
	<node id="-55533" lat="59.3217527785" lon="10.127430549">
		<tag k="name" v="Strutehølet" />
		<tag k="place" v="locality" />
		<tag k="ssr:date" v="2017-01-19" />
		<tag k="ssr:stedsnr" v="512230" />
	</node>
	<node id="-57228" lat="59.2456472229" lon="10.3507361049">
		<tag k="name" v="Robergmyrene" />
		<tag k="natural" v="wetland" />
		<tag k="ssr:date" v="2017-01-19" />
		<tag k="ssr:stedsnr" v="935454" />
	</node>
	<node id="-57226" lat="59.2279305592" lon="10.3094027845">
		<tag k="name" v="Grimestad" />
		<tag k="place" v="locality" />
		<tag k="ssr:date" v="2017-01-19" />
		<tag k="ssr:stedsnr" v="935446" />
	</node>
	<node id="-55532" lat="59.3508472194" lon="10.1189111094">
		<tag k="landuse" v="farmland" />
		<tag k="name" v="Dammen" />
		<tag k="ssr:date" v="2017-01-19" />
		<tag k="ssr:stedsnr" v="512158" />
	</node>
	<node id="-57222" lat="59.2157833308" lon="10.338766674">
		<tag k="name" v="Solnesskogen" />
		<tag k="natural" v="wood" />
		<tag k="ssr:date" v="2017-01-19" />
		<tag k="ssr:stedsnr" v="935415" />
	</node>
	<node id="-54658" lat="59.2470166659" lon="10.2333694529">
		<tag k="name" v="Dammenskogen" />
		<tag k="natural" v="wood" />
		<tag k="ssr:date" v="2017-01-19" />
		<tag k="ssr:stedsnr" v="149671" />
	</node>
	<node id="-54657" lat="59.2456472244" lon="10.2300027864">
		<tag k="name" v="Anholtskogen" />
		<tag k="natural" v="wood" />
		<tag k="ssr:date" v="2017-01-19" />
		<tag k="ssr:stedsnr" v="149669" />
	</node>
	<node id="-54848" lat="59.2988444418" lon="10.1248027711">
		<tag k="name" v="Halvorsmyr" />
		<tag k="natural" v="wetland" />
		<tag k="ssr:date" v="2017-01-19" />
		<tag k="ssr:stedsnr" v="209268" />
	</node>
	<node id="-55274" lat="59.1049999997" lon="10.1200194525">
		<tag k="name" v="Himbergskogen" />
		<tag k="natural" v="wood" />
		<tag k="ssr:date" v="2017-01-19" />
		<tag k="ssr:stedsnr" v="452149" />
	</node>
	<node id="-53287" lat="59.3483444428" lon="10.0277694415">
		<tag k="name" v="Trillemyr" />
		<tag k="natural" v="wetland" />
		<tag k="ssr:date" v="2017-01-19" />
		<tag k="ssr:stedsnr" v="269560" />
	</node>
	<node id="-54137" lat="59.3242555562" lon="10.0722499984">
		<tag k="name" v="Fossemyr" />
		<tag k="natural" v="wetland" />
		<tag k="ssr:date" v="2017-01-19" />
		<tag k="ssr:stedsnr" v="27193" />
	</node>
	<node id="-54136" lat="59.3299500025" lon="10.0449111105">
		<tag k="landuse" v="farmland" />
		<tag k="name" v="Gørpuss" />
		<tag k="ssr:date" v="2017-01-19" />
		<tag k="ssr:stedsnr" v="27191" />
	</node>
	<node id="-54135" lat="59.3156527805" lon="10.0606583303">
		<tag k="name" v="Bjønnhølet" />
		<tag k="place" v="locality" />
		<tag k="ssr:date" v="2017-01-19" />
		<tag k="ssr:stedsnr" v="27181" />
	</node>
	<node id="-57204" lat="59.2008277814" lon="10.3142722257">
		<tag k="name" v="Bærevarskogen" />
		<tag k="natural" v="wood" />
		<tag k="ssr:date" v="2017-01-19" />
		<tag k="ssr:stedsnr" v="935221" />
	</node>
	<node id="-54127" lat="59.2848138871" lon="10.0705444418">
		<tag k="name" v="Ådnesaga" />
		<tag k="place" v="locality" />
		<tag k="ssr:date" v="2017-01-19" />
		<tag k="ssr:stedsnr" v="26756" />
	</node>
	<node id="-54126" lat="59.2886888903" lon="10.1420916738">
		<tag k="landuse" v="meadow" />
		<tag k="name" v="Lienga" />
		<tag k="ssr:date" v="2017-01-19" />
		<tag k="ssr:stedsnr" v="26746" />
	</node>
	<node id="-54635" lat="59.2715472197" lon="10.1163500066">
		<tag k="name" v="Svartemyr" />
		<tag k="natural" v="wetland" />
		<tag k="ssr:date" v="2017-01-19" />
		<tag k="ssr:stedsnr" v="148797" />
	</node>
	<node id="-54122" lat="59.3296972266" lon="10.0315611111">
		<tag k="name" v="Setermyra" />
		<tag k="natural" v="wetland" />
		<tag k="ssr:date" v="2017-01-19" />
		<tag k="ssr:stedsnr" v="26598" />
	</node>
	<node id="-54632" lat="59.2555083358" lon="10.1320805583">
		<tag k="name" v="Kølabånn" />
		<tag k="place" v="locality" />
		<tag k="ssr:date" v="2017-01-19" />
		<tag k="ssr:stedsnr" v="148791" />
	</node>
	<node id="-56086" lat="59.2572527812" lon="10.2935694376">
		<tag k="name" v="Asketraet" />
		<tag k="place" v="locality" />
		<tag k="ssr:date" v="2017-01-19" />
		<tag k="ssr:stedsnr" v="633683" />
	</node>
	<node id="-54118" lat="59.1795694444" lon="10.3239055517">
		<tag k="name" v="Bogen" />
		<tag k="place" v="locality" />
		<tag k="ssr:date" v="2017-01-19" />
		<tag k="ssr:stedsnr" v="25460" />
	</node>
	<node id="-54117" lat="59.1806416685" lon="10.3191861026">
		<tag k="name" v="Gråten" />
		<tag k="place" v="locality" />
		<tag k="ssr:date" v="2017-01-19" />
		<tag k="ssr:stedsnr" v="25455" />
	</node>
	<node id="-55781" lat="59.2212111134" lon="10.2742055542">
		<tag k="name" v="Holtet østre" />
		<tag k="place" v="locality" />
		<tag k="ssr:date" v="2017-01-19" />
		<tag k="ssr:stedsnr" v="571434" />
	</node>
	<node id="-53594" lat="59.2714305542" lon="10.0693277768">
		<tag k="name" v="Ormemyr" />
		<tag k="natural" v="wetland" />
		<tag k="ssr:date" v="2017-01-19" />
		<tag k="ssr:stedsnr" v="330859" />
	</node>
	<node id="-54159" lat="59.2534416652" lon="10.1264666648">
		<tag k="name" v="Barlindmyra" />
		<tag k="natural" v="wetland" />
		<tag k="ssr:date" v="2017-01-19" />
		<tag k="ssr:stedsnr" v="27786" />
	</node>
	<node id="-53591" lat="59.271055557" lon="10.1075166701">
		<tag k="name" v="Oremyra" />
		<tag k="natural" v="wetland" />
		<tag k="ssr:date" v="2017-01-19" />
		<tag k="ssr:stedsnr" v="330853" />
	</node>
	<node id="-54102" lat="59.3266138907" lon="10.1344000002">
		<tag k="name" v="Andebuskauen" />
		<tag k="natural" v="wood" />
		<tag k="ssr:date" v="2017-01-19" />
		<tag k="ssr:stedsnr" v="27208" />
	</node>
	<node id="-54612" lat="59.2879583368" lon="10.1861444476">
		<tag k="landuse" v="meadow" />
		<tag k="name" v="Nesengen" />
		<tag k="ssr:date" v="2017-01-19" />
		<tag k="ssr:stedsnr" v="148520" />
	</node>
	<node id="-54098" lat="59.3422111127" lon="10.065977782">
		<tag k="name" v="Vennærsmyr" />
		<tag k="natural" v="wetland" />
		<tag k="ssr:date" v="2017-01-19" />
		<tag k="ssr:stedsnr" v="27137" />
	</node>
	<node id="-53585" lat="59.263247219" lon="10.1456833346">
		<tag k="name" v="Bjønnehølet" />
		<tag k="place" v="locality" />
		<tag k="ssr:date" v="2017-01-19" />
		<tag k="ssr:stedsnr" v="330819" />
	</node>
	<node id="-54096" lat="59.3518972192" lon="10.0861999946">
		<tag k="name" v="Hungerdammen" />
		<tag k="natural" v="wetland" />
		<tag k="ssr:date" v="2017-01-19" />
		<tag k="ssr:stedsnr" v="27131" />
	</node>
	<node id="-54605" lat="59.2979416699" lon="10.181397223">
		<tag k="landuse" v="meadow" />
		<tag k="name" v="Vassenga" />
		<tag k="ssr:date" v="2017-01-19" />
		<tag k="ssr:stedsnr" v="148422" />
	</node>
	<node id="-54604" lat="59.2699833319" lon="10.2286388953">
		<tag k="landuse" v="farmland" />
		<tag k="name" v="Vennerød" />
		<tag k="ssr:date" v="2017-01-19" />
		<tag k="ssr:stedsnr" v="148399" />
	</node>
	<node id="-53579" lat="59.1828333376" lon="10.1660555642">
		<tag k="name" v="Vaggestadskogen" />
		<tag k="natural" v="wood" />
		<tag k="ssr:date" v="2017-01-19" />
		<tag k="ssr:stedsnr" v="330758" />
	</node>
	<node id="-54086" lat="59.1591194456" lon="10.2804999949">
		<tag k="name" v="Moltemyr" />
		<tag k="natural" v="wetland" />
		<tag k="ssr:date" v="2017-01-19" />
		<tag k="ssr:stedsnr" v="24270" />
	</node>
	<node id="-53823" lat="59.3476444408" lon="10.153261108">
		<tag k="landuse" v="farmland" />
		<tag k="name" v="Dimle" />
		<tag k="ssr:date" v="2017-01-19" />
		<tag k="ssr:stedsnr" v="391148" />
	</node>
	<node id="-53569" lat="59.3056500009" lon="10.1874166722">
		<tag k="landuse" v="meadow" />
		<tag k="name" v="Hagen" />
		<tag k="ssr:date" v="2017-01-19" />
		<tag k="ssr:stedsnr" v="330444" />
	</node>
	<node id="-53567" lat="59.304891667" lon="10.2185944481">
		<tag k="name" v="Borgenskogen" />
		<tag k="natural" v="wood" />
		<tag k="ssr:date" v="2017-01-19" />
		<tag k="ssr:stedsnr" v="330362" />
	</node>
	<node id="-53564" lat="59.3004638878" lon="10.1118277865">
		<tag k="name" v="Bjønnmyr" />
		<tag k="natural" v="wetland" />
		<tag k="ssr:date" v="2017-01-19" />
		<tag k="ssr:stedsnr" v="330264" />
	</node>
	<node id="-53563" lat="59.300222225" lon="10.0773611045">
		<tag k="name" v="Oserød" />
		<tag k="place" v="locality" />
		<tag k="ssr:date" v="2017-01-19" />
		<tag k="ssr:stedsnr" v="330258" />
	</node>
	<node id="-55610" lat="59.2358111073" lon="10.1712805603">
		<tag k="name" v="Toverødskogen" />
		<tag k="natural" v="wood" />
		<tag k="ssr:date" v="2017-01-19" />
		<tag k="ssr:stedsnr" v="513704" />
	</node>
	<node id="-56120" lat="59.26672222" lon="10.228063891">
		<tag k="landuse" v="farmland" />
		<tag k="name" v="Vennerød" />
		<tag k="ssr:date" v="2017-01-19" />
		<tag k="ssr:stedsnr" v="634425" />
	</node>
	<node id="-57142" lat="59.3812027776" lon="10.0599249919">
		<tag k="ssr:gml_id" v="GEOMETRY_01a09ca3-4d2d-4fcf-ac15-c34dc7957686" />
		<tag k="ssr:gml_nr" v="1" />
	</node>
	<node id="-57141" lat="59.3816888892" lon="10.0618749977">
		<tag k="ssr:gml_id" v="GEOMETRY_85ae3898-666e-430b-b728-caa8dbd212d4" />
		<tag k="ssr:gml_nr" v="0" />
	</node>
	<node id="-55601" lat="59.2696027806" lon="10.2346472166">
		<tag k="landuse" v="farmland" />
		<tag k="name" v="Vennerød" />
		<tag k="ssr:date" v="2017-01-19" />
		<tag k="ssr:stedsnr" v="513446" />
	</node>
	<node id="-56111" lat="59.2843805556" lon="10.0992444482">
		<tag k="name" v="Storemyr" />
		<tag k="natural" v="wetland" />
		<tag k="ssr:date" v="2017-01-19" />
		<tag k="ssr:stedsnr" v="633852" />
	</node>
	<node id="-53324" lat="59.3298777783" lon="10.2032055494">
		<tag k="name" v="Sameia" />
		<tag k="place" v="locality" />
		<tag k="ssr:date" v="2017-01-19" />
		<tag k="ssr:stedsnr" v="270450" />
	</node>
	<node id="-55596" lat="59.2380861151" lon="10.0858222291">
		<tag k="name" v="Barlindglova" />
		<tag k="place" v="locality" />
		<tag k="ssr:date" v="2017-01-19" />
		<tag k="ssr:stedsnr" v="512997" />
	</node>
	<node id="-53547" lat="59.175897224" lon="10.2852916614">
		<tag k="name" v="Berganskogen" />
		<tag k="natural" v="wood" />
		<tag k="ssr:date" v="2017-01-19" />
		<tag k="ssr:stedsnr" v="328424" />
	</node>
	<node id="-56106" lat="59.250836113" lon="10.062258337">
		<tag k="name" v="Store moltemyr" />
		<tag k="natural" v="wetland" />
		<tag k="ssr:date" v="2017-01-19" />
		<tag k="ssr:stedsnr" v="633820" />
	</node>
	<node id="-53544" lat="59.2210583327" lon="10.3185555627">
		<tag k="name" v="Prestegårdsskogen" />
		<tag k="natural" v="wood" />
		<tag k="ssr:date" v="2017-01-19" />
		<tag k="ssr:stedsnr" v="328387" />
	</node>
	<node id="-55591" lat="59.2177194481" lon="10.0952083353">
		<tag k="name" v="Bjørndal-dammen" />
		<tag k="natural" v="wetland" />
		<tag k="ssr:date" v="2017-01-19" />
		<tag k="ssr:stedsnr" v="512963" />
	</node>
	<node id="-56102" lat="59.2433916691" lon="10.041972224">
		<tag k="name" v="Nommeskauen" />
		<tag k="natural" v="wood" />
		<tag k="ssr:date" v="2017-01-19" />
		<tag k="ssr:stedsnr" v="633799" />
	</node>
	<node id="-55589" lat="59.1450527738" lon="10.1452361104">
		<tag k="name" v="Solbergmyra" />
		<tag k="natural" v="wetland" />
		<tag k="ssr:date" v="2017-01-19" />
		<tag k="ssr:stedsnr" v="512861" />
	</node>
	<node id="-55588" lat="59.2706916664" lon="10.0494166696">
		<tag k="name" v="Kremmerhølet" />
		<tag k="place" v="locality" />
		<tag k="ssr:date" v="2017-01-19" />
		<tag k="ssr:stedsnr" v="512851" />
	</node>
	<node id="-53539" lat="59.1519583315" lon="10.2790222153">
		<tag k="name" v="Helgerødskogen" />
		<tag k="natural" v="wood" />
		<tag k="ssr:date" v="2017-01-19" />
		<tag k="ssr:stedsnr" v="328272" />
	</node>
	<node id="-55586" lat="59.2897777761" lon="10.1173249947">
		<tag k="landuse" v="meadow" />
		<tag k="name" v="Vass-hågen" />
		<tag k="ssr:date" v="2017-01-19" />
		<tag k="ssr:stedsnr" v="512846" />
	</node>
	<node id="-55230" lat="59.2763750017" lon="10.0333583295">
		<tag k="ssr:gml_id" v="GEOMETRY_925be171-c98f-484a-93d7-a00ebe2eb187" />
		<tag k="ssr:gml_nr" v="0" />
	</node>
	<node id="-55072" lat="59.1793250038" lon="10.2834083332">
		<tag k="name" v="Myhre" />
		<tag k="place" v="locality" />
		<tag k="ssr:date" v="2017-01-19" />
		<tag k="ssr:stedsnr" v="267400" />
	</node>
	<node id="-55581" lat="59.2464222221" lon="10.0597444516">
		<tag k="name" v="Sagmyra" />
		<tag k="natural" v="wetland" />
		<tag k="ssr:date" v="2017-01-19" />
		<tag k="ssr:stedsnr" v="512801" />
	</node>
	<node id="-56090" lat="59.2253861107" lon="10.1949833291">
		<tag k="landuse" v="meadow" />
		<tag k="name" v="Løkeengene" />
		<tag k="ssr:date" v="2017-01-19" />
		<tag k="ssr:stedsnr" v="633721" />
	</node>
	<node id="-55574" lat="59.1285499975" lon="10.1619194407">
		<tag k="name" v="Førstadskogen" />
		<tag k="natural" v="wood" />
		<tag k="ssr:date" v="2017-01-19" />
		<tag k="ssr:stedsnr" v="512788" />
	</node>
	<node id="-56281" lat="59.3043750004" lon="10.0575888819">
		<tag k="name" v="Steinsdammen" />
		<tag k="natural" v="wetland" />
		<tag k="ssr:date" v="2017-01-19" />
		<tag k="ssr:stedsnr" v="694197" />
	</node>
	<node id="-55571" lat="59.1494583323" lon="10.1676500048">
		<tag k="name" v="Skjelbred" />
		<tag k="place" v="locality" />
		<tag k="ssr:date" v="2017-01-19" />
		<tag k="ssr:stedsnr" v="512760" />
	</node>
	<node id="-55512" lat="59.0800000011" lon="10.2733138946">
		<tag k="name" v="Heinaskogen" />
		<tag k="natural" v="wood" />
		<tag k="ssr:date" v="2017-01-19" />
		<tag k="ssr:stedsnr" v="510297" />
	</node>
	<node id="-56078" lat="59.3311388879" lon="10.2063444509">
		<tag k="name" v="Rolpebrumyr" />
		<tag k="natural" v="wetland" />
		<tag k="ssr:date" v="2017-01-19" />
		<tag k="ssr:stedsnr" v="633463" />
	</node>
	<node id="-56076" lat="59.3126499995" lon="10.188683332">
		<tag k="landuse" v="meadow" />
		<tag k="name" v="Løkka" />
		<tag k="ssr:date" v="2017-01-19" />
		<tag k="ssr:stedsnr" v="633447" />
	</node>
	<node id="-55561" lat="59.103902776" lon="10.1768694364">
		<tag k="name" v="Jåbergskogen" />
		<tag k="natural" v="wood" />
		<tag k="ssr:date" v="2017-01-19" />
		<tag k="ssr:stedsnr" v="512625" />
	</node>
	<node id="-53292" lat="59.3507999962" lon="10.1131166722">
		<tag k="landuse" v="meadow" />
		<tag k="name" v="Bergshagen" />
		<tag k="ssr:date" v="2017-01-19" />
		<tag k="ssr:stedsnr" v="270164" />
	</node>
	<node id="-56582" lat="59.2433833342" lon="10.1086000077">
		<tag k="name" v="Vitemyr" />
		<tag k="natural" v="wetland" />
		<tag k="ssr:date" v="2017-01-19" />
		<tag k="ssr:stedsnr" v="756000" />
	</node>
	<node id="-56069" lat="59.1219805568" lon="10.2160833374">
		<tag k="ssr:gml_id" v="GEOMETRY_bd7bc272-832d-462c-b436-e166ed4df0a2" />
		<tag k="ssr:gml_nr" v="1" />
	</node>
	<node id="-56068" lat="59.1220305533" lon="10.2156444424">
		<tag k="ssr:gml_id" v="GEOMETRY_93643677-3cb5-42d8-8998-5237d5f0f6af" />
		<tag k="ssr:gml_nr" v="0" />
	</node>
	<node id="-55554" lat="59.275541663" lon="10.163447219">
		<tag k="name" v="Vikemyra" />
		<tag k="natural" v="wetland" />
		<tag k="ssr:date" v="2017-01-19" />
		<tag k="ssr:stedsnr" v="512497" />
	</node>
	<node id="-55595" lat="59.2358083306" lon="10.1089805555">
		<tag k="name" v="Kleiveskogen" />
		<tag k="natural" v="wood" />
		<tag k="ssr:date" v="2017-01-19" />
		<tag k="ssr:stedsnr" v="512989" />
	</node>
	<node id="-56576" lat="59.1494250019" lon="10.1410833398">
		<tag k="name" v="Solbergura" />
		<tag k="natural" v="scree" />
		<tag k="ssr:date" v="2017-01-19" />
		<tag k="ssr:stedsnr" v="755859" />
	</node>
	<node id="-56575" lat="59.280080558" lon="10.1431305577">
		<tag k="name" v="Malmmyra" />
		<tag k="natural" v="wetland" />
		<tag k="ssr:date" v="2017-01-19" />
		<tag k="ssr:stedsnr" v="755818" />
	</node>
	<node id="-55253" lat="59.239566671" lon="10.2992277742">
		<tag k="name" v="Eikskogen" />
		<tag k="natural" v="wood" />
		<tag k="ssr:date" v="2017-01-19" />
		<tag k="ssr:stedsnr" v="450448" />
	</node>
	<node id="-56572" lat="59.2381861099" lon="10.0265194497">
		<tag k="name" v="Den høye myr" />
		<tag k="natural" v="wetland" />
		<tag k="ssr:date" v="2017-01-19" />
		<tag k="ssr:stedsnr" v="755793" />
	</node>
	<node id="-56058" lat="59.1153027735" lon="10.1516333269">
		<tag k="name" v="Kjærskogen" />
		<tag k="natural" v="wood" />
		<tag k="ssr:date" v="2017-01-19" />
		<tag k="ssr:stedsnr" v="633194" />
	</node>
	<node id="-56568" lat="59.1648277774" lon="10.1469666597">
		<tag k="name" v="Klavenesskogen" />
		<tag k="natural" v="wood" />
		<tag k="ssr:date" v="2017-01-19" />
		<tag k="ssr:stedsnr" v="755776" />
	</node>
	<node id="-55543" lat="59.2996305519" lon="10.260127781">
		<tag k="name" v="Jareteigen" />
		<tag k="place" v="locality" />
		<tag k="ssr:date" v="2017-01-19" />
		<tag k="ssr:stedsnr" v="512349" />
	</node>
	<node id="-56054" lat="59.3551388862" lon="10.1409333314">
		<tag k="name" v="Sukkeskogen" />
		<tag k="natural" v="wood" />
		<tag k="ssr:date" v="2017-01-19" />
		<tag k="ssr:stedsnr" v="633178" />
	</node>
	<node id="-53492" lat="59.2499083376" lon="10.1383083284">
		<tag k="ssr:gml_id" v="GEOMETRY_217a65f6-e863-464f-bd3a-8b83143ed6c9" />
		<tag k="ssr:gml_nr" v="2" />
	</node>
	<node id="-53491" lat="59.2534666704" lon="10.1382666749">
		<tag k="ssr:gml_id" v="GEOMETRY_d61a96d9-0c2b-4536-813a-fcddaf259778" />
		<tag k="ssr:gml_nr" v="1" />
	</node>
	<node id="-56562" lat="59.1540888883" lon="10.1629777717">
		<tag k="name" v="Skjelbredskogen" />
		<tag k="natural" v="wood" />
		<tag k="ssr:date" v="2017-01-19" />
		<tag k="ssr:stedsnr" v="755748" />
	</node>
	<node id="-56104" lat="59.2546722202" lon="10.0457916623">
		<tag k="name" v="Snappen" />
		<tag k="place" v="locality" />
		<tag k="ssr:date" v="2017-01-19" />
		<tag k="ssr:stedsnr" v="633813" />
	</node>
	<node id="-56046" lat="59.2335805536" lon="10.284511113">
		<tag k="name" v="Noatun" />
		<tag k="place" v="locality" />
		<tag k="ssr:date" v="2017-01-19" />
		<tag k="ssr:stedsnr" v="631416" />
	</node>
	<node id="-56557" lat="59.1943916676" lon="10.2357944511">
		<tag k="name" v="Fevangskogen" />
		<tag k="natural" v="wood" />
		<tag k="ssr:date" v="2017-01-19" />
		<tag k="ssr:stedsnr" v="755707" />
	</node>
	<node id="-56556" lat="59.1888805581" lon="10.2011638879">
		<tag k="name" v="Bjørnerødskogen" />
		<tag k="natural" v="wood" />
		<tag k="ssr:date" v="2017-01-19" />
		<tag k="ssr:stedsnr" v="755700" />
	</node>
	<node id="-54994" lat="59.2226833303" lon="10.2699805551">
		<tag k="ssr:gml_id" v="GEOMETRY_c4afe6c0-2a99-4c0a-9caa-41ef59115949" />
		<tag k="ssr:gml_nr" v="1" />
	</node>
	<node id="-53799" lat="59.0941861153" lon="10.3026222238">
		<tag k="name" v="Namløsskogen" />
		<tag k="natural" v="wood" />
		<tag k="ssr:date" v="2017-01-19" />
		<tag k="ssr:stedsnr" v="389339" />
	</node>
	<node id="-55527" lat="59.3455777746" lon="10.0477194449">
		<tag k="historic" v="summer_mountain_farm" />
		<tag k="landuse" v="meadow" />
		<tag k="name" v="Enersrødseter" />
		<tag k="place" v="locality" />
		<tag k="ssr:date" v="2017-01-19" />
		<tag k="ssr:stedsnr" v="512134" />
	</node>
	<node id="-56038" lat="59.157122226" lon="10.2766111061">
		<tag k="name" v="Fromskogen" />
		<tag k="natural" v="wood" />
		<tag k="ssr:date" v="2017-01-19" />
		<tag k="ssr:stedsnr" v="631264" />
	</node>
	<node id="-55590" lat="59.1480416666" lon="10.1257833265">
		<tag k="name" v="Holmenskogen" />
		<tag k="natural" v="wood" />
		<tag k="ssr:date" v="2017-01-19" />
		<tag k="ssr:stedsnr" v="512863" />
	</node>
	<node id="-55522" lat="59.2272027808" lon="10.3232166649">
		<tag k="name" v="Melsom skog" />
		<tag k="natural" v="wood" />
		<tag k="ssr:date" v="2017-01-19" />
		<tag k="ssr:stedsnr" v="510428" />
	</node>
	<node id="-53883" lat="59.222758333" lon="10.0605166672">
		<tag k="name" v="Sagløkka" />
		<tag k="place" v="locality" />
		<tag k="ssr:date" v="2017-01-19" />
		<tag k="ssr:stedsnr" v="391985" />
	</node>
	<node id="-57056" lat="59.2402444432" lon="10.154452776">
		<tag k="landuse" v="meadow" />
		<tag k="name" v="Gjeinplassen" />
		<tag k="ssr:date" v="2017-01-19" />
		<tag k="ssr:stedsnr" v="877990" />
	</node>
	<node id="-55519" lat="59.2275361091" lon="10.3321916747">
		<tag k="landuse" v="meadow" />
		<tag k="name" v="Brattbakken" />
		<tag k="ssr:date" v="2017-01-19" />
		<tag k="ssr:stedsnr" v="510404" />
	</node>
	<node id="-57054" lat="59.2213138882" lon="10.0705138821">
		<tag k="name" v="Vintermyrene" />
		<tag k="natural" v="wetland" />
		<tag k="ssr:date" v="2017-01-19" />
		<tag k="ssr:stedsnr" v="877984" />
	</node>
	<node id="-56541" lat="59.334147222" lon="10.1944250019">
		<tag k="name" v="Seterskogen" />
		<tag k="natural" v="wood" />
		<tag k="ssr:date" v="2017-01-19" />
		<tag k="ssr:stedsnr" v="755462" />
	</node>
	<node id="-57052" lat="59.2083499956" lon="10.1383777777">
		<tag k="name" v="Milsrønningen" />
		<tag k="place" v="locality" />
		<tag k="ssr:date" v="2017-01-19" />
		<tag k="ssr:stedsnr" v="877968" />
	</node>
	<node id="-57050" lat="59.2783472251" lon="10.1027222202">
		<tag k="name" v="Langmyr" />
		<tag k="natural" v="wetland" />
		<tag k="ssr:date" v="2017-01-19" />
		<tag k="ssr:stedsnr" v="877828" />
	</node>
	<node id="-55257" lat="59.1769166681" lon="10.3238111183">
		<tag k="landuse" v="meadow" />
		<tag k="name" v="Engene" />
		<tag k="ssr:date" v="2017-01-19" />
		<tag k="ssr:stedsnr" v="450473" />
	</node>
	<node id="-56536" lat="59.3467416625" lon="10.1616416677">
		<tag k="name" v="Harestokken" />
		<tag k="place" v="locality" />
		<tag k="ssr:date" v="2017-01-19" />
		<tag k="ssr:stedsnr" v="755388" />
	</node>
	<node id="-53543" lat="59.207211114" lon="10.3180777788">
		<tag k="name" v="Bærevar" />
		<tag k="place" v="locality" />
		<tag k="ssr:date" v="2017-01-19" />
		<tag k="ssr:stedsnr" v="328384" />
	</node>
	<node id="-54996" lat="59.2224305561" lon="10.2675333392">
		<tag k="ssr:gml_id" v="GEOMETRY_db10dd81-471f-4d00-888d-e99f1b1751a9" />
		<tag k="ssr:gml_nr" v="3" />
	</node>
	<node id="-54995" lat="59.2233249975" lon="10.2701055488">
		<tag k="ssr:gml_id" v="GEOMETRY_cb591017-1685-4404-8dce-1eb8fde3173c" />
		<tag k="ssr:gml_nr" v="2" />
	</node>
	<node id="-56530" lat="59.2977361098" lon="10.1424888974">
		<tag k="landuse" v="farmland" />
		<tag k="name" v="Våleheddet" />
		<tag k="ssr:date" v="2017-01-19" />
		<tag k="ssr:stedsnr" v="755265" />
	</node>
	<node id="-54993" lat="59.2226805553" lon="10.2699777713">
		<tag k="ssr:gml_id" v="GEOMETRY_eae787b5-9ea4-46bc-9c37-f98070aa3e8d" />
		<tag k="ssr:gml_nr" v="0" />
	</node>
	<node id="-57039" lat="59.1844527804" lon="10.2484916701">
		<tag k="ssr:gml_id" v="GEOMETRY_6a36b71d-a426-4565-97dc-c6f6bf59f45d" />
		<tag k="ssr:gml_nr" v="1" />
	</node>
	<node id="-57038" lat="59.190122221" lon="10.2428111135">
		<tag k="ssr:gml_id" v="GEOMETRY_e6b1e421-c858-492c-8f81-2440697156d5" />
		<tag k="ssr:gml_nr" v="0" />
	</node>
	<node id="-53538" lat="59.0786166684" lon="10.296544443">
		<tag k="name" v="Eianskogen" />
		<tag k="natural" v="wood" />
		<tag k="ssr:date" v="2017-01-19" />
		<tag k="ssr:stedsnr" v="328269" />
	</node>
	<node id="-56521" lat="59.3193555532" lon="10.0569194516">
		<tag k="landuse" v="meadow" />
		<tag k="name" v="Vassenga" />
		<tag k="ssr:date" v="2017-01-19" />
		<tag k="ssr:stedsnr" v="755209" />
	</node>
	<node id="-54984" lat="59.2273527785" lon="10.2965250073">
		<tag k="ssr:gml_id" v="GEOMETRY_fe7a5c77-472b-4d6b-a5af-201ec8515db1" />
		<tag k="ssr:gml_nr" v="3" />
	</node>
	<node id="-54983" lat="59.2306083352" lon="10.2958166711">
		<tag k="ssr:gml_id" v="GEOMETRY_b6e0a54b-f3c2-41a6-888b-cc0b5ad0e0bb" />
		<tag k="ssr:gml_nr" v="2" />
	</node>
	<node id="-56518" lat="59.3323722192" lon="10.1047305619">
		<tag k="name" v="Lospen" />
		<tag k="place" v="locality" />
		<tag k="ssr:date" v="2017-01-19" />
		<tag k="ssr:stedsnr" v="755205" />
	</node>
	<node id="-54981" lat="59.2298138908" lon="10.2942749956">
		<tag k="ssr:gml_id" v="GEOMETRY_8b0ae26b-a0e2-44a7-96b9-eb95b46ebaff" />
		<tag k="ssr:gml_nr" v="0" />
	</node>
	<node id="-56516" lat="59.1188277802" lon="10.139269444">
		<tag k="name" v="Langåkerskogen" />
		<tag k="natural" v="wood" />
		<tag k="ssr:date" v="2017-01-19" />
		<tag k="ssr:stedsnr" v="755169" />
	</node>
	<node id="-54827" lat="59.3208416672" lon="10.0155194457">
		<tag k="name" v="De grønne myrane" />
		<tag k="natural" v="wetland" />
		<tag k="ssr:date" v="2017-01-19" />
		<tag k="ssr:stedsnr" v="208600" />
	</node>
	<node id="-55840" lat="59.2793444436" lon="10.1054944378">
		<tag k="name" v="Hvilingstaen" />
		<tag k="place" v="locality" />
		<tag k="ssr:date" v="2017-01-19" />
		<tag k="ssr:stedsnr" v="573787" />
	</node>
	<node id="-55242" lat="59.1659833303" lon="10.3068388963">
		<tag k="name" v="Rønn" />
		<tag k="place" v="locality" />
		<tag k="ssr:date" v="2017-01-19" />
		<tag k="ssr:stedsnr" v="449419" />
	</node>
	<node id="-54644" lat="59.221950001" lon="10.0523555478">
		<tag k="name" v="Kirkeroa" />
		<tag k="place" v="locality" />
		<tag k="ssr:date" v="2017-01-19" />
		<tag k="ssr:stedsnr" v="148971" />
	</node>
	<node id="-53326" lat="59.2897444411" lon="10.204247228">
		<tag k="name" v="Bjurerønningen" />
		<tag k="place" v="locality" />
		<tag k="ssr:date" v="2017-01-19" />
		<tag k="ssr:stedsnr" v="270496" />
	</node>
	<node id="-55843" lat="59.1904472267" lon="10.1702972149">
		<tag k="ssr:gml_id" v="GEOMETRY_aeaae65d-87c2-4567-b7ed-1bbb0399d819" />
		<tag k="ssr:gml_nr" v="2" />
	</node>
	<node id="-56492" lat="59.1817777747" lon="10.3011805475">
		<tag k="name" v="Stavnummyra" />
		<tag k="natural" v="wetland" />
		<tag k="ssr:date" v="2017-01-19" />
		<tag k="ssr:stedsnr" v="753413" />
	</node>
	<node id="-57002" lat="59.3060250024" lon="10.1233722145">
		<tag k="name" v="Logne" />
		<tag k="place" v="locality" />
		<tag k="ssr:date" v="2017-01-19" />
		<tag k="ssr:stedsnr" v="877256" />
	</node>
	<node id="-57000" lat="59.3123555569" lon="10.0758444475">
		<tag k="ssr:gml_id" v="GEOMETRY_4169383f-f3fc-4a7d-8744-2822e0bec3ae" />
		<tag k="ssr:gml_nr" v="1" />
	</node>
	<node id="-56487" lat="59.2167805521" lon="10.3031916654">
		<tag k="landuse" v="meadow" />
		<tag k="name" v="Prestehagen" />
		<tag k="ssr:date" v="2017-01-19" />
		<tag k="ssr:stedsnr" v="753374" />
	</node>
	<node id="-54385" lat="59.2620305533" lon="10.2460027806">
		<tag k="name" v="Trolløkken" />
		<tag k="place" v="locality" />
		<tag k="ssr:date" v="2017-01-19" />
		<tag k="ssr:stedsnr" v="88331" />
	</node>
	<node id="-56484" lat="59.2072583342" lon="10.3045055529">
		<tag k="name" v="Lillevarskogen" />
		<tag k="natural" v="wood" />
		<tag k="ssr:date" v="2017-01-19" />
		<tag k="ssr:stedsnr" v="753358" />
	</node>
	<node id="-54982" lat="59.229816666" lon="10.2942749956">
		<tag k="ssr:gml_id" v="GEOMETRY_a5bcb431-5c34-46e8-b2ad-013edffc633f" />
		<tag k="ssr:gml_nr" v="1" />
	</node>
	<node id="-56476" lat="59.0689138923" lon="10.275194437">
		<tag k="name" v="Auveskogen" />
		<tag k="natural" v="wood" />
		<tag k="ssr:date" v="2017-01-19" />
		<tag k="ssr:stedsnr" v="752305" />
	</node>
	<node id="-55578" lat="59.2574805539" lon="10.1181472287">
		<tag k="name" v="Jammern" />
		<tag k="place" v="locality" />
		<tag k="ssr:date" v="2017-01-19" />
		<tag k="ssr:stedsnr" v="512796" />
	</node>
	<node id="-54424" lat="59.2370944465" lon="10.0790916616">
		<tag k="name" v="Vardåsmyra" />
		<tag k="natural" v="wetland" />
		<tag k="ssr:date" v="2017-01-19" />
		<tag k="ssr:stedsnr" v="88995" />
	</node>
	<node id="-54423" lat="59.2446805595" lon="10.1490361112">
		<tag k="name" v="Gjerlaskogen" />
		<tag k="natural" v="wood" />
		<tag k="ssr:date" v="2017-01-19" />
		<tag k="ssr:stedsnr" v="88985" />
	</node>
	<node id="-54421" lat="59.2264861103" lon="10.0848805614">
		<tag k="name" v="Knutemyr" />
		<tag k="natural" v="wetland" />
		<tag k="ssr:date" v="2017-01-19" />
		<tag k="ssr:stedsnr" v="88978" />
	</node>
	<node id="-54638" lat="59.1943222254" lon="10.1444138949">
		<tag k="name" v="Tørrestadskogen" />
		<tag k="natural" v="wood" />
		<tag k="ssr:date" v="2017-01-19" />
		<tag k="ssr:stedsnr" v="148825" />
	</node>
	<node id="-54408" lat="59.2383500027" lon="10.0690194533">
		<tag k="name" v="Dammyr" />
		<tag k="natural" v="wetland" />
		<tag k="ssr:date" v="2017-01-19" />
		<tag k="ssr:stedsnr" v="88752" />
	</node>
	<node id="-54410" lat="59.2514222255" lon="10.1430027706">
		<tag k="name" v="Gjerlaskogen" />
		<tag k="natural" v="wood" />
		<tag k="ssr:date" v="2017-01-19" />
		<tag k="ssr:stedsnr" v="88756" />
	</node>
	<node id="-56968" lat="59.218700001" lon="10.3135666618">
		<tag k="landuse" v="meadow" />
		<tag k="name" v="Klinkeløkka" />
		<tag k="ssr:date" v="2017-01-19" />
		<tag k="ssr:stedsnr" v="875435" />
	</node>
	<node id="-54407" lat="59.2415888887" lon="10.0762916738">
		<tag k="name" v="Vardalsmyra" />
		<tag k="natural" v="wetland" />
		<tag k="ssr:date" v="2017-01-19" />
		<tag k="ssr:stedsnr" v="88751" />
	</node>
	<node id="-56963" lat="59.1851805514" lon="10.3173583405">
		<tag k="name" v="Fetjalunden" />
		<tag k="place" v="locality" />
		<tag k="ssr:date" v="2017-01-19" />
		<tag k="ssr:stedsnr" v="874466" />
	</node>
	<node id="-56999" lat="59.3123583361" lon="10.075847223">
		<tag k="ssr:gml_id" v="GEOMETRY_0e381725-3c4d-4161-8e32-f642758f4d61" />
		<tag k="ssr:gml_nr" v="0" />
	</node>
	<node id="-53889" lat="59.2876222254" lon="10.2439500048">
		<tag k="name" v="Magervenda" />
		<tag k="place" v="locality" />
		<tag k="ssr:date" v="2017-01-19" />
		<tag k="ssr:stedsnr" v="392457" />
	</node>
	<node id="-53887" lat="59.2599861075" lon="10.1909222177">
		<tag k="name" v="Løkka" />
		<tag k="place" v="locality" />
		<tag k="ssr:date" v="2017-01-19" />
		<tag k="ssr:stedsnr" v="392439" />
	</node>
	<node id="-53886" lat="59.2570999998" lon="10.1890611129">
		<tag k="landuse" v="meadow" />
		<tag k="name" v="Engrønningen" />
		<tag k="ssr:date" v="2017-01-19" />
		<tag k="ssr:stedsnr" v="392437" />
	</node>
	<node id="-54907" lat="59.2504944409" lon="10.2036055494">
		<tag k="landuse" v="meadow" />
		<tag k="name" v="Gravdalengene" />
		<tag k="ssr:date" v="2017-01-19" />
		<tag k="ssr:stedsnr" v="210426" />
	</node>
	<node id="-56954" lat="59.1340999991" lon="10.3207305471">
		<tag k="name" v="Årøyskogen" />
		<tag k="natural" v="wood" />
		<tag k="ssr:date" v="2017-01-19" />
		<tag k="ssr:stedsnr" v="874267" />
	</node>
	<node id="-53880" lat="59.129327781" lon="10.1363777693">
		<tag k="ssr:gml_id" v="GEOMETRY_f3650a47-5720-4743-b9c0-7dbc32dbc615" />
		<tag k="ssr:gml_nr" v="1" />
	</node>
	<node id="-53879" lat="59.1362416654" lon="10.1244333297">
		<tag k="ssr:gml_id" v="GEOMETRY_76f17247-9626-4e54-a7d4-6622c5283272" />
		<tag k="ssr:gml_nr" v="0" />
	</node>
	<node id="-54864" lat="59.0990027797" lon="10.1923694425">
		<tag k="name" v="Marumskogen" />
		<tag k="natural" v="wood" />
		<tag k="ssr:date" v="2017-01-19" />
		<tag k="ssr:stedsnr" v="209558" />
	</node>
	<node id="-53876" lat="59.2682611071" lon="10.1103444475">
		<tag k="name" v="Kjippmyr" />
		<tag k="natural" v="wetland" />
		<tag k="ssr:date" v="2017-01-19" />
		<tag k="ssr:stedsnr" v="391829" />
	</node>
	<node id="-53875" lat="59.2664055556" lon="10.0827638894">
		<tag k="landuse" v="meadow" />
		<tag k="name" v="Vassenga" />
		<tag k="ssr:date" v="2017-01-19" />
		<tag k="ssr:stedsnr" v="391822" />
	</node>
	<node id="-56434" lat="59.2669749991" lon="10.323200002">
		<tag k="ssr:gml_id" v="GEOMETRY_b07363a0-383d-4d37-bc8a-d59d7ccaec7b" />
		<tag k="ssr:gml_nr" v="2" />
	</node>
	<node id="-56083" lat="59.30253333" lon="10.0363194433">
		<tag k="name" v="Oremyr" />
		<tag k="natural" v="wetland" />
		<tag k="ssr:date" v="2017-01-19" />
		<tag k="ssr:stedsnr" v="633566" />
	</node>
	<node id="-56432" lat="59.2687194481" lon="10.3269055523">
		<tag k="ssr:gml_id" v="GEOMETRY_e64ff25e-1662-45a0-8ad2-cf3183a1dcae" />
		<tag k="ssr:gml_nr" v="0" />
	</node>
	<node id="-54895" lat="59.2122583332" lon="10.153177772">
		<tag k="name" v="Jettegryte" />
		<tag k="place" v="locality" />
		<tag k="ssr:date" v="2017-01-19" />
		<tag k="ssr:stedsnr" v="209952" />
	</node>
	<node id="-57277" lat="59.2265638896" lon="10.173761114">
		<tag k="ssr:gml_id" v="GEOMETRY_321cd0fb-b027-48ac-a5bd-9b05b2b729d1" />
		<tag k="ssr:gml_nr" v="0" />
	</node>
	<node id="-54816" lat="59.2483583293" lon="10.2965583357">
		<tag k="name" v="Landhjem" />
		<tag k="place" v="locality" />
		<tag k="ssr:date" v="2017-01-19" />
		<tag k="ssr:stedsnr" v="207419" />
	</node>
	<node id="-54890" lat="59.2759611131" lon="10.1361833385">
		<tag k="landuse" v="meadow" />
		<tag k="name" v="Storeng" />
		<tag k="ssr:date" v="2017-01-19" />
		<tag k="ssr:stedsnr" v="209806" />
	</node>
	<node id="-54888" lat="59.27250278" lon="10.1202805613">
		<tag k="name" v="Båhusmyra" />
		<tag k="natural" v="wetland" />
		<tag k="ssr:date" v="2017-01-19" />
		<tag k="ssr:stedsnr" v="209790" />
	</node>
	<node id="-54887" lat="59.2406916648" lon="10.0702972237">
		<tag k="name" v="Veamyra" />
		<tag k="natural" v="wetland" />
		<tag k="ssr:date" v="2017-01-19" />
		<tag k="ssr:stedsnr" v="209782" />
	</node>
	<node id="-54882" lat="59.1267277819" lon="10.191094453">
		<tag k="name" v="Virikskogen" />
		<tag k="natural" v="wood" />
		<tag k="ssr:date" v="2017-01-19" />
		<tag k="ssr:stedsnr" v="209763" />
	</node>
	<node id="-53857" lat="59.1813055548" lon="10.1735583282">
		<tag k="name" v="Svinesmyra" />
		<tag k="natural" v="wetland" />
		<tag k="ssr:date" v="2017-01-19" />
		<tag k="ssr:stedsnr" v="391756" />
	</node>
	<node id="-55079" lat="59.2248916644" lon="10.290066665">
		<tag k="name" v="Bokeskogen" />
		<tag k="natural" v="wood" />
		<tag k="ssr:date" v="2017-01-19" />
		<tag k="ssr:stedsnr" v="268423" />
	</node>
	<node id="-53855" lat="59.1765416625" lon="10.1940916698">
		<tag k="ssr:gml_id" v="GEOMETRY_f01470d8-8dfe-4605-972b-696241ab9a9c" />
		<tag k="ssr:gml_nr" v="0" />
	</node>
	<node id="-56926" lat="59.3305" lon="10.1331611059">
		<tag k="ssr:gml_id" v="GEOMETRY_a2894fcd-b919-4116-8604-b318c4619d3c" />
		<tag k="ssr:gml_nr" v="3" />
	</node>
	<node id="-56925" lat="59.3305027807" lon="10.1331666646">
		<tag k="ssr:gml_id" v="GEOMETRY_04f965c7-40a6-4329-a3ef-8ec932073eab" />
		<tag k="ssr:gml_nr" v="2" />
	</node>
	<node id="-56924" lat="59.3305000028" lon="10.133163883">
		<tag k="ssr:gml_id" v="GEOMETRY_cead1122-aad0-413a-98e3-32a64adfe33a" />
		<tag k="ssr:gml_nr" v="1" />
	</node>
	<node id="-56923" lat="59.3305638854" lon="10.1330305508">
		<tag k="ssr:gml_id" v="GEOMETRY_fd8b4fe0-4e06-4890-a2d5-32a889f72d17" />
		<tag k="ssr:gml_nr" v="0" />
	</node>
	<node id="-56047" lat="59.1767333298" lon="10.2905388808">
		<tag k="name" v="Roveskogen" />
		<tag k="natural" v="wood" />
		<tag k="ssr:date" v="2017-01-19" />
		<tag k="ssr:stedsnr" v="631442" />
	</node>
	<node id="-53849" lat="59.3004888896" lon="10.0356027739">
		<tag k="name" v="Truskerød" />
		<tag k="place" v="locality" />
		<tag k="ssr:date" v="2017-01-19" />
		<tag k="ssr:stedsnr" v="391580" />
	</node>
	<node id="-54871" lat="59.1965694475" lon="10.1747083258">
		<tag k="name" v="Haughemskogen" />
		<tag k="natural" v="wood" />
		<tag k="ssr:date" v="2017-01-19" />
		<tag k="ssr:stedsnr" v="209709" />
	</node>
	<node id="-54870" lat="59.202655555" lon="10.1986916702">
		<tag k="name" v="Fevangskogen" />
		<tag k="natural" v="wood" />
		<tag k="ssr:date" v="2017-01-19" />
		<tag k="ssr:stedsnr" v="209710" />
	</node>
	<node id="-54869" lat="59.2139527817" lon="10.2029722197">
		<tag k="name" v="Dalenskogen" />
		<tag k="natural" v="wood" />
		<tag k="ssr:date" v="2017-01-19" />
		<tag k="ssr:stedsnr" v="209702" />
	</node>
	<node id="-53331" lat="59.2996277785" lon="10.0203222309">
		<tag k="name" v="Geitmyr" />
		<tag k="natural" v="wetland" />
		<tag k="ssr:date" v="2017-01-19" />
		<tag k="ssr:stedsnr" v="270622" />
	</node>
	<node id="-53841" lat="59.2760694462" lon="10.2033861051">
		<tag k="name" v="Årholtskogen" />
		<tag k="natural" v="wood" />
		<tag k="ssr:date" v="2017-01-19" />
		<tag k="ssr:stedsnr" v="391514" />
	</node>
	<node id="-54352" lat="59.217866671" lon="10.3450944531">
		<tag k="name" v="Plassene" />
		<tag k="natural" v="wood" />
		<tag k="ssr:date" v="2017-01-19" />
		<tag k="ssr:stedsnr" v="86408" />
	</node>
	<node id="-55887" lat="59.191672225" lon="10.197094437">
		<tag k="ssr:gml_id" v="GEOMETRY_f86e2823-c229-45a1-92d3-d5f3708c9f4d" />
		<tag k="ssr:gml_nr" v="2" />
	</node>
	<node id="-55886" lat="59.1950388869" lon="10.2051416691">
		<tag k="ssr:gml_id" v="GEOMETRY_0c1b070f-511b-4a13-8486-dd002c6fb835" />
		<tag k="ssr:gml_nr" v="1" />
	</node>
	<node id="-55885" lat="59.1950361105" lon="10.2051388928">
		<tag k="ssr:gml_id" v="GEOMETRY_4b4a2a7a-79ca-45e8-b66a-494e03747fc6" />
		<tag k="ssr:gml_nr" v="0" />
	</node>
	<node id="-53836" lat="59.3062027821" lon="10.2050138974">
		<tag k="name" v="Mellom Holt" />
		<tag k="place" v="locality" />
		<tag k="ssr:date" v="2017-01-19" />
		<tag k="ssr:stedsnr" v="391449" />
	</node>
	<node id="-54857" lat="59.3180694434" lon="10.224166673">
		<tag k="name" v="Elta" />
		<tag k="place" v="locality" />
		<tag k="ssr:date" v="2017-01-19" />
		<tag k="ssr:stedsnr" v="209442" />
	</node>
	<node id="-54856" lat="59.3094305582" lon="10.1667305482">
		<tag k="landuse" v="meadow" />
		<tag k="name" v="Møylandsletta" />
		<tag k="ssr:date" v="2017-01-19" />
		<tag k="ssr:stedsnr" v="209440" />
	</node>
	<node id="-53830" lat="59.2964722267" lon="10.0961861165">
		<tag k="landuse" v="meadow" />
		<tag k="name" v="Torpenga" />
		<tag k="ssr:date" v="2017-01-19" />
		<tag k="ssr:stedsnr" v="391251" />
	</node>
	<node id="-53317" lat="59.3761277747" lon="10.0840583263">
		<tag k="name" v="Hestedalsmyra" />
		<tag k="natural" v="wetland" />
		<tag k="ssr:date" v="2017-01-19" />
		<tag k="ssr:stedsnr" v="270258" />
	</node>
	<node id="-54198" lat="59.1652555519" lon="10.2335916686">
		<tag k="name" v="Unnebergskogen" />
		<tag k="natural" v="wood" />
		<tag k="ssr:date" v="2017-01-19" />
		<tag k="ssr:stedsnr" v="28760" />
	</node>
	<node id="-54849" lat="59.2938388903" lon="10.2177166601">
		<tag k="name" v="Foss" />
		<tag k="place" v="locality" />
		<tag k="ssr:date" v="2017-01-19" />
		<tag k="ssr:stedsnr" v="209352" />
	</node>
	<node id="-53824" lat="59.0997222197" lon="10.1398416609">
		<tag k="name" v="Himbergskogen" />
		<tag k="natural" v="wood" />
		<tag k="ssr:date" v="2017-01-19" />
		<tag k="ssr:stedsnr" v="391169" />
	</node>
	<node id="-53856" lat="59.1714805598" lon="10.1956777751">
		<tag k="ssr:gml_id" v="GEOMETRY_77d497ad-d82e-41f3-bb85-1e7320f38f28" />
		<tag k="ssr:gml_nr" v="1" />
	</node>
	<node id="-54844" lat="59.3088166686" lon="10.1480194522">
		<tag k="name" v="Trulsemyr" />
		<tag k="natural" v="wetland" />
		<tag k="ssr:date" v="2017-01-19" />
		<tag k="ssr:stedsnr" v="209241" />
	</node>
	<node id="-53307" lat="59.2143083371" lon="10.1927083298">
		<tag k="name" v="Bjerknesskogen" />
		<tag k="natural" v="wood" />
		<tag k="ssr:date" v="2017-01-19" />
		<tag k="ssr:stedsnr" v="270703" />
	</node>
	<node id="-53818" lat="59.273844446" lon="10.0638972203">
		<tag k="name" v="Stuemyr" />
		<tag k="natural" v="wetland" />
		<tag k="ssr:date" v="2017-01-19" />
		<tag k="ssr:stedsnr" v="390796" />
	</node>
	<node id="-53816" lat="59.2873055532" lon="10.0694888914">
		<tag k="name" v="Ådnedammen" />
		<tag k="natural" v="wetland" />
		<tag k="ssr:date" v="2017-01-19" />
		<tag k="ssr:stedsnr" v="390787" />
	</node>
	<node id="-55769" lat="59.1632638875" lon="10.2791944413">
		<tag k="name" v="Råstadskogen" />
		<tag k="natural" v="wood" />
		<tag k="ssr:date" v="2017-01-19" />
		<tag k="ssr:stedsnr" v="570247" />
	</node>
	<node id="-53814" lat="59.3189361086" lon="10.0265166649">
		<tag k="name" v="Gampemyr" />
		<tag k="natural" v="wetland" />
		<tag k="ssr:date" v="2017-01-19" />
		<tag k="ssr:stedsnr" v="390594" />
	</node>
	<node id="-53813" lat="59.3274749956" lon="10.0279166662">
		<tag k="name" v="Mytthølet" />
		<tag k="place" v="locality" />
		<tag k="ssr:date" v="2017-01-19" />
		<tag k="ssr:stedsnr" v="390581" />
	</node>
	<node id="-53296" lat="59.2767111139" lon="10.0847555519">
		<tag k="landuse" v="farmland" />
		<tag k="name" v="Vinterrønningen" />
		<tag k="ssr:date" v="2017-01-19" />
		<tag k="ssr:stedsnr" v="269819" />
	</node>
	<node id="-54831" lat="59.2803416669" lon="10.045763894">
		<tag k="name" v="Gvinningsmyr" />
		<tag k="natural" v="wetland" />
		<tag k="ssr:date" v="2017-01-19" />
		<tag k="ssr:stedsnr" v="208824" />
	</node>
	<node id="-55854" lat="59.2557249983" lon="10.1970111163">
		<tag k="name" v="Holmen grustak" />
		<tag k="place" v="quarry" />
		<tag k="ssr:date" v="2017-01-19" />
		<tag k="ssr:stedsnr" v="574448" />
	</node>
	<node id="-54365" lat="59.3209583372" lon="10.0362555568">
		<tag k="name" v="Glovemyra" />
		<tag k="natural" v="wetland" />
		<tag k="ssr:date" v="2017-01-19" />
		<tag k="ssr:stedsnr" v="87617" />
	</node>
	<node id="-55340" lat="59.1720083368" lon="10.2347194532">
		<tag k="name" v="Brekkeskogen" />
		<tag k="natural" v="wood" />
		<tag k="ssr:date" v="2017-01-19" />
		<tag k="ssr:stedsnr" v="453747" />
	</node>
	<node id="-53803" lat="59.2264638876" lon="10.278405549">
		<tag k="name" v="Gjennestad østre" />
		<tag k="place" v="locality" />
		<tag k="ssr:date" v="2017-01-19" />
		<tag k="ssr:stedsnr" v="389438" />
	</node>
	<node id="-54824" lat="59.3224861116" lon="10.0183138895">
		<tag k="name" v="Grasmyr" />
		<tag k="natural" v="wetland" />
		<tag k="ssr:date" v="2017-01-19" />
		<tag k="ssr:stedsnr" v="208590" />
	</node>
	<node id="-55847" lat="59.1511472259" lon="10.1415361084">
		<tag k="name" v="Nesmyra" />
		<tag k="natural" v="wetland" />
		<tag k="ssr:date" v="2017-01-19" />
		<tag k="ssr:stedsnr" v="573844" />
	</node>
	<node id="-55846" lat="59.1236611108" lon="10.1525027783">
		<tag k="name" v="Stangskogen" />
		<tag k="natural" v="wood" />
		<tag k="ssr:date" v="2017-01-19" />
		<tag k="ssr:stedsnr" v="573832" />
	</node>
	<node id="-56070" lat="59.3107055512" lon="10.2671333319">
		<tag k="name" v="Jasmyr" />
		<tag k="natural" v="wetland" />
		<tag k="ssr:date" v="2017-01-19" />
		<tag k="ssr:stedsnr" v="633384" />
	</node>
	<node id="-55842" lat="59.1806694451" lon="10.1468472265">
		<tag k="ssr:gml_id" v="GEOMETRY_d936bbf8-ee93-4f03-9cec-011151da2d67" />
		<tag k="ssr:gml_nr" v="1" />
	</node>
	<node id="-55841" lat="59.1875027747" lon="10.1454583374">
		<tag k="ssr:gml_id" v="GEOMETRY_2ef17c7c-85fe-4d2f-9d79-f204219a45b4" />
		<tag k="ssr:gml_nr" v="0" />
	</node>
	<node id="-53792" lat="59.1588638921" lon="10.2862555603">
		<tag k="name" v="Steinsholtskogen" />
		<tag k="natural" v="wood" />
		<tag k="ssr:date" v="2017-01-19" />
		<tag k="ssr:stedsnr" v="388255" />
	</node>
	<node id="-55838" lat="59.2498416692" lon="10.0719916588">
		<tag k="name" v="Fuglemyr" />
		<tag k="natural" v="wetland" />
		<tag k="ssr:date" v="2017-01-19" />
		<tag k="ssr:stedsnr" v="573780" />
	</node>
	<node id="-56433" lat="59.2652555594" lon="10.3281249947">
		<tag k="ssr:gml_id" v="GEOMETRY_4eff2df8-c8b4-4acb-a7d9-7f8ecd45c774" />
		<tag k="ssr:gml_nr" v="1" />
	</node>
	<node id="-54362" lat="59.3186305561" lon="10.040952782">
		<tag k="name" v="Dammyra" />
		<tag k="natural" v="wetland" />
		<tag k="ssr:date" v="2017-01-19" />
		<tag k="ssr:stedsnr" v="87560" />
	</node>
	<node id="-55832" lat="59.1527833373" lon="10.2007166714">
		<tag k="name" v="Bergsvea" />
		<tag k="place" v="locality" />
		<tag k="ssr:date" v="2017-01-19" />
		<tag k="ssr:stedsnr" v="573739" />
	</node>
	<node id="-54103" lat="59.3118111119" lon="10.1103722272">
		<tag k="name" v="Moltemyr" />
		<tag k="natural" v="wetland" />
		<tag k="ssr:date" v="2017-01-19" />
		<tag k="ssr:stedsnr" v="27218" />
	</node>
	<node id="-56341" lat="59.2527999978" lon="10.0605333261">
		<tag k="name" v="Vesle moltemyr" />
		<tag k="natural" v="wetland" />
		<tag k="ssr:date" v="2017-01-19" />
		<tag k="ssr:stedsnr" v="695789" />
	</node>
	<node id="-55828" lat="59.1786861115" lon="10.202325">
		<tag k="name" v="Fokserødmyra" />
		<tag k="natural" v="wetland" />
		<tag k="ssr:date" v="2017-01-19" />
		<tag k="ssr:stedsnr" v="573717" />
	</node>
	<node id="-56333" lat="59.1675888873" lon="10.2489055557">
		<tag k="name" v="Stangeskogen" />
		<tag k="natural" v="wood" />
		<tag k="ssr:date" v="2017-01-19" />
		<tag k="ssr:stedsnr" v="695726" />
	</node>
	<node id="-55298" lat="59.1932694479" lon="10.1937749945">
		<tag k="name" v="Tørrmyra" />
		<tag k="natural" v="wetland" />
		<tag k="ssr:date" v="2017-01-19" />
		<tag k="ssr:stedsnr" v="452710" />
	</node>
	<node id="-56329" lat="59.2723111156" lon="10.287283331">
		<tag k="name" v="Lakemyr" />
		<tag k="natural" v="wetland" />
		<tag k="ssr:date" v="2017-01-19" />
		<tag k="ssr:stedsnr" v="695692" />
	</node>
	<node id="-55303" lat="59.1803583367" lon="10.1953083276">
		<tag k="name" v="Fokserødskogen" />
		<tag k="natural" v="wood" />
		<tag k="ssr:date" v="2017-01-19" />
		<tag k="ssr:stedsnr" v="452733" />
	</node>
	<node id="-55810" lat="59.2617444482" lon="10.2188277712">
		<tag k="landuse" v="farmland" />
		<tag k="name" v="Holt S" />
		<tag k="ssr:date" v="2017-01-19" />
		<tag k="ssr:stedsnr" v="573379" />
	</node>
	<node id="-55297" lat="59.1968055526" lon="10.1997000049">
		<tag k="name" v="Bjørnumskogen" />
		<tag k="natural" v="wood" />
		<tag k="ssr:date" v="2017-01-19" />
		<tag k="ssr:stedsnr" v="452709" />
	</node>
	<way id="-11456">
		<tag k="name" v="Hotvedtskogen" />
		<tag k="natural" v="wood" />
		<tag k="ssr:date" v="2017-01-19" />
		<tag k="ssr:stedsnr" v="391744" />
		<nd ref="-53855" />
		<nd ref="-53856" />
	</way>
	<way id="-11941">
		<tag k="name" v="Hjertnesskogen" />
		<tag k="natural" v="wood" />
		<tag k="ssr:date" v="2017-01-19" />
		<tag k="ssr:stedsnr" v="633359" />
		<nd ref="-56068" />
		<nd ref="-56069" />
	</way>
	<way id="-12187">
		<tag k="name" v="Løkeskogen" />
		<tag k="natural" v="wood" />
		<tag k="ssr:date" v="2017-01-19" />
		<tag k="ssr:stedsnr" v="937726" />
		<nd ref="-57277" />
		<nd ref="-57278" />
	</way>
	<way id="-11384">
		<tag k="name" v="Reklingsmyr" />
		<tag k="natural" v="wetland" />
		<tag k="ssr:date" v="2017-01-19" />
		<tag k="ssr:stedsnr" v="305930" />
		<nd ref="-53490" />
		<nd ref="-53491" />
		<nd ref="-53492" />
	</way>
	<way id="-12119">
		<tag k="name" v="Håsken sandtak" />
		<tag k="old_name" v="Håsken" />
		<tag k="place" v="quarry" />
		<tag k="ssr:date" v="2017-01-19" />
		<tag k="ssr:stedsnr" v="852785" />
		<nd ref="-56923" />
		<nd ref="-56924" />
		<nd ref="-56925" />
		<nd ref="-56926" />
	</way>
	<way id="-11764">
		<tag k="name" v="Storemyr" />
		<tag k="natural" v="wetland" />
		<tag k="ssr:date" v="2017-01-19" />
		<tag k="ssr:stedsnr" v="434649" />
		<nd ref="-55230" />
		<nd ref="-55231" />
	</way>
	<way id="-11891">
		<tag k="name" v="Bjørnummyra" />
		<tag k="natural" v="wetland" />
		<tag k="ssr:date" v="2017-01-19" />
		<tag k="ssr:stedsnr" v="607165" />
		<nd ref="-55885" />
		<nd ref="-55886" />
		<nd ref="-55887" />
	</way>
	<way id="-12017">
		<tag k="name" v="Akersmyra" />
		<tag k="natural" v="wetland" />
		<tag k="ssr:date" v="2017-01-19" />
		<tag k="ssr:stedsnr" v="730886" />
		<nd ref="-56432" />
		<nd ref="-56433" />
		<nd ref="-56434" />
	</way>
	<way id="-11694">
		<tag k="alt_name" v="Holtemyr" />
		<tag k="name" v="Holtemyra" />
		<tag k="natural" v="wetland" />
		<tag k="ssr:date" v="2017-01-19" />
		<tag k="ssr:stedsnr" v="244348" />
		<nd ref="-54993" />
		<nd ref="-54994" />
		<nd ref="-54995" />
		<nd ref="-54996" />
	</way>
	<way id="-11691">
		<tag k="name" v="Stokkemyra" />
		<tag k="natural" v="wetland" />
		<tag k="ssr:date" v="2017-01-19" />
		<tag k="ssr:stedsnr" v="244318" />
		<nd ref="-54981" />
		<nd ref="-54982" />
		<nd ref="-54983" />
		<nd ref="-54984" />
	</way>
	<way id="-12138">
		<tag k="name" v="Vatakerskogen" />
		<tag k="natural" v="wood" />
		<tag k="ssr:date" v="2017-01-19" />
		<tag k="ssr:stedsnr" v="877751" />
		<nd ref="-57038" />
		<nd ref="-57039" />
	</way>
	<way id="-12133">
		<tag k="name" v="Strandemyra" />
		<tag k="natural" v="wetland" />
		<tag k="ssr:date" v="2017-01-19" />
		<tag k="ssr:stedsnr" v="877236" />
		<nd ref="-56999" />
		<nd ref="-57000" />
	</way>
	<way id="-11460">
		<tag k="name" v="Solbergskogen" />
		<tag k="natural" v="wood" />
		<tag k="ssr:date" v="2017-01-19" />
		<tag k="ssr:stedsnr" v="391868" />
		<nd ref="-53879" />
		<nd ref="-53880" />
	</way>
	<way id="-11883">
		<tag k="name" v="Vaggestadskogen" />
		<tag k="natural" v="wood" />
		<tag k="ssr:date" v="2017-01-19" />
		<tag k="ssr:stedsnr" v="573789" />
		<nd ref="-55841" />
		<nd ref="-55842" />
		<nd ref="-55843" />
	</way>
	<way id="-12161">
		<tag k="alt_name" v="Diplene" />
		<tag k="name" v="Diplane" />
		<tag k="natural" v="wetland" />
		<tag k="ssr:date" v="2017-01-19" />
		<tag k="ssr:stedsnr" v="912245" />
		<nd ref="-57141" />
		<nd ref="-57142" />
	</way>
</osm>
