<?xml version="1.0" encoding="UTF-8"?>
<osm generator="osmapis" version="0.6">
	<node id="-56823" lat="59.2361222255" lon="10.268900007">
		<tag k="ssr:gml_id" v="GEOMETRY_3d19f339-6378-4955-a09e-c249b2e236ed" />
		<tag k="ssr:gml_nr" v="1" />
	</node>
	<node id="-56822" lat="59.2360444441" lon="10.2701916752">
		<tag k="ssr:gml_id" v="GEOMETRY_ca587a6a-d19f-4d3b-a600-a0edb4cbb1ef" />
		<tag k="ssr:gml_nr" v="0" />
	</node>
	<node id="-56821" lat="59.2135361113" lon="10.2457361133">
		<tag k="bridge" v="yes" />
		<tag k="layer" v="1" />
		<tag k="name" v="Rørkoll vest" />
		<tag k="ssr:date" v="2017-01-19" />
		<tag k="ssr:stedsnr" v="836739" />
	</node>
	<node id="-56820" lat="59.1507472177" lon="10.1942277831">
		<tag k="bridge" v="yes" />
		<tag k="layer" v="1" />
		<tag k="name" v="Raveien overgangsbru" />
		<tag k="ssr:date" v="2017-01-19" />
		<tag k="ssr:stedsnr" v="835562" />
	</node>
	<node id="-56819" lat="59.2083055569" lon="10.2413583247">
		<tag k="ssr:gml_id" v="GEOMETRY_ab47bb06-538c-4cf4-981d-93027c16c1e3" />
		<tag k="ssr:gml_nr" v="1" />
	</node>
	<node id="-56818" lat="59.2673361081" lon="10.3121888932">
		<tag k="ssr:gml_id" v="GEOMETRY_f2180218-60f9-4f95-9aa2-be5813a6ade4" />
		<tag k="ssr:gml_nr" v="0" />
	</node>
	<node id="-55278" lat="59.3248583363" lon="10.1325861116">
		<tag k="junction" v="yes" />
		<tag k="name" v="Stassjon" />
		<tag k="place" v="locality" />
		<tag k="ssr:date" v="2017-01-19" />
		<tag k="ssr:stedsnr" v="452214" />
	</node>
	<node id="-57322" lat="59.23644444" lon="10.3434944508">
		<tag k="bridge" v="yes" />
		<tag k="layer" v="1" />
		<tag k="name" v="Gihle" />
		<tag k="ssr:date" v="2017-01-19" />
		<tag k="ssr:stedsnr" v="957757" />
	</node>
	<node id="-57321" lat="59.2748638863" lon="10.3028277771">
		<tag k="bridge" v="yes" />
		<tag k="layer" v="1" />
		<tag k="name" v="Åmot" />
		<tag k="ssr:date" v="2017-01-19" />
		<tag k="ssr:stedsnr" v="957745" />
	</node>
	<node id="-57320" lat="59.382316666" lon="10.1201861165">
		<tag k="bridge" v="yes" />
		<tag k="layer" v="1" />
		<tag k="name" v="Nordskog" />
		<tag k="ssr:date" v="2017-01-19" />
		<tag k="ssr:stedsnr" v="957732" />
	</node>
	<node id="-57319" lat="59.1299472226" lon="10.2182194402">
		<tag k="bridge" v="yes" />
		<tag k="layer" v="1" />
		<tag k="name" v="Pukkestad bru" />
		<tag k="ssr:date" v="2017-01-19" />
		<tag k="ssr:stedsnr" v="956578" />
	</node>
	<node id="-57318" lat="59.1770944445" lon="10.2209444425">
		<tag k="bridge" v="yes" />
		<tag k="layer" v="1" />
		<tag k="name" v="Geirastadir" />
		<tag k="ssr:date" v="2017-01-19" />
		<tag k="ssr:stedsnr" v="956574" />
	</node>
	<node id="-54245" lat="59.1894249991" lon="10.2592888843">
		<tag k="ssr:gml_id" v="GEOMETRY_1499ee4c-cbee-47a8-b8fd-b3b7071a1c67" />
		<tag k="ssr:gml_nr" v="8" />
	</node>
	<node id="-57316" lat="59.1207250002" lon="10.2320861115">
		<tag k="bridge" v="yes" />
		<tag k="layer" v="1" />
		<tag k="name" v="Framnes" />
		<tag k="ssr:date" v="2017-01-19" />
		<tag k="ssr:stedsnr" v="956571" />
	</node>
	<node id="-57315" lat="59.3191222198" lon="10.2596111092">
		<tag k="ssr:gml_id" v="GEOMETRY_6fa6a335-5e00-4e8d-8fce-f0007d9ecba3" />
		<tag k="ssr:gml_nr" v="1" />
	</node>
	<node id="-57314" lat="59.291438888" lon="10.2476666659">
		<tag k="ssr:gml_id" v="GEOMETRY_81b3f24c-7b1a-43c6-a1e0-21e23675a0d8" />
		<tag k="ssr:gml_nr" v="0" />
	</node>
	<node id="-57313" lat="59.2218638923" lon="10.3058000074">
		<tag k="ssr:gml_id" v="GEOMETRY_1e905610-577b-4fc5-9a29-1d1e93b9da10" />
		<tag k="ssr:gml_nr" v="1" />
	</node>
	<node id="-57312" lat="59.2662222224" lon="10.3638999987">
		<tag k="ssr:gml_id" v="GEOMETRY_b6ae2ac5-1b7f-40bb-aec1-73b38d7e3aa1" />
		<tag k="ssr:gml_nr" v="0" />
	</node>
	<node id="-57311" lat="59.1810805564" lon="10.2821944374">
		<tag k="ssr:gml_id" v="GEOMETRY_ccc8ab80-5753-43b3-980f-acf32a4c262b" />
		<tag k="ssr:gml_nr" v="1" />
	</node>
	<node id="-57310" lat="59.2035916696" lon="10.308080556">
		<tag k="ssr:gml_id" v="GEOMETRY_dd82c979-57a1-4d5e-81f4-b83cd2a53a22" />
		<tag k="ssr:gml_nr" v="0" />
	</node>
	<node id="-57309" lat="59.2045527799" lon="10.1911388975">
		<tag k="ssr:gml_id" v="GEOMETRY_58c0d6f5-bd67-4f70-9ebe-67babda96ba2" />
		<tag k="ssr:gml_nr" v="1" />
	</node>
	<node id="-57308" lat="59.2268638913" lon="10.2066361177">
		<tag k="ssr:gml_id" v="GEOMETRY_8132f0f0-8f74-4697-ab16-15be6f41189a" />
		<tag k="ssr:gml_nr" v="0" />
	</node>
	<node id="-53379" lat="59.1759861138" lon="10.2133361197">
		<tag k="bridge" v="yes" />
		<tag k="layer" v="1" />
		<tag k="name" v="Kullerød elementkulvert" />
		<tag k="ssr:date" v="2017-01-19" />
		<tag k="ssr:stedsnr" v="288486" />
	</node>
	<node id="-54209" lat="59.1443444445" lon="10.2798611137">
		<tag k="ssr:gml_id" v="GEOMETRY_fb4529a9-db8e-4817-94e2-5bb31b486d67" />
		<tag k="ssr:gml_nr" v="2" />
	</node>
	<node id="-54208" lat="59.1443472193" lon="10.2798638919">
		<tag k="ssr:gml_id" v="GEOMETRY_af3dbbd8-a981-4b1d-9e4d-6a5c2f74b4b2" />
		<tag k="ssr:gml_nr" v="1" />
	</node>
	<node id="-54207" lat="59.1441361086" lon="10.2795138924">
		<tag k="ssr:gml_id" v="GEOMETRY_b137af0a-35d8-448a-a3ff-4536598deffe" />
		<tag k="ssr:gml_nr" v="0" />
	</node>
	<node id="-54203" lat="59.2278500016" lon="10.2578499919">
		<tag k="ssr:gml_id" v="GEOMETRY_bd7cc871-940a-484f-98bd-891fb1b8c056" />
		<tag k="ssr:gml_nr" v="1" />
	</node>
	<node id="-54202" lat="59.229241667" lon="10.2600249985">
		<tag k="ssr:gml_id" v="GEOMETRY_76a19663-e57c-48ef-ba14-2afdc9915d8a" />
		<tag k="ssr:gml_nr" v="0" />
	</node>
	<node id="-54201" lat="59.1499666694" lon="10.2898027778">
		<tag k="bridge" v="yes" />
		<tag k="layer" v="1" />
		<tag k="name" v="Rovebekken" />
		<tag k="ssr:date" v="2017-01-19" />
		<tag k="ssr:stedsnr" v="46575" />
	</node>
	<node id="-54200" lat="59.1004638871" lon="10.2177861131">
		<tag k="bridge" v="yes" />
		<tag k="layer" v="1" />
		<tag k="name" v="Hystadveien" />
		<tag k="ssr:date" v="2017-01-19" />
		<tag k="ssr:stedsnr" v="46570" />
	</node>
	<node id="-54173" lat="59.1997722186" lon="10.1555444488">
		<tag k="ssr:gml_id" v="GEOMETRY_0b4af67e-a777-4364-9ca3-5d29cfe65772" />
		<tag k="ssr:gml_nr" v="0" />
	</node>
	<node id="-54174" lat="59.1997916653" lon="10.1555472243">
		<tag k="ssr:gml_id" v="GEOMETRY_a6737bf4-10d2-4214-a24a-84ccd297cc7d" />
		<tag k="ssr:gml_nr" v="1" />
	</node>
	<node id="-55621" lat="59.1878499999" lon="10.2715972175">
		<tag k="ssr:gml_id" v="GEOMETRY_941bd735-ed8f-4416-a757-b0e03b3212a9" />
		<tag k="ssr:gml_nr" v="1" />
	</node>
	<node id="-55620" lat="59.2147527739" lon="10.2711083407">
		<tag k="ssr:gml_id" v="GEOMETRY_b08cdf7f-bd24-4f91-8245-1f15dcb500c4" />
		<tag k="ssr:gml_nr" v="0" />
	</node>
	<node id="-54674" lat="59.2134944477" lon="10.2944916691">
		<tag k="bridge" v="yes" />
		<tag k="layer" v="1" />
		<tag k="name" v="Døvle" />
		<tag k="ssr:date" v="2017-01-19" />
		<tag k="ssr:stedsnr" v="168756" />
	</node>
	<node id="-54673" lat="59.2360222199" lon="10.0604555595">
		<tag k="bridge" v="yes" />
		<tag k="layer" v="1" />
		<tag k="name" v="Nomme" />
		<tag k="ssr:date" v="2017-01-19" />
		<tag k="ssr:stedsnr" v="168721" />
	</node>
	<node id="-54672" lat="59.2084138847" lon="10.2390111043">
		<tag k="bridge" v="yes" />
		<tag k="layer" v="1" />
		<tag k="name" v="Tassebekk mur" />
		<tag k="ssr:date" v="2017-01-19" />
		<tag k="ssr:stedsnr" v="167584" />
	</node>
	<node id="-54671" lat="59.1660305524" lon="10.2935111026">
		<tag k="bridge" v="yes" />
		<tag k="layer" v="1" />
		<tag k="name" v="Rove" />
		<tag k="ssr:date" v="2017-01-19" />
		<tag k="ssr:stedsnr" v="167580" />
	</node>
	<node id="-54670" lat="59.1255916679" lon="10.2706194491">
		<tag k="bridge" v="yes" />
		<tag k="layer" v="1" />
		<tag k="name" v="Busk" />
		<tag k="ssr:date" v="2017-01-19" />
		<tag k="ssr:stedsnr" v="167572" />
	</node>
	<node id="-54668" lat="59.2475333361" lon="10.3688166686">
		<tag k="ssr:gml_id" v="GEOMETRY_872809e1-59d8-4b0b-8178-97765d4d772a" />
		<tag k="ssr:gml_nr" v="1" />
	</node>
	<node id="-55618" lat="59.235675001" lon="10.2259111135">
		<tag k="ssr:gml_id" v="GEOMETRY_51643606-94ec-4986-9b3d-8d6d3a17f6dd" />
		<tag k="ssr:gml_nr" v="0" />
	</node>
	<node id="-54666" lat="59.2543249963" lon="10.2040111159">
		<tag k="ssr:gml_id" v="GEOMETRY_571b6375-8665-4a34-b70c-c34972988e83" />
		<tag k="ssr:gml_nr" v="1" />
	</node>
	<node id="-54665" lat="59.2883194481" lon="10.2562944408">
		<tag k="ssr:gml_id" v="GEOMETRY_ce02fcba-3181-4c3d-8e09-2176fda64e4a" />
		<tag k="ssr:gml_nr" v="0" />
	</node>
	<node id="-54664" lat="59.227649996" lon="10.2080305589">
		<tag k="ssr:gml_id" v="GEOMETRY_561f9640-8b2b-495d-bee9-c1b84e32b339" />
		<tag k="ssr:gml_nr" v="1" />
	</node>
	<node id="-54663" lat="59.2359027749" lon="10.277855553">
		<tag k="ssr:gml_id" v="GEOMETRY_5536156f-c6f0-4a79-9a54-418712721310" />
		<tag k="ssr:gml_nr" v="0" />
	</node>
	<node id="-54662" lat="59.1802527822" lon="10.3289055624">
		<tag k="ssr:gml_id" v="GEOMETRY_43b878d4-2978-4d3c-9ff4-1678f60bc209" />
		<tag k="ssr:gml_nr" v="1" />
	</node>
	<node id="-54661" lat="59.1804111155" lon="10.321316663">
		<tag k="ssr:gml_id" v="GEOMETRY_34675406-f4ed-4d81-89dd-e5267da0f645" />
		<tag k="ssr:gml_nr" v="0" />
	</node>
	<node id="-53910" lat="59.2689249978" lon="10.3022944469">
		<tag k="bridge" v="yes" />
		<tag k="layer" v="1" />
		<tag k="name" v="Holmene nord" />
		<tag k="ssr:date" v="2017-01-19" />
		<tag k="ssr:stedsnr" v="410751" />
	</node>
	<node id="-53634" lat="59.2912194426" lon="10.2487722225">
		<tag k="bridge" v="yes" />
		<tag k="layer" v="1" />
		<tag k="name" v="Fossnes bru" />
		<tag k="ssr:date" v="2017-01-19" />
		<tag k="ssr:stedsnr" v="350737" />
	</node>
	<node id="-53633" lat="59.2322638907" lon="10.2634333267">
		<tag k="bridge" v="yes" />
		<tag k="layer" v="1" />
		<tag k="name" v="Gjennestadmyra landb" />
		<tag k="ssr:date" v="2017-01-19" />
		<tag k="ssr:stedsnr" v="350726" />
	</node>
	<node id="-53632" lat="59.2085222198" lon="10.1410277863">
		<tag k="bridge" v="yes" />
		<tag k="layer" v="1" />
		<tag k="name" v="Dalen" />
		<tag k="ssr:date" v="2017-01-19" />
		<tag k="ssr:stedsnr" v="350713" />
	</node>
	<node id="-53631" lat="59.3540111155" lon="10.144394448">
		<tag k="bridge" v="yes" />
		<tag k="layer" v="1" />
		<tag k="name" v="Holand bru" />
		<tag k="ssr:date" v="2017-01-19" />
		<tag k="ssr:stedsnr" v="350705" />
	</node>
	<node id="-53630" lat="59.1459194478" lon="10.205691674">
		<tag k="bridge" v="yes" />
		<tag k="layer" v="1" />
		<tag k="name" v="Ringveien overgangsbru" />
		<tag k="ssr:date" v="2017-01-19" />
		<tag k="ssr:stedsnr" v="349586" />
	</node>
	<node id="-53629" lat="59.1386527757" lon="10.2477388831">
		<tag k="bridge" v="yes" />
		<tag k="layer" v="1" />
		<tag k="name" v="Nilsesvingen" />
		<tag k="ssr:date" v="2017-01-19" />
		<tag k="ssr:stedsnr" v="349582" />
	</node>
	<node id="-53628" lat="59.2273111124" lon="10.2878333378">
		<tag k="name" v="Sagveien" />
		<tag k="ssr:date" v="2017-01-19" />
		<tag k="ssr:stedsnr" v="348000" />
	</node>
	<node id="-53627" lat="59.2208083369" lon="10.3716194421">
		<tag k="name" v="Verjø" />
		<tag k="ssr:date" v="2017-01-19" />
		<tag k="ssr:stedsnr" v="347986" />
	</node>
	<node id="-53626" lat="59.2540111128" lon="10.2041749934">
		<tag k="ssr:gml_id" v="GEOMETRY_123f0b53-e457-46ba-ae60-5eff57d0996b" />
		<tag k="ssr:gml_nr" v="1" />
	</node>
	<node id="-53625" lat="59.275700002" lon="10.3065444373">
		<tag k="ssr:gml_id" v="GEOMETRY_fc4aa942-31d4-49a8-b0dd-5a9c25f89f46" />
		<tag k="ssr:gml_nr" v="0" />
	</node>
	<node id="-53624" lat="59.23584722" lon="10.3766222297">
		<tag k="ssr:gml_id" v="GEOMETRY_97229243-2aba-4246-b557-60c93c9ad183" />
		<tag k="ssr:gml_nr" v="1" />
	</node>
	<node id="-53623" lat="59.2369916669" lon="10.3445027825">
		<tag k="ssr:gml_id" v="GEOMETRY_9b86f120-fb00-4b93-8b02-dc77fccebfcb" />
		<tag k="ssr:gml_nr" v="0" />
	</node>
	<node id="-54641" lat="59.2057166647" lon="10.1156250082">
		<tag k="ssr:gml_id" v="GEOMETRY_02c9e539-6d35-4c15-ac18-d48b1cd159dc" />
		<tag k="ssr:gml_nr" v="1" />
	</node>
	<node id="-54640" lat="59.2056722233" lon="10.1158472201">
		<tag k="ssr:gml_id" v="GEOMETRY_e933b7bf-4699-4321-a4f5-b8dca5299caf" />
		<tag k="ssr:gml_nr" v="0" />
	</node>
	<node id="-54248" lat="59.1945583352" lon="10.2720583371">
		<tag k="ssr:gml_id" v="GEOMETRY_213aad66-f630-4055-b8e4-2a86f665f319" />
		<tag k="ssr:gml_nr" v="11" />
	</node>
	<node id="-54247" lat="59.1973805552" lon="10.2597694464">
		<tag k="ssr:gml_id" v="GEOMETRY_6d4ea9e3-3324-423c-a935-6f96b22080e6" />
		<tag k="ssr:gml_nr" v="10" />
	</node>
	<node id="-54246" lat="59.1777388902" lon="10.2595472274">
		<tag k="ssr:gml_id" v="GEOMETRY_8a7f2f0e-1b6c-495c-96d7-86108a6ea39e" />
		<tag k="ssr:gml_nr" v="9" />
	</node>
	<node id="-57317" lat="59.1641250036" lon="10.1991250009">
		<tag k="bridge" v="yes" />
		<tag k="layer" v="1" />
		<tag k="name" v="Hotvedtveien overgang" />
		<tag k="ssr:date" v="2017-01-19" />
		<tag k="ssr:stedsnr" v="956573" />
	</node>
	<node id="-56664" lat="59.1659000149" lon="10.2666250358">
		<tag k="name" v="Torp" />
		<tag k="old_name" v="Råstad" />
		<tag k="railway" v="station" />
		<tag k="ssr:date" v="2018-03-07" />
		<tag k="ssr:stedsnr" v="790197" />
		<tag k="train" v="yes" />
	</node>
	<node id="-54244" lat="59.1974416694" lon="10.2588166661">
		<tag k="ssr:gml_id" v="GEOMETRY_d4c78433-4c02-4922-ab55-5241f7a08246" />
		<tag k="ssr:gml_nr" v="7" />
	</node>
	<node id="-54243" lat="59.1837444418" lon="10.2609583336">
		<tag k="ssr:gml_id" v="GEOMETRY_7d3bbc1b-2251-4b1f-95a4-aacc56076a2d" />
		<tag k="ssr:gml_nr" v="6" />
	</node>
	<node id="-55627" lat="59.332619445" lon="10.0444555522">
		<tag k="bridge" v="yes" />
		<tag k="layer" v="1" />
		<tag k="name" v="Trolsvann" />
		<tag k="ssr:date" v="2017-01-19" />
		<tag k="ssr:stedsnr" v="532750" />
	</node>
	<node id="-55626" lat="59.2342777751" lon="10.2214972135">
		<tag k="bridge" v="yes" />
		<tag k="layer" v="1" />
		<tag k="name" v="Rømmingen" />
		<tag k="ssr:date" v="2017-01-19" />
		<tag k="ssr:stedsnr" v="532747" />
	</node>
	<node id="-55625" lat="59.2021749962" lon="10.332966659">
		<tag k="bridge" v="yes" />
		<tag k="layer" v="1" />
		<tag k="name" v="Vahr store" />
		<tag k="ssr:date" v="2017-01-19" />
		<tag k="ssr:stedsnr" v="532743" />
	</node>
	<node id="-55624" lat="59.2985472261" lon="10.1032111038">
		<tag k="bridge" v="yes" />
		<tag k="layer" v="1" />
		<tag k="name" v="Bråvoll" />
		<tag k="ssr:date" v="2017-01-19" />
		<tag k="ssr:stedsnr" v="532726" />
	</node>
	<node id="-55623" lat="59.2866499995" lon="10.168938881">
		<tag k="bridge" v="yes" />
		<tag k="layer" v="1" />
		<tag k="name" v="Kjerrås" />
		<tag k="ssr:date" v="2017-01-19" />
		<tag k="ssr:stedsnr" v="532723" />
	</node>
	<node id="-55622" lat="59.1456916673" lon="10.1743472142">
		<tag k="bridge" v="yes" />
		<tag k="layer" v="1" />
		<tag k="name" v="Bø" />
		<tag k="ssr:date" v="2017-01-19" />
		<tag k="ssr:stedsnr" v="531561" />
	</node>
	<node id="-56133" lat="59.2099638902" lon="10.2844527846">
		<tag k="bridge" v="yes" />
		<tag k="layer" v="1" />
		<tag k="name" v="Kihle" />
		<tag k="ssr:date" v="2017-01-19" />
		<tag k="ssr:stedsnr" v="653766" />
	</node>
	<node id="-56132" lat="59.2105333305" lon="10.0695694488">
		<tag k="bridge" v="yes" />
		<tag k="layer" v="1" />
		<tag k="name" v="Gåsholt" />
		<tag k="ssr:date" v="2017-01-19" />
		<tag k="ssr:stedsnr" v="653747" />
	</node>
	<node id="-56131" lat="59.116697223" lon="10.2507166715">
		<tag k="bridge" v="yes" />
		<tag k="layer" v="1" />
		<tag k="name" v="Ormestad" />
		<tag k="ssr:date" v="2017-01-19" />
		<tag k="ssr:stedsnr" v="652518" />
	</node>
	<node id="-56130" lat="59.1514388917" lon="10.1909944397">
		<tag k="bridge" v="yes" />
		<tag k="layer" v="1" />
		<tag k="name" v="Innlaget" />
		<tag k="ssr:date" v="2017-01-19" />
		<tag k="ssr:stedsnr" v="651543" />
	</node>
	<node id="-56129" lat="59.2338083342" lon="10.3150388875">
		<tag k="name" v="Lågerødveien" />
		<tag k="ssr:date" v="2017-01-19" />
		<tag k="ssr:stedsnr" v="650992" />
	</node>
	<node id="-56128" lat="59.2313138917" lon="10.3100972239">
		<tag k="name" v="Holtanveien" />
		<tag k="ssr:date" v="2017-01-19" />
		<tag k="ssr:stedsnr" v="650974" />
	</node>
	<node id="-55615" lat="59.0707111088" lon="10.3141861077">
		<tag k="ssr:gml_id" v="GEOMETRY_deda3ece-ea68-492e-8b55-c68265a075fe" />
		<tag k="ssr:gml_nr" v="1" />
	</node>
	<node id="-55614" lat="59.0707083316" lon="10.314252776">
		<tag k="ssr:gml_id" v="GEOMETRY_1a91a64b-6b13-46b7-bba6-602e43b45d38" />
		<tag k="ssr:gml_nr" v="0" />
	</node>
	<node id="-54239" lat="59.1874999984" lon="10.2588944457">
		<tag k="ssr:gml_id" v="GEOMETRY_90c57409-5580-4956-96bf-51cfe09e4a0a" />
		<tag k="ssr:gml_nr" v="2" />
	</node>
	<node id="-54238" lat="59.1911750028" lon="10.2583611038">
		<tag k="ssr:gml_id" v="GEOMETRY_da86676c-29a6-4df4-acbc-8192c801102a" />
		<tag k="ssr:gml_nr" v="1" />
	</node>
	<node id="-54916" lat="59.1317111128" lon="10.2541638857">
		<tag k="bridge" v="yes" />
		<tag k="layer" v="1" />
		<tag k="name" v="Heimdal" />
		<tag k="ssr:date" v="2017-01-19" />
		<tag k="ssr:stedsnr" v="228578" />
	</node>
	<node id="-54237" lat="59.1789361132" lon="10.2524888853">
		<tag k="ssr:gml_id" v="GEOMETRY_923838fc-d102-41d6-8715-8578ec0120c1" />
		<tag k="ssr:gml_nr" v="0" />
	</node>
	<node id="-53895" lat="59.1128083301" lon="10.2309305598">
		<tag k="ssr:gml_id" v="GEOMETRY_3be9a0d2-3d2f-4d0b-be6f-72bdc741528f" />
		<tag k="ssr:gml_nr" v="1" />
	</node>
	<node id="-55592" lat="59.2317361138" lon="10.1171861041">
		<tag k="junction" v="yes" />
		<tag k="name" v="Tollahaugen" />
		<tag k="place" v="locality" />
		<tag k="ssr:date" v="2017-01-19" />
		<tag k="ssr:stedsnr" v="512980" />
	</node>
	<node id="-54567" lat="59.1409666648" lon="10.3251916743">
		<tag k="man_made" v="quay" />
		<tag k="name" v="Munkhallen" />
		<tag k="place" v="locality" />
		<tag k="ssr:date" v="2017-01-19" />
		<tag k="ssr:stedsnr" v="145255" />
	</node>
	<node id="-53894" lat="59.1127777802" lon="10.2316666704">
		<tag k="ssr:gml_id" v="GEOMETRY_600e0d2b-11cb-4a62-9cfa-1a308aea8614" />
		<tag k="ssr:gml_nr" v="0" />
	</node>
	<node id="-55862" lat="59.238894447" lon="10.2732333335">
		<tag k="ssr:gml_id" v="GEOMETRY_c7858ab2-1c76-4cda-a7ff-1504fd25dfc6" />
		<tag k="ssr:gml_nr" v="0" />
	</node>
	<node id="-54917" lat="59.1558305549" lon="10.2592055538">
		<tag k="bridge" v="yes" />
		<tag k="layer" v="1" />
		<tag k="name" v="From" />
		<tag k="ssr:date" v="2017-01-19" />
		<tag k="ssr:stedsnr" v="228585" />
	</node>
	<node id="-56603" lat="59.185336108" lon="10.2878722278">
		<tag k="bridge" v="yes" />
		<tag k="layer" v="1" />
		<tag k="name" v="Stavnum" />
		<tag k="ssr:date" v="2017-01-19" />
		<tag k="ssr:stedsnr" v="775730" />
	</node>
	<node id="-56602" lat="59.2037333321" lon="10.1423249988">
		<tag k="bridge" v="yes" />
		<tag k="layer" v="1" />
		<tag k="name" v="Skjeggerød" />
		<tag k="ssr:date" v="2017-01-19" />
		<tag k="ssr:stedsnr" v="774587" />
	</node>
	<node id="-56601" lat="59.1706305526" lon="10.2054666597">
		<tag k="bridge" v="yes" />
		<tag k="layer" v="1" />
		<tag k="name" v="Fokserød Søndre bru" />
		<tag k="ssr:date" v="2017-01-19" />
		<tag k="ssr:stedsnr" v="774576" />
	</node>
	<node id="-56600" lat="59.2367361093" lon="10.3106833298">
		<tag k="name" v="Lågerødåsen" />
		<tag k="ssr:date" v="2017-01-19" />
		<tag k="ssr:stedsnr" v="772974" />
	</node>
	<node id="-56599" lat="59.2367638914" lon="10.3100722166">
		<tag k="name" v="Lågerødtoppen" />
		<tag k="ssr:date" v="2017-01-19" />
		<tag k="ssr:stedsnr" v="772968" />
	</node>
	<node id="-54242" lat="59.1837416665" lon="10.2609583364">
		<tag k="ssr:gml_id" v="GEOMETRY_f2890406-0588-455c-ab14-47915b549339" />
		<tag k="ssr:gml_nr" v="5" />
	</node>
	<node id="-56597" lat="59.2036027818" lon="10.30869444">
		<tag k="ssr:gml_id" v="GEOMETRY_52f89ecf-1003-4f90-8f97-2536d6e6a9f6" />
		<tag k="ssr:gml_nr" v="0" />
	</node>
	<node id="-56596" lat="59.2263749995" lon="10.3592777841">
		<tag k="ssr:gml_id" v="GEOMETRY_ac9003e5-d5f1-414e-80ab-ef67e02e9af1" />
		<tag k="ssr:gml_nr" v="1" />
	</node>
	<node id="-56595" lat="59.2346416685" lon="10.3562416662">
		<tag k="ssr:gml_id" v="GEOMETRY_b7f0cbe0-261e-432a-8602-50a6b6994d57" />
		<tag k="ssr:gml_nr" v="0" />
	</node>
	<node id="-53891" lat="59.1080555581" lon="10.2244444476">
		<tag k="ssr:gml_id" v="GEOMETRY_f8ae18d5-a8d3-42c4-865c-c2da3598cbf1" />
		<tag k="ssr:gml_nr" v="0" />
	</node>
	<node id="-54241" lat="59.1877472254" lon="10.2514388857">
		<tag k="ssr:gml_id" v="GEOMETRY_a2c15f12-10c8-4aad-806b-426acacdab98" />
		<tag k="ssr:gml_nr" v="4" />
	</node>
	<node id="-54667" lat="59.2348916638" lon="10.356286103">
		<tag k="ssr:gml_id" v="GEOMETRY_b8744c58-1126-4738-a2f5-27238de55e3d" />
		<tag k="ssr:gml_nr" v="0" />
	</node>
	<node id="-56042" lat="59.0744388919" lon="10.2804305521">
		<tag k="man_made" v="quay" />
		<tag k="name" v="Hardbakken" />
		<tag k="place" v="locality" />
		<tag k="ssr:date" v="2017-01-19" />
		<tag k="ssr:stedsnr" v="631318" />
	</node>
	<node id="-57060" lat="59.2991888907" lon="10.2086694457">
		<tag k="ssr:gml_id" v="GEOMETRY_73fcb424-57ea-425b-aaa5-41b55c98d5b4" />
		<tag k="ssr:gml_nr" v="1" />
	</node>
	<node id="-57059" lat="59.2812722188" lon="10.2835916609">
		<tag k="ssr:gml_id" v="GEOMETRY_084dbcdd-096f-4109-882e-2e5f89c2cd5c" />
		<tag k="ssr:gml_nr" v="0" />
	</node>
	<node id="-55514" lat="59.0756138896" lon="10.3051500007">
		<tag k="man_made" v="quay" />
		<tag k="name" v="Tallakshavn" />
		<tag k="place" v="locality" />
		<tag k="ssr:date" v="2017-01-19" />
		<tag k="ssr:stedsnr" v="510336" />
	</node>
	<node id="-54240" lat="59.1911750026" lon="10.2583583381">
		<tag k="ssr:gml_id" v="GEOMETRY_e3dceb65-53be-461c-a73c-8d3a034b426b" />
		<tag k="ssr:gml_nr" v="3" />
	</node>
	<node id="-54441" lat="59.240133332" lon="10.2718361135">
		<tag k="bridge" v="yes" />
		<tag k="layer" v="1" />
		<tag k="name" v="Borge søndre" />
		<tag k="ssr:date" v="2017-01-19" />
		<tag k="ssr:stedsnr" v="107770" />
	</node>
	<node id="-54440" lat="59.2418083311" lon="10.175069451">
		<tag k="bridge" v="yes" />
		<tag k="layer" v="1" />
		<tag k="name" v="Toverud" />
		<tag k="ssr:date" v="2017-01-19" />
		<tag k="ssr:stedsnr" v="107765" />
	</node>
	<node id="-54439" lat="59.2918749967" lon="10.130863889">
		<tag k="bridge" v="yes" />
		<tag k="layer" v="1" />
		<tag k="name" v="Berg søndre" />
		<tag k="ssr:date" v="2017-01-19" />
		<tag k="ssr:stedsnr" v="107747" />
	</node>
	<node id="-54438" lat="59.1839166649" lon="10.2389388963">
		<tag k="bridge" v="yes" />
		<tag k="layer" v="1" />
		<tag k="name" v="Lingelemvegen" />
		<tag k="ssr:date" v="2017-01-19" />
		<tag k="ssr:stedsnr" v="107548" />
	</node>
	<node id="-54437" lat="59.118922226" lon="10.2314611093">
		<tag k="bridge" v="yes" />
		<tag k="layer" v="1" />
		<tag k="name" v="Framnes mur" />
		<tag k="ssr:date" v="2017-01-19" />
		<tag k="ssr:stedsnr" v="107541" />
	</node>
	<node id="-54436" lat="59.2230944448" lon="10.3078333314">
		<tag k="name" v="Johannes Sandviks vei" />
		<tag k="ssr:date" v="2017-01-19" />
		<tag k="ssr:stedsnr" v="105995" />
	</node>
	<node id="-54435" lat="59.19424722" lon="10.3402583248">
		<tag k="name" v="Ravnø" />
		<tag k="ssr:date" v="2017-01-19" />
		<tag k="ssr:stedsnr" v="105980" />
	</node>
	<node id="-54434" lat="59.1851472232" lon="10.3131500046">
		<tag k="ssr:gml_id" v="GEOMETRY_2b48a36c-afbb-48dd-9355-aeed82541b18" />
		<tag k="ssr:gml_nr" v="1" />
	</node>
	<node id="-54433" lat="59.1871888885" lon="10.2884972223">
		<tag k="ssr:gml_id" v="GEOMETRY_26ee7177-ec21-49dc-8fc4-a3b5707dbad8" />
		<tag k="ssr:gml_nr" v="0" />
	</node>
	<node id="-54432" lat="59.2441305552" lon="10.1649055628">
		<tag k="ssr:gml_id" v="GEOMETRY_5ff23f85-3767-49d0-93f1-22aa1024685d" />
		<tag k="ssr:gml_nr" v="1" />
	</node>
	<node id="-54431" lat="59.2145027755" lon="10.2174972206">
		<tag k="ssr:gml_id" v="GEOMETRY_7fc88b86-32e3-4f54-97eb-f77aea0fcfbe" />
		<tag k="ssr:gml_nr" v="0" />
	</node>
	<node id="-53914" lat="59.3864472266" lon="10.1188499932">
		<tag k="bridge" v="yes" />
		<tag k="layer" v="1" />
		<tag k="name" v="Valmestadrød" />
		<tag k="ssr:date" v="2017-01-19" />
		<tag k="ssr:stedsnr" v="896789" />
	</node>
	<node id="-53913" lat="59.2291277761" lon="10.20550833">
		<tag k="bridge" v="yes" />
		<tag k="layer" v="1" />
		<tag k="name" v="Storebru" />
		<tag k="ssr:date" v="2017-01-19" />
		<tag k="ssr:stedsnr" v="896780" />
	</node>
	<node id="-53912" lat="59.3202416655" lon="10.0892944399">
		<tag k="bridge" v="yes" />
		<tag k="layer" v="1" />
		<tag k="name" v="Guttedal" />
		<tag k="ssr:date" v="2017-01-19" />
		<tag k="ssr:stedsnr" v="896773" />
	</node>
	<node id="-53911" lat="59.182269442" lon="10.2074083384">
		<tag k="bridge" v="yes" />
		<tag k="layer" v="1" />
		<tag k="name" v="Fokserød Nordre bru" />
		<tag k="ssr:date" v="2017-01-19" />
		<tag k="ssr:stedsnr" v="896563" />
	</node>
	<node id="-55619" lat="59.2489055591" lon="10.2133222292">
		<tag k="ssr:gml_id" v="GEOMETRY_df98fe9f-4efc-43b3-8251-8ae706496f60" />
		<tag k="ssr:gml_nr" v="1" />
	</node>
	<node id="-53909" lat="59.2641583289" lon="10.3008444476">
		<tag k="bridge" v="yes" />
		<tag k="layer" v="1" />
		<tag k="name" v="Holmane syd" />
		<tag k="ssr:date" v="2017-01-19" />
		<tag k="ssr:stedsnr" v="410750" />
	</node>
	<node id="-53908" lat="59.2088888908" lon="10.240469443">
		<tag k="bridge" v="yes" />
		<tag k="layer" v="1" />
		<tag k="name" v="Tassebekk" />
		<tag k="ssr:date" v="2017-01-19" />
		<tag k="ssr:stedsnr" v="410748" />
	</node>
	<node id="-53907" lat="59.2134472199" lon="10.2462388835">
		<tag k="bridge" v="yes" />
		<tag k="layer" v="1" />
		<tag k="name" v="Rørkoll øst" />
		<tag k="ssr:date" v="2017-01-19" />
		<tag k="ssr:stedsnr" v="410747" />
	</node>
	<node id="-53906" lat="59.345616666" lon="10.0968611056">
		<tag k="bridge" v="yes" />
		<tag k="layer" v="1" />
		<tag k="name" v="Bøen" />
		<tag k="ssr:date" v="2017-01-19" />
		<tag k="ssr:stedsnr" v="410738" />
	</node>
	<node id="-53905" lat="59.180197225" lon="10.1723833411">
		<tag k="bridge" v="yes" />
		<tag k="layer" v="1" />
		<tag k="name" v="Svines" />
		<tag k="ssr:date" v="2017-01-19" />
		<tag k="ssr:stedsnr" v="410543" />
	</node>
	<node id="-54923" lat="59.3320722178" lon="10.0480555612">
		<tag k="bridge" v="yes" />
		<tag k="layer" v="1" />
		<tag k="name" v="Åletjønn" />
		<tag k="ssr:date" v="2017-01-19" />
		<tag k="ssr:stedsnr" v="228790" />
	</node>
	<node id="-54922" lat="59.2607388872" lon="10.1618472273">
		<tag k="bridge" v="yes" />
		<tag k="layer" v="1" />
		<tag k="name" v="Rise" />
		<tag k="ssr:date" v="2017-01-19" />
		<tag k="ssr:stedsnr" v="228770" />
	</node>
	<node id="-54921" lat="59.3635388877" lon="10.1342722235">
		<tag k="bridge" v="yes" />
		<tag k="layer" v="1" />
		<tag k="name" v="Sukke" />
		<tag k="ssr:date" v="2017-01-19" />
		<tag k="ssr:stedsnr" v="228769" />
	</node>
	<node id="-54920" lat="59.093577782" lon="10.2578194372">
		<tag k="ssr:gml_id" v="GEOMETRY_d6239277-bb26-48e0-b591-6a73b08a79b5" />
		<tag k="ssr:gml_nr" v="1" />
	</node>
	<node id="-54919" lat="59.0954000002" lon="10.255502781">
		<tag k="ssr:gml_id" v="GEOMETRY_48efe007-945d-4848-94f7-43d53ef87118" />
		<tag k="ssr:gml_nr" v="0" />
	</node>
	<node id="-54918" lat="59.1463666628" lon="10.2083055498">
		<tag k="bridge" v="yes" />
		<tag k="layer" v="1" />
		<tag k="name" v="Ringvegen" />
		<tag k="ssr:date" v="2017-01-19" />
		<tag k="ssr:stedsnr" v="228588" />
	</node>
	<node id="-53381" lat="59.0966027822" lon="10.2385222188">
		<tag k="name" v="Asneset" />
		<tag k="ssr:date" v="2017-01-19" />
		<tag k="ssr:stedsnr" v="297904" />
	</node>
	<node id="-53380" lat="59.1613583343" lon="10.1967472173">
		<tag k="bridge" v="yes" />
		<tag k="layer" v="1" />
		<tag k="name" v="Granum" />
		<tag k="ssr:date" v="2017-01-19" />
		<tag k="ssr:stedsnr" v="289563" />
	</node>
	<node id="-56598" lat="59.1686277811" lon="10.3194277831">
		<tag k="ssr:gml_id" v="GEOMETRY_2b3f60d1-ce8a-449e-bf1c-37899fc93f53" />
		<tag k="ssr:gml_nr" v="1" />
	</node>
	<node id="-53378" lat="59.2289027739" lon="10.2865722215">
		<tag k="name" v="Sundlandveien" />
		<tag k="ssr:date" v="2017-01-19" />
		<tag k="ssr:stedsnr" v="287989" />
	</node>
	<node id="-53375" lat="59.2816777748" lon="10.2522249924">
		<tag k="ssr:gml_id" v="GEOMETRY_258fe0bf-440d-4a57-b62f-4450f66b1e6a" />
		<tag k="ssr:gml_nr" v="1" />
	</node>
	<node id="-53374" lat="59.268561114" lon="10.2478833413">
		<tag k="ssr:gml_id" v="GEOMETRY_d473175d-53af-4218-96de-23a1385a8e02" />
		<tag k="ssr:gml_nr" v="0" />
	</node>
	<node id="-53373" lat="59.0380861133" lon="10.2669666727">
		<tag k="ssr:gml_id" v="GEOMETRY_66b1e8da-0d6f-4ced-b158-4e5a76fe8eca" />
		<tag k="ssr:gml_nr" v="3" />
	</node>
	<node id="-53372" lat="59.0380888886" lon="10.2669666702">
		<tag k="ssr:gml_id" v="GEOMETRY_1fbede70-640f-4019-9549-a03b29892137" />
		<tag k="ssr:gml_nr" v="2" />
	</node>
	<node id="-53371" lat="59.038091664" lon="10.2669666678">
		<tag k="ssr:gml_id" v="GEOMETRY_ce8c7026-c2ae-4d40-9b05-fe105bb8257f" />
		<tag k="ssr:gml_nr" v="1" />
	</node>
	<node id="-53370" lat="59.0381277789" lon="10.2669694432">
		<tag k="ssr:gml_id" v="GEOMETRY_9001518c-b1e3-42cc-868d-1dbf4c3546f3" />
		<tag k="ssr:gml_nr" v="0" />
	</node>
	<node id="-55908" lat="59.1034500028" lon="10.1700305524">
		<tag k="ssr:gml_id" v="GEOMETRY_650b09e6-ecda-455c-9c9b-6b317a3826bd" />
		<tag k="ssr:gml_nr" v="3" />
	</node>
	<node id="-55617" lat="59.2233916696" lon="10.2951694376">
		<tag k="ssr:gml_id" v="GEOMETRY_aece58d3-7ba5-4bd0-b6fa-c3c0661ba538" />
		<tag k="ssr:gml_nr" v="1" />
	</node>
	<node id="-55906" lat="59.1034444472" lon="10.1700361075">
		<tag k="ssr:gml_id" v="GEOMETRY_3dbbccab-9b28-40f9-86eb-abcda6c1312e" />
		<tag k="ssr:gml_nr" v="1" />
	</node>
	<node id="-55905" lat="59.1056249987" lon="10.1663333373">
		<tag k="ssr:gml_id" v="GEOMETRY_324dfab3-e753-4550-986a-db0484414f8a" />
		<tag k="ssr:gml_nr" v="0" />
	</node>
	<node id="-55907" lat="59.1056249967" lon="10.166330561">
		<tag k="ssr:gml_id" v="GEOMETRY_4afa62d5-62d8-438b-adb4-a6a1ad6a3cdb" />
		<tag k="ssr:gml_nr" v="2" />
	</node>
	<node id="-55616" lat="59.2379833326" lon="10.2745138816">
		<tag k="ssr:gml_id" v="GEOMETRY_d4ffe382-edcb-4e15-a255-8c5c297e902c" />
		<tag k="ssr:gml_nr" v="0" />
	</node>
	<node id="-55869" lat="59.232875004" lon="10.3399972137">
		<tag k="bridge" v="yes" />
		<tag k="layer" v="1" />
		<tag k="name" v="Melsom" />
		<tag k="ssr:date" v="2017-01-19" />
		<tag k="ssr:stedsnr" v="592800" />
	</node>
	<node id="-55868" lat="59.2751888921" lon="10.30413612">
		<tag k="ssr:gml_id" v="GEOMETRY_b422a83f-4c87-412b-a30d-2e6d59b026d3" />
		<tag k="ssr:gml_nr" v="1" />
	</node>
	<node id="-55867" lat="59.2754861149" lon="10.3053611058">
		<tag k="ssr:gml_id" v="GEOMETRY_801d43ba-a8c4-4730-8ef7-ef57f0e0831e" />
		<tag k="ssr:gml_nr" v="0" />
	</node>
	<node id="-55866" lat="59.2086277822" lon="10.0755805591">
		<tag k="bridge" v="yes" />
		<tag k="layer" v="1" />
		<tag k="name" v="Liverød" />
		<tag k="ssr:date" v="2017-01-19" />
		<tag k="ssr:stedsnr" v="592773" />
	</node>
	<node id="-55865" lat="59.2052083358" lon="10.2308805558">
		<tag k="bridge" v="yes" />
		<tag k="layer" v="1" />
		<tag k="name" v="Hørdalsvegen" />
		<tag k="ssr:date" v="2017-01-19" />
		<tag k="ssr:stedsnr" v="591504" />
	</node>
	<node id="-55864" lat="59.2322805534" lon="10.310872227">
		<tag k="name" v="Hulveien" />
		<tag k="ssr:date" v="2017-01-19" />
		<tag k="ssr:stedsnr" v="590985" />
	</node>
	<node id="-55863" lat="59.2458750006" lon="10.2627638869">
		<tag k="ssr:gml_id" v="GEOMETRY_c46acf16-12e9-4c49-9465-8c994f776f04" />
		<tag k="ssr:gml_nr" v="1" />
	</node>
	<node id="-55350" lat="59.2121000002" lon="10.3058583347">
		<tag k="bridge" v="yes" />
		<tag k="layer" v="1" />
		<tag k="name" v="Doms" />
		<tag k="ssr:date" v="2017-01-19" />
		<tag k="ssr:stedsnr" v="471759" />
	</node>
	<node id="-55349" lat="59.2271944468" lon="10.2074666638">
		<tag k="bridge" v="yes" />
		<tag k="layer" v="1" />
		<tag k="name" v="Veslebru" />
		<tag k="ssr:date" v="2017-01-19" />
		<tag k="ssr:stedsnr" v="471742" />
	</node>
	<node id="-55348" lat="59.3065361127" lon="10.0941777831">
		<tag k="bridge" v="yes" />
		<tag k="layer" v="1" />
		<tag k="name" v="Hallenstvedt" />
		<tag k="ssr:date" v="2017-01-19" />
		<tag k="ssr:stedsnr" v="471727" />
	</node>
	<node id="-55347" lat="59.1424916632" lon="10.2747611051">
		<tag k="bridge" v="yes" />
		<tag k="layer" v="1" />
		<tag k="name" v="Sjuve" />
		<tag k="ssr:date" v="2017-01-19" />
		<tag k="ssr:stedsnr" v="470520" />
	</node>
	<node id="-55346" lat="59.127252777" lon="10.2609249978">
		<tag k="bridge" v="yes" />
		<tag k="layer" v="1" />
		<tag k="name" v="Kastet" />
		<tag k="ssr:date" v="2017-01-19" />
		<tag k="ssr:stedsnr" v="470517" />
	</node>
	<node id="-55345" lat="59.1219888881" lon="10.2324694364">
		<tag k="bridge" v="yes" />
		<tag k="layer" v="1" />
		<tag k="name" v="Ferjeveien" />
		<tag k="ssr:date" v="2017-01-19" />
		<tag k="ssr:stedsnr" v="470511" />
	</node>
	<node id="-55342" lat="59.2025194444" lon="10.3119777756">
		<tag k="ssr:gml_id" v="GEOMETRY_cce0ed40-70dc-4fdc-bde8-37f8860eadb9" />
		<tag k="ssr:gml_nr" v="1" />
	</node>
	<node id="-55341" lat="59.2242805567" lon="10.3358555482">
		<tag k="ssr:gml_id" v="GEOMETRY_e1987688-77ed-4502-b225-e10045f15c5a" />
		<tag k="ssr:gml_nr" v="0" />
	</node>
	<node id="-56362" lat="59.2386666685" lon="10.2735666632">
		<tag k="ssr:gml_id" v="GEOMETRY_2026cbd4-fc5a-45bf-be72-3cbb0c83597d" />
		<tag k="ssr:gml_nr" v="1" />
	</node>
	<node id="-56361" lat="59.2382388851" lon="10.2741694356">
		<tag k="ssr:gml_id" v="GEOMETRY_73307f50-8a10-4fea-bb89-6b6dedaf13b4" />
		<tag k="ssr:gml_nr" v="0" />
	</node>
	<node id="-56360" lat="59.3037166666" lon="10.1971916754">
		<tag k="bridge" v="yes" />
		<tag k="layer" v="1" />
		<tag k="name" v="Gravdal" />
		<tag k="ssr:date" v="2017-01-19" />
		<tag k="ssr:stedsnr" v="714711" />
	</node>
	<node id="-56359" lat="59.3057083298" lon="10.1814472175">
		<tag k="bridge" v="yes" />
		<tag k="layer" v="1" />
		<tag k="name" v="Andebu, mur" />
		<tag k="ssr:date" v="2017-01-19" />
		<tag k="ssr:stedsnr" v="714706" />
	</node>
	<node id="-56358" lat="59.1535583324" lon="10.1843916615">
		<tag k="ssr:gml_id" v="GEOMETRY_54ddcc66-af53-4a2c-b210-7cdc6395c096" />
		<tag k="ssr:gml_nr" v="1" />
	</node>
	<node id="-56357" lat="59.1537833363" lon="10.1836611103">
		<tag k="ssr:gml_id" v="GEOMETRY_9b5e1be9-5cb4-4c92-8216-e02f7f0f33e5" />
		<tag k="ssr:gml_nr" v="0" />
	</node>
	<node id="-56356" lat="59.1538222205" lon="10.1835305597">
		<tag k="bridge" v="yes" />
		<tag k="layer" v="1" />
		<tag k="name" v="Fokserød bru" />
		<tag k="ssr:date" v="2017-01-19" />
		<tag k="ssr:stedsnr" v="713539" />
	</node>
	<node id="-56355" lat="59.2900750037" lon="10.2094694397">
		<tag k="ssr:gml_id" v="GEOMETRY_89ffe537-4947-407d-8b17-2d64b2ebab3e" />
		<tag k="ssr:gml_nr" v="1" />
	</node>
	<node id="-56354" lat="59.2868527796" lon="10.2509583373">
		<tag k="ssr:gml_id" v="GEOMETRY_5cddb0e6-f925-4431-b1a4-61aca4cc4415" />
		<tag k="ssr:gml_nr" v="0" />
	</node>
	<node id="-56353" lat="59.2409027739" lon="10.1741749918">
		<tag k="ssr:gml_id" v="GEOMETRY_d97feee8-c019-4f62-b3be-9786280279c1" />
		<tag k="ssr:gml_nr" v="1" />
	</node>
	<node id="-56352" lat="59.2541916645" lon="10.2039194472">
		<tag k="ssr:gml_id" v="GEOMETRY_748a92ea-d0d7-470a-8af2-d423f759a5bc" />
		<tag k="ssr:gml_nr" v="0" />
	</node>
	<node id="-56351" lat="59.2698194451" lon="10.2385250063">
		<tag k="ssr:gml_id" v="GEOMETRY_cba1b1f0-8fae-46f9-ba61-7179172b3d71" />
		<tag k="ssr:gml_nr" v="1" />
	</node>
	<node id="-56350" lat="59.2420333334" lon="10.2699138952">
		<tag k="ssr:gml_id" v="GEOMETRY_fefbd06d-63a4-45d2-9bf9-08bcdd566e4d" />
		<tag k="ssr:gml_nr" v="0" />
	</node>
	<node id="-54809" lat="59.1326611123" lon="10.3183388855">
		<tag k="man_made" v="quay" />
		<tag k="name" v="Galten" />
		<tag k="place" v="locality" />
		<tag k="ssr:date" v="2017-01-19" />
		<tag k="ssr:stedsnr" v="207246" />
	</node>
	<node id="-54915" lat="59.2463111143" lon="10.2983027798">
		<tag k="name" v="Kongestubben" />
		<tag k="ssr:date" v="2017-01-19" />
		<tag k="ssr:stedsnr" v="226954" />
	</node>
	<node id="-53892" lat="59.1062555594" lon="10.2257666656">
		<tag k="ssr:gml_id" v="GEOMETRY_a8c56249-900e-4e5a-872c-77b564b9a98d" />
		<tag k="ssr:gml_nr" v="1" />
	</node>
	<way id="-11773">
		<tag k="name" v="Storevarveien" />
		<tag k="ssr:date" v="2017-01-19" />
		<tag k="ssr:stedsnr" v="456696" />
		<nd ref="-55341" />
		<nd ref="-55342" />
	</way>
	<way id="-11898">
		<tag k="alt_name" v="Jåberg st." />
		<tag k="name" v="Jåberg" />
		<tag k="railway" v="station" />
		<tag k="ssr:date" v="2017-01-19" />
		<tag k="ssr:stedsnr" v="608079" />
		<tag k="train" v="yes" />
		<nd ref="-55905" />
		<nd ref="-55906" />
		<nd ref="-55907" />
		<nd ref="-55908" />
	</way>
	<way id="-11885">
		<tag k="bridge" v="yes" />
		<tag k="layer" v="1" />
		<tag k="name" v="Åmot østre" />
		<tag k="ssr:date" v="2017-01-19" />
		<tag k="ssr:stedsnr" v="592787" />
		<nd ref="-55867" />
		<nd ref="-55868" />
	</way>
	<way id="-11884">
		<tag k="name" v="Borgeveien" />
		<tag k="ssr:date" v="2017-01-19" />
		<tag k="ssr:stedsnr" v="577741" />
		<nd ref="-55862" />
		<nd ref="-55863" />
	</way>
	<way id="-12139">
		<tag k="name" v="Andebuveien" />
		<tag k="ssr:date" v="2017-01-19" />
		<tag k="ssr:stedsnr" v="881700" />
		<nd ref="-57059" />
		<nd ref="-57060" />
	</way>
	<way id="-11622">
		<tag k="name" v="Sjuestokkveien" />
		<tag k="ssr:date" v="2017-01-19" />
		<tag k="ssr:stedsnr" v="153742" />
		<nd ref="-54667" />
		<nd ref="-54668" />
	</way>
	<way id="-11621">
		<tag k="name" v="Vennerødveien" />
		<tag k="ssr:date" v="2017-01-19" />
		<tag k="ssr:stedsnr" v="153733" />
		<nd ref="-54665" />
		<nd ref="-54666" />
	</way>
	<way id="-11620">
		<tag k="name" v="Gjennestadveien" />
		<tag k="ssr:date" v="2017-01-19" />
		<tag k="ssr:stedsnr" v="153730" />
		<nd ref="-54663" />
		<nd ref="-54664" />
	</way>
	<way id="-11619">
		<tag k="name" v="Bogenveien" />
		<tag k="ssr:date" v="2017-01-19" />
		<tag k="ssr:stedsnr" v="153721" />
		<nd ref="-54661" />
		<nd ref="-54662" />
	</way>
	<way id="-11617">
		<tag k="alt_name" v="Trolsås" />
		<tag k="bridge" v="yes" />
		<tag k="layer" v="1" />
		<tag k="name" v="Trollsåsbrua" />
		<tag k="ssr:date" v="2017-01-19" />
		<tag k="ssr:stedsnr" v="148837" />
		<nd ref="-54640" />
		<nd ref="-54641" />
	</way>
	<way id="-11993">
		<tag k="bridge" v="yes" />
		<tag k="layer" v="1" />
		<tag k="name" v="Sørby" />
		<tag k="ssr:date" v="2017-01-19" />
		<tag k="ssr:stedsnr" v="714732" />
		<nd ref="-56361" />
		<nd ref="-56362" />
	</way>
	<way id="-11992">
		<tag k="bridge" v="yes" />
		<tag k="layer" v="1" />
		<tag k="name" v="Sandefjord innfartsbru" />
		<tag k="ssr:date" v="2017-01-19" />
		<tag k="ssr:stedsnr" v="713555" />
		<nd ref="-56357" />
		<nd ref="-56358" />
	</way>
	<way id="-11991">
		<tag k="name" v="Dyrsøveien" />
		<tag k="ssr:date" v="2017-01-19" />
		<tag k="ssr:stedsnr" v="699707" />
		<nd ref="-56354" />
		<nd ref="-56355" />
	</way>
	<way id="-11990">
		<tag k="name" v="Horntvedtveien" />
		<tag k="ssr:date" v="2017-01-19" />
		<tag k="ssr:stedsnr" v="699694" />
		<nd ref="-56352" />
		<nd ref="-56353" />
	</way>
	<way id="-11989">
		<tag k="name" v="Gryteveien" />
		<tag k="ssr:date" v="2017-01-19" />
		<tag k="ssr:stedsnr" v="699688" />
		<nd ref="-56350" />
		<nd ref="-56351" />
	</way>
	<way id="-11462">
		<tag k="man_made" v="quay" />
		<tag k="name" v="Langestrand" />
		<tag k="place" v="locality" />
		<tag k="ssr:date" v="2017-01-19" />
		<tag k="ssr:stedsnr" v="392624" />
		<nd ref="-53894" />
		<nd ref="-53895" />
	</way>
	<way id="-11461">
		<tag k="man_made" v="quay" />
		<tag k="name" v="Lystadstranda" />
		<tag k="place" v="locality" />
		<tag k="ssr:date" v="2017-01-19" />
		<tag k="ssr:stedsnr" v="392613" />
		<nd ref="-53891" />
		<nd ref="-53892" />
	</way>
	<way id="-11402">
		<tag k="name" v="Dalenveien" />
		<tag k="ssr:date" v="2017-01-19" />
		<tag k="ssr:stedsnr" v="335736" />
		<nd ref="-53625" />
		<nd ref="-53626" />
	</way>
	<way id="-11531">
		<tag k="junction" v="yes" />
		<tag k="name" v="Alonso" />
		<tag k="place" v="locality" />
		<tag k="ssr:date" v="2017-01-19" />
		<tag k="ssr:stedsnr" v="62001" />
		<nd ref="-54207" />
		<nd ref="-54208" />
		<nd ref="-54209" />
	</way>
	<way id="-11835">
		<tag k="name" v="Torpveien" />
		<tag k="ssr:date" v="2017-01-19" />
		<tag k="ssr:stedsnr" v="517713" />
		<nd ref="-55620" />
		<nd ref="-55621" />
	</way>
	<way id="-11834">
		<tag k="name" v="Anholtveien" />
		<tag k="ssr:date" v="2017-01-19" />
		<tag k="ssr:stedsnr" v="517711" />
		<nd ref="-55618" />
		<nd ref="-55619" />
	</way>
	<way id="-11833">
		<tag k="name" v="Stokkeveien" />
		<tag k="ssr:date" v="2017-01-19" />
		<tag k="ssr:stedsnr" v="517707" />
		<nd ref="-55616" />
		<nd ref="-55617" />
	</way>
	<way id="-11832">
		<tag k="name" v="Truberodden" />
		<tag k="ssr:date" v="2017-01-19" />
		<tag k="ssr:stedsnr" v="514766" />
		<nd ref="-55614" />
		<nd ref="-55615" />
	</way>
	<way id="-12087">
		<tag k="bridge" v="yes" />
		<tag k="layer" v="1" />
		<tag k="name" v="Gjennestad" />
		<tag k="ssr:date" v="2017-01-19" />
		<tag k="ssr:stedsnr" v="836745" />
		<nd ref="-56822" />
		<nd ref="-56823" />
	</way>
	<way id="-12086">
		<tag k="name" v="Stokke Ravei" />
		<tag k="ssr:date" v="2017-01-19" />
		<tag k="ssr:stedsnr" v="821712" />
		<nd ref="-56818" />
		<nd ref="-56819" />
	</way>
	<way id="-11573">
		<tag k="name" v="Stavnumveien" />
		<tag k="ssr:date" v="2017-01-19" />
		<tag k="ssr:stedsnr" v="92710" />
		<nd ref="-54433" />
		<nd ref="-54434" />
	</way>
	<way id="-11572">
		<tag k="name" v="Løkeveien" />
		<tag k="ssr:date" v="2017-01-19" />
		<tag k="ssr:stedsnr" v="92700" />
		<nd ref="-54431" />
		<nd ref="-54432" />
	</way>
	<way id="-11351">
		<tag k="name" v="Holtskjær" />
		<tag k="ssr:date" v="2017-01-19" />
		<tag k="ssr:stedsnr" v="272745" />
		<nd ref="-53370" />
		<nd ref="-53371" />
		<nd ref="-53372" />
		<nd ref="-53373" />
	</way>
	<way id="-11401">
		<tag k="name" v="Skjærsnesveien" />
		<tag k="ssr:date" v="2017-01-19" />
		<tag k="ssr:stedsnr" v="335719" />
		<nd ref="-53623" />
		<nd ref="-53624" />
	</way>
	<way id="-12192">
		<tag k="name" v="Hogsrødveien" />
		<tag k="ssr:date" v="2017-01-19" />
		<tag k="ssr:stedsnr" v="942737" />
		<nd ref="-57314" />
		<nd ref="-57315" />
	</way>
	<way id="-12191">
		<tag k="name" v="Melsomvikveien" />
		<tag k="ssr:date" v="2017-01-19" />
		<tag k="ssr:stedsnr" v="942727" />
		<nd ref="-57312" />
		<nd ref="-57313" />
	</way>
	<way id="-12190">
		<tag k="name" v="Kleppanveien" />
		<tag k="ssr:date" v="2017-01-19" />
		<tag k="ssr:stedsnr" v="942715" />
		<nd ref="-57310" />
		<nd ref="-57311" />
	</way>
	<way id="-12189">
		<tag k="name" v="Bjørndalveien" />
		<tag k="ssr:date" v="2017-01-19" />
		<tag k="ssr:stedsnr" v="942716" />
		<nd ref="-57308" />
		<nd ref="-57309" />
	</way>
	<way id="-11673">
		<tag k="bridge" v="yes" />
		<tag k="layer" v="1" />
		<tag k="name" v="Tangen mur" />
		<tag k="ssr:date" v="2017-01-19" />
		<tag k="ssr:stedsnr" v="228591" />
		<nd ref="-54919" />
		<nd ref="-54920" />
	</way>
	<way id="-11540">
		<tag k="aeroway" v="aerodrome" />
		<tag k="name" v="Sandefjord lufthavn, Torp" />
		<tag k="old_name" v="Sandefjord lufthavn;Torp flyplass;Sandefjord lufthamn;Torp" />
		<tag k="ssr:date" v="2017-01-19" />
		<tag k="ssr:stedsnr" v="62152" />
		<nd ref="-54237" />
		<nd ref="-54238" />
		<nd ref="-54239" />
		<nd ref="-54240" />
		<nd ref="-54241" />
		<nd ref="-54242" />
		<nd ref="-54243" />
		<nd ref="-54244" />
		<nd ref="-54245" />
		<nd ref="-54246" />
		<nd ref="-54247" />
		<nd ref="-54248" />
	</way>
	<way id="-11352">
		<tag k="name" v="Fossnesveien" />
		<tag k="ssr:date" v="2017-01-19" />
		<tag k="ssr:stedsnr" v="274690" />
		<nd ref="-53374" />
		<nd ref="-53375" />
	</way>
	<way id="-12043">
		<tag k="name" v="Feenveien" />
		<tag k="ssr:date" v="2017-01-19" />
		<tag k="ssr:stedsnr" v="760712" />
		<nd ref="-56597" />
		<nd ref="-56598" />
	</way>
	<way id="-12042">
		<tag k="name" v="Brunstadveien" />
		<tag k="ssr:date" v="2017-01-19" />
		<tag k="ssr:stedsnr" v="760703" />
		<nd ref="-56595" />
		<nd ref="-56596" />
	</way>
	<way id="-11529">
		<tag k="bridge" v="yes" />
		<tag k="layer" v="1" />
		<tag k="name" v="Gjennestad viadukt" />
		<tag k="ssr:date" v="2017-01-19" />
		<tag k="ssr:stedsnr" v="46773" />
		<nd ref="-54202" />
		<nd ref="-54203" />
	</way>
	<way id="-11524">
		<tag k="alt_name" v="Brekke" />
		<tag k="bridge" v="yes" />
		<tag k="layer" v="1" />
		<tag k="name" v="Brekke bru" />
		<tag k="ssr:date" v="2017-01-19" />
		<tag k="ssr:stedsnr" v="27827" />
		<nd ref="-54173" />
		<nd ref="-54174" />
	</way>
</osm>
