<?xml version="1.0" encoding="UTF-8"?>
<osm generator="osmapis" version="0.6">
	<node id="-55286" lat="59.0871472257" lon="10.2271138887">
		<tag k="fixme" v="consider seamark:type=rock" />
		<tag k="name" v="Jordbærskjæret" />
		<tag k="natural" v="islet" />
		<tag k="ssr:date" v="2017-01-19" />
		<tag k="ssr:stedsnr" v="452547" />
	</node>
	<node id="-55270" lat="59.0936777821" lon="10.3282416702">
		<tag k="fixme" v="consider seamark:type=rock" />
		<tag k="name" v="Bikja" />
		<tag k="natural" v="islet" />
		<tag k="ssr:date" v="2017-01-19" />
		<tag k="ssr:stedsnr" v="451984" />
	</node>
	<node id="-55269" lat="59.0427694452" lon="10.263530549">
		<tag k="name" v="Holtskjærgrunnen" />
		<tag k="natural" v="shoal" />
		<tag k="place" v="locality" />
		<tag k="ssr:date" v="2017-01-19" />
		<tag k="ssr:stedsnr" v="451958" />
	</node>
	<node id="-55268" lat="59.0696750003" lon="10.3122250078">
		<tag k="ssr:gml_id" v="GEOMETRY_a6b769d6-91b5-4f4c-95c8-2b481fd013d8" />
		<tag k="ssr:gml_nr" v="2" />
	</node>
	<node id="-55267" lat="59.0696777745" lon="10.3122277825">
		<tag k="ssr:gml_id" v="GEOMETRY_7ae7f5df-2f6a-4420-93e6-605e9e88bbf4" />
		<tag k="ssr:gml_nr" v="1" />
	</node>
	<node id="-55266" lat="59.0696805577" lon="10.3122305575">
		<tag k="ssr:gml_id" v="GEOMETRY_160c7fa2-ba3d-4b10-b7f8-8874f443ada6" />
		<tag k="ssr:gml_nr" v="0" />
	</node>
	<node id="-57307" lat="59.154583331" lon="10.3323888925">
		<tag k="name" v="Hestholmen" />
		<tag k="place" v="islet" />
		<tag k="ssr:date" v="2017-01-19" />
		<tag k="ssr:stedsnr" v="938807" />
	</node>
	<node id="-55248" lat="59.0905888932" lon="10.289258339">
		<tag k="fixme" v="consider seamark:type=rock" />
		<tag k="name" v="Kjølhalskjæret" />
		<tag k="natural" v="islet" />
		<tag k="ssr:date" v="2017-01-19" />
		<tag k="ssr:stedsnr" v="450326" />
	</node>
	<node id="-55247" lat="59.0825305586" lon="10.3034166666">
		<tag k="fixme" v="consider seamark:type=rock" />
		<tag k="name" v="Eianskjæret" />
		<tag k="natural" v="islet" />
		<tag k="ssr:date" v="2017-01-19" />
		<tag k="ssr:stedsnr" v="450323" />
	</node>
	<node id="-55246" lat="59.0867944455" lon="10.2763194372">
		<tag k="name" v="Maris odde" />
		<tag k="natural" v="cape" />
		<tag k="place" v="locality" />
		<tag k="ssr:date" v="2017-01-19" />
		<tag k="ssr:stedsnr" v="450312" />
	</node>
	<node id="-55244" lat="59.1250250042" lon="10.3015027853">
		<tag k="name" v="Kjølpene" />
		<tag k="natural" v="shoal" />
		<tag k="place" v="locality" />
		<tag k="ssr:date" v="2017-01-19" />
		<tag k="ssr:stedsnr" v="449585" />
	</node>
	<node id="-55240" lat="59.0491972248" lon="10.2750750047">
		<tag k="name" v="Askvika" />
		<tag k="natural" v="bay" />
		<tag k="ssr:date" v="2017-01-19" />
		<tag k="ssr:stedsnr" v="449311" />
	</node>
	<node id="-55238" lat="59.0795833311" lon="10.2807111106">
		<tag k="name" v="Båtholmen" />
		<tag k="place" v="islet" />
		<tag k="ssr:date" v="2017-01-19" />
		<tag k="ssr:stedsnr" v="449290" />
	</node>
	<node id="-55237" lat="59.079138886" lon="10.3093166657">
		<tag k="fixme" v="consider seamark:type=rock" />
		<tag k="name" v="Bikkjeskjæret" />
		<tag k="natural" v="islet" />
		<tag k="ssr:date" v="2017-01-19" />
		<tag k="ssr:stedsnr" v="449288" />
	</node>
	<node id="-57282" lat="59.0807111133" lon="10.225600008">
		<tag k="ssr:gml_id" v="GEOMETRY_10750f09-8868-4987-8c9b-2def5ca9e23d" />
		<tag k="ssr:gml_nr" v="1" />
	</node>
	<node id="-57281" lat="59.080711114" lon="10.2233333301">
		<tag k="ssr:gml_id" v="GEOMETRY_71eecfad-529d-4f92-b942-15eb665789f1" />
		<tag k="ssr:gml_nr" v="0" />
	</node>
	<node id="-54943" lat="59.121855556" lon="10.3135611045">
		<tag k="ssr:gml_id" v="GEOMETRY_593b2639-1418-425a-a2de-9b7867db4a87" />
		<tag k="ssr:gml_nr" v="2" />
	</node>
	<node id="-54942" lat="59.1223555552" lon="10.3131222176">
		<tag k="ssr:gml_id" v="GEOMETRY_5eb78b3f-bdfd-4777-8067-57f098356a18" />
		<tag k="ssr:gml_nr" v="1" />
	</node>
	<node id="-54941" lat="59.122352781" lon="10.3131194385">
		<tag k="ssr:gml_id" v="GEOMETRY_b3fb6d93-66e0-4245-8c13-333201191ff7" />
		<tag k="ssr:gml_nr" v="0" />
	</node>
	<node id="-57260" lat="59.085427777" lon="10.2276222281">
		<tag k="fixme" v="consider seamark:type=rock" />
		<tag k="name" v="Garnskjæret" />
		<tag k="natural" v="islet" />
		<tag k="ssr:date" v="2017-01-19" />
		<tag k="ssr:stedsnr" v="937567" />
	</node>
	<node id="-57259" lat="59.0923833306" lon="10.2247027775">
		<tag k="fixme" v="consider seamark:type=rock" />
		<tag k="name" v="Båtstangskjæret" />
		<tag k="natural" v="islet" />
		<tag k="ssr:date" v="2017-01-19" />
		<tag k="ssr:stedsnr" v="937563" />
	</node>
	<node id="-57258" lat="59.0904555533" lon="10.2216111154">
		<tag k="fixme" v="consider seamark:type=rock" />
		<tag k="name" v="Langeskjæret" />
		<tag k="natural" v="islet" />
		<tag k="ssr:date" v="2017-01-19" />
		<tag k="ssr:stedsnr" v="937559" />
	</node>
	<node id="-57234" lat="59.1195083343" lon="10.321277773">
		<tag k="fixme" v="consider seamark:type=rock" />
		<tag k="name" v="Natholmskjær" />
		<tag k="natural" v="islet" />
		<tag k="ssr:date" v="2017-01-19" />
		<tag k="ssr:stedsnr" v="937074" />
	</node>
	<node id="-57221" lat="59.0536027809" lon="10.2800666699">
		<tag k="name" v="Krokeholmen" />
		<tag k="place" v="islet" />
		<tag k="ssr:date" v="2017-01-19" />
		<tag k="ssr:stedsnr" v="935345" />
	</node>
	<node id="-57220" lat="59.0745500043" lon="10.3149916624">
		<tag k="name" v="Godthøl" />
		<tag k="natural" v="bay" />
		<tag k="ssr:date" v="2017-01-19" />
		<tag k="ssr:stedsnr" v="935341" />
	</node>
	<node id="-57218" lat="59.0510444442" lon="10.2933416594">
		<tag k="fixme" v="consider seamark:type=rock" />
		<tag k="name" v="Lyngholmskjæret" />
		<tag k="natural" v="islet" />
		<tag k="ssr:date" v="2017-01-19" />
		<tag k="ssr:stedsnr" v="935314" />
	</node>
	<node id="-57217" lat="59.054174997" lon="10.3062944412">
		<tag k="fixme" v="consider seamark:type=rock" />
		<tag k="name" v="Ertsvikskjæret" />
		<tag k="natural" v="islet" />
		<tag k="ssr:date" v="2017-01-19" />
		<tag k="ssr:stedsnr" v="935312" />
	</node>
	<node id="-57216" lat="59.0879722254" lon="10.2827583264">
		<tag k="fixme" v="consider seamark:type=rock" />
		<tag k="name" v="Skitrot" />
		<tag k="natural" v="islet" />
		<tag k="ssr:date" v="2017-01-19" />
		<tag k="ssr:stedsnr" v="935306" />
	</node>
	<node id="-57215" lat="59.091758337" lon="10.2728861113">
		<tag k="name" v="Hummelvika" />
		<tag k="natural" v="bay" />
		<tag k="ssr:date" v="2017-01-19" />
		<tag k="ssr:stedsnr" v="935285" />
	</node>
	<node id="-57213" lat="59.0796972262" lon="10.3121055535">
		<tag k="fixme" v="consider seamark:type=rock" />
		<tag k="name" v="Flatskjær" />
		<tag k="natural" v="islet" />
		<tag k="ssr:date" v="2017-01-19" />
		<tag k="ssr:stedsnr" v="935278" />
	</node>
	<node id="-57211" lat="59.1519277764" lon="10.3177861083">
		<tag k="name" v="Buerodden" />
		<tag k="natural" v="cape" />
		<tag k="place" v="locality" />
		<tag k="ssr:date" v="2017-01-19" />
		<tag k="ssr:stedsnr" v="935261" />
	</node>
	<node id="-55160" lat="59.1160972219" lon="10.2914333284">
		<tag k="ssr:gml_id" v="GEOMETRY_089de35c-6439-4cc9-9bfe-659212dca1c8" />
		<tag k="ssr:gml_nr" v="3" />
	</node>
	<node id="-57207" lat="59.1245166638" lon="10.3149694428">
		<tag k="fixme" v="consider seamark:type=rock" />
		<tag k="name" v="Marøyskjæra" />
		<tag k="natural" v="islet" />
		<tag k="ssr:date" v="2017-01-19" />
		<tag k="ssr:stedsnr" v="935235" />
	</node>
	<node id="-57206" lat="59.1265027811" lon="10.2836027809">
		<tag k="name" v="Røysebekk-kilen" />
		<tag k="natural" v="bay" />
		<tag k="ssr:date" v="2017-01-19" />
		<tag k="ssr:stedsnr" v="935228" />
	</node>
	<node id="-55157" lat="59.1160916636" lon="10.2914277745">
		<tag k="ssr:gml_id" v="GEOMETRY_470a2f1e-d2ab-4452-b75d-545ff36fb110" />
		<tag k="ssr:gml_nr" v="0" />
	</node>
	<node id="-57202" lat="59.0667611092" lon="10.2897027773">
		<tag k="name" v="Kolholmen" />
		<tag k="place" v="islet" />
		<tag k="ssr:date" v="2017-01-19" />
		<tag k="ssr:stedsnr" v="934929" />
	</node>
	<node id="-55140" lat="59.031569445" lon="10.3277250047">
		<tag k="ssr:gml_id" v="GEOMETRY_f9312321-7faf-4644-986b-b8518b6c1802" />
		<tag k="ssr:gml_nr" v="1" />
	</node>
	<node id="-55139" lat="59.0315666697" lon="10.3277250022">
		<tag k="ssr:gml_id" v="GEOMETRY_2c9d0448-1d7a-446c-ae6c-b970980b312a" />
		<tag k="ssr:gml_nr" v="0" />
	</node>
	<node id="-55138" lat="59.0285999992" lon="10.3176444516">
		<tag k="ssr:gml_id" v="GEOMETRY_c8ef3c98-2658-45c0-a95c-1910686cd9cd" />
		<tag k="ssr:gml_nr" v="1" />
	</node>
	<node id="-55137" lat="59.0286000006" lon="10.3176416641">
		<tag k="ssr:gml_id" v="GEOMETRY_ab4c5ff3-7347-4e2b-b36d-72aaab582264" />
		<tag k="ssr:gml_nr" v="0" />
	</node>
	<node id="-55136" lat="59.0400638858" lon="10.2850472192">
		<tag k="ssr:gml_id" v="GEOMETRY_c1ffb01b-d125-49f1-b543-697b3833bddb" />
		<tag k="ssr:gml_nr" v="2" />
	</node>
	<node id="-55135" lat="59.0406722232" lon="10.2857083272">
		<tag k="ssr:gml_id" v="GEOMETRY_6e58e45d-0b9a-4736-8c41-66fa45cce945" />
		<tag k="ssr:gml_nr" v="1" />
	</node>
	<node id="-55134" lat="59.0406694484" lon="10.285705557">
		<tag k="ssr:gml_id" v="GEOMETRY_4164844c-014f-47df-8a92-7dd5c743f8bd" />
		<tag k="ssr:gml_nr" v="0" />
	</node>
	<node id="-55115" lat="59.085819441" lon="10.2518805545">
		<tag k="ssr:gml_id" v="GEOMETRY_25f5f1ed-cd10-42ad-b3f5-d8f60433bea2" />
		<tag k="ssr:gml_nr" v="1" />
	</node>
	<node id="-55114" lat="59.0858166655" lon="10.2518777833">
		<tag k="ssr:gml_id" v="GEOMETRY_27d1f916-04df-44c7-af54-07dfff0bc9c2" />
		<tag k="ssr:gml_nr" v="0" />
	</node>
	<node id="-55113" lat="59.1015027764" lon="10.2473361196">
		<tag k="ssr:gml_id" v="GEOMETRY_3fe043e8-4cbf-4f2e-a115-af54a6b70856" />
		<tag k="ssr:gml_nr" v="2" />
	</node>
	<node id="-55112" lat="59.1008222243" lon="10.2462166699">
		<tag k="ssr:gml_id" v="GEOMETRY_3b673372-83b2-4549-857c-696b8f322600" />
		<tag k="ssr:gml_nr" v="1" />
	</node>
	<node id="-55111" lat="59.0986111073" lon="10.2444444527">
		<tag k="ssr:gml_id" v="GEOMETRY_4d2544ee-3d02-4ea2-ace1-824bbbd17e4a" />
		<tag k="ssr:gml_nr" v="0" />
	</node>
	<node id="-55104" lat="59.2032500018" lon="10.347555552">
		<tag k="ssr:gml_id" v="GEOMETRY_f311a824-0754-44a0-b115-89cdce7ff17f" />
		<tag k="ssr:gml_nr" v="4" />
	</node>
	<node id="-55103" lat="59.2032722197" lon="10.3474777838">
		<tag k="ssr:gml_id" v="GEOMETRY_8eb9fe76-6597-4d3d-b780-db5f86737d3a" />
		<tag k="ssr:gml_nr" v="3" />
	</node>
	<node id="-55102" lat="59.2032499964" lon="10.3475500007">
		<tag k="ssr:gml_id" v="GEOMETRY_44bd1d06-f16c-42f8-84b5-62661fdfe758" />
		<tag k="ssr:gml_nr" v="2" />
	</node>
	<node id="-55101" lat="59.2032500035" lon="10.3475527853">
		<tag k="ssr:gml_id" v="GEOMETRY_b2057d2e-885d-4836-a1bc-78deafe1443b" />
		<tag k="ssr:gml_nr" v="1" />
	</node>
	<node id="-55100" lat="59.2032499983" lon="10.3475472165">
		<tag k="ssr:gml_id" v="GEOMETRY_cc5c6cf5-6102-4f06-999c-0d5ad3e675b0" />
		<tag k="ssr:gml_nr" v="0" />
	</node>
	<node id="-57135" lat="59.0402777769" lon="10.2662833312">
		<tag k="ssr:gml_id" v="GEOMETRY_839d8849-64e1-4cd0-b189-e2eab27f68fe" />
		<tag k="ssr:gml_nr" v="2" />
	</node>
	<node id="-57134" lat="59.0405888925" lon="10.2669000055">
		<tag k="ssr:gml_id" v="GEOMETRY_f3fe01b2-aa6d-4b53-9f4b-aba3394e8365" />
		<tag k="ssr:gml_nr" v="1" />
	</node>
	<node id="-57133" lat="59.0405861082" lon="10.2669000076">
		<tag k="ssr:gml_id" v="GEOMETRY_0bcd30d0-8e06-41ad-b79b-9f7dc2e1c4d2" />
		<tag k="ssr:gml_nr" v="0" />
	</node>
	<node id="-55084" lat="59.0952777767" lon="10.2511111089">
		<tag k="name" v="Såta" />
		<tag k="natural" v="shoal" />
		<tag k="place" v="locality" />
		<tag k="ssr:date" v="2017-01-19" />
		<tag k="ssr:stedsnr" v="423777" />
	</node>
	<node id="-57131" lat="59.0547749995" lon="10.3034777862">
		<tag k="ssr:gml_id" v="GEOMETRY_41c3b5b4-f134-4a8c-baaa-7b9c36481376" />
		<tag k="ssr:gml_nr" v="1" />
	</node>
	<node id="-57130" lat="59.0547750006" lon="10.3034749966">
		<tag k="ssr:gml_id" v="GEOMETRY_e003a527-7ffb-4476-912f-071c4b0e19b4" />
		<tag k="ssr:gml_nr" v="0" />
	</node>
	<node id="-57125" lat="59.0616638894" lon="10.2946083353">
		<tag k="ssr:gml_id" v="GEOMETRY_4134b4ad-6da0-4cff-8276-2e1256f626de" />
		<tag k="ssr:gml_nr" v="2" />
	</node>
	<node id="-57124" lat="59.0616805544" lon="10.2948472146">
		<tag k="ssr:gml_id" v="GEOMETRY_4f111277-ce15-4bf7-9cc0-ed85e80c07c8" />
		<tag k="ssr:gml_nr" v="1" />
	</node>
	<node id="-55075" lat="59.1487638916" lon="10.3095888866">
		<tag k="name" v="Engebukta" />
		<tag k="natural" v="bay" />
		<tag k="ssr:date" v="2017-01-19" />
		<tag k="ssr:stedsnr" v="268283" />
	</node>
	<node id="-55259" lat="59.1062999966" lon="10.2794944409">
		<tag k="name" v="Buholmen" />
		<tag k="place" v="islet" />
		<tag k="ssr:date" v="2017-01-19" />
		<tag k="ssr:stedsnr" v="451045" />
	</node>
	<node id="-57120" lat="59.0851777822" lon="10.3091722194">
		<tag k="ssr:gml_id" v="GEOMETRY_a131e693-2ec2-4692-8964-d663cb3d2123" />
		<tag k="ssr:gml_nr" v="3" />
	</node>
	<node id="-57119" lat="59.0832749983" lon="10.3078638912">
		<tag k="ssr:gml_id" v="GEOMETRY_55504a38-a32a-4f15-ae6e-95f92f94a7ba" />
		<tag k="ssr:gml_nr" v="2" />
	</node>
	<node id="-57118" lat="59.085175" lon="10.3091666687">
		<tag k="ssr:gml_id" v="GEOMETRY_a47d2957-0670-4e73-8a71-8ad1179b7231" />
		<tag k="ssr:gml_nr" v="1" />
	</node>
	<node id="-57117" lat="59.0851750011" lon="10.309163894">
		<tag k="ssr:gml_id" v="GEOMETRY_d157f7a6-a740-4e8f-9b25-ce24187d50c0" />
		<tag k="ssr:gml_nr" v="0" />
	</node>
	<node id="-55067" lat="59.1368666634" lon="10.2910388882">
		<tag k="fixme" v="consider seamark:type=rock" />
		<tag k="name" v="Katteskjæret" />
		<tag k="natural" v="islet" />
		<tag k="ssr:date" v="2017-01-19" />
		<tag k="ssr:stedsnr" v="267233" />
	</node>
	<node id="-55066" lat="59.1263749996" lon="10.3121694441">
		<tag k="name" v="Engeodden" />
		<tag k="natural" v="cape" />
		<tag k="place" v="locality" />
		<tag k="ssr:date" v="2017-01-19" />
		<tag k="ssr:stedsnr" v="267214" />
	</node>
	<node id="-57072" lat="59.0929194452" lon="10.3025500039">
		<tag k="ssr:gml_id" v="GEOMETRY_90307179-d79d-44b6-8a73-c47244d1157a" />
		<tag k="ssr:gml_nr" v="1" />
	</node>
	<node id="-57104" lat="59.1263888879" lon="10.2963777818">
		<tag k="ssr:gml_id" v="GEOMETRY_bc76586e-74c7-4fec-9d28-0eaae9e78b6b" />
		<tag k="ssr:gml_nr" v="3" />
	</node>
	<node id="-57103" lat="59.1181888872" lon="10.2997000021">
		<tag k="ssr:gml_id" v="GEOMETRY_18e02164-e79e-43ea-9c42-6b691d6facac" />
		<tag k="ssr:gml_nr" v="2" />
	</node>
	<node id="-57102" lat="59.1290749961" lon="10.2996944401">
		<tag k="ssr:gml_id" v="GEOMETRY_26e5f983-3182-4b20-b3e7-3e5b8b4c6706" />
		<tag k="ssr:gml_nr" v="1" />
	</node>
	<node id="-57101" lat="59.1290749969" lon="10.2996916619">
		<tag k="ssr:gml_id" v="GEOMETRY_b9879ac9-3b00-4ad6-9d52-1f9e82441215" />
		<tag k="ssr:gml_nr" v="0" />
	</node>
	<node id="-57100" lat="59.1293166681" lon="10.3019361057">
		<tag k="ssr:gml_id" v="GEOMETRY_a2f050e6-7451-4331-bab5-a0dc9715b581" />
		<tag k="ssr:gml_nr" v="3" />
	</node>
	<node id="-57099" lat="59.1291972198" lon="10.3018333373">
		<tag k="ssr:gml_id" v="GEOMETRY_73ed1620-90a2-4795-8333-393c75615c08" />
		<tag k="ssr:gml_nr" v="2" />
	</node>
	<node id="-57098" lat="59.1291944454" lon="10.3018305586">
		<tag k="ssr:gml_id" v="GEOMETRY_b523ca40-4a19-4986-9598-878798df2eda" />
		<tag k="ssr:gml_nr" v="1" />
	</node>
	<node id="-57097" lat="59.129191671" lon="10.3018277799">
		<tag k="ssr:gml_id" v="GEOMETRY_c3f83d5d-cd70-4e20-9f37-fce993316dc9" />
		<tag k="ssr:gml_nr" v="0" />
	</node>
	<node id="-54911" lat="59.1196888845" lon="10.2666888965">
		<tag k="ssr:gml_id" v="GEOMETRY_d77ac5a9-5ead-4f71-954e-cbb1661a51cf" />
		<tag k="ssr:gml_nr" v="1" />
	</node>
	<node id="-57075" lat="59.0929222187" lon="10.302555555">
		<tag k="ssr:gml_id" v="GEOMETRY_e79c4f22-c5c7-4110-a2fe-7aa4801d24c5" />
		<tag k="ssr:gml_nr" v="4" />
	</node>
	<node id="-57074" lat="59.0912888863" lon="10.3018583385">
		<tag k="ssr:gml_id" v="GEOMETRY_07d5ea78-2598-494e-ba5c-66e6d3927bd7" />
		<tag k="ssr:gml_nr" v="3" />
	</node>
	<node id="-57073" lat="59.1111194413" lon="10.2892305549">
		<tag k="ssr:gml_id" v="GEOMETRY_7ba80c52-fc3d-42cc-8484-264744199fa7" />
		<tag k="ssr:gml_nr" v="2" />
	</node>
	<node id="-55024" lat="59.2395944441" lon="10.3828555497">
		<tag k="ssr:gml_id" v="GEOMETRY_d0835dcf-65b6-454c-b6d4-3179d7d12c21" />
		<tag k="ssr:gml_nr" v="6" />
	</node>
	<node id="-57071" lat="59.0929166699" lon="10.3025500034">
		<tag k="ssr:gml_id" v="GEOMETRY_145982fa-1a0a-4b72-a677-59bba2c457fd" />
		<tag k="ssr:gml_nr" v="0" />
	</node>
	<node id="-55022" lat="59.1900777786" lon="10.3485944396">
		<tag k="ssr:gml_id" v="GEOMETRY_b063b86c-5be6-491e-b9c3-4b0693dc4e26" />
		<tag k="ssr:gml_nr" v="4" />
	</node>
	<node id="-55021" lat="59.1497611127" lon="10.3701777792">
		<tag k="ssr:gml_id" v="GEOMETRY_fec953b9-3a62-432b-aa64-82f9118ea4a1" />
		<tag k="ssr:gml_nr" v="3" />
	</node>
	<node id="-55020" lat="59.2591666628" lon="10.3795611048">
		<tag k="ssr:gml_id" v="GEOMETRY_159bb4e1-65b4-48dc-adda-852fcd532b36" />
		<tag k="ssr:gml_nr" v="2" />
	</node>
	<node id="-55019" lat="59.2461277804" lon="10.3784916685">
		<tag k="ssr:gml_id" v="GEOMETRY_b48c3f57-b326-4221-8cd2-acb8a3037990" />
		<tag k="ssr:gml_nr" v="1" />
	</node>
	<node id="-55018" lat="59.2461222258" lon="10.3784861141">
		<tag k="ssr:gml_id" v="GEOMETRY_c893edfc-12f0-4644-85f4-26bf40520b0e" />
		<tag k="ssr:gml_nr" v="0" />
	</node>
	<node id="-57058" lat="59.1774666653" lon="10.3322222243">
		<tag k="name" v="Nallebergodden" />
		<tag k="natural" v="cape" />
		<tag k="place" v="locality" />
		<tag k="ssr:date" v="2017-01-19" />
		<tag k="ssr:stedsnr" v="878977" />
	</node>
	<node id="-54904" lat="59.1925805596" lon="10.3319916653">
		<tag k="ssr:gml_id" v="GEOMETRY_c2a46d2f-cb9a-4c7e-8749-855e08fffabf" />
		<tag k="ssr:gml_nr" v="0" />
	</node>
	<node id="-57028" lat="59.0695583349" lon="10.2416527811">
		<tag k="alt_name" v="Kari" />
		<tag k="name" v="Karibåen" />
		<tag k="place" v="locality" />
		<tag k="seamark:type" v="rock" />
		<tag k="ssr:date" v="2017-01-19" />
		<tag k="ssr:stedsnr" v="877641" />
	</node>
	<node id="-54959" lat="59.0765972208" lon="10.2536083318">
		<tag k="ssr:gml_id" v="GEOMETRY_2f942bb5-e9b1-4ba4-80ff-8fea888aca4d" />
		<tag k="ssr:gml_nr" v="4" />
	</node>
	<node id="-54958" lat="59.0789055538" lon="10.2542138827">
		<tag k="ssr:gml_id" v="GEOMETRY_07847d37-648a-40f1-9c24-c3e44279bcdb" />
		<tag k="ssr:gml_nr" v="3" />
	</node>
	<node id="-54957" lat="59.0789055589" lon="10.2533333354">
		<tag k="ssr:gml_id" v="GEOMETRY_b58a8c9c-e69e-4a19-aa6a-4d45e2ee8104" />
		<tag k="ssr:gml_nr" v="2" />
	</node>
	<node id="-57205" lat="59.1332194426" lon="10.3189138805">
		<tag k="name" v="Hamburgkilen" />
		<tag k="natural" v="bay" />
		<tag k="ssr:date" v="2017-01-19" />
		<tag k="ssr:stedsnr" v="935224" />
	</node>
	<node id="-54955" lat="59.0779305566" lon="10.2537916638">
		<tag k="ssr:gml_id" v="GEOMETRY_2a674f6d-7593-4baf-9487-691785af1eb9" />
		<tag k="ssr:gml_nr" v="0" />
	</node>
	<node id="-54951" lat="59.0734000043" lon="10.3147805551">
		<tag k="ssr:gml_id" v="GEOMETRY_37599eca-aed2-4f58-897d-66ef320b1c89" />
		<tag k="ssr:gml_nr" v="2" />
	</node>
	<node id="-54950" lat="59.0737277772" lon="10.3148916723">
		<tag k="ssr:gml_id" v="GEOMETRY_c501f79e-4764-463f-b334-5fe5116e55bc" />
		<tag k="ssr:gml_nr" v="1" />
	</node>
	<node id="-54949" lat="59.0737250031" lon="10.3148888971">
		<tag k="ssr:gml_id" v="GEOMETRY_479ac427-9749-4e6f-b69c-8fd3398f6b3b" />
		<tag k="ssr:gml_nr" v="0" />
	</node>
	<node id="-54946" lat="59.0819250003" lon="10.339663888">
		<tag k="ssr:gml_id" v="GEOMETRY_be2f06f0-e3e2-4f35-a259-6d593da2b916" />
		<tag k="ssr:gml_nr" v="2" />
	</node>
	<node id="-54945" lat="59.0809694486" lon="10.3390722207">
		<tag k="ssr:gml_id" v="GEOMETRY_eac437ac-d2ff-4752-9955-721bc9179003" />
		<tag k="ssr:gml_nr" v="1" />
	</node>
	<node id="-54944" lat="59.0819277812" lon="10.3396694406">
		<tag k="ssr:gml_id" v="GEOMETRY_fe3d168d-c596-4ee8-9191-dfd2b03001fb" />
		<tag k="ssr:gml_nr" v="0" />
	</node>
	<node id="-56991" lat="59.0677777736" lon="10.2910777724">
		<tag k="ssr:gml_id" v="GEOMETRY_7ab7d256-7b7d-43e3-be67-f0facfa1d8ba" />
		<tag k="ssr:gml_nr" v="2" />
	</node>
	<node id="-56990" lat="59.0677805571" lon="10.291080563">
		<tag k="ssr:gml_id" v="GEOMETRY_f4c2c7af-9b79-4323-937f-ea54d64b9ba0" />
		<tag k="ssr:gml_nr" v="1" />
	</node>
	<node id="-56989" lat="59.0677833317" lon="10.2910833358">
		<tag k="ssr:gml_id" v="GEOMETRY_cd323028-568f-44e2-bf76-f22829690e50" />
		<tag k="ssr:gml_nr" v="0" />
	</node>
	<node id="-54925" lat="59.0823055538" lon="10.2291666642">
		<tag k="name" v="Langgamla" />
		<tag k="natural" v="shoal" />
		<tag k="place" v="locality" />
		<tag k="ssr:date" v="2017-01-19" />
		<tag k="ssr:stedsnr" v="239567" />
	</node>
	<node id="-56972" lat="59.1150694461" lon="10.2784388854">
		<tag k="name" v="Bøkilen" />
		<tag k="natural" v="bay" />
		<tag k="ssr:date" v="2017-01-19" />
		<tag k="ssr:stedsnr" v="876050" />
	</node>
	<node id="-56971" lat="59.1314527792" lon="10.3318027716">
		<tag k="name" v="Årøbåen" />
		<tag k="natural" v="shoal" />
		<tag k="place" v="locality" />
		<tag k="ssr:date" v="2017-01-19" />
		<tag k="ssr:stedsnr" v="875570" />
	</node>
	<node id="-56961" lat="59.0346777733" lon="10.2784444515">
		<tag k="fixme" v="consider seamark:type=rock" />
		<tag k="name" v="Leikerane" />
		<tag k="natural" v="islet" />
		<tag k="ssr:date" v="2017-01-19" />
		<tag k="ssr:stedsnr" v="874334" />
	</node>
	<node id="-56959" lat="59.1372138912" lon="10.281297227">
		<tag k="name" v="Elverhøystranda" />
		<tag k="natural" v="beach" />
		<tag k="place" v="locality" />
		<tag k="ssr:date" v="2017-01-19" />
		<tag k="ssr:stedsnr" v="874283" />
	</node>
	<node id="-54910" lat="59.1196888886" lon="10.2638888854">
		<tag k="ssr:gml_id" v="GEOMETRY_35a4296d-a5e6-4d39-afb9-ee544a07082c" />
		<tag k="ssr:gml_nr" v="0" />
	</node>
	<node id="-56957" lat="59.1240972179" lon="10.3016666733">
		<tag k="fixme" v="consider seamark:type=rock" />
		<tag k="name" v="Kjølpene" />
		<tag k="natural" v="islet" />
		<tag k="ssr:date" v="2017-01-19" />
		<tag k="ssr:stedsnr" v="874272" />
	</node>
	<node id="-56956" lat="59.127091664" lon="10.325099993">
		<tag k="fixme" v="consider seamark:type=rock" />
		<tag k="name" v="Terneskjæret" />
		<tag k="natural" v="islet" />
		<tag k="ssr:date" v="2017-01-19" />
		<tag k="ssr:stedsnr" v="874269" />
	</node>
	<node id="-56955" lat="59.1352805596" lon="10.3063083264">
		<tag k="name" v="Susebukta" />
		<tag k="natural" v="bay" />
		<tag k="ssr:date" v="2017-01-19" />
		<tag k="ssr:stedsnr" v="874266" />
	</node>
	<node id="-54905" lat="59.192363886" lon="10.3317833336">
		<tag k="ssr:gml_id" v="GEOMETRY_d47879c3-27cd-4ea6-853c-edc09b373594" />
		<tag k="ssr:gml_nr" v="1" />
	</node>
	<node id="-56952" lat="59.0730722243" lon="10.2873222238">
		<tag k="fixme" v="consider seamark:type=rock" />
		<tag k="name" v="Teineskjæret" />
		<tag k="natural" v="islet" />
		<tag k="ssr:date" v="2017-01-19" />
		<tag k="ssr:stedsnr" v="874915" />
	</node>
	<node id="-54894" lat="59.0754000029" lon="10.209350008">
		<tag k="name" v="Hemsholmen" />
		<tag k="natural" v="cape" />
		<tag k="place" v="locality" />
		<tag k="ssr:date" v="2017-01-19" />
		<tag k="ssr:stedsnr" v="209889" />
	</node>
	<node id="-54893" lat="59.0760750012" lon="10.2312083321">
		<tag k="name" v="Ulesund" />
		<tag k="natural" v="strait" />
		<tag k="place" v="locality" />
		<tag k="ssr:date" v="2017-01-19" />
		<tag k="ssr:stedsnr" v="209882" />
	</node>
	<node id="-54880" lat="59.0821527775" lon="10.231444448">
		<tag k="fixme" v="consider seamark:type=rock" />
		<tag k="name" v="Vasskalven" />
		<tag k="natural" v="islet" />
		<tag k="ssr:date" v="2017-01-19" />
		<tag k="ssr:stedsnr" v="209753" />
	</node>
	<node id="-54879" lat="59.0787976826" lon="10.2174795803">
		<tag k="name" v="Sørbyøya" />
		<tag k="natural" v="cape" />
		<tag k="place" v="locality" />
		<tag k="ssr:date" v="2018-03-13" />
		<tag k="ssr:stedsnr" v="209752" />
	</node>
	<node id="-54878" lat="59.0810861118" lon="10.2593777726">
		<tag k="name" v="Stråholmen" />
		<tag k="place" v="islet" />
		<tag k="ssr:date" v="2017-01-19" />
		<tag k="ssr:stedsnr" v="209751" />
	</node>
	<node id="-54868" lat="59.0725083354" lon="10.2592611194">
		<tag k="name" v="Vøra badestrand" />
		<tag k="natural" v="beach" />
		<tag k="place" v="locality" />
		<tag k="ssr:date" v="2017-01-19" />
		<tag k="ssr:stedsnr" v="209622" />
	</node>
	<node id="-54867" lat="59.0766055528" lon="10.2192666671">
		<tag k="name" v="Tuten" />
		<tag k="natural" v="cape" />
		<tag k="place" v="locality" />
		<tag k="ssr:date" v="2017-01-19" />
		<tag k="ssr:stedsnr" v="209614" />
	</node>
	<node id="-54861" lat="59.0832999982" lon="10.2271027745">
		<tag k="name" v="Nilseholmen" />
		<tag k="place" v="islet" />
		<tag k="ssr:date" v="2017-01-19" />
		<tag k="ssr:stedsnr" v="209547" />
	</node>
	<node id="-54860" lat="59.0874166697" lon="10.2311555593">
		<tag k="name" v="Østre Bjerkeholmen" />
		<tag k="place" v="islet" />
		<tag k="ssr:date" v="2017-01-19" />
		<tag k="ssr:stedsnr" v="209542" />
	</node>
	<node id="-56892" lat="59.104402775" lon="10.3068305525">
		<tag k="alt_name" v="Stigerholmen;Stigerholmene" />
		<tag k="name" v="Stigerholmane" />
		<tag k="place" v="islet" />
		<tag k="ssr:date" v="2017-01-19" />
		<tag k="ssr:stedsnr" v="852087" />
	</node>
	<node id="-53723" lat="59.1082749972" lon="10.2744916675">
		<tag k="ssr:gml_id" v="GEOMETRY_732ff475-710d-4e5c-b1de-5e81feb3aaf3" />
		<tag k="ssr:gml_nr" v="0" />
	</node>
	<node id="-54818" lat="59.1335805549" lon="10.2992055613">
		<tag k="name" v="Faraholmen" />
		<tag k="place" v="islet" />
		<tag k="ssr:date" v="2017-01-19" />
		<tag k="ssr:stedsnr" v="207561" />
	</node>
	<node id="-56861" lat="59.0695111073" lon="10.3387472228">
		<tag k="ssr:gml_id" v="GEOMETRY_99b2ed39-b3c2-422d-8afb-d999f64071fc" />
		<tag k="ssr:gml_nr" v="1" />
	</node>
	<node id="-56860" lat="59.0695083337" lon="10.338744446">
		<tag k="ssr:gml_id" v="GEOMETRY_88565d50-b7dc-44be-966b-b907e1d9f1c7" />
		<tag k="ssr:gml_nr" v="0" />
	</node>
	<node id="-54810" lat="59.1235277817" lon="10.3254861125">
		<tag k="fixme" v="consider seamark:type=rock" />
		<tag k="name" v="Sandbuktskjæret" />
		<tag k="natural" v="islet" />
		<tag k="ssr:date" v="2017-01-19" />
		<tag k="ssr:stedsnr" v="207259" />
	</node>
	<node id="-54805" lat="59.0630222253" lon="10.2783277861">
		<tag k="fixme" v="consider seamark:type=rock" />
		<tag k="name" v="Galteskjær" />
		<tag k="natural" v="islet" />
		<tag k="ssr:date" v="2017-01-19" />
		<tag k="ssr:stedsnr" v="206327" />
	</node>
	<node id="-54804" lat="59.0406472187" lon="10.2736861169">
		<tag k="fixme" v="consider seamark:type=rock" />
		<tag k="name" v="Svartskjær" />
		<tag k="natural" v="islet" />
		<tag k="ssr:date" v="2017-01-19" />
		<tag k="ssr:stedsnr" v="206309" />
	</node>
	<node id="-56843" lat="59.2206555517" lon="10.3710333353">
		<tag k="ssr:gml_id" v="GEOMETRY_cdf94ffc-189f-469f-9b3a-a95fc9cd4fd9" />
		<tag k="ssr:gml_nr" v="4" />
	</node>
	<node id="-56842" lat="59.2206527762" lon="10.3709694499">
		<tag k="ssr:gml_id" v="GEOMETRY_d304fd74-a92a-4fae-aa5c-543cc17c1355" />
		<tag k="ssr:gml_nr" v="3" />
	</node>
	<node id="-56841" lat="59.2206500035" lon="10.3710305548">
		<tag k="ssr:gml_id" v="GEOMETRY_d494413f-4efd-4116-8a3c-255dd36a6d2a" />
		<tag k="ssr:gml_nr" v="2" />
	</node>
	<node id="-56840" lat="59.2206527765" lon="10.3710333291">
		<tag k="ssr:gml_id" v="GEOMETRY_5bfff12f-2b8c-4ae3-884d-10862ad050c4" />
		<tag k="ssr:gml_nr" v="1" />
	</node>
	<node id="-56839" lat="59.2206499967" lon="10.3710277863">
		<tag k="ssr:gml_id" v="GEOMETRY_17838899-a0ca-49d0-a5cc-352b62a22896" />
		<tag k="ssr:gml_nr" v="0" />
	</node>
	<node id="-56824" lat="59.0940833308" lon="10.244208328">
		<tag k="name" v="Korsvikbåen" />
		<tag k="natural" v="shoal" />
		<tag k="place" v="locality" />
		<tag k="ssr:date" v="2017-01-19" />
		<tag k="ssr:stedsnr" v="844765" />
	</node>
	<node id="-56808" lat="59.1645972251" lon="10.3262222284">
		<tag k="name" v="Sandsund" />
		<tag k="natural" v="strait" />
		<tag k="place" v="locality" />
		<tag k="ssr:date" v="2017-01-19" />
		<tag k="ssr:stedsnr" v="817055" />
	</node>
	<node id="-56805" lat="59.074641671" lon="10.2118999936">
		<tag k="name" v="Snørholmen" />
		<tag k="place" v="islet" />
		<tag k="ssr:date" v="2017-01-19" />
		<tag k="ssr:stedsnr" v="816906" />
	</node>
	<node id="-54754" lat="59.1583500026" lon="10.3285805583">
		<tag k="ssr:gml_id" v="GEOMETRY_d60f1b4b-a8c8-4371-80fe-f5e624c18232" />
		<tag k="ssr:gml_nr" v="4" />
	</node>
	<node id="-54753" lat="59.1581750035" lon="10.3282083391">
		<tag k="ssr:gml_id" v="GEOMETRY_e87794d1-7a27-4451-b540-b381168749f4" />
		<tag k="ssr:gml_nr" v="3" />
	</node>
	<node id="-54752" lat="59.1626472247" lon="10.3282027697">
		<tag k="ssr:gml_id" v="GEOMETRY_338ba290-f61b-449c-9b43-c0fd81969e3a" />
		<tag k="ssr:gml_nr" v="2" />
	</node>
	<node id="-54751" lat="59.1626444418" lon="10.3282000033">
		<tag k="ssr:gml_id" v="GEOMETRY_0039a7eb-bd3a-4956-a820-a658bfdadead" />
		<tag k="ssr:gml_nr" v="1" />
	</node>
	<node id="-54750" lat="59.162641668" lon="10.3281972197">
		<tag k="ssr:gml_id" v="GEOMETRY_68cfd976-3b5f-44cb-a260-a154160a65b9" />
		<tag k="ssr:gml_nr" v="0" />
	</node>
	<node id="-54743" lat="59.05501667" lon="10.2809777827">
		<tag k="ssr:gml_id" v="GEOMETRY_14dc7bd3-89b0-4e4d-964b-5695bea001ad" />
		<tag k="ssr:gml_nr" v="1" />
	</node>
	<node id="-56790" lat="59.0784499997" lon="10.2614555638">
		<tag k="name" v="Langeby badestrand" />
		<tag k="natural" v="beach" />
		<tag k="place" v="locality" />
		<tag k="ssr:date" v="2017-01-19" />
		<tag k="ssr:stedsnr" v="816776" />
	</node>
	<node id="-54741" lat="59.066311114" lon="10.2702944529">
		<tag k="ssr:gml_id" v="GEOMETRY_4c9abdbb-3c84-41b3-bf94-5a5e447e72c0" />
		<tag k="ssr:gml_nr" v="2" />
	</node>
	<node id="-54740" lat="59.0658916697" lon="10.2720166691">
		<tag k="ssr:gml_id" v="GEOMETRY_8097ad59-e747-4a09-b627-7d3d404d82bc" />
		<tag k="ssr:gml_nr" v="1" />
	</node>
	<node id="-54739" lat="59.0658888858" lon="10.2720138802">
		<tag k="ssr:gml_id" v="GEOMETRY_a04cfa83-8482-4d31-ab39-67cd05864885" />
		<tag k="ssr:gml_nr" v="0" />
	</node>
	<node id="-56783" lat="59.0676805569" lon="10.2701833318">
		<tag k="fixme" v="consider seamark:type=rock" />
		<tag k="name" v="Landskjæret" />
		<tag k="natural" v="islet" />
		<tag k="ssr:date" v="2017-01-19" />
		<tag k="ssr:stedsnr" v="816674" />
	</node>
	<node id="-56781" lat="59.0659083307" lon="10.2572916588">
		<tag k="fixme" v="consider seamark:type=rock" />
		<tag k="name" v="Jomfruskjæra" />
		<tag k="natural" v="islet" />
		<tag k="ssr:date" v="2017-01-19" />
		<tag k="ssr:stedsnr" v="816668" />
	</node>
	<node id="-56779" lat="59.0671527794" lon="10.2598833271">
		<tag k="name" v="Strandinga" />
		<tag k="natural" v="beach" />
		<tag k="place" v="locality" />
		<tag k="ssr:date" v="2017-01-19" />
		<tag k="ssr:stedsnr" v="816663" />
	</node>
	<node id="-54730" lat="59.112433337" lon="10.3176499934">
		<tag k="ssr:gml_id" v="GEOMETRY_bedf5750-11e5-45b9-bdd5-e9eddc700896" />
		<tag k="ssr:gml_nr" v="2" />
	</node>
	<node id="-54729" lat="59.1123499982" lon="10.3175666658">
		<tag k="ssr:gml_id" v="GEOMETRY_0212686c-55eb-4aea-9100-57b175f11c31" />
		<tag k="ssr:gml_nr" v="1" />
	</node>
	<node id="-54728" lat="59.1124388876" lon="10.3176499968">
		<tag k="ssr:gml_id" v="GEOMETRY_80c770f0-b600-4fe0-a38a-fdd7c2062c9c" />
		<tag k="ssr:gml_nr" v="0" />
	</node>
	<node id="-56774" lat="59.0944500004" lon="10.2299583306">
		<tag k="name" v="Fredøy" />
		<tag k="place" v="islet" />
		<tag k="ssr:date" v="2017-01-19" />
		<tag k="ssr:stedsnr" v="816587" />
	</node>
	<node id="-56773" lat="59.0977888851" lon="10.2290750057">
		<tag k="ssr:gml_id" v="GEOMETRY_1ca1fcf1-d992-4446-9e80-b9e3753d32a5" />
		<tag k="ssr:gml_nr" v="1" />
	</node>
	<node id="-56772" lat="59.0976388854" lon="10.2290749978">
		<tag k="ssr:gml_id" v="GEOMETRY_7c19f0c7-b4d9-48ec-8987-548c3769a3b4" />
		<tag k="ssr:gml_nr" v="0" />
	</node>
	<node id="-54722" lat="59.1011111068" lon="10.2747888827">
		<tag k="ssr:gml_id" v="GEOMETRY_b056feec-8bc7-4922-8ed0-8406d81c2691" />
		<tag k="ssr:gml_nr" v="2" />
	</node>
	<node id="-54721" lat="59.102236111" lon="10.2742527828">
		<tag k="ssr:gml_id" v="GEOMETRY_13d10f9e-7e07-41ad-bf98-3c2d1649d5f1" />
		<tag k="ssr:gml_nr" v="1" />
	</node>
	<node id="-54720" lat="59.102233336" lon="10.2742500085">
		<tag k="ssr:gml_id" v="GEOMETRY_a22dbdda-8de8-44f8-8df9-79cc52191d66" />
		<tag k="ssr:gml_nr" v="0" />
	</node>
	<node id="-56731" lat="59.0466611147" lon="10.2745694445">
		<tag k="name" v="Steinvika" />
		<tag k="natural" v="bay" />
		<tag k="ssr:date" v="2017-01-19" />
		<tag k="ssr:stedsnr" v="813283" />
	</node>
	<node id="-56729" lat="59.0802361142" lon="10.3146499987">
		<tag k="fixme" v="consider seamark:type=rock" />
		<tag k="name" v="Rubo" />
		<tag k="natural" v="islet" />
		<tag k="ssr:date" v="2017-01-19" />
		<tag k="ssr:stedsnr" v="813255" />
	</node>
	<node id="-56727" lat="59.1301277816" lon="10.3234722187">
		<tag k="name" v="Årøykilen" />
		<tag k="natural" v="bay" />
		<tag k="ssr:date" v="2017-01-19" />
		<tag k="ssr:stedsnr" v="813222" />
	</node>
	<node id="-56726" lat="59.133727774" lon="10.2920055575">
		<tag k="fixme" v="consider seamark:type=rock" />
		<tag k="name" v="Bikkjeskjæret" />
		<tag k="natural" v="islet" />
		<tag k="ssr:date" v="2017-01-19" />
		<tag k="ssr:stedsnr" v="813219" />
	</node>
	<node id="-56725" lat="59.1352027788" lon="10.3123861036">
		<tag k="name" v="Yorkkilen" />
		<tag k="natural" v="bay" />
		<tag k="ssr:date" v="2017-01-19" />
		<tag k="ssr:stedsnr" v="813213" />
	</node>
	<node id="-54676" lat="59.0784722261" lon="10.2330555529">
		<tag k="name" v="Prekestolen" />
		<tag k="natural" v="cape" />
		<tag k="place" v="locality" />
		<tag k="ssr:date" v="2017-01-19" />
		<tag k="ssr:stedsnr" v="178498" />
	</node>
	<node id="-54675" lat="59.0889444463" lon="10.2324444463">
		<tag k="fixme" v="consider seamark:type=rock" />
		<tag k="name" v="Bjerkskjær" />
		<tag k="natural" v="islet" />
		<tag k="ssr:date" v="2017-01-19" />
		<tag k="ssr:stedsnr" v="176753" />
	</node>
	<node id="-54669" lat="59.1152777754" lon="10.2227777788">
		<tag k="name" v="Ranvika" />
		<tag k="natural" v="bay" />
		<tag k="ssr:date" v="2017-01-19" />
		<tag k="ssr:stedsnr" v="160541" />
	</node>
	<node id="-54656" lat="59.0991111133" lon="10.2328944507">
		<tag k="name" v="Tranga" />
		<tag k="place" v="islet" />
		<tag k="ssr:date" v="2017-01-19" />
		<tag k="ssr:stedsnr" v="149568" />
	</node>
	<node id="-54651" lat="59.2271333313" lon="10.3753527752">
		<tag k="name" v="Rossnesodden" />
		<tag k="natural" v="cape" />
		<tag k="place" v="locality" />
		<tag k="ssr:date" v="2017-01-19" />
		<tag k="ssr:stedsnr" v="149079" />
	</node>
	<node id="-54650" lat="59.2198833298" lon="10.3730916676">
		<tag k="name" v="Verjøsundet" />
		<tag k="natural" v="strait" />
		<tag k="place" v="locality" />
		<tag k="ssr:date" v="2017-01-19" />
		<tag k="ssr:stedsnr" v="149077" />
	</node>
	<node id="-54649" lat="59.1719195516" lon="10.3393526154">
		<tag k="name" v="Gleabåen" />
		<tag k="place" v="locality" />
		<tag k="seamark:type" v="rock" />
		<tag k="ssr:date" v="2017-01-19" />
		<tag k="ssr:stedsnr" v="149052" />
	</node>
	<node id="-56666" lat="59.0239333368" lon="10.2688111059">
		<tag k="ssr:gml_id" v="GEOMETRY_5f08172e-5740-4ade-9be2-45ba236bcdc9" />
		<tag k="ssr:gml_nr" v="1" />
	</node>
	<node id="-54617" lat="59.0518916666" lon="10.2665666672">
		<tag k="name" v="Tjønnestranda" />
		<tag k="natural" v="beach" />
		<tag k="place" v="locality" />
		<tag k="ssr:date" v="2017-01-19" />
		<tag k="ssr:stedsnr" v="148627" />
	</node>
	<node id="-54616" lat="59.090466666" lon="10.2315194372">
		<tag k="name" v="Lofterødtredelen" />
		<tag k="place" v="islet" />
		<tag k="ssr:date" v="2017-01-19" />
		<tag k="ssr:stedsnr" v="148562" />
	</node>
	<node id="-54614" lat="59.0971999975" lon="10.2297972304">
		<tag k="name" v="Ulkeholmen" />
		<tag k="place" v="islet" />
		<tag k="ssr:date" v="2017-01-19" />
		<tag k="ssr:stedsnr" v="148555" />
	</node>
	<node id="-56658" lat="59.039813888" lon="10.2820305611">
		<tag k="ssr:gml_id" v="GEOMETRY_6a9a9b02-453e-4b61-9ca2-301c3622f658" />
		<tag k="ssr:gml_nr" v="1" />
	</node>
	<node id="-56657" lat="59.0398194466" lon="10.2820361185">
		<tag k="ssr:gml_id" v="GEOMETRY_5edfebaa-07a8-4e61-b318-2ead9fea83b9" />
		<tag k="ssr:gml_nr" v="0" />
	</node>
	<node id="-56653" lat="59.0473277804" lon="10.2811916669">
		<tag k="ssr:gml_id" v="GEOMETRY_c3eb9ea1-e25e-40f5-a541-9b4505aab10f" />
		<tag k="ssr:gml_nr" v="2" />
	</node>
	<node id="-56652" lat="59.0474250003" lon="10.2813249956">
		<tag k="ssr:gml_id" v="GEOMETRY_2d7f6764-06d9-4e79-a04f-b220f77329b2" />
		<tag k="ssr:gml_nr" v="1" />
	</node>
	<node id="-56651" lat="59.0474250007" lon="10.281322224">
		<tag k="ssr:gml_id" v="GEOMETRY_1f13d60a-32ab-436e-adfb-de30ed4b488d" />
		<tag k="ssr:gml_nr" v="0" />
	</node>
	<node id="-56641" lat="59.0706500036" lon="10.3138805494">
		<tag k="ssr:gml_id" v="GEOMETRY_4afcf571-4a02-4bdc-8aad-1b7023a66e13" />
		<tag k="ssr:gml_nr" v="2" />
	</node>
	<node id="-56640" lat="59.0710222212" lon="10.3143388921">
		<tag k="ssr:gml_id" v="GEOMETRY_685846a0-edcd-4e3d-b316-f4536da49917" />
		<tag k="ssr:gml_nr" v="1" />
	</node>
	<node id="-56639" lat="59.0706500011" lon="10.3138861139">
		<tag k="ssr:gml_id" v="GEOMETRY_25bd690f-b9e1-401a-9413-29108dd24283" />
		<tag k="ssr:gml_nr" v="0" />
	</node>
	<node id="-54580" lat="59.1711722248" lon="10.3286277846">
		<tag k="name" v="Gleabukta" />
		<tag k="natural" v="bay" />
		<tag k="ssr:date" v="2017-01-19" />
		<tag k="ssr:stedsnr" v="146418" />
	</node>
	<node id="-54579" lat="59.0897583321" lon="10.2914111194">
		<tag k="name" v="Odden" />
		<tag k="natural" v="bay" />
		<tag k="ssr:date" v="2017-01-19" />
		<tag k="ssr:stedsnr" v="146297" />
	</node>
	<node id="-54578" lat="59.1396305557" lon="10.2888527859">
		<tag k="name" v="Arnfinntangen" />
		<tag k="natural" v="cape" />
		<tag k="place" v="locality" />
		<tag k="ssr:date" v="2017-01-19" />
		<tag k="ssr:stedsnr" v="146255" />
	</node>
	<node id="-54577" lat="59.1306694442" lon="10.2944555479">
		<tag k="fixme" v="consider seamark:type=rock" />
		<tag k="name" v="Trondskjæra" />
		<tag k="natural" v="islet" />
		<tag k="ssr:date" v="2017-01-19" />
		<tag k="ssr:stedsnr" v="146240" />
	</node>
	<node id="-54572" lat="59.0495777746" lon="10.278152769">
		<tag k="name" v="Fruvika" />
		<tag k="natural" v="bay" />
		<tag k="ssr:date" v="2017-01-19" />
		<tag k="ssr:stedsnr" v="145308" />
	</node>
	<node id="-54569" lat="59.0780888912" lon="10.3077055516">
		<tag k="fixme" v="consider seamark:type=rock" />
		<tag k="name" v="Selskjæret" />
		<tag k="natural" v="islet" />
		<tag k="ssr:date" v="2017-01-19" />
		<tag k="ssr:stedsnr" v="145278" />
	</node>
	<node id="-56604" lat="59.0854444441" lon="10.252249995">
		<tag k="name" v="Buerbåen" />
		<tag k="natural" v="shoal" />
		<tag k="place" v="locality" />
		<tag k="ssr:date" v="2017-01-19" />
		<tag k="ssr:stedsnr" v="783759" />
	</node>
	<node id="-56583" lat="59.1517833357" lon="10.3226305636">
		<tag k="name" v="Store Verksholmen" />
		<tag k="place" v="islet" />
		<tag k="ssr:date" v="2017-01-19" />
		<tag k="ssr:stedsnr" v="756045" />
	</node>
	<node id="-54510" lat="59.0765805557" lon="10.2374555528">
		<tag k="ssr:gml_id" v="GEOMETRY_5fc07b0a-da20-4650-9fcf-ba367929e088" />
		<tag k="ssr:gml_nr" v="3" />
	</node>
	<node id="-54509" lat="59.0768055529" lon="10.2374055547">
		<tag k="ssr:gml_id" v="GEOMETRY_3f7cc256-4e68-4439-8786-c536ad49e61e" />
		<tag k="ssr:gml_nr" v="2" />
	</node>
	<node id="-54508" lat="59.0768083375" lon="10.2374083417">
		<tag k="ssr:gml_id" v="GEOMETRY_3c63afd9-1d82-49cc-9e65-589c4d162865" />
		<tag k="ssr:gml_nr" v="1" />
	</node>
	<node id="-54507" lat="59.0786111093" lon="10.2374083305">
		<tag k="ssr:gml_id" v="GEOMETRY_428cba6b-bca4-4d68-9fd8-072240dbad82" />
		<tag k="ssr:gml_nr" v="0" />
	</node>
	<node id="-54506" lat="59.0748361105" lon="10.2218111068">
		<tag k="ssr:gml_id" v="GEOMETRY_25015e80-53e3-4a0a-8358-8f8a3bd86121" />
		<tag k="ssr:gml_nr" v="4" />
	</node>
	<node id="-54505" lat="59.0759333328" lon="10.2200222279">
		<tag k="ssr:gml_id" v="GEOMETRY_4b1ca05d-1b1a-4ee9-a668-4a064c468a89" />
		<tag k="ssr:gml_nr" v="3" />
	</node>
	<node id="-54504" lat="59.0784666664" lon="10.2245972143">
		<tag k="ssr:gml_id" v="GEOMETRY_e83c1777-f430-4473-998d-5a6289fbf208" />
		<tag k="ssr:gml_nr" v="2" />
	</node>
	<node id="-54503" lat="59.0748333343" lon="10.221808339">
		<tag k="ssr:gml_id" v="GEOMETRY_23541559-eafa-43fd-9834-4159faf98d72" />
		<tag k="ssr:gml_nr" v="1" />
	</node>
	<node id="-54502" lat="59.0748305583" lon="10.2218055538">
		<tag k="ssr:gml_id" v="GEOMETRY_a4643bfc-f731-46f4-8673-4151c02b24ae" />
		<tag k="ssr:gml_nr" v="0" />
	</node>
	<node id="-54497" lat="59.1149555568" lon="10.2672055623">
		<tag k="ssr:gml_id" v="GEOMETRY_cdc7461c-d410-40bd-bfb5-bf3b7436e092" />
		<tag k="ssr:gml_nr" v="2" />
	</node>
	<node id="-54496" lat="59.1143277741" lon="10.2661416592">
		<tag k="ssr:gml_id" v="GEOMETRY_95f31e62-33da-49d2-a59c-bef8d2f193e0" />
		<tag k="ssr:gml_nr" v="1" />
	</node>
	<node id="-54495" lat="59.1143305581" lon="10.2661444516">
		<tag k="ssr:gml_id" v="GEOMETRY_d5f7b827-d4e2-4a89-b021-9a592dff8917" />
		<tag k="ssr:gml_nr" v="0" />
	</node>
	<node id="-54480" lat="59.0532194401" lon="10.2987500036">
		<tag k="ssr:gml_id" v="GEOMETRY_15388cd2-e03b-4ef7-a6d2-0576a12a341f" />
		<tag k="ssr:gml_nr" v="2" />
	</node>
	<node id="-54479" lat="59.0531499981" lon="10.2988500034">
		<tag k="ssr:gml_id" v="GEOMETRY_49dbfe2d-4ed9-4a12-b2da-eebb4fe78076" />
		<tag k="ssr:gml_nr" v="1" />
	</node>
	<node id="-54478" lat="59.0531527734" lon="10.2988500036">
		<tag k="ssr:gml_id" v="GEOMETRY_f8199d73-1118-470c-afb5-509dfff38223" />
		<tag k="ssr:gml_nr" v="0" />
	</node>
	<node id="-54477" lat="59.0467972202" lon="10.2687166745">
		<tag k="ssr:gml_id" v="GEOMETRY_fee694b3-a9ac-440e-af84-94fa12daac85" />
		<tag k="ssr:gml_nr" v="3" />
	</node>
	<node id="-54476" lat="59.0463555531" lon="10.2686722256">
		<tag k="ssr:gml_id" v="GEOMETRY_c0eb4718-089f-427d-b634-46c34ba1757b" />
		<tag k="ssr:gml_nr" v="2" />
	</node>
	<node id="-54475" lat="59.0467888859" lon="10.268711103">
		<tag k="ssr:gml_id" v="GEOMETRY_f4a0377c-c756-4f83-a450-5b952d085500" />
		<tag k="ssr:gml_nr" v="1" />
	</node>
	<node id="-54474" lat="59.046794445" lon="10.2687166594">
		<tag k="ssr:gml_id" v="GEOMETRY_3829f869-10d9-4024-8b7c-2a868d73db78" />
		<tag k="ssr:gml_nr" v="0" />
	</node>
	<node id="-55159" lat="59.1165305542" lon="10.2921527797">
		<tag k="ssr:gml_id" v="GEOMETRY_82f84bc1-6bc5-4037-92f3-91476f7a31d4" />
		<tag k="ssr:gml_nr" v="2" />
	</node>
	<node id="-55158" lat="59.1160944472" lon="10.2914305516">
		<tag k="ssr:gml_id" v="GEOMETRY_99535c7b-942f-449b-9375-52be15bdcf65" />
		<tag k="ssr:gml_nr" v="1" />
	</node>
	<node id="-54465" lat="59.0876416656" lon="10.2206222168">
		<tag k="ssr:gml_id" v="GEOMETRY_333fd7fe-cb8b-43a6-925b-ce4dc6aa72b3" />
		<tag k="ssr:gml_nr" v="3" />
	</node>
	<node id="-54464" lat="59.0883111152" lon="10.2217972214">
		<tag k="ssr:gml_id" v="GEOMETRY_3e7815fa-b49a-4211-b9f8-337abc5204b8" />
		<tag k="ssr:gml_nr" v="2" />
	</node>
	<node id="-54463" lat="59.0883138912" lon="10.2218000078">
		<tag k="ssr:gml_id" v="GEOMETRY_86debcb0-18d5-4dac-a755-292d048776ea" />
		<tag k="ssr:gml_nr" v="1" />
	</node>
	<node id="-54462" lat="59.0883138923" lon="10.2208333414">
		<tag k="ssr:gml_id" v="GEOMETRY_e68ba360-e034-4189-bd22-3873ef9d2879" />
		<tag k="ssr:gml_nr" v="0" />
	</node>
	<node id="-54461" lat="59.1006055592" lon="10.2413055512">
		<tag k="ssr:gml_id" v="GEOMETRY_1fb2c9fe-02d3-4152-a2e5-54d7838df4e9" />
		<tag k="ssr:gml_nr" v="4" />
	</node>
	<node id="-56508" lat="59.0809972264" lon="10.3471194526">
		<tag k="name" v="Treidebåene" />
		<tag k="natural" v="shoal" />
		<tag k="place" v="locality" />
		<tag k="ssr:date" v="2017-01-19" />
		<tag k="ssr:stedsnr" v="754988" />
	</node>
	<node id="-54459" lat="59.10141667" lon="10.2411111118">
		<tag k="ssr:gml_id" v="GEOMETRY_8f246cc9-62c4-4e8b-a704-6b4c795c980f" />
		<tag k="ssr:gml_nr" v="2" />
	</node>
	<node id="-54458" lat="59.0966555538" lon="10.241016664">
		<tag k="ssr:gml_id" v="GEOMETRY_759b7dae-191a-49f4-97c3-7745693f1206" />
		<tag k="ssr:gml_nr" v="1" />
	</node>
	<node id="-56505" lat="59.0562666647" lon="10.2926361057">
		<tag k="ssr:gml_id" v="GEOMETRY_30739e76-475f-4dec-b8be-1a591f4371bd" />
		<tag k="ssr:gml_nr" v="2" />
	</node>
	<node id="-56504" lat="59.0562694481" lon="10.2926388955">
		<tag k="ssr:gml_id" v="GEOMETRY_75b80d33-b623-4f02-bcff-d17f764947bf" />
		<tag k="ssr:gml_nr" v="1" />
	</node>
	<node id="-56503" lat="59.0562722228" lon="10.2926416675">
		<tag k="ssr:gml_id" v="GEOMETRY_e8fde9e9-9716-480f-9bd3-8cc1cb2e59cb" />
		<tag k="ssr:gml_nr" v="0" />
	</node>
	<node id="-54444" lat="59.0877777798" lon="10.2388888817">
		<tag k="name" v="Krakken" />
		<tag k="place" v="locality" />
		<tag k="ssr:date" v="2017-01-19" />
		<tag k="ssr:stedsnr" v="119781" />
	</node>
	<node id="-54443" lat="59.0924999969" lon="10.2216666678">
		<tag k="name" v="Berganbukta" />
		<tag k="natural" v="bay" />
		<tag k="ssr:date" v="2017-01-19" />
		<tag k="ssr:stedsnr" v="118551" />
	</node>
	<node id="-54442" lat="59.0947222237" lon="10.2544444423">
		<tag k="name" v="Vaholmen" />
		<tag k="place" v="islet" />
		<tag k="ssr:date" v="2017-01-19" />
		<tag k="ssr:stedsnr" v="116743" />
	</node>
	<node id="-54812" lat="59.1457416679" lon="10.3277527831">
		<tag k="fixme" v="consider seamark:type=rock" />
		<tag k="name" v="Pikeskjæret" />
		<tag k="natural" v="islet" />
		<tag k="ssr:date" v="2017-01-19" />
		<tag k="ssr:stedsnr" v="207281" />
	</node>
	<node id="-56481" lat="59.1284805586" lon="10.3152916664">
		<tag k="name" v="Innsjøen" />
		<tag k="natural" v="bay" />
		<tag k="ssr:date" v="2017-01-19" />
		<tag k="ssr:stedsnr" v="753217" />
	</node>
	<node id="-56478" lat="59.0883361134" lon="10.2878944377">
		<tag k="name" v="Berganholmen" />
		<tag k="place" v="islet" />
		<tag k="ssr:date" v="2017-01-19" />
		<tag k="ssr:stedsnr" v="752928" />
	</node>
	<node id="-56477" lat="59.0761833378" lon="10.3113833351">
		<tag k="name" v="Havneholmen" />
		<tag k="place" v="islet" />
		<tag k="ssr:date" v="2017-01-19" />
		<tag k="ssr:stedsnr" v="752310" />
	</node>
	<node id="-56470" lat="59.1368111093" lon="10.3084305494">
		<tag k="name" v="Klopplokkilen" />
		<tag k="natural" v="bay" />
		<tag k="ssr:date" v="2017-01-19" />
		<tag k="ssr:stedsnr" v="752240" />
	</node>
	<node id="-56469" lat="59.1208722229" lon="10.3127416677">
		<tag k="fixme" v="consider seamark:type=rock" />
		<tag k="name" v="Langeskjæret" />
		<tag k="natural" v="islet" />
		<tag k="ssr:date" v="2017-01-19" />
		<tag k="ssr:stedsnr" v="752223" />
	</node>
	<node id="-54460" lat="59.0966527781" lon="10.2410138928">
		<tag k="ssr:gml_id" v="GEOMETRY_9615d47b-9a5d-41dd-a298-f52d14e0079f" />
		<tag k="ssr:gml_nr" v="3" />
	</node>
	<node id="-54359" lat="59.096587499" lon="10.2483300193">
		<tag k="name" v="Tangen" />
		<tag k="natural" v="cape" />
		<tag k="place" v="locality" />
		<tag k="ssr:date" v="2018-03-13" />
		<tag k="ssr:stedsnr" v="87289" />
	</node>
	<node id="-54457" lat="59.0966555546" lon="10.2400000082">
		<tag k="ssr:gml_id" v="GEOMETRY_55ad436f-f3b3-49ec-aede-b7768c55f020" />
		<tag k="ssr:gml_nr" v="0" />
	</node>
	<node id="-56401" lat="59.0832555522" lon="10.2894916587">
		<tag k="ssr:gml_id" v="GEOMETRY_cfa05a87-5bbb-4c9d-99d5-3939bf6738da" />
		<tag k="ssr:gml_nr" v="3" />
	</node>
	<node id="-56400" lat="59.0811305517" lon="10.2900027728">
		<tag k="ssr:gml_id" v="GEOMETRY_27f5a20f-0434-485a-ac79-566195bd83e8" />
		<tag k="ssr:gml_nr" v="2" />
	</node>
	<node id="-56399" lat="59.0816055529" lon="10.2914083296">
		<tag k="ssr:gml_id" v="GEOMETRY_390566c7-dcac-459e-a2fd-79085dd079bc" />
		<tag k="ssr:gml_nr" v="1" />
	</node>
	<node id="-56398" lat="59.0816027782" lon="10.2914055557">
		<tag k="ssr:gml_id" v="GEOMETRY_8b02701c-42c5-49ad-b04b-226541a019df" />
		<tag k="ssr:gml_nr" v="0" />
	</node>
	<node id="-56397" lat="59.1005027807" lon="10.3268250014">
		<tag k="ssr:gml_id" v="GEOMETRY_87df62d0-0b56-46af-be94-a7da7d5c7747" />
		<tag k="ssr:gml_nr" v="2" />
	</node>
	<node id="-54348" lat="59.0588833342" lon="10.2972111135">
		<tag k="name" v="Torsholmen" />
		<tag k="place" v="islet" />
		<tag k="ssr:date" v="2017-01-19" />
		<tag k="ssr:stedsnr" v="85279" />
	</node>
	<node id="-56395" lat="59.1005083374" lon="10.3268305585">
		<tag k="ssr:gml_id" v="GEOMETRY_bfe2740f-d519-414a-9623-d40cf5781b8c" />
		<tag k="ssr:gml_nr" v="0" />
	</node>
	<node id="-54344" lat="59.1276166627" lon="10.3260055567">
		<tag k="name" v="Furuvika" />
		<tag k="natural" v="bay" />
		<tag k="ssr:date" v="2017-01-19" />
		<tag k="ssr:stedsnr" v="85207" />
	</node>
	<node id="-56391" lat="59.2077611126" lon="10.3472333405">
		<tag k="ssr:gml_id" v="GEOMETRY_cdb78dc4-1fef-42e8-b64c-346723032f9e" />
		<tag k="ssr:gml_nr" v="2" />
	</node>
	<node id="-56390" lat="59.2077777801" lon="10.3473999916">
		<tag k="ssr:gml_id" v="GEOMETRY_0719e1a7-2872-416b-9d8c-6284871aca4f" />
		<tag k="ssr:gml_nr" v="1" />
	</node>
	<node id="-56389" lat="59.2077749957" lon="10.3474000045">
		<tag k="ssr:gml_id" v="GEOMETRY_8887da89-d2bb-41a2-b9cd-ae92dbf56347" />
		<tag k="ssr:gml_nr" v="0" />
	</node>
	<node id="-56386" lat="59.2188083338" lon="10.3395138926">
		<tag k="ssr:gml_id" v="GEOMETRY_1e1b5f36-80a8-47d6-bf45-1528799f527c" />
		<tag k="ssr:gml_nr" v="2" />
	</node>
	<node id="-56385" lat="59.2152777814" lon="10.3471138942">
		<tag k="ssr:gml_id" v="GEOMETRY_39fec595-a71d-4139-9891-07ff079e8e27" />
		<tag k="ssr:gml_nr" v="1" />
	</node>
	<node id="-56384" lat="59.2152749991" lon="10.3471111044">
		<tag k="ssr:gml_id" v="GEOMETRY_cfc51737-477d-4d6f-8a20-f93b6eb3a93c" />
		<tag k="ssr:gml_nr" v="0" />
	</node>
	<node id="-56379" lat="59.0910749985" lon="10.2309555635">
		<tag k="ssr:gml_id" v="GEOMETRY_fba8da3f-6179-4d86-a03d-d6cc527e926f" />
		<tag k="ssr:gml_nr" v="1" />
	</node>
	<node id="-56378" lat="59.0910749981" lon="10.2309527709">
		<tag k="ssr:gml_id" v="GEOMETRY_d90f3686-2737-479f-9b25-f95fb96f6add" />
		<tag k="ssr:gml_nr" v="0" />
	</node>
	<node id="-54298" lat="59.0869583317" lon="10.3458805496">
		<tag k="ssr:gml_id" v="GEOMETRY_f35b4f64-75c2-4470-a4f3-125dd9687f8f" />
		<tag k="ssr:gml_nr" v="2" />
	</node>
	<node id="-54297" lat="59.086566668" lon="10.3463972289">
		<tag k="ssr:gml_id" v="GEOMETRY_b1ee0ecc-ea2a-4772-ac81-f55b7b316d39" />
		<tag k="ssr:gml_nr" v="1" />
	</node>
	<node id="-54296" lat="59.0865222206" lon="10.3479305489">
		<tag k="ssr:gml_id" v="GEOMETRY_129b2177-f369-41dc-8310-d5e90c655445" />
		<tag k="ssr:gml_nr" v="0" />
	</node>
	<node id="-56336" lat="59.081499996" lon="10.2325666674">
		<tag k="name" v="Vassholmen" />
		<tag k="place" v="islet" />
		<tag k="ssr:date" v="2017-01-19" />
		<tag k="ssr:stedsnr" v="695743" />
	</node>
	<node id="-56332" lat="59.1218805547" lon="10.2661833253">
		<tag k="bay" v="fjord" />
		<tag k="name" v="Mefjorden" />
		<tag k="natural" v="bay" />
		<tag k="ssr:date" v="2017-01-19" />
		<tag k="ssr:stedsnr" v="695715" />
	</node>
	<node id="-56327" lat="59.0900361089" lon="10.2473222158">
		<tag k="ssr:gml_id" v="GEOMETRY_311abfb9-a01a-4b72-bcaa-4a5ddd7721a3" />
		<tag k="ssr:gml_nr" v="1" />
	</node>
	<node id="-56326" lat="59.0916666698" lon="10.2441666634">
		<tag k="ssr:gml_id" v="GEOMETRY_17a0df16-c523-415d-b5a4-e4ab5a9a8e10" />
		<tag k="ssr:gml_nr" v="0" />
	</node>
	<node id="-56323" lat="59.0846472221" lon="10.2286611113">
		<tag k="name" v="Vestre Furuholmen" />
		<tag k="place" v="islet" />
		<tag k="ssr:date" v="2017-01-19" />
		<tag k="ssr:stedsnr" v="695553" />
	</node>
	<node id="-56322" lat="59.0933777766" lon="10.2301833385">
		<tag k="name" v="Hystadtredelen" />
		<tag k="natural" v="bay" />
		<tag k="ssr:date" v="2017-01-19" />
		<tag k="ssr:stedsnr" v="695547" />
	</node>
	<node id="-56321" lat="59.0821083332" lon="10.2585555539">
		<tag k="fixme" v="consider seamark:type=rock" />
		<tag k="name" v="Dynga" />
		<tag k="natural" v="islet" />
		<tag k="ssr:date" v="2017-01-19" />
		<tag k="ssr:stedsnr" v="695548" />
	</node>
	<node id="-54259" lat="59.0415194439" lon="10.2698611098">
		<tag k="ssr:gml_id" v="GEOMETRY_8a98dbc2-d135-4634-adec-604b3e96dac9" />
		<tag k="ssr:gml_nr" v="2" />
	</node>
	<node id="-54258" lat="59.0428277811" lon="10.271844437">
		<tag k="ssr:gml_id" v="GEOMETRY_e2b4affb-2bb1-4fa3-8b22-f82b9213d2e3" />
		<tag k="ssr:gml_nr" v="1" />
	</node>
	<node id="-54257" lat="59.042824997" lon="10.2718416675">
		<tag k="ssr:gml_id" v="GEOMETRY_d43de791-3baf-44d8-a540-cb169ee07b2e" />
		<tag k="ssr:gml_nr" v="0" />
	</node>
	<node id="-56285" lat="59.0972749997" lon="10.2511444514">
		<tag k="name" v="Tangenbukta" />
		<tag k="natural" v="bay" />
		<tag k="ssr:date" v="2017-01-19" />
		<tag k="ssr:stedsnr" v="694506" />
	</node>
	<node id="-54236" lat="59.1054138889" lon="10.2290611135">
		<tag k="ssr:gml_id" v="GEOMETRY_4c6ad15b-9639-4518-bbf0-a44b413fe9b3" />
		<tag k="ssr:gml_nr" v="6" />
	</node>
	<node id="-54235" lat="59.124447223" lon="10.2261249984">
		<tag k="ssr:gml_id" v="GEOMETRY_31ecdfca-1c7c-4414-9a88-76c80ff2db3f" />
		<tag k="ssr:gml_nr" v="5" />
	</node>
	<node id="-54234" lat="59.0842194422" lon="10.2415416627">
		<tag k="ssr:gml_id" v="GEOMETRY_0fe36042-a99e-42c8-a912-eb716e44140d" />
		<tag k="ssr:gml_nr" v="4" />
	</node>
	<node id="-54233" lat="59.0666999995" lon="10.2453916669">
		<tag k="ssr:gml_id" v="GEOMETRY_bd0c6d43-2b6b-4514-a0b2-4058968490cc" />
		<tag k="ssr:gml_nr" v="3" />
	</node>
	<node id="-54232" lat="59.0647250007" lon="10.2397277808">
		<tag k="ssr:gml_id" v="GEOMETRY_c6a51839-0b91-48c6-ac06-f15e16de6b16" />
		<tag k="ssr:gml_nr" v="2" />
	</node>
	<node id="-54231" lat="59.0666999998" lon="10.2453944401">
		<tag k="ssr:gml_id" v="GEOMETRY_a7182333-7df9-4727-9cde-d53d501c1360" />
		<tag k="ssr:gml_nr" v="1" />
	</node>
	<node id="-54230" lat="59.0813888852" lon="10.2399999924">
		<tag k="ssr:gml_id" v="GEOMETRY_e8bc6333-ac6c-4f84-85fa-483a6a2dfcd7" />
		<tag k="ssr:gml_nr" v="0" />
	</node>
	<node id="-56266" lat="59.1959916656" lon="10.3308083267">
		<tag k="name" v="Storevarstranda" />
		<tag k="natural" v="beach" />
		<tag k="place" v="locality" />
		<tag k="ssr:date" v="2017-01-19" />
		<tag k="ssr:stedsnr" v="692442" />
	</node>
	<node id="-54217" lat="59.0763027743" lon="10.314786105">
		<tag k="ssr:gml_id" v="GEOMETRY_6ba19ee9-8e1f-4895-bffa-c77fd4313b6d" />
		<tag k="ssr:gml_nr" v="2" />
	</node>
	<node id="-54216" lat="59.0762444459" lon="10.3145833269">
		<tag k="ssr:gml_id" v="GEOMETRY_a1f1297e-69ce-44ca-b4a8-1c3ec83b4562" />
		<tag k="ssr:gml_nr" v="1" />
	</node>
	<node id="-54215" lat="59.0762416628" lon="10.3145805511">
		<tag k="ssr:gml_id" v="GEOMETRY_5c7d8265-ba79-4f06-a187-45304b54bf56" />
		<tag k="ssr:gml_nr" v="0" />
	</node>
	<node id="-56261" lat="59.1279361089" lon="10.3249861169">
		<tag k="fixme" v="consider seamark:type=rock" />
		<tag k="name" v="Skuteskjæret" />
		<tag k="natural" v="islet" />
		<tag k="ssr:date" v="2017-01-19" />
		<tag k="ssr:stedsnr" v="692233" />
	</node>
	<node id="-54204" lat="59.0897222191" lon="10.2552777718">
		<tag k="name" v="Buerlandet" />
		<tag k="natural" v="beach" />
		<tag k="place" v="locality" />
		<tag k="ssr:date" v="2017-01-19" />
		<tag k="ssr:stedsnr" v="55732" />
	</node>
	<node id="-54199" lat="59.0933611114" lon="10.2495833305">
		<tag k="name" v="Sandholmen" />
		<tag k="place" v="islet" />
		<tag k="ssr:date" v="2017-01-19" />
		<tag k="ssr:stedsnr" v="40293" />
	</node>
	<node id="-54192" lat="59.118350004" lon="10.224172218">
		<tag k="ssr:gml_id" v="GEOMETRY_43c29504-963c-49de-bb8f-5ed44624ec46" />
		<tag k="ssr:gml_nr" v="1" />
	</node>
	<node id="-54191" lat="59.1188888908" lon="10.2236111042">
		<tag k="ssr:gml_id" v="GEOMETRY_341ec7a1-5ed0-4259-bb1a-a87ab6a42f69" />
		<tag k="ssr:gml_nr" v="0" />
	</node>
	<node id="-54190" lat="59.0996888904" lon="10.2295861171">
		<tag k="name" v="Løkholmen" />
		<tag k="place" v="islet" />
		<tag k="ssr:date" v="2017-01-19" />
		<tag k="ssr:stedsnr" v="28571" />
	</node>
	<node id="-54189" lat="59.1018416627" lon="10.2263444381">
		<tag k="ssr:gml_id" v="GEOMETRY_dc15db3e-911f-44d3-8a80-baad19f1d1ac" />
		<tag k="ssr:gml_nr" v="1" />
	</node>
	<node id="-54188" lat="59.1008333319" lon="10.2233333338">
		<tag k="ssr:gml_id" v="GEOMETRY_770c06d2-00b6-425a-b911-dc57e9074fcc" />
		<tag k="ssr:gml_nr" v="0" />
	</node>
	<node id="-54169" lat="59.057836108" lon="10.2616833371">
		<tag k="name" v="Rørvikholmen" />
		<tag k="place" v="islet" />
		<tag k="ssr:date" v="2017-01-19" />
		<tag k="ssr:stedsnr" v="27636" />
	</node>
	<node id="-54165" lat="59.0862361128" lon="10.22881945">
		<tag k="name" v="Garnholmen" />
		<tag k="place" v="islet" />
		<tag k="ssr:date" v="2017-01-19" />
		<tag k="ssr:stedsnr" v="27555" />
	</node>
	<node id="-56211" lat="59.0575055554" lon="10.3041722294">
		<tag k="ssr:gml_id" v="GEOMETRY_ecb5e1b4-c649-428d-b85d-9c5afbb5a63a" />
		<tag k="ssr:gml_nr" v="2" />
	</node>
	<node id="-56210" lat="59.0560611148" lon="10.3057055498">
		<tag k="ssr:gml_id" v="GEOMETRY_1922bcc3-9bd0-41ea-a9af-f41eec978383" />
		<tag k="ssr:gml_nr" v="1" />
	</node>
	<node id="-56209" lat="59.0560583315" lon="10.3057027764">
		<tag k="ssr:gml_id" v="GEOMETRY_3ba04847-8974-460c-8def-f0064ecf3ae5" />
		<tag k="ssr:gml_nr" v="0" />
	</node>
	<node id="-56208" lat="59.0591361091" lon="10.2628333344">
		<tag k="ssr:gml_id" v="GEOMETRY_6982e339-ed77-42da-880e-8d89e042d43e" />
		<tag k="ssr:gml_nr" v="2" />
	</node>
	<node id="-56207" lat="59.0588638886" lon="10.2622694395">
		<tag k="ssr:gml_id" v="GEOMETRY_20144b46-5e3f-44a8-a377-1506cfd0de95" />
		<tag k="ssr:gml_nr" v="1" />
	</node>
	<node id="-56206" lat="59.0588611133" lon="10.2622666697">
		<tag k="ssr:gml_id" v="GEOMETRY_c767f8a4-dd3c-4ff5-950f-a9217bf856b0" />
		<tag k="ssr:gml_nr" v="0" />
	</node>
	<node id="-54146" lat="59.0943388911" lon="10.2492944511">
		<tag k="name" v="Kjerkesundet" />
		<tag k="natural" v="strait" />
		<tag k="place" v="locality" />
		<tag k="ssr:date" v="2017-01-19" />
		<tag k="ssr:stedsnr" v="27552" />
	</node>
	<node id="-54131" lat="59.0711916666" lon="10.2772166697">
		<tag k="ssr:gml_id" v="GEOMETRY_a069d4aa-546e-4396-a35a-8a07dc0bf9d2" />
		<tag k="ssr:gml_nr" v="2" />
	</node>
	<node id="-54130" lat="59.0711944415" lon="10.2772194417">
		<tag k="ssr:gml_id" v="GEOMETRY_d40bb2bc-9a2a-4c35-b79e-ba40cecf860e" />
		<tag k="ssr:gml_nr" v="1" />
	</node>
	<node id="-54129" lat="59.0711972255" lon="10.277222214">
		<tag k="ssr:gml_id" v="GEOMETRY_a530d9a9-1110-4a7e-910d-678733c901aa" />
		<tag k="ssr:gml_nr" v="0" />
	</node>
	<node id="-54091" lat="59.062291667" lon="10.2806166614">
		<tag k="fixme" v="consider seamark:type=rock" />
		<tag k="name" v="Fluene" />
		<tag k="natural" v="islet" />
		<tag k="ssr:date" v="2017-01-19" />
		<tag k="ssr:stedsnr" v="24332" />
	</node>
	<node id="-54089" lat="59.0655472189" lon="10.2720777746">
		<tag k="fixme" v="consider seamark:type=rock" />
		<tag k="name" v="Båtskjæret" />
		<tag k="natural" v="islet" />
		<tag k="ssr:date" v="2017-01-19" />
		<tag k="ssr:stedsnr" v="24322" />
	</node>
	<node id="-56135" lat="59.1269444461" lon="10.2408333274">
		<tag k="name" v="Kamfjordkilen" />
		<tag k="natural" v="bay" />
		<tag k="ssr:date" v="2017-01-19" />
		<tag k="ssr:stedsnr" v="666592" />
	</node>
	<node id="-56134" lat="59.0811111144" lon="10.2211111189">
		<tag k="fixme" v="consider seamark:type=rock" />
		<tag k="name" v="Vannøyskjæra" />
		<tag k="natural" v="islet" />
		<tag k="ssr:date" v="2017-01-19" />
		<tag k="ssr:stedsnr" v="663561" />
	</node>
	<node id="-56127" lat="59.1116666702" lon="10.2294444437">
		<tag k="name" v="Langestrandsbåen" />
		<tag k="natural" v="shoal" />
		<tag k="place" v="locality" />
		<tag k="ssr:date" v="2017-01-19" />
		<tag k="ssr:stedsnr" v="646596" />
	</node>
	<node id="-56123" lat="59.103294444" lon="10.2398666633">
		<tag k="name" v="Roabukta" />
		<tag k="natural" v="bay" />
		<tag k="ssr:date" v="2017-01-19" />
		<tag k="ssr:stedsnr" v="634598" />
	</node>
	<node id="-56117" lat="59.0257972181" lon="10.2994916718">
		<tag k="name" v="Gjekstadkultene" />
		<tag k="natural" v="shoal" />
		<tag k="place" v="locality" />
		<tag k="ssr:date" v="2017-01-19" />
		<tag k="ssr:stedsnr" v="633968" />
	</node>
	<node id="-53724" lat="59.1082777811" lon="10.2744944427">
		<tag k="ssr:gml_id" v="GEOMETRY_ceb216f3-0e5e-4c01-b567-74d53e8c9d77" />
		<tag k="ssr:gml_nr" v="1" />
	</node>
	<node id="-56097" lat="59.0800750012" lon="10.2603750074">
		<tag k="name" v="Båtholmen" />
		<tag k="place" v="islet" />
		<tag k="ssr:date" v="2017-01-19" />
		<tag k="ssr:stedsnr" v="633765" />
	</node>
	<node id="-54924" lat="59.2442194475" lon="10.3747500013">
		<tag k="name" v="Sjustokkdynga" />
		<tag k="natural" v="shoal" />
		<tag k="place" v="locality" />
		<tag k="ssr:date" v="2017-01-19" />
		<tag k="ssr:stedsnr" v="238833" />
	</node>
	<node id="-56082" lat="59.0824833309" lon="10.2585694425">
		<tag k="fixme" v="consider seamark:type=rock" />
		<tag k="name" v="Røysa" />
		<tag k="natural" v="islet" />
		<tag k="ssr:date" v="2017-01-19" />
		<tag k="ssr:stedsnr" v="633561" />
	</node>
	<node id="-56081" lat="59.0955361146" lon="10.2267000044">
		<tag k="name" v="Hober" />
		<tag k="natural" v="beach" />
		<tag k="place" v="locality" />
		<tag k="ssr:date" v="2017-01-19" />
		<tag k="ssr:stedsnr" v="633552" />
	</node>
	<node id="-57132" lat="59.0540833321" lon="10.3022611081">
		<tag k="ssr:gml_id" v="GEOMETRY_daa986f5-c94b-48d9-95b7-74d1717d674b" />
		<tag k="ssr:gml_nr" v="2" />
	</node>
	<node id="-54742" lat="59.0550138863" lon="10.280974994">
		<tag k="ssr:gml_id" v="GEOMETRY_524e7fd9-d4a3-434e-b401-967a064b2305" />
		<tag k="ssr:gml_nr" v="0" />
	</node>
	<node id="-56050" lat="59.063422219" lon="10.2445138853">
		<tag k="name" v="Håholmbåene" />
		<tag k="natural" v="shoal" />
		<tag k="place" v="locality" />
		<tag k="ssr:date" v="2017-01-19" />
		<tag k="ssr:stedsnr" v="632851" />
	</node>
	<node id="-56040" lat="59.0944499999" lon="10.2895527826">
		<tag k="fixme" v="consider seamark:type=rock" />
		<tag k="name" v="Kvernhusskjær" />
		<tag k="natural" v="islet" />
		<tag k="ssr:date" v="2017-01-19" />
		<tag k="ssr:stedsnr" v="631273" />
	</node>
	<node id="-56037" lat="59.1238472179" lon="10.3252638901">
		<tag k="name" v="Sandbukta" />
		<tag k="natural" v="bay" />
		<tag k="ssr:date" v="2017-01-19" />
		<tag k="ssr:stedsnr" v="631230" />
	</node>
	<node id="-57123" lat="59.0616777798" lon="10.2948444419">
		<tag k="ssr:gml_id" v="GEOMETRY_fcf581e7-a13c-4824-a569-fe1f2831c5da" />
		<tag k="ssr:gml_nr" v="0" />
	</node>
	<node id="-53967" lat="59.1929944441" lon="10.3413027731">
		<tag k="ssr:gml_id" v="GEOMETRY_695868af-927e-47a4-8e1c-c1ffd2fa975f" />
		<tag k="ssr:gml_nr" v="4" />
	</node>
	<node id="-53966" lat="59.1942722206" lon="10.3398805637">
		<tag k="ssr:gml_id" v="GEOMETRY_52a912a4-d791-4e19-9362-be47f54565fd" />
		<tag k="ssr:gml_nr" v="3" />
	</node>
	<node id="-53965" lat="59.1922305531" lon="10.343144451">
		<tag k="ssr:gml_id" v="GEOMETRY_e8857e3b-8b5e-4bfc-92f7-d49eb35d4f4c" />
		<tag k="ssr:gml_nr" v="2" />
	</node>
	<node id="-53964" lat="59.1929861091" lon="10.341302779">
		<tag k="ssr:gml_id" v="GEOMETRY_654cbfd2-5164-4d6d-a3c5-08c2eaf71013" />
		<tag k="ssr:gml_nr" v="1" />
	</node>
	<node id="-53963" lat="59.1929861109" lon="10.3412999956">
		<tag k="ssr:gml_id" v="GEOMETRY_2cb5520c-9e70-4b29-aa8d-2fff3c7c7d36" />
		<tag k="ssr:gml_nr" v="0" />
	</node>
	<node id="-53948" lat="59.0830416698" lon="10.231975008">
		<tag k="ssr:gml_id" v="GEOMETRY_f130163d-fbce-40a8-94c5-8509303f137d" />
		<tag k="ssr:gml_nr" v="2" />
	</node>
	<node id="-53947" lat="59.0832083342" lon="10.2318166752">
		<tag k="ssr:gml_id" v="GEOMETRY_d8000154-cfc4-4ba6-8207-61d4c56d9fcc" />
		<tag k="ssr:gml_nr" v="1" />
	</node>
	<node id="-53946" lat="59.0830444451" lon="10.2319750028">
		<tag k="ssr:gml_id" v="GEOMETRY_83f4e3be-d061-41a6-9068-56ccada9e0e3" />
		<tag k="ssr:gml_nr" v="0" />
	</node>
	<node id="-53945" lat="59.0933305586" lon="10.2780250001">
		<tag k="ssr:gml_id" v="GEOMETRY_a8282263-3688-4601-b796-0a2583c1e445" />
		<tag k="ssr:gml_nr" v="3" />
	</node>
	<node id="-53944" lat="59.0911083365" lon="10.2783333415">
		<tag k="ssr:gml_id" v="GEOMETRY_d906011c-1328-441d-8908-6242bc9b4c08" />
		<tag k="ssr:gml_nr" v="2" />
	</node>
	<node id="-53943" lat="59.0933333339" lon="10.2780249986">
		<tag k="ssr:gml_id" v="GEOMETRY_b3b257b7-4893-440b-9d20-038399a0a092" />
		<tag k="ssr:gml_nr" v="1" />
	</node>
	<node id="-53942" lat="59.1061111115" lon="10.2674999948">
		<tag k="ssr:gml_id" v="GEOMETRY_be567e1c-4166-4abb-8a99-ac706f8a3035" />
		<tag k="ssr:gml_nr" v="0" />
	</node>
	<node id="-53926" lat="59.0002416653" lon="10.2858861122">
		<tag k="ssr:gml_id" v="GEOMETRY_af9088b4-f4fd-4e50-bf8a-42a091bc9c1a" />
		<tag k="ssr:gml_nr" v="1" />
	</node>
	<node id="-53925" lat="59.0002388906" lon="10.2858833279">
		<tag k="ssr:gml_id" v="GEOMETRY_46940aa2-665c-40bc-9441-545bcb311955" />
		<tag k="ssr:gml_nr" v="0" />
	</node>
	<node id="-53915" lat="59.1199638891" lon="10.3135388867">
		<tag k="name" v="Langskjær" />
		<tag k="place" v="islet" />
		<tag k="ssr:date" v="2017-01-19" />
		<tag k="ssr:stedsnr" v="267575" />
	</node>
	<node id="-55962" lat="59.1519361097" lon="10.3225611159">
		<tag k="ssr:gml_id" v="GEOMETRY_4d95d6a0-e60d-417a-8710-4a5c1f0dc428" />
		<tag k="ssr:gml_nr" v="3" />
	</node>
	<node id="-55961" lat="59.1524500043" lon="10.322194451">
		<tag k="ssr:gml_id" v="GEOMETRY_7f9a0e70-63ad-4da8-abe4-8d9087640cd7" />
		<tag k="ssr:gml_nr" v="2" />
	</node>
	<node id="-55960" lat="59.1519333358" lon="10.3225583337">
		<tag k="ssr:gml_id" v="GEOMETRY_4bfd5d75-1b05-4b4e-927d-a232f044a132" />
		<tag k="ssr:gml_nr" v="1" />
	</node>
	<node id="-55959" lat="59.1519305529" lon="10.3225555511">
		<tag k="ssr:gml_id" v="GEOMETRY_9f5da3cb-ef8c-4240-83e0-f546c3198c18" />
		<tag k="ssr:gml_nr" v="0" />
	</node>
	<node id="-55951" lat="59.0115861106" lon="10.3242888933">
		<tag k="ssr:gml_id" v="GEOMETRY_6b4f2814-4b5e-4d88-a508-8e17fcd8cfee" />
		<tag k="ssr:gml_nr" v="1" />
	</node>
	<node id="-55950" lat="59.0115833368" lon="10.324286105">
		<tag k="ssr:gml_id" v="GEOMETRY_61f895bf-092b-42db-8ec4-405b8c3a4678" />
		<tag k="ssr:gml_nr" v="0" />
	</node>
	<node id="-55937" lat="59.0712138868" lon="10.2181472191">
		<tag k="ssr:gml_id" v="GEOMETRY_91d56bf9-f7c1-4dea-bfaf-eb15cc93ad3f" />
		<tag k="ssr:gml_nr" v="2" />
	</node>
	<node id="-55936" lat="59.0719888899" lon="10.2169083264">
		<tag k="ssr:gml_id" v="GEOMETRY_ce991ae9-3830-4ed5-bcf7-cb161550901a" />
		<tag k="ssr:gml_nr" v="1" />
	</node>
	<node id="-55935" lat="59.0719861136" lon="10.2169055592">
		<tag k="ssr:gml_id" v="GEOMETRY_8e35d6ab-0b6f-449f-9520-e70aa02841fc" />
		<tag k="ssr:gml_nr" v="0" />
	</node>
	<node id="-55930" lat="59.0720305571" lon="10.2287555536">
		<tag k="ssr:gml_id" v="GEOMETRY_9d63090f-462c-4fdc-bc40-8adfa26a947c" />
		<tag k="ssr:gml_nr" v="2" />
	</node>
	<node id="-55929" lat="59.0726361095" lon="10.2283250006">
		<tag k="ssr:gml_id" v="GEOMETRY_c43af428-ee79-407b-b313-c16fbd9e0339" />
		<tag k="ssr:gml_nr" v="1" />
	</node>
	<node id="-55928" lat="59.0726333336" lon="10.228322215">
		<tag k="ssr:gml_id" v="GEOMETRY_b34c984c-71b1-46f0-8a4e-f05703ed5206" />
		<tag k="ssr:gml_nr" v="0" />
	</node>
	<node id="-55927" lat="59.0790611133" lon="10.3164694403">
		<tag k="ssr:gml_id" v="GEOMETRY_b40f9ea9-9c5e-48f0-8b85-a601dc03c028" />
		<tag k="ssr:gml_nr" v="2" />
	</node>
	<node id="-55926" lat="59.0784888861" lon="10.3165027821">
		<tag k="ssr:gml_id" v="GEOMETRY_8e1adad4-ffb2-4f85-8400-4b317c7e7dc0" />
		<tag k="ssr:gml_nr" v="1" />
	</node>
	<node id="-55925" lat="59.078486112" lon="10.3165000064">
		<tag k="ssr:gml_id" v="GEOMETRY_4c4d803b-3c85-42f0-8c7a-623d3580845a" />
		<tag k="ssr:gml_nr" v="0" />
	</node>
	<node id="-55915" lat="59.0850333347" lon="10.2827027779">
		<tag k="ssr:gml_id" v="GEOMETRY_ff0a5106-9170-4124-99bf-ab9d97c3d0e2" />
		<tag k="ssr:gml_nr" v="2" />
	</node>
	<node id="-55914" lat="59.0846194481" lon="10.2826388871">
		<tag k="ssr:gml_id" v="GEOMETRY_2f69ef5b-2750-4acf-9e0f-7dcb4eea3597" />
		<tag k="ssr:gml_nr" v="1" />
	</node>
	<node id="-55913" lat="59.0846166643" lon="10.2826361133">
		<tag k="ssr:gml_id" v="GEOMETRY_6fb98bf4-d138-426a-adaa-4e266bf23d4f" />
		<tag k="ssr:gml_nr" v="0" />
	</node>
	<node id="-53862" lat="59.0776194435" lon="10.2223638925">
		<tag k="ssr:gml_id" v="GEOMETRY_65045d69-9aa7-4e82-be62-e521004cf205" />
		<tag k="ssr:gml_nr" v="1" />
	</node>
	<node id="-53861" lat="59.0786111132" lon="10.2273611088">
		<tag k="ssr:gml_id" v="GEOMETRY_24321c5b-07f3-4276-830f-10f9df60cc7e" />
		<tag k="ssr:gml_nr" v="0" />
	</node>
	<node id="-55904" lat="59.1092222178" lon="10.2614833318">
		<tag k="ssr:gml_id" v="GEOMETRY_4fa8bfff-15ad-4bf3-8770-978d6e3bcf76" />
		<tag k="ssr:gml_nr" v="2" />
	</node>
	<node id="-55903" lat="59.1087999988" lon="10.262863887">
		<tag k="ssr:gml_id" v="GEOMETRY_40d94450-7b51-4a78-9cc5-3bc6aa871aa8" />
		<tag k="ssr:gml_nr" v="1" />
	</node>
	<node id="-55902" lat="59.108802774" lon="10.2628666609">
		<tag k="ssr:gml_id" v="GEOMETRY_7c02c546-1ee8-4e97-aabf-664812507cab" />
		<tag k="ssr:gml_nr" v="0" />
	</node>
	<node id="-55901" lat="59.2136194411" lon="10.3573472168">
		<tag k="ssr:gml_id" v="GEOMETRY_47e518a1-8899-4c61-9bc7-3817ef722158" />
		<tag k="ssr:gml_nr" v="3" />
	</node>
	<node id="-55900" lat="59.2121972186" lon="10.3577527765">
		<tag k="ssr:gml_id" v="GEOMETRY_9a3cc893-f48e-40ee-94cc-6907deaadca3" />
		<tag k="ssr:gml_nr" v="2" />
	</node>
	<node id="-55899" lat="59.2136277796" lon="10.3573666586">
		<tag k="ssr:gml_id" v="GEOMETRY_d44b1f03-bd5b-4bb0-8880-e11fa07f17e8" />
		<tag k="ssr:gml_nr" v="1" />
	</node>
	<node id="-55898" lat="59.2136249973" lon="10.3573638856">
		<tag k="ssr:gml_id" v="GEOMETRY_16b7aeec-2118-4bff-949d-513ab2f194ac" />
		<tag k="ssr:gml_nr" v="0" />
	</node>
	<node id="-55897" lat="59.1445027743" lon="10.320474999">
		<tag k="ssr:gml_id" v="GEOMETRY_78989a91-d41f-4283-917b-b884888afbf9" />
		<tag k="ssr:gml_nr" v="1" />
	</node>
	<node id="-55896" lat="59.1457499971" lon="10.3215694497">
		<tag k="ssr:gml_id" v="GEOMETRY_960b87c2-0254-455c-a712-b2cbb9aed098" />
		<tag k="ssr:gml_nr" v="0" />
	</node>
	<node id="-53846" lat="59.0867638905" lon="10.2361027805">
		<tag k="fixme" v="consider seamark:type=rock" />
		<tag k="name" v="Fjordbåen" />
		<tag k="natural" v="islet" />
		<tag k="ssr:date" v="2017-01-19" />
		<tag k="ssr:stedsnr" v="391558" />
	</node>
	<node id="-53845" lat="59.0877666631" lon="10.2289555606">
		<tag k="name" v="Fjellholmen" />
		<tag k="place" v="islet" />
		<tag k="ssr:date" v="2017-01-19" />
		<tag k="ssr:stedsnr" v="391556" />
	</node>
	<node id="-53844" lat="59.0888222238" lon="10.2298805507">
		<tag k="name" v="Vestre Bjerkeholmen" />
		<tag k="place" v="islet" />
		<tag k="ssr:date" v="2017-01-19" />
		<tag k="ssr:stedsnr" v="391555" />
	</node>
	<node id="-55870" lat="59.0854305537" lon="10.2228583284">
		<tag k="name" v="Fjøsbåen" />
		<tag k="natural" v="shoal" />
		<tag k="place" v="locality" />
		<tag k="ssr:date" v="2017-01-19" />
		<tag k="ssr:stedsnr" v="601743" />
	</node>
	<node id="-53819" lat="59.0752888919" lon="10.347683339">
		<tag k="name" v="Eksellensebåen" />
		<tag k="natural" v="shoal" />
		<tag k="place" v="locality" />
		<tag k="ssr:date" v="2017-01-19" />
		<tag k="ssr:stedsnr" v="390985" />
	</node>
	<node id="-53808" lat="59.1078888913" lon="10.2789500082">
		<tag k="fixme" v="consider seamark:type=rock" />
		<tag k="name" v="Buskjæret" />
		<tag k="natural" v="islet" />
		<tag k="ssr:date" v="2017-01-19" />
		<tag k="ssr:stedsnr" v="390037" />
	</node>
	<node id="-55389" lat="59.1143555582" lon="10.3100083266">
		<tag k="ssr:gml_id" v="GEOMETRY_8b9ba77d-2531-43ee-9c44-d85bf30ce757" />
		<tag k="ssr:gml_nr" v="2" />
	</node>
	<node id="-55849" lat="59.0761111133" lon="10.2068222245">
		<tag k="bay" v="fjord" />
		<tag k="name" v="Hemskilen" />
		<tag k="natural" v="bay" />
		<tag k="ssr:date" v="2017-01-19" />
		<tag k="ssr:stedsnr" v="573894" />
	</node>
	<node id="-53798" lat="59.1546833292" lon="10.332458337">
		<tag k="name" v="Hesteholmen" />
		<tag k="place" v="islet" />
		<tag k="ssr:date" v="2017-01-19" />
		<tag k="ssr:stedsnr" v="389307" />
	</node>
	<node id="-53797" lat="59.0434527807" lon="10.3341472193">
		<tag k="name" v="Mellomgrunnen" />
		<tag k="natural" v="shoal" />
		<tag k="place" v="locality" />
		<tag k="ssr:date" v="2017-01-19" />
		<tag k="ssr:stedsnr" v="388951" />
	</node>
	<node id="-53796" lat="59.0870166692" lon="10.3297305594">
		<tag k="name" v="Ryggen" />
		<tag k="natural" v="shoal" />
		<tag k="place" v="locality" />
		<tag k="ssr:date" v="2017-01-19" />
		<tag k="ssr:stedsnr" v="388928" />
	</node>
	<node id="-53795" lat="59.1295805529" lon="10.2950333383">
		<tag k="name" v="Trondskjær" />
		<tag k="place" v="islet" />
		<tag k="ssr:date" v="2017-01-19" />
		<tag k="ssr:stedsnr" v="388575" />
	</node>
	<node id="-53794" lat="59.0630750007" lon="10.2739111079">
		<tag k="fixme" v="consider seamark:type=rock" />
		<tag k="name" v="Spellvikskjæret" />
		<tag k="natural" v="islet" />
		<tag k="ssr:date" v="2017-01-19" />
		<tag k="ssr:stedsnr" v="388322" />
	</node>
	<node id="-53793" lat="59.0833527757" lon="10.2890861037">
		<tag k="name" v="Eianholmen" />
		<tag k="place" v="islet" />
		<tag k="ssr:date" v="2017-01-19" />
		<tag k="ssr:stedsnr" v="388280" />
	</node>
	<node id="-53791" lat="59.1325083314" lon="10.3100888921">
		<tag k="fixme" v="consider seamark:type=rock" />
		<tag k="name" v="Båtstadskjæra" />
		<tag k="natural" v="islet" />
		<tag k="ssr:date" v="2017-01-19" />
		<tag k="ssr:stedsnr" v="388214" />
	</node>
	<node id="-55821" lat="59.0549555575" lon="10.2638138849">
		<tag k="fixme" v="consider seamark:type=rock" />
		<tag k="name" v="Blyreva" />
		<tag k="natural" v="islet" />
		<tag k="ssr:date" v="2017-01-19" />
		<tag k="ssr:stedsnr" v="573577" />
	</node>
	<node id="-55795" lat="59.0185805574" lon="10.3027027862">
		<tag k="name" v="Sydvestre" />
		<tag k="natural" v="shoal" />
		<tag k="place" v="locality" />
		<tag k="ssr:date" v="2017-01-19" />
		<tag k="ssr:stedsnr" v="572964" />
	</node>
	<node id="-53739" lat="59.0526916682" lon="10.3295000078">
		<tag k="ssr:gml_id" v="GEOMETRY_72efa0b9-d95d-4ac6-af5d-bf4fa0f9c07d" />
		<tag k="ssr:gml_nr" v="3" />
	</node>
	<node id="-53738" lat="59.0544805543" lon="10.34149722">
		<tag k="ssr:gml_id" v="GEOMETRY_6c57d812-c38b-4678-92c2-1ef0951d6511" />
		<tag k="ssr:gml_nr" v="2" />
	</node>
	<node id="-53737" lat="59.0526944437" lon="10.329499993">
		<tag k="ssr:gml_id" v="GEOMETRY_94b13976-2391-4ba3-ad74-97da54e6647e" />
		<tag k="ssr:gml_nr" v="1" />
	</node>
	<node id="-53736" lat="59.0527000019" lon="10.3295027706">
		<tag k="ssr:gml_id" v="GEOMETRY_0b8d3bf1-1dc4-440d-bd29-d09435c6378d" />
		<tag k="ssr:gml_nr" v="0" />
	</node>
	<node id="-55782" lat="59.1686638933" lon="10.3283000077">
		<tag k="name" v="Sandsund" />
		<tag k="natural" v="strait" />
		<tag k="place" v="locality" />
		<tag k="ssr:date" v="2017-01-19" />
		<tag k="ssr:stedsnr" v="571467" />
	</node>
	<node id="-55775" lat="59.1725944403" lon="10.3400500021">
		<tag k="ssr:gml_id" v="GEOMETRY_51e8e5a0-4112-4eea-b794-62cdd4ea609e" />
		<tag k="ssr:gml_nr" v="1" />
	</node>
	<node id="-55774" lat="59.1722972204" lon="10.3392861189">
		<tag k="ssr:gml_id" v="GEOMETRY_0e56aee2-8bb7-4822-a653-c050f0291cf1" />
		<tag k="ssr:gml_nr" v="0" />
	</node>
	<node id="-53725" lat="59.1074722254" lon="10.2762111133">
		<tag k="ssr:gml_id" v="GEOMETRY_4895acd9-9954-445b-addc-a2d360905ce3" />
		<tag k="ssr:gml_nr" v="2" />
	</node>
	<node id="-55772" lat="59.0754055554" lon="10.3132111131">
		<tag k="name" v="Holmesund" />
		<tag k="natural" v="strait" />
		<tag k="place" v="locality" />
		<tag k="ssr:date" v="2017-01-19" />
		<tag k="ssr:stedsnr" v="570290" />
	</node>
	<node id="-55771" lat="59.0669250009" lon="10.2733027841">
		<tag k="name" v="Klevane" />
		<tag k="natural" v="beach" />
		<tag k="place" v="locality" />
		<tag k="ssr:date" v="2017-01-19" />
		<tag k="ssr:stedsnr" v="570286" />
	</node>
	<node id="-53720" lat="59.1242611118" lon="10.3227861107">
		<tag k="ssr:gml_id" v="GEOMETRY_dd7e7387-12f8-42c5-a8f8-0dcb64689333" />
		<tag k="ssr:gml_nr" v="3" />
	</node>
	<node id="-53719" lat="59.1243944424" lon="10.320561114">
		<tag k="ssr:gml_id" v="GEOMETRY_d72e8656-eb16-465a-bc37-a08aabfee62d" />
		<tag k="ssr:gml_nr" v="2" />
	</node>
	<node id="-53718" lat="59.1242583378" lon="10.3227833307">
		<tag k="ssr:gml_id" v="GEOMETRY_991ab4ef-4969-4680-ad02-23a4208c8e96" />
		<tag k="ssr:gml_nr" v="1" />
	</node>
	<node id="-53717" lat="59.1242555549" lon="10.3227805503">
		<tag k="ssr:gml_id" v="GEOMETRY_dedcc905-59b9-4faf-b192-b716ef568493" />
		<tag k="ssr:gml_nr" v="0" />
	</node>
	<node id="-56396" lat="59.1006444468" lon="10.3265527728">
		<tag k="ssr:gml_id" v="GEOMETRY_ffef27e8-a244-49b1-ad37-23ec97a25fb7" />
		<tag k="ssr:gml_nr" v="1" />
	</node>
	<node id="-54347" lat="59.0724805511" lon="10.3130055615">
		<tag k="name" v="Trubersund" />
		<tag k="natural" v="strait" />
		<tag k="place" v="locality" />
		<tag k="ssr:date" v="2017-01-19" />
		<tag k="ssr:stedsnr" v="85276" />
	</node>
	<node id="-53664" lat="59.0839555545" lon="10.2559666646">
		<tag k="ssr:gml_id" v="GEOMETRY_2b9afdb2-7f89-42be-a012-4fddbc332d8f" />
		<tag k="ssr:gml_nr" v="0" />
	</node>
	<node id="-53663" lat="59.0800277787" lon="10.2688611142">
		<tag k="ssr:gml_id" v="GEOMETRY_abfc4287-300d-400a-9756-ca54ab16be27" />
		<tag k="ssr:gml_nr" v="4" />
	</node>
	<node id="-53688" lat="59.0417416707" lon="10.3201333353">
		<tag k="ssr:gml_id" v="GEOMETRY_fb320d77-145d-46d7-8803-e2267d43148f" />
		<tag k="ssr:gml_nr" v="1" />
	</node>
	<node id="-53687" lat="59.0417388877" lon="10.3201305619">
		<tag k="ssr:gml_id" v="GEOMETRY_8d0c6cd7-77e3-457e-9d7c-45d96a697bc5" />
		<tag k="ssr:gml_nr" v="0" />
	</node>
	<node id="-53662" lat="59.1016666665" lon="10.2550000069">
		<tag k="ssr:gml_id" v="GEOMETRY_d5cb27fc-eceb-4ac7-922e-982bce0ef50e" />
		<tag k="ssr:gml_nr" v="3" />
	</node>
	<node id="-53682" lat="59.0463444458" lon="10.2961194364">
		<tag k="ssr:gml_id" v="GEOMETRY_b7d6dc49-3a4c-4791-89da-320caf8a9d02" />
		<tag k="ssr:gml_nr" v="5" />
	</node>
	<node id="-53681" lat="59.0463444466" lon="10.2961166649">
		<tag k="ssr:gml_id" v="GEOMETRY_5bf498f4-897b-42e7-8f62-df67e2757a6d" />
		<tag k="ssr:gml_nr" v="4" />
	</node>
	<node id="-53680" lat="59.047086112" lon="10.2958888896">
		<tag k="ssr:gml_id" v="GEOMETRY_050d8cb4-9fd7-4fc4-8b62-75d0f37c8a87" />
		<tag k="ssr:gml_nr" v="3" />
	</node>
	<node id="-53679" lat="59.0471138927" lon="10.2962500039">
		<tag k="ssr:gml_id" v="GEOMETRY_1c99da3e-caa7-4843-9eb6-2cac48ed2bc1" />
		<tag k="ssr:gml_nr" v="2" />
	</node>
	<node id="-53678" lat="59.0471166673" lon="10.2962527754">
		<tag k="ssr:gml_id" v="GEOMETRY_64dcec41-caf2-43ab-ba6a-e2a5283fea6d" />
		<tag k="ssr:gml_nr" v="1" />
	</node>
	<node id="-53677" lat="59.0437472179" lon="10.2962999977">
		<tag k="ssr:gml_id" v="GEOMETRY_8d389ea0-bbb1-44e1-b8c3-17873652e79a" />
		<tag k="ssr:gml_nr" v="0" />
	</node>
	<node id="-55026" lat="59.2591611083" lon="10.379555548">
		<tag k="ssr:gml_id" v="GEOMETRY_19fff657-5032-4967-af6d-c435c7ce6bf2" />
		<tag k="ssr:gml_nr" v="8" />
	</node>
	<node id="-55025" lat="59.2461222252" lon="10.3784666695">
		<tag k="ssr:gml_id" v="GEOMETRY_9a8fc580-cffb-4166-a627-19a5f6c5af0b" />
		<tag k="ssr:gml_nr" v="7" />
	</node>
	<node id="-53666" lat="59.0836805576" lon="10.2565055594">
		<tag k="ssr:gml_id" v="GEOMETRY_d5bf1bcb-b0b8-4b59-bd7b-d4f98c57612d" />
		<tag k="ssr:gml_nr" v="2" />
	</node>
	<node id="-53665" lat="59.0839527791" lon="10.2559638933">
		<tag k="ssr:gml_id" v="GEOMETRY_409ff680-244b-4529-9649-789a51a60a60" />
		<tag k="ssr:gml_nr" v="1" />
	</node>
	<node id="-55712" lat="59.0582944467" lon="10.2943138956">
		<tag k="ssr:gml_id" v="GEOMETRY_4e17cf1a-f7ab-4fe9-a57d-f2e358e67358" />
		<tag k="ssr:gml_nr" v="2" />
	</node>
	<node id="-55711" lat="59.0582916663" lon="10.2946499998">
		<tag k="ssr:gml_id" v="GEOMETRY_282c7e4f-1ada-42db-bc3f-cba57cf7e2d9" />
		<tag k="ssr:gml_nr" v="1" />
	</node>
	<node id="-55710" lat="59.0582888917" lon="10.2946472275">
		<tag k="ssr:gml_id" v="GEOMETRY_80067478-be4a-43bb-9892-9c67528f69e7" />
		<tag k="ssr:gml_nr" v="0" />
	</node>
	<node id="-53661" lat="59.0885833315" lon="10.266436114">
		<tag k="ssr:gml_id" v="GEOMETRY_ef86ee99-31ce-4f56-9f07-6c15205e616f" />
		<tag k="ssr:gml_nr" v="2" />
	</node>
	<node id="-53660" lat="59.0800250035" lon="10.2688583422">
		<tag k="ssr:gml_id" v="GEOMETRY_fe974839-ea37-4202-8009-f56ebe0b89a9" />
		<tag k="ssr:gml_nr" v="1" />
	</node>
	<node id="-53659" lat="59.0800250039" lon="10.2688555504">
		<tag k="ssr:gml_id" v="GEOMETRY_7dc6c939-1a6a-4e89-a19b-0f1749f49d98" />
		<tag k="ssr:gml_nr" v="0" />
	</node>
	<node id="-55023" lat="59.2451611095" lon="10.376755562">
		<tag k="ssr:gml_id" v="GEOMETRY_48b8815e-424e-487e-804b-a8c4e2c96873" />
		<tag k="ssr:gml_nr" v="5" />
	</node>
	<node id="-53656" lat="59.1053083295" lon="10.3358499974">
		<tag k="ssr:gml_id" v="GEOMETRY_ffc98cc3-af97-486e-aae5-b6f15d227f03" />
		<tag k="ssr:gml_nr" v="1" />
	</node>
	<node id="-53655" lat="59.1053055542" lon="10.3358499942">
		<tag k="ssr:gml_id" v="GEOMETRY_14a187b5-de68-4ee8-a031-a2d97a2777ba" />
		<tag k="ssr:gml_nr" v="0" />
	</node>
	<node id="-53654" lat="59.102694446" lon="10.3227194445">
		<tag k="ssr:gml_id" v="GEOMETRY_34152c5c-b717-4614-8602-8e9dc724c107" />
		<tag k="ssr:gml_nr" v="1" />
	</node>
	<node id="-55701" lat="58.9921527798" lon="10.3233222199">
		<tag k="ssr:gml_id" v="GEOMETRY_7582826d-7a14-4d94-bef5-2ec1c067ad04" />
		<tag k="ssr:gml_nr" v="3" />
	</node>
	<node id="-55700" lat="58.9921527811" lon="10.3233194528">
		<tag k="ssr:gml_id" v="GEOMETRY_00f1b3e8-6e8a-40dc-81dc-33e356792b98" />
		<tag k="ssr:gml_nr" v="2" />
	</node>
	<node id="-55699" lat="58.9921499983" lon="10.3233166658">
		<tag k="ssr:gml_id" v="GEOMETRY_ef1916d5-bf76-43a7-9de9-7af3d16da14e" />
		<tag k="ssr:gml_nr" v="1" />
	</node>
	<node id="-55698" lat="58.9921499998" lon="10.3233138812">
		<tag k="ssr:gml_id" v="GEOMETRY_21212e99-44af-4454-909e-a6ed7f622c91" />
		<tag k="ssr:gml_nr" v="0" />
	</node>
	<node id="-53641" lat="59.1465916663" lon="10.3241694518">
		<tag k="ssr:gml_id" v="GEOMETRY_9e7e70b0-c608-405a-926d-856556a0fd88" />
		<tag k="ssr:gml_nr" v="2" />
	</node>
	<node id="-53640" lat="59.1463833293" lon="10.3251250063">
		<tag k="ssr:gml_id" v="GEOMETRY_770ac864-77dd-4e2b-8a52-3aab33e38a5e" />
		<tag k="ssr:gml_nr" v="1" />
	</node>
	<node id="-53639" lat="59.146380554" lon="10.3251250039">
		<tag k="ssr:gml_id" v="GEOMETRY_284416c9-24d7-4810-9041-f8b97f307a07" />
		<tag k="ssr:gml_nr" v="0" />
	</node>
	<node id="-55685" lat="59.0311249961" lon="10.2810999972">
		<tag k="name" v="Leikerane" />
		<tag k="place" v="islet" />
		<tag k="ssr:date" v="2017-01-19" />
		<tag k="ssr:stedsnr" v="547241" />
	</node>
	<node id="-53636" lat="59.0938888859" lon="10.2211111135">
		<tag k="name" v="Berganstranda" />
		<tag k="natural" v="beach" />
		<tag k="place" v="locality" />
		<tag k="ssr:date" v="2017-01-19" />
		<tag k="ssr:stedsnr" v="362559" />
	</node>
	<node id="-53653" lat="59.1026916631" lon="10.322716666">
		<tag k="ssr:gml_id" v="GEOMETRY_6e888a60-9ad6-4cf7-93ec-e432780f9ff7" />
		<tag k="ssr:gml_nr" v="0" />
	</node>
	<node id="-55667" lat="59.0658138909" lon="10.3219833296">
		<tag k="ssr:gml_id" v="GEOMETRY_edfb4db2-543d-4884-bd29-d2775955162b" />
		<tag k="ssr:gml_nr" v="1" />
	</node>
	<node id="-55666" lat="59.0658111079" lon="10.3219805541">
		<tag k="ssr:gml_id" v="GEOMETRY_8477ed80-6640-4164-ab63-d0d8f9fd7bb3" />
		<tag k="ssr:gml_nr" v="0" />
	</node>
	<node id="-53612" lat="59.1547166669" lon="10.3228611025">
		<tag k="name" v="Lille Verksholmen" />
		<tag k="place" v="islet" />
		<tag k="ssr:date" v="2017-01-19" />
		<tag k="ssr:stedsnr" v="331046" />
	</node>
	<node id="-53611" lat="59.1780166697" lon="10.3357222161">
		<tag k="name" v="Nallbergbåen" />
		<tag k="place" v="locality" />
		<tag k="seamark:type" v="rock" />
		<tag k="ssr:date" v="2017-01-19" />
		<tag k="ssr:stedsnr" v="331043" />
	</node>
	<node id="-55654" lat="59.0838055594" lon="10.303788881">
		<tag k="ssr:gml_id" v="GEOMETRY_6cba8b62-0547-4512-8be7-5bad07f07dcc" />
		<tag k="ssr:gml_nr" v="2" />
	</node>
	<node id="-53605" lat="59.051325004" lon="10.2612305591">
		<tag k="name" v="Øgårdsbåen" />
		<tag k="natural" v="shoal" />
		<tag k="place" v="locality" />
		<tag k="ssr:date" v="2017-01-19" />
		<tag k="ssr:stedsnr" v="330968" />
	</node>
	<node id="-55652" lat="59.0828055566" lon="10.3039611112">
		<tag k="ssr:gml_id" v="GEOMETRY_10c60b8b-6dcc-4847-889f-c2dc7d130aad" />
		<tag k="ssr:gml_nr" v="0" />
	</node>
	<node id="-53603" lat="59.0720388845" lon="10.3084249949">
		<tag k="ssr:gml_id" v="GEOMETRY_39741bfe-06a6-43ca-bb51-15cc22834f02" />
		<tag k="ssr:gml_nr" v="2" />
	</node>
	<node id="-53602" lat="59.0720416677" lon="10.3084277698">
		<tag k="ssr:gml_id" v="GEOMETRY_7378e422-e4c5-43b1-ae51-d40402160493" />
		<tag k="ssr:gml_nr" v="1" />
	</node>
	<node id="-53601" lat="59.0720444419" lon="10.3084305618">
		<tag k="ssr:gml_id" v="GEOMETRY_41dd43c9-885d-460f-ba07-6827fc16b704" />
		<tag k="ssr:gml_nr" v="0" />
	</node>
	<node id="-53599" lat="59.0752861072" lon="10.2308111032">
		<tag k="name" v="Uleholmen s." />
		<tag k="place" v="islet" />
		<tag k="ssr:date" v="2017-01-19" />
		<tag k="ssr:stedsnr" v="330908" />
	</node>
	<node id="-53582" lat="59.0788805529" lon="10.2608694372">
		<tag k="name" v="Langholmen" />
		<tag k="natural" v="cape" />
		<tag k="place" v="locality" />
		<tag k="ssr:date" v="2017-01-19" />
		<tag k="ssr:stedsnr" v="330787" />
	</node>
	<node id="-55628" lat="59.0993055569" lon="10.2241666717">
		<tag k="name" v="Lofterødbukta" />
		<tag k="natural" v="bay" />
		<tag k="ssr:date" v="2017-01-19" />
		<tag k="ssr:stedsnr" v="543593" />
	</node>
	<node id="-53571" lat="59.0971666653" lon="10.2317027784">
		<tag k="name" v="Gustholmen" />
		<tag k="place" v="islet" />
		<tag k="ssr:date" v="2017-01-19" />
		<tag k="ssr:stedsnr" v="330552" />
	</node>
	<node id="-55613" lat="59.2216555575" lon="10.3667972233">
		<tag k="name" v="Brunstadsundet" />
		<tag k="natural" v="strait" />
		<tag k="place" v="locality" />
		<tag k="ssr:date" v="2017-01-19" />
		<tag k="ssr:stedsnr" v="513982" />
	</node>
	<node id="-55600" lat="59.1571611106" lon="10.3350472256">
		<tag k="bay" v="fjord" />
		<tag k="name" v="Vestkjæla" />
		<tag k="natural" v="bay" />
		<tag k="ssr:date" v="2017-01-19" />
		<tag k="ssr:stedsnr" v="513062" />
	</node>
	<node id="-53551" lat="59.1894111079" lon="10.3364111061">
		<tag k="name" v="Ravnøysundet" />
		<tag k="natural" v="strait" />
		<tag k="place" v="locality" />
		<tag k="ssr:date" v="2017-01-19" />
		<tag k="ssr:stedsnr" v="328441" />
	</node>
	<node id="-53550" lat="59.1926833366" lon="10.328947228">
		<tag k="name" v="Fetjakilen" />
		<tag k="natural" v="bay" />
		<tag k="ssr:date" v="2017-01-19" />
		<tag k="ssr:stedsnr" v="328437" />
	</node>
	<node id="-53542" lat="59.0638000011" lon="10.2765666629">
		<tag k="fixme" v="consider seamark:type=rock" />
		<tag k="name" v="Hvalen" />
		<tag k="natural" v="islet" />
		<tag k="ssr:date" v="2017-01-19" />
		<tag k="ssr:stedsnr" v="328326" />
	</node>
	<node id="-53541" lat="59.0728555517" lon="10.2807472236">
		<tag k="fixme" v="consider seamark:type=rock" />
		<tag k="name" v="Grubsandskjæret" />
		<tag k="natural" v="islet" />
		<tag k="ssr:date" v="2017-01-19" />
		<tag k="ssr:stedsnr" v="328310" />
	</node>
	<node id="-53540" lat="59.083808333" lon="10.2760444395">
		<tag k="name" v="Langebystranda" />
		<tag k="natural" v="beach" />
		<tag k="place" v="locality" />
		<tag k="ssr:date" v="2017-01-19" />
		<tag k="ssr:stedsnr" v="328279" />
	</node>
	<node id="-53537" lat="59.0914611087" lon="10.3349638889">
		<tag k="name" v="Betjenterholmen" />
		<tag k="place" v="islet" />
		<tag k="ssr:date" v="2017-01-19" />
		<tag k="ssr:stedsnr" v="328263" />
	</node>
	<node id="-53536" lat="59.142966668" lon="10.3179138812">
		<tag k="name" v="Askelundkilen" />
		<tag k="natural" v="bay" />
		<tag k="ssr:date" v="2017-01-19" />
		<tag k="ssr:stedsnr" v="328248" />
	</node>
	<node id="-53533" lat="59.122552777" lon="10.2993638942">
		<tag k="fixme" v="consider seamark:type=rock" />
		<tag k="name" v="Hestebåen" />
		<tag k="natural" v="islet" />
		<tag k="ssr:date" v="2017-01-19" />
		<tag k="ssr:stedsnr" v="328222" />
	</node>
	<node id="-55559" lat="59.0916111093" lon="10.2305611106">
		<tag k="name" v="Seilerholmen" />
		<tag k="place" v="islet" />
		<tag k="ssr:date" v="2017-01-19" />
		<tag k="ssr:stedsnr" v="512552" />
	</node>
	<node id="-55558" lat="59.088033329" lon="10.2313611105">
		<tag k="name" v="Bergantredelen" />
		<tag k="place" v="islet" />
		<tag k="ssr:date" v="2017-01-19" />
		<tag k="ssr:stedsnr" v="512549" />
	</node>
	<node id="-55557" lat="59.0982055573" lon="10.2316750026">
		<tag k="ssr:gml_id" v="GEOMETRY_54a5d7ee-37c9-4cc2-888e-4db57d6f57a9" />
		<tag k="ssr:gml_nr" v="2" />
	</node>
	<node id="-55556" lat="59.0982222179" lon="10.2316750065">
		<tag k="ssr:gml_id" v="GEOMETRY_24e8b376-25c2-44ad-bab4-8a4ccecf915a" />
		<tag k="ssr:gml_nr" v="1" />
	</node>
	<node id="-55555" lat="59.0992027759" lon="10.2324361195">
		<tag k="ssr:gml_id" v="GEOMETRY_221c46ea-e185-4136-b2b1-3c5d31328dbc" />
		<tag k="ssr:gml_nr" v="0" />
	</node>
	<node id="-55526" lat="59.117686441" lon="10.268701806">
		<tag k="name" v="Gokstadholmen" />
		<tag k="place" v="islet" />
		<tag k="ssr:date" v="2018-03-07" />
		<tag k="ssr:stedsnr" v="511664" />
	</node>
	<node id="-55525" lat="59.1223500005" lon="10.2996527846">
		<tag k="name" v="Hestbåen" />
		<tag k="natural" v="shoal" />
		<tag k="place" v="locality" />
		<tag k="ssr:date" v="2017-01-19" />
		<tag k="ssr:stedsnr" v="510626" />
	</node>
	<node id="-55517" lat="59.065847224" lon="10.3112472217">
		<tag k="name" v="Kjela" />
		<tag k="natural" v="cape" />
		<tag k="place" v="locality" />
		<tag k="ssr:date" v="2017-01-19" />
		<tag k="ssr:stedsnr" v="510346" />
	</node>
	<node id="-55516" lat="59.0643083291" lon="10.2787805496">
		<tag k="name" v="Auvetangen" />
		<tag k="natural" v="cape" />
		<tag k="place" v="locality" />
		<tag k="ssr:date" v="2017-01-19" />
		<tag k="ssr:stedsnr" v="510343" />
	</node>
	<node id="-55515" lat="59.0539388892" lon="10.2808972268">
		<tag k="fixme" v="consider seamark:type=rock" />
		<tag k="name" v="Vabakkane" />
		<tag k="natural" v="islet" />
		<tag k="ssr:date" v="2017-01-19" />
		<tag k="ssr:stedsnr" v="510341" />
	</node>
	<node id="-55513" lat="59.082991664" lon="10.279811106">
		<tag k="name" v="Langgrunnen" />
		<tag k="natural" v="bay" />
		<tag k="ssr:date" v="2017-01-19" />
		<tag k="ssr:stedsnr" v="510299" />
	</node>
	<node id="-55509" lat="59.1282416678" lon="10.3169555581">
		<tag k="fixme" v="consider seamark:type=rock" />
		<tag k="name" v="Innsjøskjæret" />
		<tag k="natural" v="islet" />
		<tag k="ssr:date" v="2017-01-19" />
		<tag k="ssr:stedsnr" v="510244" />
	</node>
	<node id="-55508" lat="59.1336888904" lon="10.2989694446">
		<tag k="name" v="Furuholmene" />
		<tag k="place" v="islet" />
		<tag k="ssr:date" v="2017-01-19" />
		<tag k="ssr:stedsnr" v="510237" />
	</node>
	<node id="-55506" lat="59.0521333374" lon="10.3153055482">
		<tag k="name" v="Blytamp" />
		<tag k="natural" v="shoal" />
		<tag k="place" v="locality" />
		<tag k="ssr:date" v="2017-01-19" />
		<tag k="ssr:stedsnr" v="509918" />
	</node>
	<node id="-55505" lat="59.091038893" lon="10.2869499971">
		<tag k="name" v="Namløsholmen" />
		<tag k="place" v="islet" />
		<tag k="ssr:date" v="2017-01-19" />
		<tag k="ssr:stedsnr" v="509912" />
	</node>
	<node id="-53431" lat="59.0549416646" lon="10.31494723">
		<tag k="ssr:gml_id" v="GEOMETRY_9b15f79f-d988-4f0c-a886-65fed1ca6bc8" />
		<tag k="ssr:gml_nr" v="3" />
	</node>
	<node id="-53430" lat="59.0584805532" lon="10.3149500029">
		<tag k="ssr:gml_id" v="GEOMETRY_e911283d-3b2c-43e3-aaed-d58e217b962d" />
		<tag k="ssr:gml_nr" v="2" />
	</node>
	<node id="-53429" lat="59.0549277754" lon="10.3152194455">
		<tag k="ssr:gml_id" v="GEOMETRY_d68433be-51be-4adc-94c7-2be2fad8200b" />
		<tag k="ssr:gml_nr" v="1" />
	</node>
	<node id="-53428" lat="59.0549250012" lon="10.3152166718">
		<tag k="ssr:gml_id" v="GEOMETRY_471b13e9-836e-474d-b6b7-e1f849303d5b" />
		<tag k="ssr:gml_nr" v="0" />
	</node>
	<node id="-53420" lat="59.0658749968" lon="10.3092138854">
		<tag k="ssr:gml_id" v="GEOMETRY_2ca688e5-0b8d-4fbc-8365-44633688275b" />
		<tag k="ssr:gml_nr" v="2" />
	</node>
	<node id="-53419" lat="59.0652194432" lon="10.3106055488">
		<tag k="ssr:gml_id" v="GEOMETRY_a53b46e4-97b1-4c16-809d-e213b31c8a67" />
		<tag k="ssr:gml_nr" v="1" />
	</node>
	<node id="-53418" lat="59.065216669" lon="10.3106027747">
		<tag k="ssr:gml_id" v="GEOMETRY_7974b351-39f1-4c26-97a4-4e535cc1199a" />
		<tag k="ssr:gml_nr" v="0" />
	</node>
	<node id="-53394" lat="59.0965916707" lon="10.3357222265">
		<tag k="ssr:gml_id" v="GEOMETRY_2f0b08a9-2288-43ab-8140-8ffcb9280b12" />
		<tag k="ssr:gml_nr" v="3" />
	</node>
	<node id="-53393" lat="59.0959555575" lon="10.3363333296">
		<tag k="ssr:gml_id" v="GEOMETRY_b346bf1c-daea-4e3b-b5f7-184606e1f490" />
		<tag k="ssr:gml_nr" v="2" />
	</node>
	<node id="-53392" lat="59.0965861143" lon="10.3357166687">
		<tag k="ssr:gml_id" v="GEOMETRY_ee98e08f-cf57-406c-be2a-9195ba3439df" />
		<tag k="ssr:gml_nr" v="1" />
	</node>
	<node id="-53391" lat="59.0965833317" lon="10.3357138896">
		<tag k="ssr:gml_id" v="GEOMETRY_c66a9def-ce55-491f-8f12-d9099d99d633" />
		<tag k="ssr:gml_nr" v="0" />
	</node>
	<node id="-53390" lat="59.0915305535" lon="10.2504361098">
		<tag k="ssr:gml_id" v="GEOMETRY_086dc3ab-d9c4-4d40-aa82-920499a376d4" />
		<tag k="ssr:gml_nr" v="3" />
	</node>
	<node id="-53389" lat="59.0918500022" lon="10.2502000086">
		<tag k="ssr:gml_id" v="GEOMETRY_fcc0bf8b-3308-4e6d-a62f-0dcaf815b2c0" />
		<tag k="ssr:gml_nr" v="2" />
	</node>
	<node id="-53388" lat="59.0918527776" lon="10.2502000048">
		<tag k="ssr:gml_id" v="GEOMETRY_63f8e8c1-4859-4981-97bd-17c7c0064f5f" />
		<tag k="ssr:gml_nr" v="1" />
	</node>
	<node id="-53387" lat="59.0915305564" lon="10.2501999916">
		<tag k="ssr:gml_id" v="GEOMETRY_9465029f-404b-4f20-83e9-3faed0237f52" />
		<tag k="ssr:gml_nr" v="0" />
	</node>
	<node id="-53377" lat="59.086566668" lon="10.3463972289">
		<tag k="ssr:gml_id" v="GEOMETRY_cf8ed952-31e3-4243-bafb-f986dda92a47" />
		<tag k="ssr:gml_nr" v="1" />
	</node>
	<node id="-53376" lat="59.0869611141" lon="10.3458833288">
		<tag k="ssr:gml_id" v="GEOMETRY_a0845350-beaa-45e8-9c0b-14a5f6d7051c" />
		<tag k="ssr:gml_nr" v="0" />
	</node>
	<node id="-55420" lat="59.0656972267" lon="10.2418999981">
		<tag k="ssr:gml_id" v="GEOMETRY_e97211e0-5f3c-47e0-861a-a0ef298af53c" />
		<tag k="ssr:gml_nr" v="2" />
	</node>
	<node id="-55419" lat="59.0654916657" lon="10.2418972148">
		<tag k="ssr:gml_id" v="GEOMETRY_539ee0c8-c851-497c-a574-0211a84684b9" />
		<tag k="ssr:gml_nr" v="1" />
	</node>
	<node id="-55418" lat="59.0654888899" lon="10.2418944462">
		<tag k="ssr:gml_id" v="GEOMETRY_60c9c074-bbc4-43e8-bf82-6294545662d9" />
		<tag k="ssr:gml_nr" v="0" />
	</node>
	<node id="-55417" lat="59.0644916648" lon="10.2618555472">
		<tag k="ssr:gml_id" v="GEOMETRY_e026d66c-9f98-4265-ba6d-bdedbbd4880e" />
		<tag k="ssr:gml_nr" v="2" />
	</node>
	<node id="-55416" lat="59.0653666635" lon="10.259474995">
		<tag k="ssr:gml_id" v="GEOMETRY_908cad25-5717-4b59-b399-4834633fffab" />
		<tag k="ssr:gml_nr" v="1" />
	</node>
	<node id="-55415" lat="59.0653638881" lon="10.259474998">
		<tag k="ssr:gml_id" v="GEOMETRY_8e1f7680-908d-4394-9074-785ba3a66e21" />
		<tag k="ssr:gml_nr" v="0" />
	</node>
	<node id="-53360" lat="59.1610305573" lon="10.3341166607">
		<tag k="name" v="Løkkabåen" />
		<tag k="place" v="locality" />
		<tag k="seamark:type" v="rock" />
		<tag k="ssr:date" v="2017-01-19" />
		<tag k="ssr:stedsnr" v="271060" />
	</node>
	<node id="-55405" lat="59.1007194461" lon="10.2788222195">
		<tag k="ssr:gml_id" v="GEOMETRY_aa97bb1f-9d1c-416a-bfaa-7651a9e5bcc9" />
		<tag k="ssr:gml_nr" v="2" />
	</node>
	<node id="-55404" lat="59.101569446" lon="10.278977778">
		<tag k="ssr:gml_id" v="GEOMETRY_7fdcef60-1266-4b36-abe3-2ff659ca00ef" />
		<tag k="ssr:gml_nr" v="1" />
	</node>
	<node id="-55403" lat="59.1015666711" lon="10.2789750034">
		<tag k="ssr:gml_id" v="GEOMETRY_0a3d57ef-f127-47ec-88d3-7c43c9c3b891" />
		<tag k="ssr:gml_nr" v="0" />
	</node>
	<node id="-55392" lat="59.1115083377" lon="10.3254166711">
		<tag k="ssr:gml_id" v="GEOMETRY_eec20b36-b32b-4e07-b717-e1eb5984dc25" />
		<tag k="ssr:gml_nr" v="2" />
	</node>
	<node id="-55391" lat="59.1113861089" lon="10.3255527848">
		<tag k="ssr:gml_id" v="GEOMETRY_d3c8e9b9-167d-42d5-8cef-2796ac5f8b9b" />
		<tag k="ssr:gml_nr" v="1" />
	</node>
	<node id="-55390" lat="59.111383335" lon="10.3255500057">
		<tag k="ssr:gml_id" v="GEOMETRY_c8e2facc-75c7-4248-b00e-10fbf13e8e31" />
		<tag k="ssr:gml_nr" v="0" />
	</node>
	<node id="-55653" lat="59.082808331" lon="10.3039638863">
		<tag k="ssr:gml_id" v="GEOMETRY_f54585f1-8872-4863-8a19-1b87c1410993" />
		<tag k="ssr:gml_nr" v="1" />
	</node>
	<node id="-55388" lat="59.1139749977" lon="10.3101944486">
		<tag k="ssr:gml_id" v="GEOMETRY_2a9e7399-4995-4604-9314-17cb86d2d1dd" />
		<tag k="ssr:gml_nr" v="1" />
	</node>
	<node id="-55387" lat="59.1139749988" lon="10.3101916716">
		<tag k="ssr:gml_id" v="GEOMETRY_8c0e1d1c-1d17-4321-be77-15c1c0b6c214" />
		<tag k="ssr:gml_nr" v="0" />
	</node>
	<node id="-53337" lat="59.0634305536" lon="10.2590666748">
		<tag k="fixme" v="consider seamark:type=rock" />
		<tag k="name" v="Gutteglova" />
		<tag k="natural" v="islet" />
		<tag k="ssr:date" v="2017-01-19" />
		<tag k="ssr:stedsnr" v="270633" />
	</node>
	<node id="-53336" lat="59.0618083374" lon="10.2555027774">
		<tag k="fixme" v="consider seamark:type=rock" />
		<tag k="name" v="Jenteskjæret" />
		<tag k="natural" v="islet" />
		<tag k="ssr:date" v="2017-01-19" />
		<tag k="ssr:stedsnr" v="270632" />
	</node>
	<node id="-55383" lat="59.1184305528" lon="10.2978777693">
		<tag k="ssr:gml_id" v="GEOMETRY_12374287-9b10-406f-94eb-a823a9f9fa16" />
		<tag k="ssr:gml_nr" v="3" />
	</node>
	<node id="-55382" lat="59.1194638918" lon="10.2976638876">
		<tag k="ssr:gml_id" v="GEOMETRY_c93712ff-deb6-4422-8dd5-cff0231e2625" />
		<tag k="ssr:gml_nr" v="2" />
	</node>
	<node id="-55381" lat="59.1184277783" lon="10.2978749918">
		<tag k="ssr:gml_id" v="GEOMETRY_33505944-84de-4cfe-8169-e13567692c32" />
		<tag k="ssr:gml_nr" v="1" />
	</node>
	<node id="-55380" lat="59.1184250038" lon="10.2978722142">
		<tag k="ssr:gml_id" v="GEOMETRY_44ceca4e-fd9a-4b0c-b2d1-a2cef8995d6b" />
		<tag k="ssr:gml_nr" v="0" />
	</node>
	<node id="-53330" lat="59.0538555538" lon="10.2647111179">
		<tag k="name" v="Susebukta" />
		<tag k="natural" v="bay" />
		<tag k="ssr:date" v="2017-01-19" />
		<tag k="ssr:stedsnr" v="270614" />
	</node>
	<node id="-53327" lat="59.0968305535" lon="10.2427055512">
		<tag k="name" v="Asnes badestrand" />
		<tag k="natural" v="beach" />
		<tag k="place" v="locality" />
		<tag k="ssr:date" v="2017-01-19" />
		<tag k="ssr:stedsnr" v="270528" />
	</node>
	<node id="-55372" lat="59.1361111142" lon="10.3277833296">
		<tag k="ssr:gml_id" v="GEOMETRY_dbb34bcc-1ace-4a65-8b25-0a3a449c969b" />
		<tag k="ssr:gml_nr" v="2" />
	</node>
	<node id="-55371" lat="59.1374583378" lon="10.324063881">
		<tag k="ssr:gml_id" v="GEOMETRY_8140fa96-1471-41cc-a683-511e0b788155" />
		<tag k="ssr:gml_nr" v="1" />
	</node>
	<node id="-55370" lat="59.1374555547" lon="10.324061117">
		<tag k="ssr:gml_id" v="GEOMETRY_43ae6e12-d620-4ea1-a454-b51e27dbe608" />
		<tag k="ssr:gml_nr" v="0" />
	</node>
	<node id="-55369" lat="59.0477555591" lon="10.3234000062">
		<tag k="ssr:gml_id" v="GEOMETRY_92527bb3-9bc1-4a51-bfc9-ee67024345a5" />
		<tag k="ssr:gml_nr" v="1" />
	</node>
	<node id="-55368" lat="59.0477527748" lon="10.3234000037">
		<tag k="ssr:gml_id" v="GEOMETRY_dcf5a7f3-23aa-4020-aa21-f04f9a16e5f3" />
		<tag k="ssr:gml_nr" v="0" />
	</node>
	<node id="-53298" lat="59.0206000033" lon="10.3073083249">
		<tag k="name" v="Sydostre" />
		<tag k="natural" v="shoal" />
		<tag k="place" v="locality" />
		<tag k="ssr:date" v="2017-01-19" />
		<tag k="ssr:stedsnr" v="269959" />
	</node>
	<node id="-55344" lat="59.0922277758" lon="10.2498166677">
		<tag k="ssr:gml_id" v="GEOMETRY_626ed4ce-c6ca-4b5e-ac76-0d2475a77de0" />
		<tag k="ssr:gml_nr" v="1" />
	</node>
	<node id="-55343" lat="59.0922222244" lon="10.2498055568">
		<tag k="ssr:gml_id" v="GEOMETRY_5fd48c69-08d3-49af-a7b9-617f7f9ecd4b" />
		<tag k="ssr:gml_nr" v="0" />
	</node>
	<node id="-55330" lat="59.1095138855" lon="10.2306166657">
		<tag k="name" v="Gonvika" />
		<tag k="natural" v="bay" />
		<tag k="ssr:date" v="2017-01-19" />
		<tag k="ssr:stedsnr" v="453589" />
	</node>
	<node id="-56665" lat="59.0239305526" lon="10.2688083381">
		<tag k="ssr:gml_id" v="GEOMETRY_fee795d7-4813-414b-9d07-c96212ce53b2" />
		<tag k="ssr:gml_nr" v="0" />
	</node>
	<node id="-54956" lat="59.0779333319" lon="10.2537944519">
		<tag k="ssr:gml_id" v="GEOMETRY_b64ffee4-282c-4008-a698-977352f26f3a" />
		<tag k="ssr:gml_nr" v="1" />
	</node>
	<way id="-11774">
		<tag k="name" v="Mellomholmen" />
		<tag k="place" v="islet" />
		<tag k="ssr:date" v="2017-01-19" />
		<tag k="ssr:stedsnr" v="465268" />
		<nd ref="-55343" />
		<nd ref="-55344" />
	</way>
	<way id="-11768">
		<tag k="alt_name" v="S. Trubervika" />
		<tag k="name" v="Søndre Trubervika" />
		<tag k="natural" v="bay" />
		<tag k="ssr:date" v="2017-01-19" />
		<tag k="ssr:stedsnr" v="451933" />
		<nd ref="-55266" />
		<nd ref="-55267" />
		<nd ref="-55268" />
	</way>
	<way id="-11740">
		<tag k="name" v="Skjellvika" />
		<tag k="natural" v="beach" />
		<tag k="place" v="locality" />
		<tag k="ssr:date" v="2017-01-19" />
		<tag k="ssr:stedsnr" v="427080" />
		<nd ref="-55157" />
		<nd ref="-55158" />
		<nd ref="-55159" />
		<nd ref="-55160" />
	</way>
	<way id="-11734">
		<tag k="name" v="Flaten" />
		<tag k="natural" v="shoal" />
		<tag k="place" v="locality" />
		<tag k="ssr:date" v="2017-01-19" />
		<tag k="ssr:stedsnr" v="426219" />
		<nd ref="-55139" />
		<nd ref="-55140" />
	</way>
	<way id="-11733">
		<tag k="name" v="Storegrunnen" />
		<tag k="natural" v="shoal" />
		<tag k="place" v="locality" />
		<tag k="ssr:date" v="2017-01-19" />
		<tag k="ssr:stedsnr" v="426218" />
		<nd ref="-55137" />
		<nd ref="-55138" />
	</way>
	<way id="-11732">
		<tag k="fixme" v="consider seamark:type=rock" />
		<tag k="name" v="Helleskjæret" />
		<tag k="natural" v="islet" />
		<tag k="ssr:date" v="2017-01-19" />
		<tag k="ssr:stedsnr" v="426205" />
		<nd ref="-55134" />
		<nd ref="-55135" />
		<nd ref="-55136" />
	</way>
	<way id="-11726">
		<tag k="fixme" v="consider seamark:type=rock" />
		<tag k="name" v="Sjøbakken" />
		<tag k="natural" v="islet" />
		<tag k="ssr:date" v="2017-01-19" />
		<tag k="ssr:stedsnr" v="426125" />
		<nd ref="-55114" />
		<nd ref="-55115" />
	</way>
	<way id="-11725">
		<tag k="name" v="Korsvika" />
		<tag k="natural" v="bay" />
		<tag k="ssr:date" v="2017-01-19" />
		<tag k="ssr:stedsnr" v="426112" />
		<nd ref="-55111" />
		<nd ref="-55112" />
		<nd ref="-55113" />
	</way>
	<way id="-11722">
		<tag k="name" v="Gåsø" />
		<tag k="place" v="islet" />
		<tag k="ssr:date" v="2017-01-19" />
		<tag k="ssr:stedsnr" v="426052" />
		<nd ref="-55100" />
		<nd ref="-55101" />
		<nd ref="-55102" />
		<nd ref="-55103" />
		<nd ref="-55104" />
	</way>
	<way id="-11701">
		<tag k="bay" v="fjord" />
		<tag k="name" v="Vestfjorden" />
		<tag k="natural" v="bay" />
		<tag k="ssr:date" v="2017-01-19" />
		<tag k="ssr:stedsnr" v="245295" />
		<nd ref="-55018" />
		<nd ref="-55019" />
		<nd ref="-55020" />
		<nd ref="-55021" />
		<nd ref="-55022" />
		<nd ref="-55023" />
		<nd ref="-55024" />
		<nd ref="-55025" />
		<nd ref="-55026" />
	</way>
	<way id="-11683">
		<tag k="name" v="Hellesøya" />
		<tag k="place" v="islet" />
		<tag k="ssr:date" v="2017-01-19" />
		<tag k="ssr:stedsnr" v="244152" />
		<nd ref="-54955" />
		<nd ref="-54956" />
		<nd ref="-54957" />
		<nd ref="-54958" />
		<nd ref="-54959" />
	</way>
	<way id="-11681">
		<tag k="alt_name" v="Lakseskjæret" />
		<tag k="fixme" v="consider seamark:type=rock" />
		<tag k="name" v="Lakseskjæra" />
		<tag k="natural" v="islet" />
		<tag k="ssr:date" v="2017-01-19" />
		<tag k="ssr:stedsnr" v="244145" />
		<nd ref="-54949" />
		<nd ref="-54950" />
		<nd ref="-54951" />
	</way>
	<way id="-11679">
		<tag k="fixme" v="consider seamark:type=rock" />
		<tag k="name" v="Torgerskjæra" />
		<tag k="natural" v="islet" />
		<tag k="ssr:date" v="2017-01-19" />
		<tag k="ssr:stedsnr" v="244130" />
		<nd ref="-54944" />
		<nd ref="-54945" />
		<nd ref="-54946" />
	</way>
	<way id="-11678">
		<tag k="alt_name" v="Mareskjær" />
		<tag k="fixme" v="consider seamark:type=rock" />
		<tag k="name" v="Marøskjæret" />
		<tag k="natural" v="islet" />
		<tag k="old_name" v="Marøyskjera;Marøyskjæra" />
		<tag k="ssr:date" v="2017-01-19" />
		<tag k="ssr:stedsnr" v="244068" />
		<nd ref="-54941" />
		<nd ref="-54942" />
		<nd ref="-54943" />
	</way>
	<way id="-12188">
		<tag k="name" v="Vannøyfloa" />
		<tag k="natural" v="strait" />
		<tag k="place" v="locality" />
		<tag k="ssr:date" v="2017-01-19" />
		<tag k="ssr:stedsnr" v="937775" />
		<nd ref="-57281" />
		<nd ref="-57282" />
	</way>
	<way id="-11672">
		<tag k="name" v="Strandholmen" />
		<tag k="natural" v="beach" />
		<tag k="place" v="locality" />
		<tag k="ssr:date" v="2017-01-19" />
		<tag k="ssr:stedsnr" v="210570" />
		<nd ref="-54910" />
		<nd ref="-54911" />
	</way>
	<way id="-11671">
		<tag k="name" v="Maroniodden" />
		<tag k="natural" v="cape" />
		<tag k="place" v="locality" />
		<tag k="ssr:date" v="2017-01-19" />
		<tag k="ssr:stedsnr" v="210058" />
		<nd ref="-54904" />
		<nd ref="-54905" />
	</way>
	<way id="-12159">
		<tag k="fixme" v="consider seamark:type=rock" />
		<tag k="name" v="Holtskjæra" />
		<tag k="natural" v="islet" />
		<tag k="ssr:date" v="2017-01-19" />
		<tag k="ssr:stedsnr" v="912202" />
		<nd ref="-57133" />
		<nd ref="-57134" />
		<nd ref="-57135" />
	</way>
	<way id="-12158">
		<tag k="name" v="Ertsvikodden" />
		<tag k="natural" v="cape" />
		<tag k="place" v="locality" />
		<tag k="ssr:date" v="2017-01-19" />
		<tag k="ssr:stedsnr" v="912186" />
		<nd ref="-57130" />
		<nd ref="-57131" />
		<nd ref="-57132" />
	</way>
	<way id="-12156">
		<tag k="name" v="Espeholmen" />
		<tag k="place" v="islet" />
		<tag k="ssr:date" v="2017-01-19" />
		<tag k="ssr:stedsnr" v="912154" />
		<nd ref="-57123" />
		<nd ref="-57124" />
		<nd ref="-57125" />
	</way>
	<way id="-11643">
		<tag k="name" v="Bentsrødkilen" />
		<tag k="natural" v="bay" />
		<tag k="ssr:date" v="2017-01-19" />
		<tag k="ssr:stedsnr" v="184152" />
		<nd ref="-54739" />
		<nd ref="-54740" />
		<nd ref="-54741" />
	</way>
	<way id="-12154">
		<tag k="name" v="Flautangen" />
		<tag k="natural" v="cape" />
		<tag k="place" v="locality" />
		<tag k="ssr:date" v="2017-01-19" />
		<tag k="ssr:stedsnr" v="912128" />
		<nd ref="-57117" />
		<nd ref="-57118" />
		<nd ref="-57119" />
		<nd ref="-57120" />
	</way>
	<way id="-11640">
		<tag k="fixme" v="consider seamark:type=rock" />
		<tag k="name" v="Svartskjær" />
		<tag k="natural" v="islet" />
		<tag k="ssr:date" v="2017-01-19" />
		<tag k="ssr:stedsnr" v="184050" />
		<nd ref="-54728" />
		<nd ref="-54729" />
		<nd ref="-54730" />
	</way>
	<way id="-12150">
		<tag k="bay" v="fjord" />
		<tag k="name" v="Lahellefjorden" />
		<tag k="natural" v="bay" />
		<tag k="ssr:date" v="2017-01-19" />
		<tag k="ssr:stedsnr" v="912031" />
		<nd ref="-57101" />
		<nd ref="-57102" />
		<nd ref="-57103" />
		<nd ref="-57104" />
	</way>
	<way id="-12149">
		<tag k="alt_name" v="Raueren" />
		<tag k="name" v="Rauern" />
		<tag k="place" v="islet" />
		<tag k="ssr:date" v="2017-01-19" />
		<tag k="ssr:stedsnr" v="912030" />
		<nd ref="-57097" />
		<nd ref="-57098" />
		<nd ref="-57099" />
		<nd ref="-57100" />
	</way>
	<way id="-12142">
		<tag k="name" v="Østerøya" />
		<tag k="natural" v="cape" />
		<tag k="place" v="locality" />
		<tag k="ssr:date" v="2017-01-19" />
		<tag k="ssr:stedsnr" v="911108" />
		<nd ref="-57071" />
		<nd ref="-57072" />
		<nd ref="-57073" />
		<nd ref="-57074" />
		<nd ref="-57075" />
	</way>
	<way id="-12132">
		<tag k="name" v="Kollholmen" />
		<tag k="place" v="islet" />
		<tag k="ssr:date" v="2017-01-19" />
		<tag k="ssr:stedsnr" v="876910" />
		<nd ref="-56989" />
		<nd ref="-56990" />
		<nd ref="-56991" />
	</way>
	<way id="-11592">
		<tag k="fixme" v="consider seamark:type=rock" />
		<tag k="name" v="Beinskjæra" />
		<tag k="natural" v="islet" />
		<tag k="ssr:date" v="2017-01-19" />
		<tag k="ssr:stedsnr" v="123149" />
		<nd ref="-54507" />
		<nd ref="-54508" />
		<nd ref="-54509" />
		<nd ref="-54510" />
	</way>
	<way id="-11591">
		<tag k="fixme" v="multiple name tags, choose one and add the other to alt_name" />
		<tag k="name" v="Skogøy;Storøya" />
		<tag k="place" v="islet" />
		<tag k="ssr:date" v="2017-01-19" />
		<tag k="ssr:stedsnr" v="123148" />
		<nd ref="-54502" />
		<nd ref="-54503" />
		<nd ref="-54504" />
		<nd ref="-54505" />
		<nd ref="-54506" />
	</way>
	<way id="-11589">
		<tag k="name" v="Ormestadholmen" />
		<tag k="place" v="islet" />
		<tag k="ssr:date" v="2017-01-19" />
		<tag k="ssr:stedsnr" v="123080" />
		<nd ref="-54495" />
		<nd ref="-54496" />
		<nd ref="-54497" />
	</way>
	<way id="-12098">
		<tag k="fixme" v="consider seamark:type=rock" />
		<tag k="name" v="Stauperluva" />
		<tag k="natural" v="islet" />
		<tag k="ssr:date" v="2017-01-19" />
		<tag k="ssr:stedsnr" v="851144" />
		<nd ref="-56860" />
		<nd ref="-56861" />
	</way>
	<way id="-11583">
		<tag k="alt_name" v="Saltskjær" />
		<tag k="fixme" v="consider seamark:type=rock" />
		<tag k="name" v="Saltskjæret" />
		<tag k="natural" v="islet" />
		<tag k="ssr:date" v="2017-01-19" />
		<tag k="ssr:stedsnr" v="122187" />
		<nd ref="-54478" />
		<nd ref="-54479" />
		<nd ref="-54480" />
	</way>
	<way id="-11582">
		<tag k="name" v="Folehavna" />
		<tag k="natural" v="bay" />
		<tag k="ssr:date" v="2017-01-19" />
		<tag k="ssr:stedsnr" v="122185" />
		<nd ref="-54474" />
		<nd ref="-54475" />
		<nd ref="-54476" />
		<nd ref="-54477" />
	</way>
	<way id="-12093">
		<tag k="name" v="Verjø" />
		<tag k="place" v="islet" />
		<tag k="ssr:date" v="2017-01-19" />
		<tag k="ssr:stedsnr" v="851042" />
		<nd ref="-56839" />
		<nd ref="-56840" />
		<nd ref="-56841" />
		<nd ref="-56842" />
		<nd ref="-56843" />
	</way>
	<way id="-11578">
		<tag k="name" v="Granholmen" />
		<tag k="place" v="islet" />
		<tag k="ssr:date" v="2017-01-19" />
		<tag k="ssr:stedsnr" v="122111" />
		<nd ref="-54462" />
		<nd ref="-54463" />
		<nd ref="-54464" />
		<nd ref="-54465" />
	</way>
	<way id="-11577">
		<tag k="name" v="Asnes" />
		<tag k="natural" v="cape" />
		<tag k="place" v="locality" />
		<tag k="ssr:date" v="2017-01-19" />
		<tag k="ssr:stedsnr" v="122102" />
		<nd ref="-54457" />
		<nd ref="-54458" />
		<nd ref="-54459" />
		<nd ref="-54460" />
		<nd ref="-54461" />
	</way>
	<way id="-12084">
		<tag k="name" v="Nåmannsholmen" />
		<tag k="place" v="islet" />
		<tag k="ssr:date" v="2017-01-19" />
		<tag k="ssr:stedsnr" v="816571" />
		<nd ref="-56772" />
		<nd ref="-56773" />
	</way>
	<way id="-11556">
		<tag k="alt_name" v="Helgerødskjera" />
		<tag k="name" v="Helgerødskjæra" />
		<tag k="place" v="islet" />
		<tag k="ssr:date" v="2017-01-19" />
		<tag k="ssr:stedsnr" v="62412" />
		<nd ref="-54296" />
		<nd ref="-54297" />
		<nd ref="-54298" />
	</way>
	<way id="-12062">
		<tag k="name" v="Leikarhausen" />
		<tag k="natural" v="shoal" />
		<tag k="place" v="locality" />
		<tag k="ssr:date" v="2017-01-19" />
		<tag k="ssr:stedsnr" v="790200" />
		<nd ref="-56665" />
		<nd ref="-56666" />
	</way>
	<way id="-12059">
		<tag k="fixme" v="multiple name tags, choose one and add the other to alt_name; consider seamark:type=rock" />
		<tag k="name" v="Hellebrottet;Svartskjæret" />
		<tag k="natural" v="islet" />
		<tag k="ssr:date" v="2017-01-19" />
		<tag k="ssr:stedsnr" v="790174" />
		<nd ref="-56657" />
		<nd ref="-56658" />
	</way>
	<way id="-12057">
		<tag k="alt_name" v="Fruvikholmene" />
		<tag k="name" v="Fruvikholmane" />
		<tag k="place" v="islet" />
		<tag k="ssr:date" v="2017-01-19" />
		<tag k="ssr:stedsnr" v="790156" />
		<nd ref="-56651" />
		<nd ref="-56652" />
		<nd ref="-56653" />
	</way>
	<way id="-11544">
		<tag k="name" v="Tveitanodden" />
		<tag k="natural" v="cape" />
		<tag k="place" v="locality" />
		<tag k="ssr:date" v="2017-01-19" />
		<tag k="ssr:stedsnr" v="62192" />
		<nd ref="-54257" />
		<nd ref="-54258" />
		<nd ref="-54259" />
	</way>
	<way id="-12054">
		<tag k="name" v="Truberodden" />
		<tag k="natural" v="cape" />
		<tag k="place" v="locality" />
		<tag k="ssr:date" v="2017-01-19" />
		<tag k="ssr:stedsnr" v="790130" />
		<nd ref="-56639" />
		<nd ref="-56640" />
		<nd ref="-56641" />
	</way>
	<way id="-11539">
		<tag k="alt_name" v="Sandefjorden" />
		<tag k="bay" v="fjord" />
		<tag k="name" v="Sandefjordsfjorden" />
		<tag k="natural" v="bay" />
		<tag k="ssr:date" v="2017-01-19" />
		<tag k="ssr:stedsnr" v="62150" />
		<nd ref="-54230" />
		<nd ref="-54231" />
		<nd ref="-54232" />
		<nd ref="-54233" />
		<nd ref="-54234" />
		<nd ref="-54235" />
		<nd ref="-54236" />
	</way>
	<way id="-11534">
		<tag k="alt_name" v="Lakseholmen" />
		<tag k="name" v="Laksholmen" />
		<tag k="place" v="islet" />
		<tag k="ssr:date" v="2017-01-19" />
		<tag k="ssr:stedsnr" v="62126" />
		<nd ref="-54215" />
		<nd ref="-54216" />
		<nd ref="-54217" />
	</way>
	<way id="-11527">
		<tag k="name" v="Stubb" />
		<tag k="natural" v="beach" />
		<tag k="place" v="locality" />
		<tag k="ssr:date" v="2017-01-19" />
		<tag k="ssr:stedsnr" v="28575" />
		<nd ref="-54191" />
		<nd ref="-54192" />
	</way>
	<way id="-11526">
		<tag k="name" v="Skaustranda" />
		<tag k="natural" v="beach" />
		<tag k="place" v="locality" />
		<tag k="ssr:date" v="2017-01-19" />
		<tag k="ssr:stedsnr" v="28569" />
		<nd ref="-54188" />
		<nd ref="-54189" />
	</way>
	<way id="-12035">
		<tag k="fixme" v="consider seamark:type=rock" />
		<tag k="name" v="Terneskjæret" />
		<tag k="natural" v="islet" />
		<tag k="ssr:date" v="2017-01-19" />
		<tag k="ssr:stedsnr" v="754915" />
		<nd ref="-56503" />
		<nd ref="-56504" />
		<nd ref="-56505" />
	</way>
	<way id="-11522">
		<tag k="name" v="Grubesand" />
		<tag k="natural" v="beach" />
		<tag k="place" v="locality" />
		<tag k="ssr:date" v="2017-01-19" />
		<tag k="ssr:stedsnr" v="26903" />
		<nd ref="-54129" />
		<nd ref="-54130" />
		<nd ref="-54131" />
	</way>
	<way id="-11647">
		<tag k="alt_name" v="Langø;Langøy" />
		<tag k="name" v="Langøya" />
		<tag k="place" v="island" />
		<tag k="ssr:date" v="2017-01-19" />
		<tag k="ssr:stedsnr" v="184228" />
		<nd ref="-54750" />
		<nd ref="-54751" />
		<nd ref="-54752" />
		<nd ref="-54753" />
		<nd ref="-54754" />
	</way>
	<way id="-11988">
		<tag k="name" v="Sigrunnen" />
		<tag k="natural" v="shoal" />
		<tag k="place" v="locality" />
		<tag k="ssr:date" v="2017-01-19" />
		<tag k="ssr:stedsnr" v="695556" />
		<nd ref="-56326" />
		<nd ref="-56327" />
	</way>
	<way id="-11644">
		<tag k="fixme" v="consider seamark:type=rock" />
		<tag k="name" v="Krokane" />
		<tag k="natural" v="islet" />
		<tag k="ssr:date" v="2017-01-19" />
		<tag k="ssr:stedsnr" v="184169" />
		<nd ref="-54742" />
		<nd ref="-54743" />
	</way>
	<way id="-12006">
		<tag k="alt_name" v="Eianholmen" />
		<tag k="name" v="Andholmen" />
		<tag k="place" v="islet" />
		<tag k="ssr:date" v="2017-01-19" />
		<tag k="ssr:stedsnr" v="730115" />
		<nd ref="-56398" />
		<nd ref="-56399" />
		<nd ref="-56400" />
		<nd ref="-56401" />
	</way>
	<way id="-12005">
		<tag k="fixme" v="consider seamark:type=rock" />
		<tag k="name" v="Terneskjær" />
		<tag k="natural" v="islet" />
		<tag k="ssr:date" v="2017-01-19" />
		<tag k="ssr:stedsnr" v="730084" />
		<nd ref="-56395" />
		<nd ref="-56396" />
		<nd ref="-56397" />
	</way>
	<way id="-12003">
		<tag k="name" v="Gåsøkalven" />
		<tag k="place" v="islet" />
		<tag k="ssr:date" v="2017-01-19" />
		<tag k="ssr:stedsnr" v="730052" />
		<nd ref="-56389" />
		<nd ref="-56390" />
		<nd ref="-56391" />
	</way>
	<way id="-12001">
		<tag k="name" v="Melsombukta" />
		<tag k="natural" v="bay" />
		<tag k="ssr:date" v="2017-01-19" />
		<tag k="ssr:stedsnr" v="730033" />
		<nd ref="-56384" />
		<nd ref="-56385" />
		<nd ref="-56386" />
	</way>
	<way id="-11999">
		<tag k="name" v="Tredelene" />
		<tag k="place" v="islet" />
		<tag k="ssr:date" v="2017-01-19" />
		<tag k="ssr:stedsnr" v="729106" />
		<nd ref="-56378" />
		<nd ref="-56379" />
	</way>
	<way id="-11481">
		<tag k="name" v="Ravnø" />
		<tag k="place" v="island" />
		<tag k="ssr:date" v="2017-01-19" />
		<tag k="ssr:stedsnr" v="1197" />
		<nd ref="-53963" />
		<nd ref="-53964" />
		<nd ref="-53965" />
		<nd ref="-53966" />
		<nd ref="-53967" />
	</way>
	<way id="-11476">
		<tag k="fixme" v="multiple name tags, choose one and add the other to alt_name" />
		<tag k="name" v="Furuholmen;Østre Furuholmen" />
		<tag k="place" v="islet" />
		<tag k="ssr:date" v="2017-01-19" />
		<tag k="ssr:stedsnr" v="1133" />
		<nd ref="-53946" />
		<nd ref="-53947" />
		<nd ref="-53948" />
	</way>
	<way id="-11475">
		<tag k="bay" v="fjord" />
		<tag k="name" v="Mefjorden" />
		<tag k="natural" v="bay" />
		<tag k="ssr:date" v="2017-01-19" />
		<tag k="ssr:stedsnr" v="1119" />
		<nd ref="-53942" />
		<nd ref="-53943" />
		<nd ref="-53944" />
		<nd ref="-53945" />
	</way>
	<way id="-11470">
		<tag k="name" v="Nordosta" />
		<tag k="natural" v="shoal" />
		<tag k="place" v="locality" />
		<tag k="ssr:date" v="2017-01-19" />
		<tag k="ssr:stedsnr" v="1018" />
		<nd ref="-53925" />
		<nd ref="-53926" />
	</way>
	<way id="-11458">
		<tag k="fixme" v="consider seamark:type=rock" />
		<tag k="name" v="Tutekulten" />
		<tag k="natural" v="islet" />
		<tag k="ssr:date" v="2017-01-19" />
		<tag k="ssr:stedsnr" v="391767" />
		<nd ref="-53861" />
		<nd ref="-53862" />
	</way>
	<way id="-11967">
		<tag k="name" v="Ertsvika" />
		<tag k="natural" v="bay" />
		<tag k="ssr:date" v="2017-01-19" />
		<tag k="ssr:stedsnr" v="669154" />
		<nd ref="-56209" />
		<nd ref="-56210" />
		<nd ref="-56211" />
	</way>
	<way id="-11966">
		<tag k="name" v="Rørvika" />
		<tag k="natural" v="bay" />
		<tag k="ssr:date" v="2017-01-19" />
		<tag k="ssr:stedsnr" v="669145" />
		<nd ref="-56206" />
		<nd ref="-56207" />
		<nd ref="-56208" />
	</way>
	<way id="-11637">
		<tag k="name" v="Brattholmen" />
		<tag k="place" v="islet" />
		<tag k="ssr:date" v="2017-01-19" />
		<tag k="ssr:stedsnr" v="184066" />
		<nd ref="-54720" />
		<nd ref="-54721" />
		<nd ref="-54722" />
	</way>
	<way id="-11434">
		<tag k="name" v="Svartebåen" />
		<tag k="natural" v="shoal" />
		<tag k="place" v="locality" />
		<tag k="ssr:date" v="2017-01-19" />
		<tag k="ssr:stedsnr" v="366172" />
		<nd ref="-53736" />
		<nd ref="-53737" />
		<nd ref="-53738" />
		<nd ref="-53739" />
	</way>
	<way id="-11430">
		<tag k="name" v="Storholmen" />
		<tag k="place" v="islet" />
		<tag k="ssr:date" v="2017-01-19" />
		<tag k="ssr:stedsnr" v="366064" />
		<nd ref="-53723" />
		<nd ref="-53724" />
		<nd ref="-53725" />
	</way>
	<way id="-11428">
		<tag k="name" v="Nattholmen" />
		<tag k="place" v="island" />
		<tag k="ssr:date" v="2017-01-19" />
		<tag k="ssr:stedsnr" v="366052" />
		<nd ref="-53717" />
		<nd ref="-53718" />
		<nd ref="-53719" />
		<nd ref="-53720" />
	</way>
	<way id="-11418">
		<tag k="name" v="Lyngholmhausen" />
		<tag k="natural" v="shoal" />
		<tag k="place" v="locality" />
		<tag k="ssr:date" v="2017-01-19" />
		<tag k="ssr:stedsnr" v="365212" />
		<nd ref="-53687" />
		<nd ref="-53688" />
	</way>
	<way id="-11416">
		<tag k="alt_name" v="Lyngholmene" />
		<tag k="name" v="Lyngholmane" />
		<tag k="place" v="islet" />
		<tag k="ssr:date" v="2017-01-19" />
		<tag k="ssr:stedsnr" v="365197" />
		<nd ref="-53677" />
		<nd ref="-53678" />
		<nd ref="-53679" />
		<nd ref="-53680" />
		<nd ref="-53681" />
		<nd ref="-53682" />
	</way>
	<way id="-11412">
		<tag k="name" v="Buerøya" />
		<tag k="place" v="islet" />
		<tag k="ssr:date" v="2017-01-19" />
		<tag k="ssr:stedsnr" v="365126" />
		<nd ref="-53664" />
		<nd ref="-53665" />
		<nd ref="-53666" />
	</way>
	<way id="-11411">
		<tag k="name" v="Vesterøya" />
		<tag k="natural" v="cape" />
		<tag k="place" v="locality" />
		<tag k="ssr:date" v="2017-01-19" />
		<tag k="ssr:stedsnr" v="365124" />
		<nd ref="-53659" />
		<nd ref="-53660" />
		<nd ref="-53661" />
		<nd ref="-53662" />
		<nd ref="-53663" />
	</way>
	<way id="-11409">
		<tag k="name" v="Kongskollen" />
		<tag k="place" v="islet" />
		<tag k="ssr:date" v="2017-01-19" />
		<tag k="ssr:stedsnr" v="365104" />
		<nd ref="-53655" />
		<nd ref="-53656" />
	</way>
	<way id="-11408">
		<tag k="name" v="Engelsbåen" />
		<tag k="natural" v="shoal" />
		<tag k="place" v="locality" />
		<tag k="ssr:date" v="2017-01-19" />
		<tag k="ssr:stedsnr" v="365102" />
		<nd ref="-53653" />
		<nd ref="-53654" />
	</way>
	<way id="-11404">
		<tag k="alt_name" v="Saueholmen" />
		<tag k="name" v="Sauholmen" />
		<tag k="place" v="islet" />
		<tag k="ssr:date" v="2017-01-19" />
		<tag k="ssr:stedsnr" v="365010" />
		<nd ref="-53639" />
		<nd ref="-53640" />
		<nd ref="-53641" />
	</way>
	<way id="-11913">
		<tag k="alt_name" v="Store Verksholmen;Verkholmen" />
		<tag k="name" v="Verkholmane" />
		<tag k="place" v="islet" />
		<tag k="ssr:date" v="2017-01-19" />
		<tag k="ssr:stedsnr" v="608229" />
		<nd ref="-55959" />
		<nd ref="-55960" />
		<nd ref="-55961" />
		<nd ref="-55962" />
	</way>
	<way id="-11399">
		<tag k="alt_name" v="N. Trubervik" />
		<tag k="name" v="Nordre Trubervika" />
		<tag k="natural" v="bay" />
		<tag k="ssr:date" v="2017-01-19" />
		<tag k="ssr:stedsnr" v="330945" />
		<nd ref="-53601" />
		<nd ref="-53602" />
		<nd ref="-53603" />
	</way>
	<way id="-11910">
		<tag k="name" v="Rauergrunnen" />
		<tag k="natural" v="shoal" />
		<tag k="place" v="locality" />
		<tag k="ssr:date" v="2017-01-19" />
		<tag k="ssr:stedsnr" v="608223" />
		<nd ref="-55950" />
		<nd ref="-55951" />
	</way>
	<way id="-11906">
		<tag k="name" v="Nærholmen" />
		<tag k="place" v="islet" />
		<tag k="ssr:date" v="2017-01-19" />
		<tag k="ssr:stedsnr" v="608144" />
		<nd ref="-55935" />
		<nd ref="-55936" />
		<nd ref="-55937" />
	</way>
	<way id="-11904">
		<tag k="name" v="Saltholmen" />
		<tag k="place" v="islet" />
		<tag k="ssr:date" v="2017-01-19" />
		<tag k="ssr:stedsnr" v="608134" />
		<nd ref="-55928" />
		<nd ref="-55929" />
		<nd ref="-55930" />
	</way>
	<way id="-11903">
		<tag k="fixme" v="consider seamark:type=rock" />
		<tag k="name" v="Snipa" />
		<tag k="natural" v="islet" />
		<tag k="ssr:date" v="2017-01-19" />
		<tag k="ssr:stedsnr" v="608127" />
		<nd ref="-55925" />
		<nd ref="-55926" />
		<nd ref="-55927" />
	</way>
	<way id="-11900">
		<tag k="name" v="Tossen" />
		<tag k="place" v="islet" />
		<tag k="ssr:date" v="2017-01-19" />
		<tag k="ssr:stedsnr" v="608109" />
		<nd ref="-55913" />
		<nd ref="-55914" />
		<nd ref="-55915" />
	</way>
	<way id="-11897">
		<tag k="name" v="Ormestadvika" />
		<tag k="natural" v="bay" />
		<tag k="ssr:date" v="2017-01-19" />
		<tag k="ssr:stedsnr" v="608060" />
		<nd ref="-55902" />
		<nd ref="-55903" />
		<nd ref="-55904" />
	</way>
	<way id="-11896">
		<tag k="name" v="Trælsodden" />
		<tag k="natural" v="cape" />
		<tag k="place" v="locality" />
		<tag k="ssr:date" v="2017-01-19" />
		<tag k="ssr:stedsnr" v="608051" />
		<nd ref="-55898" />
		<nd ref="-55899" />
		<nd ref="-55900" />
		<nd ref="-55901" />
	</way>
	<way id="-11895">
		<tag k="name" v="Årøtangen" />
		<tag k="natural" v="cape" />
		<tag k="place" v="locality" />
		<tag k="ssr:date" v="2017-01-19" />
		<tag k="ssr:stedsnr" v="608028" />
		<nd ref="-55896" />
		<nd ref="-55897" />
	</way>
	<way id="-11368">
		<tag k="fixme" v="consider seamark:type=rock" />
		<tag k="name" v="Tønneskjæra" />
		<tag k="natural" v="islet" />
		<tag k="ssr:date" v="2017-01-19" />
		<tag k="ssr:stedsnr" v="305171" />
		<nd ref="-53428" />
		<nd ref="-53429" />
		<nd ref="-53430" />
		<nd ref="-53431" />
	</way>
	<way id="-11879">
		<tag k="name" v="Arøbåen" />
		<tag k="natural" v="shoal" />
		<tag k="place" v="locality" />
		<tag k="ssr:date" v="2017-01-19" />
		<tag k="ssr:stedsnr" v="570525" />
		<nd ref="-55774" />
		<nd ref="-55775" />
	</way>
	<way id="-11365">
		<tag k="name" v="Strandvika" />
		<tag k="natural" v="bay" />
		<tag k="ssr:date" v="2017-01-19" />
		<tag k="ssr:stedsnr" v="305155" />
		<nd ref="-53418" />
		<nd ref="-53419" />
		<nd ref="-53420" />
	</way>
	<way id="-11357">
		<tag k="name" v="Stauper" />
		<tag k="place" v="island" />
		<tag k="ssr:date" v="2017-01-19" />
		<tag k="ssr:stedsnr" v="304101" />
		<nd ref="-53391" />
		<nd ref="-53392" />
		<nd ref="-53393" />
		<nd ref="-53394" />
	</way>
	<way id="-11356">
		<tag k="alt_name" v="Raunebben" />
		<tag k="name" v="Raudnebben" />
		<tag k="place" v="islet" />
		<tag k="ssr:date" v="2017-01-19" />
		<tag k="ssr:stedsnr" v="304100" />
		<nd ref="-53387" />
		<nd ref="-53388" />
		<nd ref="-53389" />
		<nd ref="-53390" />
	</way>
	<way id="-11353">
		<tag k="fixme" v="consider seamark:type=rock" />
		<tag k="name" v="Helgerødskjær" />
		<tag k="natural" v="islet" />
		<tag k="ssr:date" v="2017-01-19" />
		<tag k="ssr:stedsnr" v="285324" />
		<nd ref="-53376" />
		<nd ref="-53377" />
	</way>
	<way id="-11859">
		<tag k="alt_name" v="Teisteholmen" />
		<tag k="name" v="Teistholmen" />
		<tag k="place" v="islet" />
		<tag k="ssr:date" v="2017-01-19" />
		<tag k="ssr:stedsnr" v="548162" />
		<nd ref="-55710" />
		<nd ref="-55711" />
		<nd ref="-55712" />
	</way>
	<way id="-11856">
		<tag k="alt_name" v="Sydostgrunnen" />
		<tag k="name" v="Sydøstgrunnen" />
		<tag k="natural" v="shoal" />
		<tag k="place" v="locality" />
		<tag k="ssr:date" v="2017-01-19" />
		<tag k="ssr:stedsnr" v="547984" />
		<nd ref="-55698" />
		<nd ref="-55699" />
		<nd ref="-55700" />
		<nd ref="-55701" />
	</way>
	<way id="-11846">
		<tag k="name" v="Omebåen" />
		<tag k="natural" v="shoal" />
		<tag k="place" v="locality" />
		<tag k="ssr:date" v="2017-01-19" />
		<tag k="ssr:stedsnr" v="547174" />
		<nd ref="-55666" />
		<nd ref="-55667" />
	</way>
	<way id="-11842">
		<tag k="name" v="Bergekilen" />
		<tag k="natural" v="bay" />
		<tag k="ssr:date" v="2017-01-19" />
		<tag k="ssr:stedsnr" v="547137" />
		<nd ref="-55652" />
		<nd ref="-55653" />
		<nd ref="-55654" />
	</way>
	<way id="-11830">
		<tag k="alt_name" v="Trangsholmen" />
		<tag k="name" v="Trangsholmene" />
		<tag k="place" v="islet" />
		<tag k="ssr:date" v="2017-01-19" />
		<tag k="ssr:stedsnr" v="512530" />
		<nd ref="-55555" />
		<nd ref="-55556" />
		<nd ref="-55557" />
	</way>
	<way id="-11797">
		<tag k="name" v="Håholmen" />
		<tag k="place" v="islet" />
		<tag k="ssr:date" v="2017-01-19" />
		<tag k="ssr:stedsnr" v="487157" />
		<nd ref="-55418" />
		<nd ref="-55419" />
		<nd ref="-55420" />
	</way>
	<way id="-11796">
		<tag k="name" v="Slottsvika" />
		<tag k="natural" v="bay" />
		<tag k="ssr:date" v="2017-01-19" />
		<tag k="ssr:stedsnr" v="487153" />
		<nd ref="-55415" />
		<nd ref="-55416" />
		<nd ref="-55417" />
	</way>
	<way id="-11792">
		<tag k="name" v="Grindholmen" />
		<tag k="place" v="islet" />
		<tag k="ssr:date" v="2017-01-19" />
		<tag k="ssr:stedsnr" v="487077" />
		<nd ref="-55403" />
		<nd ref="-55404" />
		<nd ref="-55405" />
	</way>
	<way id="-11788">
		<tag k="alt_name" v="Vakop" />
		<tag k="fixme" v="consider seamark:type=rock" />
		<tag k="name" v="Vakopp" />
		<tag k="natural" v="islet" />
		<tag k="ssr:date" v="2017-01-19" />
		<tag k="ssr:stedsnr" v="487062" />
		<nd ref="-55390" />
		<nd ref="-55391" />
		<nd ref="-55392" />
	</way>
	<way id="-11787">
		<tag k="name" v="Fornet" />
		<tag k="place" v="islet" />
		<tag k="ssr:date" v="2017-01-19" />
		<tag k="ssr:stedsnr" v="487059" />
		<nd ref="-55387" />
		<nd ref="-55388" />
		<nd ref="-55389" />
	</way>
	<way id="-11785">
		<tag k="alt_name" v="Møyeren" />
		<tag k="name" v="Møyern" />
		<tag k="place" v="islet" />
		<tag k="ssr:date" v="2017-01-19" />
		<tag k="ssr:stedsnr" v="487048" />
		<nd ref="-55380" />
		<nd ref="-55381" />
		<nd ref="-55382" />
		<nd ref="-55383" />
	</way>
	<way id="-11782">
		<tag k="name" v="Årø" />
		<tag k="place" v="island" />
		<tag k="ssr:date" v="2017-01-19" />
		<tag k="ssr:stedsnr" v="487019" />
		<nd ref="-55370" />
		<nd ref="-55371" />
		<nd ref="-55372" />
	</way>
	<way id="-11781">
		<tag k="name" v="Storekrakk" />
		<tag k="natural" v="shoal" />
		<tag k="place" v="locality" />
		<tag k="ssr:date" v="2017-01-19" />
		<tag k="ssr:stedsnr" v="486180" />
		<nd ref="-55368" />
		<nd ref="-55369" />
	</way>
</osm>
