<?xml version="1.0" encoding="UTF-8"?>
<osm generator="osmapis" version="0.6">
	<node id="-55296" lat="59.216536111" lon="10.1690111116">
		<tag k="name" v="Solhaug" />
		<tag k="natural" v="hill" />
		<tag k="place" v="locality" />
		<tag k="ssr:date" v="2017-01-19" />
		<tag k="ssr:stedsnr" v="452698" />
	</node>
	<node id="-55291" lat="59.0716666677" lon="10.2678111026">
		<tag k="name" v="Tornberget" />
		<tag k="natural" v="hill" />
		<tag k="place" v="locality" />
		<tag k="ssr:date" v="2017-01-19" />
		<tag k="ssr:stedsnr" v="452637" />
	</node>
	<node id="-55288" lat="59.085191664" lon="10.2693611023">
		<tag k="name" v="Herreporten" />
		<tag k="place" v="locality" />
		<tag k="ssr:date" v="2017-01-19" />
		<tag k="ssr:stedsnr" v="452566" />
	</node>
	<node id="-54270" lat="59.2424027818" lon="10.2381749979">
		<tag k="ssr:gml_id" v="GEOMETRY_34bc0979-c48c-4356-810b-14b8e38f9cde" />
		<tag k="ssr:gml_nr" v="0" />
	</node>
	<node id="-55279" lat="59.29689167" lon="10.0977972177">
		<tag k="name" v="Elgeberget" />
		<tag k="natural" v="hill" />
		<tag k="place" v="locality" />
		<tag k="ssr:date" v="2017-01-19" />
		<tag k="ssr:stedsnr" v="452229" />
	</node>
	<node id="-55276" lat="59.3208083324" lon="10.1054972284">
		<tag k="name" v="Seterbakke" />
		<tag k="natural" v="slope" />
		<tag k="place" v="locality" />
		<tag k="ssr:date" v="2017-01-19" />
		<tag k="ssr:stedsnr" v="452183" />
	</node>
	<node id="-55271" lat="59.3623999969" lon="10.1254166749">
		<tag k="name" v="Sprenebakken" />
		<tag k="natural" v="slope" />
		<tag k="place" v="locality" />
		<tag k="ssr:date" v="2017-01-19" />
		<tag k="ssr:stedsnr" v="452121" />
	</node>
	<node id="-55265" lat="59.2893111092" lon="10.0589500051">
		<tag k="name" v="Sagdalen" />
		<tag k="natural" v="valley" />
		<tag k="place" v="locality" />
		<tag k="ssr:date" v="2017-01-19" />
		<tag k="ssr:stedsnr" v="451834" />
	</node>
	<node id="-55263" lat="59.2896527806" lon="10.1396305525">
		<tag k="name" v="Tranget" />
		<tag k="place" v="locality" />
		<tag k="ssr:date" v="2017-01-19" />
		<tag k="ssr:stedsnr" v="451802" />
	</node>
	<node id="-55258" lat="59.1963222245" lon="10.3383944417">
		<tag k="name" v="Ravnøy nordre" />
		<tag k="natural" v="hill" />
		<tag k="place" v="locality" />
		<tag k="ssr:date" v="2017-01-19" />
		<tag k="ssr:stedsnr" v="450482" />
	</node>
	<node id="-57305" lat="59.256986112" lon="10.3001833252">
		<tag k="name" v="Tonås" />
		<tag k="natural" v="hill" />
		<tag k="place" v="locality" />
		<tag k="ssr:date" v="2017-01-19" />
		<tag k="ssr:stedsnr" v="938660" />
	</node>
	<node id="-57304" lat="59.1192805547" lon="10.2174444488">
		<tag k="name" v="Ranvikåsen" />
		<tag k="natural" v="hill" />
		<tag k="place" v="locality" />
		<tag k="ssr:date" v="2017-01-19" />
		<tag k="ssr:stedsnr" v="938546" />
	</node>
	<node id="-55255" lat="59.175063889" lon="10.3271472298">
		<tag k="ssr:gml_id" v="GEOMETRY_a2563d92-8a07-4cb9-a3f5-efce1498234b" />
		<tag k="ssr:gml_nr" v="0" />
	</node>
	<node id="-57302" lat="59.2816749965" lon="10.2041833286">
		<tag k="name" v="Bonden" />
		<tag k="natural" v="slope" />
		<tag k="place" v="locality" />
		<tag k="ssr:date" v="2017-01-19" />
		<tag k="ssr:stedsnr" v="938492" />
	</node>
	<node id="-55252" lat="59.2202999997" lon="10.3073805505">
		<tag k="name" v="Solåsen" />
		<tag k="natural" v="hill" />
		<tag k="place" v="locality" />
		<tag k="ssr:date" v="2017-01-19" />
		<tag k="ssr:stedsnr" v="450416" />
	</node>
	<node id="-57299" lat="59.2821305513" lon="10.2446222289">
		<tag k="name" v="Stubberødåsen" />
		<tag k="natural" v="hill" />
		<tag k="place" v="locality" />
		<tag k="ssr:date" v="2017-01-19" />
		<tag k="ssr:stedsnr" v="938414" />
	</node>
	<node id="-57298" lat="59.2486388927" lon="10.1252166747">
		<tag k="name" v="Damåsen" />
		<tag k="natural" v="hill" />
		<tag k="place" v="locality" />
		<tag k="ssr:date" v="2017-01-19" />
		<tag k="ssr:stedsnr" v="937999" />
	</node>
	<node id="-57297" lat="59.2440055532" lon="10.142386106">
		<tag k="name" v="Gledisås" />
		<tag k="natural" v="hill" />
		<tag k="place" v="locality" />
		<tag k="ssr:date" v="2017-01-19" />
		<tag k="ssr:stedsnr" v="937989" />
	</node>
	<node id="-57295" lat="59.2175083363" lon="10.0884166628">
		<tag k="name" v="Tjønnedallia" />
		<tag k="natural" v="slope" />
		<tag k="place" v="locality" />
		<tag k="ssr:date" v="2017-01-19" />
		<tag k="ssr:stedsnr" v="937977" />
	</node>
	<node id="-55245" lat="59.1519250035" lon="10.2881277697">
		<tag k="name" v="Marthesåsen" />
		<tag k="natural" v="hill" />
		<tag k="place" v="locality" />
		<tag k="ssr:date" v="2017-01-19" />
		<tag k="ssr:stedsnr" v="450299" />
	</node>
	<node id="-57292" lat="59.2874944408" lon="10.1237249984">
		<tag k="name" v="Sauåsen" />
		<tag k="natural" v="hill" />
		<tag k="place" v="locality" />
		<tag k="ssr:date" v="2017-01-19" />
		<tag k="ssr:stedsnr" v="937849" />
	</node>
	<node id="-57291" lat="59.2824277754" lon="10.0676249999">
		<tag k="name" v="Ådnestua" />
		<tag k="natural" v="valley" />
		<tag k="place" v="locality" />
		<tag k="ssr:date" v="2017-01-19" />
		<tag k="ssr:stedsnr" v="937840" />
	</node>
	<node id="-55241" lat="59.0698083299" lon="10.2981888864">
		<tag k="name" v="Ravnereiråsen" />
		<tag k="natural" v="hill" />
		<tag k="place" v="locality" />
		<tag k="ssr:date" v="2017-01-19" />
		<tag k="ssr:stedsnr" v="449319" />
	</node>
	<node id="-57288" lat="59.2318777749" lon="10.0314416643">
		<tag k="name" v="Magnusdalen" />
		<tag k="natural" v="valley" />
		<tag k="place" v="locality" />
		<tag k="ssr:date" v="2017-01-19" />
		<tag k="ssr:stedsnr" v="937809" />
	</node>
	<node id="-57287" lat="59.2495777756" lon="10.1432083371">
		<tag k="name" v="Gjerlaplassen" />
		<tag k="place" v="locality" />
		<tag k="ssr:date" v="2017-01-19" />
		<tag k="ssr:stedsnr" v="937807" />
	</node>
	<node id="-57284" lat="59.1505666675" lon="10.2459194492">
		<tag k="name" v="Dverdalsåsen" />
		<tag k="natural" v="hill" />
		<tag k="place" v="locality" />
		<tag k="ssr:date" v="2017-01-19" />
		<tag k="ssr:stedsnr" v="937793" />
	</node>
	<node id="-57283" lat="59.0810416649" lon="10.2650388923">
		<tag k="name" v="Gapfjell" />
		<tag k="natural" v="hill" />
		<tag k="place" v="locality" />
		<tag k="ssr:date" v="2017-01-19" />
		<tag k="ssr:stedsnr" v="937779" />
	</node>
	<node id="-55234" lat="59.1260833374" lon="10.3205333418">
		<tag k="name" v="Blåsen" />
		<tag k="natural" v="hill" />
		<tag k="place" v="locality" />
		<tag k="ssr:date" v="2017-01-19" />
		<tag k="ssr:stedsnr" v="449254" />
	</node>
	<node id="-55233" lat="59.3684916694" lon="10.0832416672">
		<tag k="ssr:gml_id" v="GEOMETRY_f4e9e0b7-a90b-4f4c-8c21-129a56cda1dc" />
		<tag k="ssr:gml_nr" v="1" />
	</node>
	<node id="-55232" lat="59.3686250041" lon="10.0841805644">
		<tag k="ssr:gml_id" v="GEOMETRY_dfc8a190-9882-4905-90af-7fa3da808c81" />
		<tag k="ssr:gml_nr" v="0" />
	</node>
	<node id="-57279" lat="59.1226194418" lon="10.2481722267">
		<tag k="name" v="Anilla" />
		<tag k="natural" v="valley" />
		<tag k="place" v="locality" />
		<tag k="ssr:date" v="2017-01-19" />
		<tag k="ssr:stedsnr" v="937741" />
	</node>
	<node id="-57274" lat="59.2674694453" lon="10.0335999916">
		<tag k="ssr:gml_id" v="GEOMETRY_f580a59c-1b94-4b2b-a992-12c95cdf93c2" />
		<tag k="ssr:gml_nr" v="1" />
	</node>
	<node id="-57273" lat="59.27133611" lon="10.0342888901">
		<tag k="ssr:gml_id" v="GEOMETRY_59b3d0f7-70af-4fa9-8dc7-8a198d042d9b" />
		<tag k="ssr:gml_nr" v="0" />
	</node>
	<node id="-57272" lat="59.328622218" lon="10.0366027773">
		<tag k="name" v="Gørpussåsen" />
		<tag k="natural" v="hill" />
		<tag k="place" v="locality" />
		<tag k="ssr:date" v="2017-01-19" />
		<tag k="ssr:stedsnr" v="937670" />
	</node>
	<node id="-57271" lat="59.3156611097" lon="10.0187527743">
		<tag k="name" v="Pæltane" />
		<tag k="natural" v="slope" />
		<tag k="place" v="locality" />
		<tag k="ssr:date" v="2017-01-19" />
		<tag k="ssr:stedsnr" v="937663" />
	</node>
	<node id="-57269" lat="59.1155138903" lon="10.1599222221">
		<tag k="name" v="Kjær" />
		<tag k="place" v="locality" />
		<tag k="ssr:date" v="2017-01-19" />
		<tag k="ssr:stedsnr" v="937638" />
	</node>
	<node id="-57268" lat="59.1180805583" lon="10.2033694494">
		<tag k="name" v="Fetjalund" />
		<tag k="natural" v="hill" />
		<tag k="place" v="locality" />
		<tag k="ssr:date" v="2017-01-19" />
		<tag k="ssr:stedsnr" v="937635" />
	</node>
	<node id="-57267" lat="59.3038805551" lon="10.025116669">
		<tag k="name" v="Bjørkedalen" />
		<tag k="natural" v="valley" />
		<tag k="place" v="locality" />
		<tag k="ssr:date" v="2017-01-19" />
		<tag k="ssr:stedsnr" v="937633" />
	</node>
	<node id="-57266" lat="59.3093083359" lon="10.0422111028">
		<tag k="name" v="Svervestolen" />
		<tag k="natural" v="hill" />
		<tag k="place" v="locality" />
		<tag k="ssr:date" v="2017-01-19" />
		<tag k="ssr:stedsnr" v="937577" />
	</node>
	<node id="-55217" lat="59.3084361079" lon="10.0445416727">
		<tag k="ssr:gml_id" v="GEOMETRY_ac8f939b-101c-4d72-add2-8467a7bb2da2" />
		<tag k="ssr:gml_nr" v="1" />
	</node>
	<node id="-55216" lat="59.3086500032" lon="10.0367416608">
		<tag k="ssr:gml_id" v="GEOMETRY_d725ccae-5ccd-4e2e-bc28-d5baa6e220b3" />
		<tag k="ssr:gml_nr" v="0" />
	</node>
	<node id="-57263" lat="59.0841333305" lon="10.2662444362">
		<tag k="name" v="Fjøsglova" />
		<tag k="natural" v="valley" />
		<tag k="place" v="locality" />
		<tag k="ssr:date" v="2017-01-19" />
		<tag k="ssr:stedsnr" v="937571" />
	</node>
	<node id="-57262" lat="59.0906138855" lon="10.2693833364">
		<tag k="ssr:gml_id" v="GEOMETRY_3e32bcc0-c077-4cc0-8696-e949b8e8c98b" />
		<tag k="ssr:gml_nr" v="1" />
	</node>
	<node id="-55213" lat="59.3052861124" lon="10.0289333289">
		<tag k="name" v="Geitskordalen" />
		<tag k="natural" v="valley" />
		<tag k="place" v="locality" />
		<tag k="ssr:date" v="2017-01-19" />
		<tag k="ssr:stedsnr" v="428816" />
	</node>
	<node id="-57255" lat="59.3063388899" lon="10.176550002">
		<tag k="name" v="Bankbakken" />
		<tag k="natural" v="slope" />
		<tag k="place" v="locality" />
		<tag k="ssr:date" v="2017-01-19" />
		<tag k="ssr:stedsnr" v="937441" />
	</node>
	<node id="-57249" lat="59.2948888851" lon="10.1843388857">
		<tag k="name" v="Trytebærje" />
		<tag k="natural" v="slope" />
		<tag k="place" v="locality" />
		<tag k="ssr:date" v="2017-01-19" />
		<tag k="ssr:stedsnr" v="937369" />
	</node>
	<node id="-57246" lat="59.2952333317" lon="10.1512999936">
		<tag k="name" v="Krokenga" />
		<tag k="natural" v="slope" />
		<tag k="place" v="locality" />
		<tag k="ssr:date" v="2017-01-19" />
		<tag k="ssr:stedsnr" v="937286" />
	</node>
	<node id="-57244" lat="59.2998111066" lon="10.1124583396">
		<tag k="name" v="Susåsen" />
		<tag k="natural" v="hill" />
		<tag k="place" v="locality" />
		<tag k="ssr:date" v="2017-01-19" />
		<tag k="ssr:stedsnr" v="937280" />
	</node>
	<node id="-57243" lat="59.2989194451" lon="10.1159944395">
		<tag k="name" v="Susen" />
		<tag k="natural" v="hill" />
		<tag k="place" v="locality" />
		<tag k="ssr:date" v="2017-01-19" />
		<tag k="ssr:stedsnr" v="937281" />
	</node>
	<node id="-57242" lat="59.3163972251" lon="10.0632222207">
		<tag k="name" v="Høgenhall" />
		<tag k="natural" v="slope" />
		<tag k="place" v="locality" />
		<tag k="ssr:date" v="2017-01-19" />
		<tag k="ssr:stedsnr" v="937249" />
	</node>
	<node id="-57239" lat="59.3146861127" lon="10.0478138934">
		<tag k="name" v="Lykkja" />
		<tag k="place" v="locality" />
		<tag k="ssr:date" v="2017-01-19" />
		<tag k="ssr:stedsnr" v="937239" />
	</node>
	<node id="-57238" lat="59.3460361148" lon="10.0672222193">
		<tag k="name" v="Dylledalsåsen" />
		<tag k="natural" v="hill" />
		<tag k="place" v="locality" />
		<tag k="ssr:date" v="2017-01-19" />
		<tag k="ssr:stedsnr" v="937192" />
	</node>
	<node id="-57235" lat="59.3406305518" lon="10.0483944492">
		<tag k="name" v="Flåene" />
		<tag k="natural" v="slope" />
		<tag k="place" v="locality" />
		<tag k="ssr:date" v="2017-01-19" />
		<tag k="ssr:stedsnr" v="937164" />
	</node>
	<node id="-57230" lat="59.1742250034" lon="10.3195055638">
		<tag k="name" v="Frøsås" />
		<tag k="natural" v="hill" />
		<tag k="place" v="locality" />
		<tag k="ssr:date" v="2017-01-19" />
		<tag k="ssr:stedsnr" v="935476" />
	</node>
	<node id="-57223" lat="59.2252333289" lon="10.3283527839">
		<tag k="name" v="Melsombakken" />
		<tag k="natural" v="slope" />
		<tag k="place" v="locality" />
		<tag k="ssr:date" v="2017-01-19" />
		<tag k="ssr:stedsnr" v="935432" />
	</node>
	<node id="-57219" lat="59.0538166693" lon="10.2756083396">
		<tag k="name" v="Krokane" />
		<tag k="place" v="locality" />
		<tag k="ssr:date" v="2017-01-19" />
		<tag k="ssr:stedsnr" v="935342" />
	</node>
	<node id="-57214" lat="59.1535166655" lon="10.28798334">
		<tag k="name" v="Dåpan" />
		<tag k="natural" v="hill" />
		<tag k="place" v="locality" />
		<tag k="ssr:date" v="2017-01-19" />
		<tag k="ssr:stedsnr" v="935283" />
	</node>
	<node id="-57212" lat="59.1600416684" lon="10.2831250049">
		<tag k="name" v="Ringkollen" />
		<tag k="natural" v="hill" />
		<tag k="place" v="locality" />
		<tag k="ssr:date" v="2017-01-19" />
		<tag k="ssr:stedsnr" v="935273" />
	</node>
	<node id="-57210" lat="59.1405083293" lon="10.3223972148">
		<tag k="name" v="Langglova" />
		<tag k="natural" v="hill" />
		<tag k="place" v="locality" />
		<tag k="ssr:date" v="2017-01-19" />
		<tag k="ssr:stedsnr" v="935258" />
	</node>
	<node id="-57203" lat="59.123097221" lon="10.2785833305">
		<tag k="name" v="Hafallbrekka" />
		<tag k="natural" v="hill" />
		<tag k="place" v="locality" />
		<tag k="ssr:date" v="2017-01-19" />
		<tag k="ssr:stedsnr" v="935211" />
	</node>
	<node id="-57184" lat="59.3212944479" lon="10.0820750082">
		<tag k="name" v="Nesåsen" />
		<tag k="natural" v="hill" />
		<tag k="place" v="locality" />
		<tag k="ssr:date" v="2017-01-19" />
		<tag k="ssr:stedsnr" v="913770" />
	</node>
	<node id="-55133" lat="59.1829305528" lon="10.1369749996">
		<tag k="ssr:gml_id" v="GEOMETRY_24066719-8a5d-4846-82c1-54d86bd0b6b8" />
		<tag k="ssr:gml_nr" v="3" />
	</node>
	<node id="-55132" lat="59.1834249968" lon="10.1376749921">
		<tag k="ssr:gml_id" v="GEOMETRY_8f155093-5c5c-419a-8bcd-e52c77ab7237" />
		<tag k="ssr:gml_nr" v="2" />
	</node>
	<node id="-55131" lat="59.183419441" lon="10.1376694523">
		<tag k="ssr:gml_id" v="GEOMETRY_00df0826-08ba-4da8-85be-4d23c37b41ae" />
		<tag k="ssr:gml_nr" v="1" />
	</node>
	<node id="-55130" lat="59.1834166633" lon="10.1376666649">
		<tag k="ssr:gml_id" v="GEOMETRY_88bb4c93-bd7d-4c1a-ae95-2b55a77078fc" />
		<tag k="ssr:gml_nr" v="0" />
	</node>
	<node id="-57168" lat="59.2400638903" lon="10.0829277857">
		<tag k="ssr:gml_id" v="GEOMETRY_16e59d4d-f33c-4fe4-924a-116a739f5db0" />
		<tag k="ssr:gml_nr" v="2" />
	</node>
	<node id="-57167" lat="59.2407555518" lon="10.0852194499">
		<tag k="ssr:gml_id" v="GEOMETRY_4191034b-bbe8-4901-8590-5fec22ae6689" />
		<tag k="ssr:gml_nr" v="1" />
	</node>
	<node id="-57166" lat="59.2407527819" lon="10.0852166623">
		<tag k="ssr:gml_id" v="GEOMETRY_03052adc-f926-4aa3-a8b2-da2fab643511" />
		<tag k="ssr:gml_nr" v="0" />
	</node>
	<node id="-57148" lat="59.1609194433" lon="10.2383861172">
		<tag k="ssr:gml_id" v="GEOMETRY_44b977c2-0649-4ab5-91b8-298de1392135" />
		<tag k="ssr:gml_nr" v="2" />
	</node>
	<node id="-55099" lat="59.2199277767" lon="10.3531083369">
		<tag k="ssr:gml_id" v="GEOMETRY_a29fa8f7-5966-4f71-b9d2-809995b120fb" />
		<tag k="ssr:gml_nr" v="2" />
	</node>
	<node id="-55098" lat="59.2204388871" lon="10.352713885">
		<tag k="ssr:gml_id" v="GEOMETRY_47b5f228-8a59-405d-a684-86c7343e2c6e" />
		<tag k="ssr:gml_nr" v="1" />
	</node>
	<node id="-55097" lat="59.2204361137" lon="10.3527111122">
		<tag k="ssr:gml_id" v="GEOMETRY_b118aa7b-f7df-4c69-84ef-d1a0a7d31e54" />
		<tag k="ssr:gml_nr" v="0" />
	</node>
	<node id="-55604" lat="59.1070277778" lon="10.2528749966">
		<tag k="ssr:gml_id" v="GEOMETRY_b79d2b23-8555-471c-92b2-f8511368cf76" />
		<tag k="ssr:gml_nr" v="0" />
	</node>
	<node id="-55081" lat="59.2425527799" lon="10.3418055608">
		<tag k="name" v="Gileåsen" />
		<tag k="natural" v="hill" />
		<tag k="place" v="locality" />
		<tag k="ssr:date" v="2017-01-19" />
		<tag k="ssr:stedsnr" v="268438" />
	</node>
	<node id="-55077" lat="59.0942555568" lon="10.2723444442">
		<tag k="name" v="Hummelen" />
		<tag k="natural" v="hill" />
		<tag k="place" v="locality" />
		<tag k="ssr:date" v="2017-01-19" />
		<tag k="ssr:stedsnr" v="268318" />
	</node>
	<node id="-55076" lat="59.1504666677" lon="10.2784555636">
		<tag k="name" v="Mileåsen" />
		<tag k="natural" v="hill" />
		<tag k="place" v="locality" />
		<tag k="ssr:date" v="2017-01-19" />
		<tag k="ssr:stedsnr" v="268308" />
	</node>
	<node id="-55071" lat="59.0584972244" lon="10.308530563">
		<tag k="fixme" v="consider natural=peak for the most distinct mountains in the district" />
		<tag k="name" v="Tønneberget" />
		<tag k="natural" v="hill" />
		<tag k="place" v="locality" />
		<tag k="ssr:date" v="2017-01-19" />
		<tag k="ssr:stedsnr" v="267312" />
	</node>
	<node id="-55070" lat="59.1565861136" lon="10.2787305601">
		<tag k="fixme" v="consider natural=peak for the most distinct mountains in the district" />
		<tag k="name" v="Ormeura" />
		<tag k="natural" v="hill" />
		<tag k="place" v="locality" />
		<tag k="ssr:date" v="2017-01-19" />
		<tag k="ssr:stedsnr" v="267255" />
	</node>
	<node id="-55069" lat="59.160441671" lon="10.2903333313">
		<tag k="name" v="Bringebæråsen" />
		<tag k="natural" v="hill" />
		<tag k="place" v="locality" />
		<tag k="ssr:date" v="2017-01-19" />
		<tag k="ssr:stedsnr" v="267250" />
	</node>
	<node id="-55065" lat="59.1337777799" lon="10.314763888">
		<tag k="name" v="Bjørnåsen" />
		<tag k="natural" v="hill" />
		<tag k="place" v="locality" />
		<tag k="ssr:date" v="2017-01-19" />
		<tag k="ssr:stedsnr" v="267208" />
	</node>
	<node id="-55256" lat="59.1750611148" lon="10.3271277708">
		<tag k="ssr:gml_id" v="GEOMETRY_ac825ce7-4f38-4e3d-805e-0c5cfce9c1f0" />
		<tag k="ssr:gml_nr" v="1" />
	</node>
	<node id="-53549" lat="59.1901972198" lon="10.3401944464">
		<tag k="name" v="Ravnø søndre" />
		<tag k="natural" v="hill" />
		<tag k="place" v="locality" />
		<tag k="ssr:date" v="2017-01-19" />
		<tag k="ssr:stedsnr" v="328438" />
	</node>
	<node id="-56962" lat="59.0579999957" lon="10.2727249957">
		<tag k="name" v="Strangeberget" />
		<tag k="natural" v="hill" />
		<tag k="place" v="locality" />
		<tag k="ssr:date" v="2017-01-19" />
		<tag k="ssr:stedsnr" v="874363" />
	</node>
	<node id="-57300" lat="59.2863416645" lon="10.2642194362">
		<tag k="name" v="Åsbakken" />
		<tag k="natural" v="slope" />
		<tag k="place" v="locality" />
		<tag k="ssr:date" v="2017-01-19" />
		<tag k="ssr:stedsnr" v="938425" />
	</node>
	<node id="-53545" lat="59.2234611096" lon="10.2860472196">
		<tag k="name" v="Kvellestadåsen" />
		<tag k="natural" v="hill" />
		<tag k="place" v="locality" />
		<tag k="ssr:date" v="2017-01-19" />
		<tag k="ssr:stedsnr" v="328400" />
	</node>
	<node id="-55251" lat="59.2134055523" lon="10.3368138945">
		<tag k="name" v="Solnes" />
		<tag k="natural" v="hill" />
		<tag k="place" v="locality" />
		<tag k="ssr:date" v="2017-01-19" />
		<tag k="ssr:stedsnr" v="450413" />
	</node>
	<node id="-55250" lat="59.2125111111" lon="10.3389527714">
		<tag k="name" v="Solnesbakken" />
		<tag k="natural" v="slope" />
		<tag k="place" v="locality" />
		<tag k="ssr:date" v="2017-01-19" />
		<tag k="ssr:stedsnr" v="450412" />
	</node>
	<node id="-55014" lat="59.3737361106" lon="10.0981750061">
		<tag k="ssr:gml_id" v="GEOMETRY_4169c47a-c231-4686-82c3-050140a8e070" />
		<tag k="ssr:gml_nr" v="2" />
	</node>
	<node id="-55249" lat="59.2207361084" lon="10.3614250003">
		<tag k="fixme" v="consider natural=peak for the most distinct mountains in the district" />
		<tag k="name" v="Svarteberget" />
		<tag k="natural" v="hill" />
		<tag k="place" v="locality" />
		<tag k="ssr:date" v="2017-01-19" />
		<tag k="ssr:stedsnr" v="450406" />
	</node>
	<node id="-55012" lat="59.3728666645" lon="10.0999055516">
		<tag k="ssr:gml_id" v="GEOMETRY_d339dd02-58f9-4c1c-86ac-c31af23a1085" />
		<tag k="ssr:gml_nr" v="0" />
	</node>
	<node id="-57057" lat="59.2416305572" lon="10.1418888829">
		<tag k="name" v="Kirilåsen" />
		<tag k="natural" v="hill" />
		<tag k="place" v="locality" />
		<tag k="ssr:date" v="2017-01-19" />
		<tag k="ssr:stedsnr" v="877993" />
	</node>
	<node id="-57051" lat="59.2015722212" lon="10.1239805611">
		<tag k="name" v="Vassengåsen" />
		<tag k="natural" v="hill" />
		<tag k="place" v="locality" />
		<tag k="ssr:date" v="2017-01-19" />
		<tag k="ssr:stedsnr" v="877847" />
	</node>
	<node id="-57048" lat="59.1887666667" lon="10.1404583254">
		<tag k="name" v="Vassengane" />
		<tag k="place" v="locality" />
		<tag k="ssr:date" v="2017-01-19" />
		<tag k="ssr:stedsnr" v="877819" />
	</node>
	<node id="-57047" lat="59.2865499968" lon="10.119949992">
		<tag k="name" v="Brånaåsen" />
		<tag k="natural" v="hill" />
		<tag k="place" v="locality" />
		<tag k="ssr:date" v="2017-01-19" />
		<tag k="ssr:stedsnr" v="877818" />
	</node>
	<node id="-57046" lat="59.2519472247" lon="10.0578888836">
		<tag k="name" v="Tysbaståsen" />
		<tag k="natural" v="hill" />
		<tag k="place" v="locality" />
		<tag k="ssr:date" v="2017-01-19" />
		<tag k="ssr:stedsnr" v="877811" />
	</node>
	<node id="-57045" lat="59.2537666658" lon="10.0637277773">
		<tag k="name" v="Fuglemyråsane" />
		<tag k="natural" v="hill" />
		<tag k="place" v="locality" />
		<tag k="ssr:date" v="2017-01-19" />
		<tag k="ssr:stedsnr" v="877809" />
	</node>
	<node id="-57044" lat="59.25679444" lon="10.1148944491">
		<tag k="name" v="Jammeråsen" />
		<tag k="natural" v="hill" />
		<tag k="place" v="locality" />
		<tag k="ssr:date" v="2017-01-19" />
		<tag k="ssr:stedsnr" v="877800" />
	</node>
	<node id="-57043" lat="59.2556305531" lon="10.1127722291">
		<tag k="name" v="Svartedal" />
		<tag k="natural" v="valley" />
		<tag k="place" v="locality" />
		<tag k="ssr:date" v="2017-01-19" />
		<tag k="ssr:stedsnr" v="877796" />
	</node>
	<node id="-57042" lat="59.2611611115" lon="10.1233833305">
		<tag k="name" v="Askedalsåsen" />
		<tag k="natural" v="hill" />
		<tag k="place" v="locality" />
		<tag k="ssr:date" v="2017-01-19" />
		<tag k="ssr:stedsnr" v="877794" />
	</node>
	<node id="-57037" lat="59.2060444428" lon="10.2573111091">
		<tag k="name" v="Bredholtrønningen" />
		<tag k="place" v="locality" />
		<tag k="ssr:date" v="2017-01-19" />
		<tag k="ssr:stedsnr" v="877749" />
	</node>
	<node id="-57033" lat="59.2250249979" lon="10.2413000007">
		<tag k="name" v="Sørli" />
		<tag k="natural" v="slope" />
		<tag k="place" v="locality" />
		<tag k="ssr:date" v="2017-01-19" />
		<tag k="ssr:stedsnr" v="877716" />
	</node>
	<node id="-57029" lat="59.0594666672" lon="10.2607750083">
		<tag k="name" v="Granglova" />
		<tag k="natural" v="valley" />
		<tag k="place" v="locality" />
		<tag k="ssr:date" v="2017-01-19" />
		<tag k="ssr:stedsnr" v="877642" />
	</node>
	<node id="-57027" lat="59.1082000037" lon="10.2602250031">
		<tag k="ssr:gml_id" v="GEOMETRY_ebee603d-3e2a-489f-83b8-43604bdf36c5" />
		<tag k="ssr:gml_nr" v="1" />
	</node>
	<node id="-57026" lat="59.1073333311" lon="10.2609999957">
		<tag k="ssr:gml_id" v="GEOMETRY_36712e9d-581a-47c5-9ef8-35ee860f6749" />
		<tag k="ssr:gml_nr" v="0" />
	</node>
	<node id="-57025" lat="59.1203972265" lon="10.2477749924">
		<tag k="name" v="Hagaåsen" />
		<tag k="natural" v="hill" />
		<tag k="place" v="locality" />
		<tag k="ssr:date" v="2017-01-19" />
		<tag k="ssr:stedsnr" v="877595" />
	</node>
	<node id="-57023" lat="59.1035611106" lon="10.2108388881">
		<tag k="name" v="Hystadåsen" />
		<tag k="natural" v="hill" />
		<tag k="place" v="locality" />
		<tag k="ssr:date" v="2017-01-19" />
		<tag k="ssr:stedsnr" v="877582" />
	</node>
	<node id="-57022" lat="59.1120444485" lon="10.2232500086">
		<tag k="name" v="Nordkollen" />
		<tag k="natural" v="hill" />
		<tag k="place" v="locality" />
		<tag k="ssr:date" v="2017-01-19" />
		<tag k="ssr:stedsnr" v="877580" />
	</node>
	<node id="-57021" lat="59.082474997" lon="10.1947250013">
		<tag k="name" v="Påskeåsen" />
		<tag k="natural" v="hill" />
		<tag k="place" v="locality" />
		<tag k="ssr:date" v="2017-01-19" />
		<tag k="ssr:stedsnr" v="877551" />
	</node>
	<node id="-57020" lat="59.0882777745" lon="10.2084055471">
		<tag k="name" v="Åsane" />
		<tag k="natural" v="hill" />
		<tag k="place" v="locality" />
		<tag k="ssr:date" v="2017-01-19" />
		<tag k="ssr:stedsnr" v="877547" />
	</node>
	<node id="-57019" lat="59.0986611074" lon="10.2074305531">
		<tag k="name" v="Gørrhaugen" />
		<tag k="natural" v="hill" />
		<tag k="place" v="locality" />
		<tag k="ssr:date" v="2017-01-19" />
		<tag k="ssr:stedsnr" v="877540" />
	</node>
	<node id="-57011" lat="59.2575805528" lon="10.2523805592">
		<tag k="name" v="Lie" />
		<tag k="natural" v="slope" />
		<tag k="place" v="locality" />
		<tag k="ssr:date" v="2017-01-19" />
		<tag k="ssr:stedsnr" v="877396" />
	</node>
	<node id="-57010" lat="59.3396888904" lon="10.1727638828">
		<tag k="ssr:gml_id" v="GEOMETRY_ab98acf9-6d84-4715-9d82-191832521b14" />
		<tag k="ssr:gml_nr" v="1" />
	</node>
	<node id="-57009" lat="59.3396916655" lon="10.1727638905">
		<tag k="ssr:gml_id" v="GEOMETRY_8ed4d7e0-21e4-47a4-9136-1c62da032f0e" />
		<tag k="ssr:gml_nr" v="0" />
	</node>
	<node id="-55239" lat="59.1593666704" lon="10.3079416675">
		<tag k="name" v="Storåsen" />
		<tag k="natural" v="hill" />
		<tag k="place" v="locality" />
		<tag k="ssr:date" v="2017-01-19" />
		<tag k="ssr:stedsnr" v="449293" />
	</node>
	<node id="-56997" lat="59.3060444458" lon="10.0612333276">
		<tag k="name" v="Steinsåsen" />
		<tag k="natural" v="hill" />
		<tag k="place" v="locality" />
		<tag k="ssr:date" v="2017-01-19" />
		<tag k="ssr:stedsnr" v="877233" />
	</node>
	<node id="-56994" lat="59.3466583328" lon="10.1106055611">
		<tag k="name" v="Tjuvbergåsen" />
		<tag k="natural" v="hill" />
		<tag k="place" v="locality" />
		<tag k="ssr:date" v="2017-01-19" />
		<tag k="ssr:stedsnr" v="877143" />
	</node>
	<node id="-56988" lat="59.144813885" lon="10.1328361127">
		<tag k="name" v="Tislelia" />
		<tag k="natural" v="slope" />
		<tag k="place" v="locality" />
		<tag k="ssr:date" v="2017-01-19" />
		<tag k="ssr:stedsnr" v="876843" />
	</node>
	<node id="-56985" lat="59.2776972218" lon="10.0937666649">
		<tag k="name" v="Kaståsen" />
		<tag k="natural" v="hill" />
		<tag k="place" v="locality" />
		<tag k="ssr:date" v="2017-01-19" />
		<tag k="ssr:stedsnr" v="876819" />
	</node>
	<node id="-56984" lat="59.2834611123" lon="10.0829000056">
		<tag k="name" v="Vidaråsen landsby" />
		<tag k="place" v="locality" />
		<tag k="ssr:date" v="2017-01-19" />
		<tag k="ssr:stedsnr" v="876813" />
	</node>
	<node id="-56981" lat="59.3127583375" lon="10.0313222196">
		<tag k="ssr:gml_id" v="GEOMETRY_1f7fa4cf-46ab-4d77-a62f-c2fd34d4714e" />
		<tag k="ssr:gml_nr" v="1" />
	</node>
	<node id="-56980" lat="59.3154750039" lon="10.0295611093">
		<tag k="ssr:gml_id" v="GEOMETRY_4b0f0726-5036-49e0-8cfd-695af2b2075d" />
		<tag k="ssr:gml_nr" v="0" />
	</node>
	<node id="-56979" lat="59.3813083327" lon="10.0771722307">
		<tag k="ssr:gml_id" v="GEOMETRY_612502ac-493f-4258-86fb-ca59f74b337b" />
		<tag k="ssr:gml_nr" v="2" />
	</node>
	<node id="-56978" lat="59.3790250024" lon="10.0782111175">
		<tag k="ssr:gml_id" v="GEOMETRY_8457ea20-bee3-4700-bd7a-f3c49af14ffb" />
		<tag k="ssr:gml_nr" v="1" />
	</node>
	<node id="-56977" lat="59.3790249976" lon="10.0782138807">
		<tag k="ssr:gml_id" v="GEOMETRY_a5e0d6b8-e1bc-4be6-ad87-b83b590a433b" />
		<tag k="ssr:gml_nr" v="0" />
	</node>
	<node id="-56969" lat="59.2424777811" lon="10.3362138943">
		<tag k="name" v="Utsikten" />
		<tag k="natural" v="hill" />
		<tag k="place" v="locality" />
		<tag k="ssr:date" v="2017-01-19" />
		<tag k="ssr:stedsnr" v="875448" />
	</node>
	<node id="-56966" lat="59.0976916645" lon="10.2951888949">
		<tag k="name" v="Lille Vatnhaugen" />
		<tag k="natural" v="hill" />
		<tag k="place" v="locality" />
		<tag k="ssr:date" v="2017-01-19" />
		<tag k="ssr:stedsnr" v="875334" />
	</node>
	<node id="-56965" lat="59.0958999966" lon="10.3073999986">
		<tag k="name" v="Kaldglovene" />
		<tag k="natural" v="slope" />
		<tag k="place" v="locality" />
		<tag k="ssr:date" v="2017-01-19" />
		<tag k="ssr:stedsnr" v="875329" />
	</node>
	<node id="-54914" lat="59.1142972179" lon="10.2865500061">
		<tag k="name" v="Bellevitaåsen" />
		<tag k="natural" v="hill" />
		<tag k="place" v="locality" />
		<tag k="ssr:date" v="2017-01-19" />
		<tag k="ssr:stedsnr" v="269035" />
	</node>
	<node id="-56958" lat="59.125033332" lon="10.3205583256">
		<tag k="name" v="Knattholmen" />
		<tag k="place" v="locality" />
		<tag k="ssr:date" v="2017-01-19" />
		<tag k="ssr:stedsnr" v="874273" />
	</node>
	<node id="-54909" lat="59.1108111149" lon="10.2352055484">
		<tag k="name" v="Veraåsen" />
		<tag k="natural" v="hill" />
		<tag k="place" v="locality" />
		<tag k="ssr:date" v="2017-01-19" />
		<tag k="ssr:stedsnr" v="210563" />
	</node>
	<node id="-54908" lat="59.2792833372" lon="10.235688882">
		<tag k="name" v="Plankestillingen" />
		<tag k="natural" v="hill" />
		<tag k="place" v="locality" />
		<tag k="ssr:date" v="2017-01-19" />
		<tag k="ssr:stedsnr" v="210432" />
	</node>
	<node id="-56953" lat="59.2049083333" lon="10.2807249982">
		<tag k="name" v="Kihlåsen" />
		<tag k="natural" v="hill" />
		<tag k="place" v="locality" />
		<tag k="ssr:date" v="2017-01-19" />
		<tag k="ssr:stedsnr" v="874258" />
	</node>
	<node id="-54903" lat="59.2382388883" lon="10.1468972279">
		<tag k="name" v="Verpedal" />
		<tag k="natural" v="valley" />
		<tag k="place" v="locality" />
		<tag k="ssr:date" v="2017-01-19" />
		<tag k="ssr:stedsnr" v="209991" />
	</node>
	<node id="-54901" lat="59.2379027775" lon="10.1175361029">
		<tag k="name" v="Sagåsen" />
		<tag k="natural" v="hill" />
		<tag k="place" v="locality" />
		<tag k="ssr:date" v="2017-01-19" />
		<tag k="ssr:stedsnr" v="209986" />
	</node>
	<node id="-54900" lat="59.2262555568" lon="10.0476027695">
		<tag k="name" v="Påledalsåsen" />
		<tag k="natural" v="hill" />
		<tag k="place" v="locality" />
		<tag k="ssr:date" v="2017-01-19" />
		<tag k="ssr:stedsnr" v="209982" />
	</node>
	<node id="-54899" lat="59.2280861102" lon="10.1559694451">
		<tag k="name" v="Gallisåsane østre" />
		<tag k="natural" v="hill" />
		<tag k="place" v="locality" />
		<tag k="ssr:date" v="2017-01-19" />
		<tag k="ssr:stedsnr" v="209980" />
	</node>
	<node id="-54898" lat="59.2230416694" lon="10.0639138912">
		<tag k="name" v="Tveitan-rønningen" />
		<tag k="natural" v="slope" />
		<tag k="place" v="locality" />
		<tag k="ssr:date" v="2017-01-19" />
		<tag k="ssr:stedsnr" v="209968" />
	</node>
	<node id="-54892" lat="59.2024805589" lon="10.1175611064">
		<tag k="name" v="Vasseng-diket" />
		<tag k="place" v="locality" />
		<tag k="ssr:date" v="2017-01-19" />
		<tag k="ssr:stedsnr" v="209826" />
	</node>
	<node id="-54891" lat="59.2715111094" lon="10.1117638861">
		<tag k="name" v="Pidden" />
		<tag k="place" v="locality" />
		<tag k="ssr:date" v="2017-01-19" />
		<tag k="ssr:stedsnr" v="209813" />
	</node>
	<node id="-54886" lat="59.248266666" lon="10.0433694366">
		<tag k="name" v="Apaldalen" />
		<tag k="natural" v="valley" />
		<tag k="place" v="locality" />
		<tag k="ssr:date" v="2017-01-19" />
		<tag k="ssr:stedsnr" v="209781" />
	</node>
	<node id="-54885" lat="59.2413777818" lon="10.0948138918">
		<tag k="name" v="Diplingene" />
		<tag k="natural" v="hill" />
		<tag k="place" v="locality" />
		<tag k="ssr:date" v="2017-01-19" />
		<tag k="ssr:stedsnr" v="209780" />
	</node>
	<node id="-54881" lat="59.0814888917" lon="10.2654027792">
		<tag k="name" v="Fløyåsen" />
		<tag k="natural" v="hill" />
		<tag k="place" v="locality" />
		<tag k="ssr:date" v="2017-01-19" />
		<tag k="ssr:stedsnr" v="209758" />
	</node>
	<node id="-54877" lat="59.1520611095" lon="10.2366611068">
		<tag k="name" v="Sandskjæråsen" />
		<tag k="natural" v="hill" />
		<tag k="place" v="locality" />
		<tag k="ssr:date" v="2017-01-19" />
		<tag k="ssr:stedsnr" v="209749" />
	</node>
	<node id="-54876" lat="59.1507499965" lon="10.2389472211">
		<tag k="name" v="Matgloveåsen" />
		<tag k="natural" v="hill" />
		<tag k="place" v="locality" />
		<tag k="ssr:date" v="2017-01-19" />
		<tag k="ssr:stedsnr" v="209745" />
	</node>
	<node id="-54875" lat="59.146833337" lon="10.2359833369">
		<tag k="name" v="Brentåsen" />
		<tag k="natural" v="hill" />
		<tag k="place" v="locality" />
		<tag k="ssr:date" v="2017-01-19" />
		<tag k="ssr:stedsnr" v="209744" />
	</node>
	<node id="-56920" lat="59.355038893" lon="10.0408999949">
		<tag k="ssr:gml_id" v="GEOMETRY_7abafadf-a3b0-4240-bfbb-fe5b730f149e" />
		<tag k="ssr:gml_nr" v="1" />
	</node>
	<node id="-56919" lat="59.3550416639" lon="10.0409027707">
		<tag k="ssr:gml_id" v="GEOMETRY_8dd7a578-08f7-445a-92d3-64c71144f6ab" />
		<tag k="ssr:gml_nr" v="0" />
	</node>
	<node id="-54866" lat="59.1071638873" lon="10.2092777716">
		<tag k="name" v="Lystadåsen" />
		<tag k="natural" v="hill" />
		<tag k="place" v="locality" />
		<tag k="ssr:date" v="2017-01-19" />
		<tag k="ssr:stedsnr" v="209611" />
	</node>
	<node id="-54863" lat="59.2939777773" lon="10.0216583357">
		<tag k="name" v="Heddeåsen" />
		<tag k="natural" v="hill" />
		<tag k="place" v="locality" />
		<tag k="ssr:date" v="2017-01-19" />
		<tag k="ssr:stedsnr" v="209556" />
	</node>
	<node id="-54862" lat="59.3065083299" lon="10.0328611063">
		<tag k="name" v="Bjørkedalsåsen" />
		<tag k="natural" v="hill" />
		<tag k="place" v="locality" />
		<tag k="ssr:date" v="2017-01-19" />
		<tag k="ssr:stedsnr" v="209551" />
	</node>
	<node id="-54858" lat="59.3264944448" lon="10.2219472197">
		<tag k="name" v="Myråsen" />
		<tag k="natural" v="hill" />
		<tag k="place" v="locality" />
		<tag k="ssr:date" v="2017-01-19" />
		<tag k="ssr:stedsnr" v="209444" />
	</node>
	<node id="-54855" lat="59.3438999975" lon="10.1658583394">
		<tag k="name" v="Hagen" />
		<tag k="natural" v="hill" />
		<tag k="place" v="locality" />
		<tag k="ssr:date" v="2017-01-19" />
		<tag k="ssr:stedsnr" v="209397" />
	</node>
	<node id="-54854" lat="59.2998555519" lon="10.2529722284">
		<tag k="ssr:gml_id" v="GEOMETRY_425460b6-52e1-41f8-95b0-e93f4fc7c5c2" />
		<tag k="ssr:gml_nr" v="1" />
	</node>
	<node id="-54853" lat="59.2998583364" lon="10.252975">
		<tag k="ssr:gml_id" v="GEOMETRY_5df5adf9-6663-4e7d-93dc-42fcb7278ecb" />
		<tag k="ssr:gml_nr" v="0" />
	</node>
	<node id="-54847" lat="59.3663499995" lon="10.0772972145">
		<tag k="name" v="Pusås" />
		<tag k="natural" v="hill" />
		<tag k="place" v="locality" />
		<tag k="ssr:date" v="2017-01-19" />
		<tag k="ssr:stedsnr" v="209261" />
	</node>
	<node id="-54845" lat="59.3683611105" lon="10.0751222208">
		<tag k="name" v="Bokås" />
		<tag k="natural" v="hill" />
		<tag k="place" v="locality" />
		<tag k="ssr:date" v="2017-01-19" />
		<tag k="ssr:stedsnr" v="209258" />
	</node>
	<node id="-54843" lat="59.3136222249" lon="10.1216083358">
		<tag k="name" v="Vinkjelleren" />
		<tag k="natural" v="hill" />
		<tag k="place" v="locality" />
		<tag k="ssr:date" v="2017-01-19" />
		<tag k="ssr:stedsnr" v="209239" />
	</node>
	<node id="-54842" lat="59.3263416649" lon="10.1291305535">
		<tag k="name" v="Håsken" />
		<tag k="natural" v="valley" />
		<tag k="place" v="locality" />
		<tag k="ssr:date" v="2017-01-19" />
		<tag k="ssr:stedsnr" v="209234" />
	</node>
	<node id="-54841" lat="59.3030222187" lon="10.0481638875">
		<tag k="name" v="Furuåsen" />
		<tag k="natural" v="hill" />
		<tag k="place" v="locality" />
		<tag k="ssr:date" v="2017-01-19" />
		<tag k="ssr:stedsnr" v="209231" />
	</node>
	<node id="-54840" lat="59.316263892" lon="10.1467250007">
		<tag k="name" v="Suberget" />
		<tag k="natural" v="hill" />
		<tag k="place" v="locality" />
		<tag k="ssr:date" v="2017-01-19" />
		<tag k="ssr:stedsnr" v="209229" />
	</node>
	<node id="-54838" lat="59.3384694453" lon="10.1148833272">
		<tag k="name" v="Mellomåsen" />
		<tag k="natural" v="hill" />
		<tag k="place" v="locality" />
		<tag k="ssr:date" v="2017-01-19" />
		<tag k="ssr:stedsnr" v="209145" />
	</node>
	<node id="-54837" lat="59.3359777737" lon="10.1466083352">
		<tag k="name" v="Kremmern" />
		<tag k="place" v="locality" />
		<tag k="ssr:date" v="2017-01-19" />
		<tag k="ssr:stedsnr" v="209144" />
	</node>
	<node id="-54835" lat="59.3785388868" lon="10.0860999978">
		<tag k="name" v="Storås" />
		<tag k="natural" v="hill" />
		<tag k="place" v="locality" />
		<tag k="ssr:date" v="2017-01-19" />
		<tag k="ssr:stedsnr" v="209075" />
	</node>
	<node id="-54830" lat="59.2838222192" lon="10.0533833349">
		<tag k="name" v="Brudalen" />
		<tag k="natural" v="valley" />
		<tag k="place" v="locality" />
		<tag k="ssr:date" v="2017-01-19" />
		<tag k="ssr:stedsnr" v="208823" />
	</node>
	<node id="-54828" lat="59.3343916681" lon="10.0339111027">
		<tag k="name" v="Hornmyrfjellet" />
		<tag k="natural" v="hill" />
		<tag k="place" v="locality" />
		<tag k="ssr:date" v="2017-01-19" />
		<tag k="ssr:stedsnr" v="208603" />
	</node>
	<node id="-54826" lat="59.3179166709" lon="10.0169666605">
		<tag k="name" v="Raumyrskærva" />
		<tag k="natural" v="hill" />
		<tag k="place" v="locality" />
		<tag k="ssr:date" v="2017-01-19" />
		<tag k="ssr:stedsnr" v="208599" />
	</node>
	<node id="-54825" lat="59.3307055534" lon="10.0185499996">
		<tag k="name" v="Vestre Slipedalen" />
		<tag k="natural" v="valley" />
		<tag k="place" v="locality" />
		<tag k="ssr:date" v="2017-01-19" />
		<tag k="ssr:stedsnr" v="208595" />
	</node>
	<node id="-54193" lat="59.1208333331" lon="10.2511111182">
		<tag k="ssr:gml_id" v="GEOMETRY_24f3fcde-0304-472c-945d-07cc0b219f3e" />
		<tag k="ssr:gml_nr" v="0" />
	</node>
	<node id="-56864" lat="59.1904555539" lon="10.1350416748">
		<tag k="ssr:gml_id" v="GEOMETRY_0f2b0afe-5165-4036-8241-39b561bde0a1" />
		<tag k="ssr:gml_nr" v="2" />
	</node>
	<node id="-56863" lat="59.1907138898" lon="10.133255549">
		<tag k="ssr:gml_id" v="GEOMETRY_a9f81415-bf67-4fb8-b87b-32634253cb12" />
		<tag k="ssr:gml_nr" v="1" />
	</node>
	<node id="-56862" lat="59.1907111118" lon="10.1332527789">
		<tag k="ssr:gml_id" v="GEOMETRY_432250fc-9f09-4328-b81c-6af1f45b6ed2" />
		<tag k="ssr:gml_nr" v="0" />
	</node>
	<node id="-54806" lat="59.0627138878" lon="10.3061833314">
		<tag k="name" v="Ormereiråsen" />
		<tag k="natural" v="hill" />
		<tag k="place" v="locality" />
		<tag k="ssr:date" v="2017-01-19" />
		<tag k="ssr:stedsnr" v="206326" />
	</node>
	<node id="-57261" lat="59.0906138878" lon="10.2683333258">
		<tag k="ssr:gml_id" v="GEOMETRY_a1be2c06-5473-4754-beb5-7ea9aff22906" />
		<tag k="ssr:gml_nr" v="0" />
	</node>
	<node id="-56838" lat="59.2297250016" lon="10.3713000068">
		<tag k="ssr:gml_id" v="GEOMETRY_214e5e1d-aafe-4b94-ba39-b4111194db33" />
		<tag k="ssr:gml_nr" v="3" />
	</node>
	<node id="-56837" lat="59.2274888894" lon="10.3701333256">
		<tag k="ssr:gml_id" v="GEOMETRY_54f4920e-a192-4e2c-9535-4716bf7fa4f1" />
		<tag k="ssr:gml_nr" v="2" />
	</node>
	<node id="-56836" lat="59.2290666684" lon="10.3702638859">
		<tag k="ssr:gml_id" v="GEOMETRY_3fd80a99-8efa-4e77-8c49-4129c301d2c4" />
		<tag k="ssr:gml_nr" v="1" />
	</node>
	<node id="-56835" lat="59.2290638864" lon="10.3702611106">
		<tag k="ssr:gml_id" v="GEOMETRY_a4ab976e-8531-4dc8-9693-21ec08d4c737" />
		<tag k="ssr:gml_nr" v="0" />
	</node>
	<node id="-54785" lat="59.2482916673" lon="10.0237500017">
		<tag k="ssr:gml_id" v="GEOMETRY_82d48bfc-a980-4922-bc26-a9fcf9774d88" />
		<tag k="ssr:gml_nr" v="2" />
	</node>
	<node id="-54784" lat="59.2550333337" lon="10.0054972172">
		<tag k="ssr:gml_id" v="GEOMETRY_e92374a0-ec86-473b-8c59-2c4525d39111" />
		<tag k="ssr:gml_nr" v="1" />
	</node>
	<node id="-54783" lat="59.2538749961" lon="10.0084749921">
		<tag k="ssr:gml_id" v="GEOMETRY_928b4ddd-815f-4476-8cdd-7f537748ba82" />
		<tag k="ssr:gml_nr" v="0" />
	</node>
	<node id="-56815" lat="59.2468055549" lon="10.1945083272">
		<tag k="name" v="Kjegla" />
		<tag k="natural" v="hill" />
		<tag k="place" v="locality" />
		<tag k="ssr:date" v="2017-01-19" />
		<tag k="ssr:stedsnr" v="817677" />
	</node>
	<node id="-56807" lat="59.2441222202" lon="10.1112638943">
		<tag k="name" v="Stamperhølet" />
		<tag k="natural" v="valley" />
		<tag k="place" v="locality" />
		<tag k="ssr:date" v="2017-01-19" />
		<tag k="ssr:stedsnr" v="817000" />
	</node>
	<node id="-56806" lat="59.2182833325" lon="10.0695166729">
		<tag k="name" v="Sagåsen" />
		<tag k="natural" v="hill" />
		<tag k="place" v="locality" />
		<tag k="ssr:date" v="2017-01-19" />
		<tag k="ssr:stedsnr" v="816979" />
	</node>
	<node id="-56803" lat="59.1985666643" lon="10.1103611121">
		<tag k="name" v="Trollsåsen" />
		<tag k="natural" v="hill" />
		<tag k="place" v="locality" />
		<tag k="ssr:date" v="2017-01-19" />
		<tag k="ssr:stedsnr" v="816852" />
	</node>
	<node id="-56801" lat="59.2750944411" lon="10.1272861035">
		<tag k="alt_name" v="Jakopsberje" />
		<tag k="name" v="Jakopberje" />
		<tag k="natural" v="hill" />
		<tag k="place" v="locality" />
		<tag k="ssr:date" v="2017-01-19" />
		<tag k="ssr:stedsnr" v="816838" />
	</node>
	<node id="-56800" lat="59.1939111094" lon="10.1151388975">
		<tag k="name" v="Hvitsteinteien" />
		<tag k="place" v="locality" />
		<tag k="ssr:date" v="2017-01-19" />
		<tag k="ssr:stedsnr" v="816833" />
	</node>
	<node id="-56799" lat="59.2724000007" lon="10.1380750081">
		<tag k="name" v="Hotvedt" />
		<tag k="place" v="locality" />
		<tag k="ssr:date" v="2017-01-19" />
		<tag k="ssr:stedsnr" v="816811" />
	</node>
	<node id="-56797" lat="59.2539083371" lon="10.1421111113">
		<tag k="name" v="Sommerstadåsen" />
		<tag k="natural" v="hill" />
		<tag k="place" v="locality" />
		<tag k="ssr:date" v="2017-01-19" />
		<tag k="ssr:stedsnr" v="816803" />
	</node>
	<node id="-56795" lat="59.2395055584" lon="10.0348638884">
		<tag k="name" v="Nommedal" />
		<tag k="natural" v="valley" />
		<tag k="place" v="locality" />
		<tag k="ssr:date" v="2017-01-19" />
		<tag k="ssr:stedsnr" v="816802" />
	</node>
	<node id="-54746" lat="59.2372250009" lon="10.0485777727">
		<tag k="ssr:gml_id" v="GEOMETRY_a481bcb4-d6c0-466b-bdd9-60c3a2f20d6e" />
		<tag k="ssr:gml_nr" v="2" />
	</node>
	<node id="-54745" lat="59.236641666" lon="10.0490333391">
		<tag k="ssr:gml_id" v="GEOMETRY_44011bf3-3e11-4907-b9e2-c2dee3f2ba36" />
		<tag k="ssr:gml_nr" v="1" />
	</node>
	<node id="-56792" lat="59.1558666669" lon="10.2512666596">
		<tag k="name" v="Stubbåsen" />
		<tag k="natural" v="hill" />
		<tag k="place" v="locality" />
		<tag k="ssr:date" v="2017-01-19" />
		<tag k="ssr:stedsnr" v="816789" />
	</node>
	<node id="-56789" lat="59.0804972186" lon="10.2637249974">
		<tag k="ssr:gml_id" v="GEOMETRY_b34e0d87-d615-40a6-93fb-a127957caea5" />
		<tag k="ssr:gml_nr" v="1" />
	</node>
	<node id="-56788" lat="59.080416665" lon="10.2638888952">
		<tag k="ssr:gml_id" v="GEOMETRY_5ff25b5d-db41-4550-b7f8-7a48b091fe81" />
		<tag k="ssr:gml_nr" v="0" />
	</node>
	<node id="-56787" lat="59.3029972185" lon="10.2734083381">
		<tag k="name" v="Steingardåsen" />
		<tag k="natural" v="hill" />
		<tag k="place" v="locality" />
		<tag k="ssr:date" v="2017-01-19" />
		<tag k="ssr:stedsnr" v="816768" />
	</node>
	<node id="-56785" lat="59.2283777817" lon="10.2492527744">
		<tag k="name" v="Brudebekkåsen" />
		<tag k="natural" v="hill" />
		<tag k="place" v="locality" />
		<tag k="ssr:date" v="2017-01-19" />
		<tag k="ssr:stedsnr" v="816734" />
	</node>
	<node id="-56784" lat="59.2529916639" lon="10.3086222265">
		<tag k="name" v="Rensgata" />
		<tag k="natural" v="slope" />
		<tag k="place" v="locality" />
		<tag k="ssr:date" v="2017-01-19" />
		<tag k="ssr:stedsnr" v="816715" />
	</node>
	<node id="-56782" lat="59.0648027814" lon="10.2694083309">
		<tag k="name" v="Ekeroberget" />
		<tag k="natural" v="hill" />
		<tag k="place" v="locality" />
		<tag k="ssr:date" v="2017-01-19" />
		<tag k="ssr:stedsnr" v="816670" />
	</node>
	<node id="-56780" lat="59.0678250012" lon="10.2535027703">
		<tag k="name" v="Kvernberget" />
		<tag k="natural" v="hill" />
		<tag k="place" v="locality" />
		<tag k="ssr:date" v="2017-01-19" />
		<tag k="ssr:stedsnr" v="816665" />
	</node>
	<node id="-56776" lat="59.3089833323" lon="10.0388972145">
		<tag k="name" v="Faulemyråsane" />
		<tag k="natural" v="hill" />
		<tag k="place" v="locality" />
		<tag k="ssr:date" v="2017-01-19" />
		<tag k="ssr:stedsnr" v="816599" />
	</node>
	<node id="-56775" lat="59.085113891" lon="10.2662666742">
		<tag k="name" v="Verningåsen" />
		<tag k="natural" v="hill" />
		<tag k="place" v="locality" />
		<tag k="ssr:date" v="2017-01-19" />
		<tag k="ssr:stedsnr" v="816596" />
	</node>
	<node id="-56769" lat="59.3056722246" lon="10.1590694435">
		<tag k="name" v="Amurlegda" />
		<tag k="natural" v="valley" />
		<tag k="place" v="locality" />
		<tag k="ssr:date" v="2017-01-19" />
		<tag k="ssr:stedsnr" v="816429" />
	</node>
	<node id="-56767" lat="59.3461722259" lon="10.1689194367">
		<tag k="name" v="Kastekleiva" />
		<tag k="natural" v="slope" />
		<tag k="place" v="locality" />
		<tag k="ssr:date" v="2017-01-19" />
		<tag k="ssr:stedsnr" v="816388" />
	</node>
	<node id="-56766" lat="59.3457666658" lon="10.1790805607">
		<tag k="name" v="Brånakleiva" />
		<tag k="natural" v="hill" />
		<tag k="place" v="locality" />
		<tag k="ssr:date" v="2017-01-19" />
		<tag k="ssr:stedsnr" v="816359" />
	</node>
	<node id="-56764" lat="59.3430999967" lon="10.1813305529">
		<tag k="name" v="Brånan" />
		<tag k="natural" v="hill" />
		<tag k="place" v="locality" />
		<tag k="ssr:date" v="2017-01-19" />
		<tag k="ssr:stedsnr" v="816353" />
	</node>
	<node id="-56757" lat="59.3043166652" lon="10.1177166623">
		<tag k="name" v="Smårønningane" />
		<tag k="natural" v="hill" />
		<tag k="place" v="locality" />
		<tag k="ssr:date" v="2017-01-19" />
		<tag k="ssr:stedsnr" v="816247" />
	</node>
	<node id="-54708" lat="59.2459611137" lon="10.114188897">
		<tag k="ssr:gml_id" v="GEOMETRY_580843de-41bb-4151-b4dc-8704d397c3be" />
		<tag k="ssr:gml_nr" v="1" />
	</node>
	<node id="-54707" lat="59.2459611106" lon="10.1141861092">
		<tag k="ssr:gml_id" v="GEOMETRY_16b4facf-08c2-4412-a962-9827f4b1713f" />
		<tag k="ssr:gml_nr" v="0" />
	</node>
	<node id="-56748" lat="59.2759277776" lon="10.052938894">
		<tag k="name" v="Svevedalen" />
		<tag k="natural" v="valley" />
		<tag k="place" v="locality" />
		<tag k="ssr:date" v="2017-01-19" />
		<tag k="ssr:stedsnr" v="815827" />
	</node>
	<node id="-56744" lat="59.3166972238" lon="10.0415611178">
		<tag k="name" v="Torsås" />
		<tag k="natural" v="hill" />
		<tag k="place" v="locality" />
		<tag k="ssr:date" v="2017-01-19" />
		<tag k="ssr:stedsnr" v="815524" />
	</node>
	<node id="-56743" lat="59.1834777812" lon="10.3284111111">
		<tag k="name" v="Klåstadåsen" />
		<tag k="natural" v="hill" />
		<tag k="place" v="locality" />
		<tag k="ssr:date" v="2017-01-19" />
		<tag k="ssr:stedsnr" v="815459" />
	</node>
	<node id="-56742" lat="59.1534333306" lon="10.3078250048">
		<tag k="fixme" v="consider natural=peak for the most distinct mountains in the district" />
		<tag k="name" v="Ronsås" />
		<tag k="natural" v="hill" />
		<tag k="place" v="locality" />
		<tag k="ssr:date" v="2017-01-19" />
		<tag k="ssr:stedsnr" v="814604" />
	</node>
	<node id="-54693" lat="59.2022916639" lon="10.2938249949">
		<tag k="ssr:gml_id" v="GEOMETRY_b2746b7a-0492-4675-a897-cf60f64b4eed" />
		<tag k="ssr:gml_nr" v="0" />
	</node>
	<node id="-56739" lat="59.2295749978" lon="10.3083111155">
		<tag k="name" v="Holtanåsen" />
		<tag k="natural" v="hill" />
		<tag k="place" v="locality" />
		<tag k="ssr:date" v="2017-01-19" />
		<tag k="ssr:stedsnr" v="814470" />
	</node>
	<node id="-56738" lat="59.2339749972" lon="10.3103777829">
		<tag k="name" v="Lågerødåsen" />
		<tag k="natural" v="hill" />
		<tag k="place" v="locality" />
		<tag k="ssr:date" v="2017-01-19" />
		<tag k="ssr:stedsnr" v="814471" />
	</node>
	<node id="-56736" lat="59.2342194438" lon="10.3292166667">
		<tag k="name" v="Brekkeåsen" />
		<tag k="natural" v="hill" />
		<tag k="place" v="locality" />
		<tag k="ssr:date" v="2017-01-19" />
		<tag k="ssr:stedsnr" v="814464" />
	</node>
	<node id="-56734" lat="59.0901805592" lon="10.2938000004">
		<tag k="name" v="Påskeåsen" />
		<tag k="natural" v="hill" />
		<tag k="place" v="locality" />
		<tag k="ssr:date" v="2017-01-19" />
		<tag k="ssr:stedsnr" v="814366" />
	</node>
	<node id="-56730" lat="59.1536416668" lon="10.3145138829">
		<tag k="name" v="Verksåsen" />
		<tag k="natural" v="hill" />
		<tag k="place" v="locality" />
		<tag k="ssr:date" v="2017-01-19" />
		<tag k="ssr:stedsnr" v="813261" />
	</node>
	<node id="-56728" lat="59.1413361123" lon="10.3109694406">
		<tag k="name" v="Klopplokkåsen" />
		<tag k="natural" v="hill" />
		<tag k="place" v="locality" />
		<tag k="ssr:date" v="2017-01-19" />
		<tag k="ssr:stedsnr" v="813241" />
	</node>
	<node id="-56702" lat="59.3275999988" lon="10.0371611071">
		<tag k="ssr:gml_id" v="GEOMETRY_c4613430-5b64-47db-a26f-9b3807d85d14" />
		<tag k="ssr:gml_nr" v="2" />
	</node>
	<node id="-56701" lat="59.3276000036" lon="10.037163884">
		<tag k="ssr:gml_id" v="GEOMETRY_42768518-ab71-4b33-ae9c-991957d32b85" />
		<tag k="ssr:gml_nr" v="1" />
	</node>
	<node id="-56700" lat="59.3275999995" lon="10.0371666606">
		<tag k="ssr:gml_id" v="GEOMETRY_dc493405-a5db-4771-b961-aa2e1fc6588c" />
		<tag k="ssr:gml_nr" v="0" />
	</node>
	<node id="-54648" lat="59.23066667" lon="10.074041669">
		<tag k="name" v="N. Tveitanheia" />
		<tag k="natural" v="slope" />
		<tag k="place" v="locality" />
		<tag k="ssr:date" v="2017-01-19" />
		<tag k="ssr:stedsnr" v="148998" />
	</node>
	<node id="-54646" lat="59.236955559" lon="10.0681499957">
		<tag k="name" v="Furuåsen" />
		<tag k="natural" v="hill" />
		<tag k="place" v="locality" />
		<tag k="ssr:date" v="2017-01-19" />
		<tag k="ssr:stedsnr" v="148989" />
	</node>
	<node id="-54645" lat="59.2469027742" lon="10.1351750039">
		<tag k="name" v="Midtåsen" />
		<tag k="natural" v="hill" />
		<tag k="place" v="locality" />
		<tag k="ssr:date" v="2017-01-19" />
		<tag k="ssr:stedsnr" v="148982" />
	</node>
	<node id="-54643" lat="59.209875004" lon="10.0878361086">
		<tag k="name" v="Pinebakken" />
		<tag k="natural" v="slope" />
		<tag k="place" v="locality" />
		<tag k="ssr:date" v="2017-01-19" />
		<tag k="ssr:stedsnr" v="148967" />
	</node>
	<node id="-54642" lat="59.1419499987" lon="10.1311027739">
		<tag k="name" v="Kyllingdalen" />
		<tag k="natural" v="valley" />
		<tag k="place" v="locality" />
		<tag k="ssr:date" v="2017-01-19" />
		<tag k="ssr:stedsnr" v="148859" />
	</node>
	<node id="-54639" lat="59.1941916653" lon="10.1425861147">
		<tag k="name" v="Oredalen" />
		<tag k="natural" v="valley" />
		<tag k="place" v="locality" />
		<tag k="ssr:date" v="2017-01-19" />
		<tag k="ssr:stedsnr" v="148826" />
	</node>
	<node id="-54636" lat="59.2571694427" lon="10.0525249977">
		<tag k="name" v="Gampen" />
		<tag k="natural" v="hill" />
		<tag k="place" v="locality" />
		<tag k="ssr:date" v="2017-01-19" />
		<tag k="ssr:stedsnr" v="148800" />
	</node>
	<node id="-54634" lat="59.246347219" lon="10.0736416699">
		<tag k="name" v="Maurås" />
		<tag k="natural" v="hill" />
		<tag k="place" v="locality" />
		<tag k="ssr:date" v="2017-01-19" />
		<tag k="ssr:stedsnr" v="148796" />
	</node>
	<node id="-54633" lat="59.248827782" lon="10.0815083387">
		<tag k="name" v="Nautehue" />
		<tag k="natural" v="slope" />
		<tag k="place" v="locality" />
		<tag k="ssr:date" v="2017-01-19" />
		<tag k="ssr:stedsnr" v="148794" />
	</node>
	<node id="-54631" lat="59.2633472187" lon="10.1519083261">
		<tag k="name" v="Rønningene" />
		<tag k="place" v="locality" />
		<tag k="ssr:date" v="2017-01-19" />
		<tag k="ssr:stedsnr" v="148789" />
	</node>
	<node id="-54630" lat="59.1820083379" lon="10.1543444411">
		<tag k="name" v="Bjørnåsen" />
		<tag k="natural" v="hill" />
		<tag k="place" v="locality" />
		<tag k="ssr:date" v="2017-01-19" />
		<tag k="ssr:stedsnr" v="148787" />
	</node>
	<node id="-54628" lat="59.1212333327" lon="10.2371361086">
		<tag k="ssr:gml_id" v="GEOMETRY_7120172e-5c55-44a4-b7e7-c12ae1faba25" />
		<tag k="ssr:gml_nr" v="1" />
	</node>
	<node id="-54627" lat="59.1212333313" lon="10.2375000075">
		<tag k="ssr:gml_id" v="GEOMETRY_820718c0-77f0-42a1-84f9-0eb0a9fdfacf" />
		<tag k="ssr:gml_nr" v="0" />
	</node>
	<node id="-54624" lat="59.1454027749" lon="10.2370333378">
		<tag k="name" v="Danseberget" />
		<tag k="natural" v="hill" />
		<tag k="place" v="locality" />
		<tag k="ssr:date" v="2017-01-19" />
		<tag k="ssr:stedsnr" v="148754" />
	</node>
	<node id="-54615" lat="59.0903194483" lon="10.1963750021">
		<tag k="name" v="Steinfjellet" />
		<tag k="natural" v="hill" />
		<tag k="place" v="locality" />
		<tag k="ssr:date" v="2017-01-19" />
		<tag k="ssr:stedsnr" v="148556" />
	</node>
	<node id="-54613" lat="59.2819138844" lon="10.1579138949">
		<tag k="name" v="Gulliåsen" />
		<tag k="natural" v="hill" />
		<tag k="place" v="locality" />
		<tag k="ssr:date" v="2017-01-19" />
		<tag k="ssr:stedsnr" v="148522" />
	</node>
	<node id="-54610" lat="59.2903749998" lon="10.1814000065">
		<tag k="name" v="Trollhaugen" />
		<tag k="natural" v="hill" />
		<tag k="place" v="locality" />
		<tag k="ssr:date" v="2017-01-19" />
		<tag k="ssr:stedsnr" v="148512" />
	</node>
	<node id="-54609" lat="59.2716777798" lon="10.2017611059">
		<tag k="name" v="Årholt" />
		<tag k="natural" v="hill" />
		<tag k="place" v="locality" />
		<tag k="ssr:date" v="2017-01-19" />
		<tag k="ssr:stedsnr" v="148510" />
	</node>
	<node id="-54608" lat="59.3219861069" lon="10.1974833292">
		<tag k="name" v="Djupdalen" />
		<tag k="natural" v="valley" />
		<tag k="place" v="locality" />
		<tag k="ssr:date" v="2017-01-19" />
		<tag k="ssr:stedsnr" v="148452" />
	</node>
	<node id="-54606" lat="59.3269638881" lon="10.2157472229">
		<tag k="name" v="Høgståsen" />
		<tag k="natural" v="hill" />
		<tag k="place" v="locality" />
		<tag k="ssr:date" v="2017-01-19" />
		<tag k="ssr:stedsnr" v="148435" />
	</node>
	<node id="-54602" lat="59.3688388898" lon="10.04864722">
		<tag k="name" v="Hyttås" />
		<tag k="natural" v="hill" />
		<tag k="place" v="locality" />
		<tag k="ssr:date" v="2017-01-19" />
		<tag k="ssr:stedsnr" v="148255" />
	</node>
	<node id="-54601" lat="59.318786114" lon="10.1345250012">
		<tag k="name" v="Den brente åsen" />
		<tag k="natural" v="hill" />
		<tag k="place" v="locality" />
		<tag k="ssr:date" v="2017-01-19" />
		<tag k="ssr:stedsnr" v="148216" />
	</node>
	<node id="-54600" lat="59.3176611104" lon="10.0806416722">
		<tag k="name" v="Langås" />
		<tag k="natural" v="hill" />
		<tag k="place" v="locality" />
		<tag k="ssr:date" v="2017-01-19" />
		<tag k="ssr:stedsnr" v="148202" />
	</node>
	<node id="-54599" lat="59.3554750011" lon="10.0683750016">
		<tag k="name" v="Gurihølet" />
		<tag k="natural" v="valley" />
		<tag k="place" v="locality" />
		<tag k="ssr:date" v="2017-01-19" />
		<tag k="ssr:stedsnr" v="148153" />
	</node>
	<node id="-54597" lat="59.3828750001" lon="10.0888666738">
		<tag k="name" v="Kjyrilåsen" />
		<tag k="natural" v="hill" />
		<tag k="place" v="locality" />
		<tag k="ssr:date" v="2017-01-19" />
		<tag k="ssr:stedsnr" v="148072" />
	</node>
	<node id="-54594" lat="59.2811027779" lon="10.0497777724">
		<tag k="name" v="Flatåsen" />
		<tag k="natural" v="hill" />
		<tag k="place" v="locality" />
		<tag k="ssr:date" v="2017-01-19" />
		<tag k="ssr:stedsnr" v="147804" />
	</node>
	<node id="-54593" lat="59.2902805525" lon="10.0996833333">
		<tag k="name" v="Bergan" />
		<tag k="place" v="locality" />
		<tag k="ssr:date" v="2017-01-19" />
		<tag k="ssr:stedsnr" v="147790" />
	</node>
	<node id="-54592" lat="59.2744194447" lon="10.0663138819">
		<tag k="name" v="Stuemyråsen" />
		<tag k="natural" v="hill" />
		<tag k="place" v="locality" />
		<tag k="ssr:date" v="2017-01-19" />
		<tag k="ssr:stedsnr" v="147782" />
	</node>
	<node id="-54591" lat="59.2919555538" lon="10.1403361085">
		<tag k="name" v="Skauåsen" />
		<tag k="natural" v="hill" />
		<tag k="place" v="locality" />
		<tag k="ssr:date" v="2017-01-19" />
		<tag k="ssr:stedsnr" v="147764" />
	</node>
	<node id="-54590" lat="59.2642222225" lon="9.99808611115">
		<tag k="name" v="Hellenesstigen" />
		<tag k="natural" v="valley" />
		<tag k="place" v="locality" />
		<tag k="ssr:date" v="2017-01-19" />
		<tag k="ssr:stedsnr" v="147617" />
	</node>
	<node id="-54589" lat="59.2906555597" lon="10.0164416598">
		<tag k="name" v="Pålehølet" />
		<tag k="natural" v="valley" />
		<tag k="place" v="locality" />
		<tag k="ssr:date" v="2017-01-19" />
		<tag k="ssr:stedsnr" v="147610" />
	</node>
	<node id="-54588" lat="59.2799055513" lon="10.0422833362">
		<tag k="name" v="Heidalen" />
		<tag k="natural" v="valley" />
		<tag k="place" v="locality" />
		<tag k="ssr:date" v="2017-01-19" />
		<tag k="ssr:stedsnr" v="147611" />
	</node>
	<node id="-54587" lat="59.3303805573" lon="10.0160777749">
		<tag k="name" v="Bølevannsåsen" />
		<tag k="natural" v="hill" />
		<tag k="place" v="locality" />
		<tag k="ssr:date" v="2017-01-19" />
		<tag k="ssr:stedsnr" v="147583" />
	</node>
	<node id="-54586" lat="59.3256194467" lon="10.0222722266">
		<tag k="name" v="Østre Slipedalen" />
		<tag k="natural" v="valley" />
		<tag k="place" v="locality" />
		<tag k="ssr:date" v="2017-01-19" />
		<tag k="ssr:stedsnr" v="147580" />
	</node>
	<node id="-54584" lat="59.3156722191" lon="10.0431749936">
		<tag k="name" v="Midtglova" />
		<tag k="natural" v="valley" />
		<tag k="place" v="locality" />
		<tag k="ssr:date" v="2017-01-19" />
		<tag k="ssr:stedsnr" v="147541" />
	</node>
	<node id="-54576" lat="59.1348944451" lon="10.2793555488">
		<tag k="name" v="Vestadåsen" />
		<tag k="natural" v="hill" />
		<tag k="place" v="locality" />
		<tag k="ssr:date" v="2017-01-19" />
		<tag k="ssr:stedsnr" v="146236" />
	</node>
	<node id="-54574" lat="59.1647833294" lon="10.2765999997">
		<tag k="fixme" v="consider natural=peak for the most distinct mountains in the district" />
		<tag k="name" v="Haugberget" />
		<tag k="natural" v="hill" />
		<tag k="place" v="locality" />
		<tag k="ssr:date" v="2017-01-19" />
		<tag k="ssr:stedsnr" v="145443" />
	</node>
	<node id="-54573" lat="59.1651333327" lon="10.3033305533">
		<tag k="name" v="Lysingsbakken" />
		<tag k="natural" v="slope" />
		<tag k="place" v="locality" />
		<tag k="ssr:date" v="2017-01-19" />
		<tag k="ssr:stedsnr" v="145442" />
	</node>
	<node id="-54571" lat="59.1624999992" lon="10.3118555597">
		<tag k="name" v="Skravestad" />
		<tag k="place" v="locality" />
		<tag k="ssr:date" v="2017-01-19" />
		<tag k="ssr:stedsnr" v="145291" />
	</node>
	<node id="-54570" lat="59.0790416652" lon="10.3013472222">
		<tag k="name" v="Haugfjellet" />
		<tag k="natural" v="hill" />
		<tag k="place" v="locality" />
		<tag k="ssr:date" v="2017-01-19" />
		<tag k="ssr:stedsnr" v="145279" />
	</node>
	<node id="-54568" lat="59.1387388849" lon="10.3227138881">
		<tag k="name" v="Årøyåsen" />
		<tag k="natural" v="hill" />
		<tag k="place" v="locality" />
		<tag k="ssr:date" v="2017-01-19" />
		<tag k="ssr:stedsnr" v="145257" />
	</node>
	<node id="-54565" lat="59.1253222189" lon="10.2901499953">
		<tag k="name" v="Langåsen" />
		<tag k="natural" v="hill" />
		<tag k="place" v="locality" />
		<tag k="ssr:date" v="2017-01-19" />
		<tag k="ssr:stedsnr" v="145247" />
	</node>
	<node id="-54546" lat="59.3208972235" lon="10.0237749989">
		<tag k="ssr:gml_id" v="GEOMETRY_9461412c-8b8b-4116-91eb-ee1c1d83a488" />
		<tag k="ssr:gml_nr" v="1" />
	</node>
	<node id="-54545" lat="59.320441666" lon="10.0243444517">
		<tag k="ssr:gml_id" v="GEOMETRY_83af4409-281a-4780-93f7-ee2d585b1070" />
		<tag k="ssr:gml_nr" v="0" />
	</node>
	<node id="-56591" lat="59.1052999981" lon="10.2495916694">
		<tag k="name" v="Flatåsen" />
		<tag k="natural" v="hill" />
		<tag k="place" v="locality" />
		<tag k="ssr:date" v="2017-01-19" />
		<tag k="ssr:stedsnr" v="756591" />
	</node>
	<node id="-54542" lat="59.2623583329" lon="10.0609305593">
		<tag k="ssr:gml_id" v="GEOMETRY_8ee5642f-ce03-4995-9cee-18e0082adfa3" />
		<tag k="ssr:gml_nr" v="2" />
	</node>
	<node id="-54541" lat="59.2608333317" lon="10.0627777714">
		<tag k="ssr:gml_id" v="GEOMETRY_b656065d-c4c3-4ad8-ab92-e5eabcd73d04" />
		<tag k="ssr:gml_nr" v="1" />
	</node>
	<node id="-54540" lat="59.2606166709" lon="10.0627000055">
		<tag k="ssr:gml_id" v="GEOMETRY_a7c8e392-34c8-4f03-b656-2baf3826c4cd" />
		<tag k="ssr:gml_nr" v="0" />
	</node>
	<node id="-56586" lat="59.2827027799" lon="10.2647472214">
		<tag k="name" v="Korsebrekke" />
		<tag k="natural" v="slope" />
		<tag k="place" v="locality" />
		<tag k="ssr:date" v="2017-01-19" />
		<tag k="ssr:stedsnr" v="756413" />
	</node>
	<node id="-56581" lat="59.2319166666" lon="10.0714305571">
		<tag k="name" v="Stigen" />
		<tag k="natural" v="hill" />
		<tag k="place" v="locality" />
		<tag k="ssr:date" v="2017-01-19" />
		<tag k="ssr:stedsnr" v="755992" />
	</node>
	<node id="-56580" lat="59.2392111119" lon="10.1442333299">
		<tag k="name" v="Gurua" />
		<tag k="natural" v="hill" />
		<tag k="place" v="locality" />
		<tag k="ssr:date" v="2017-01-19" />
		<tag k="ssr:stedsnr" v="755987" />
	</node>
	<node id="-56579" lat="59.2257555583" lon="10.0834055633">
		<tag k="name" v="Tveitanåsen" />
		<tag k="natural" v="hill" />
		<tag k="place" v="locality" />
		<tag k="ssr:date" v="2017-01-19" />
		<tag k="ssr:stedsnr" v="755971" />
	</node>
	<node id="-56577" lat="59.2157833342" lon="10.122838896">
		<tag k="name" v="Kjempås" />
		<tag k="natural" v="hill" />
		<tag k="place" v="locality" />
		<tag k="ssr:date" v="2017-01-19" />
		<tag k="ssr:stedsnr" v="755958" />
	</node>
	<node id="-56574" lat="59.2829416666" lon="10.1255416601">
		<tag k="name" v="Demmingsdalen" />
		<tag k="natural" v="valley" />
		<tag k="place" v="locality" />
		<tag k="ssr:date" v="2017-01-19" />
		<tag k="ssr:stedsnr" v="755813" />
	</node>
	<node id="-56573" lat="59.2550194467" lon="10.0720833321">
		<tag k="name" v="Pålåsen" />
		<tag k="natural" v="hill" />
		<tag k="place" v="locality" />
		<tag k="ssr:date" v="2017-01-19" />
		<tag k="ssr:stedsnr" v="755805" />
	</node>
	<node id="-54523" lat="59.2353722191" lon="10.0794444491">
		<tag k="ssr:gml_id" v="GEOMETRY_b9f11798-cfb3-49da-8e17-ac98b4749365" />
		<tag k="ssr:gml_nr" v="3" />
	</node>
	<node id="-56570" lat="59.2674361119" lon="10.1521555613">
		<tag k="name" v="Hanedalen" />
		<tag k="natural" v="valley" />
		<tag k="place" v="locality" />
		<tag k="ssr:date" v="2017-01-19" />
		<tag k="ssr:stedsnr" v="755780" />
	</node>
	<node id="-54521" lat="59.2353694451" lon="10.079438893">
		<tag k="ssr:gml_id" v="GEOMETRY_45b68cfa-a0ea-44cb-9598-b47a631e98cb" />
		<tag k="ssr:gml_nr" v="1" />
	</node>
	<node id="-54520" lat="59.2353666661" lon="10.079436106">
		<tag k="ssr:gml_id" v="GEOMETRY_ed332795-d6b1-450b-aaf6-d77bbb40cb64" />
		<tag k="ssr:gml_nr" v="0" />
	</node>
	<node id="-56563" lat="59.1237861079" lon="10.2412416739">
		<tag k="name" v="Fjellvikåsen" />
		<tag k="natural" v="hill" />
		<tag k="place" v="locality" />
		<tag k="ssr:date" v="2017-01-19" />
		<tag k="ssr:stedsnr" v="755757" />
	</node>
	<node id="-56561" lat="59.2063722254" lon="10.2522666664">
		<tag k="name" v="Bredholt" />
		<tag k="place" v="locality" />
		<tag k="ssr:date" v="2017-01-19" />
		<tag k="ssr:stedsnr" v="755730" />
	</node>
	<node id="-56099" lat="59.1369972212" lon="10.2222916699">
		<tag k="ssr:gml_id" v="GEOMETRY_fd365d6d-c486-4f84-a520-d19113b68979" />
		<tag k="ssr:gml_nr" v="1" />
	</node>
	<node id="-56555" lat="59.19728056" lon="10.1844361118">
		<tag k="name" v="Kjerva" />
		<tag k="natural" v="valley" />
		<tag k="place" v="locality" />
		<tag k="ssr:date" v="2017-01-19" />
		<tag k="ssr:stedsnr" v="755697" />
	</node>
	<node id="-56553" lat="59.2301388902" lon="10.2394166595">
		<tag k="name" v="Elgåsen" />
		<tag k="natural" v="hill" />
		<tag k="place" v="locality" />
		<tag k="ssr:date" v="2017-01-19" />
		<tag k="ssr:stedsnr" v="755690" />
	</node>
	<node id="-56549" lat="59.2515555589" lon="10.299802771">
		<tag k="name" v="Sletta" />
		<tag k="place" v="locality" />
		<tag k="ssr:date" v="2017-01-19" />
		<tag k="ssr:stedsnr" v="755660" />
	</node>
	<node id="-56546" lat="59.0694611129" lon="10.2646888814">
		<tag k="name" v="Husefjellet" />
		<tag k="natural" v="hill" />
		<tag k="place" v="locality" />
		<tag k="ssr:date" v="2017-01-19" />
		<tag k="ssr:stedsnr" v="755613" />
	</node>
	<node id="-56538" lat="59.3116527745" lon="10.1834111026">
		<tag k="name" v="Kullerød" />
		<tag k="natural" v="slope" />
		<tag k="place" v="locality" />
		<tag k="ssr:date" v="2017-01-19" />
		<tag k="ssr:stedsnr" v="755432" />
	</node>
	<node id="-56529" lat="59.2970111081" lon="10.131383335">
		<tag k="name" v="Godokk" />
		<tag k="place" v="locality" />
		<tag k="ssr:date" v="2017-01-19" />
		<tag k="ssr:stedsnr" v="755263" />
	</node>
	<node id="-56528" lat="59.2961861118" lon="10.0776361046">
		<tag k="name" v="Svingen" />
		<tag k="natural" v="slope" />
		<tag k="place" v="locality" />
		<tag k="ssr:date" v="2017-01-19" />
		<tag k="ssr:stedsnr" v="755249" />
	</node>
	<node id="-56527" lat="59.3021777778" lon="10.0548666639">
		<tag k="name" v="Plassen" />
		<tag k="place" v="locality" />
		<tag k="ssr:date" v="2017-01-19" />
		<tag k="ssr:stedsnr" v="755244" />
	</node>
	<node id="-56526" lat="59.3155333376" lon="10.1125583253">
		<tag k="name" v="Langevannsåsen" />
		<tag k="natural" v="hill" />
		<tag k="place" v="locality" />
		<tag k="ssr:date" v="2017-01-19" />
		<tag k="ssr:stedsnr" v="755228" />
	</node>
	<node id="-56525" lat="59.3319111089" lon="10.1207222292">
		<tag k="name" v="Uledalen" />
		<tag k="natural" v="valley" />
		<tag k="place" v="locality" />
		<tag k="ssr:date" v="2017-01-19" />
		<tag k="ssr:stedsnr" v="755227" />
	</node>
	<node id="-56523" lat="59.3298527823" lon="10.0478916585">
		<tag k="name" v="Tussehaugen" />
		<tag k="natural" v="hill" />
		<tag k="place" v="locality" />
		<tag k="ssr:date" v="2017-01-19" />
		<tag k="ssr:stedsnr" v="755212" />
	</node>
	<node id="-56522" lat="59.3203833295" lon="10.0536111036">
		<tag k="name" v="Hynneåsen" />
		<tag k="natural" v="hill" />
		<tag k="place" v="locality" />
		<tag k="ssr:date" v="2017-01-19" />
		<tag k="ssr:stedsnr" v="755208" />
	</node>
	<node id="-56517" lat="59.3340388905" lon="10.1233722307">
		<tag k="name" v="Torestykket" />
		<tag k="natural" v="valley" />
		<tag k="place" v="locality" />
		<tag k="ssr:date" v="2017-01-19" />
		<tag k="ssr:stedsnr" v="755202" />
	</node>
	<node id="-56513" lat="59.3468555526" lon="10.1234250025">
		<tag k="name" v="Rønningsåsen" />
		<tag k="natural" v="hill" />
		<tag k="place" v="locality" />
		<tag k="ssr:date" v="2017-01-19" />
		<tag k="ssr:stedsnr" v="755146" />
	</node>
	<node id="-56510" lat="59.3591027796" lon="10.1288444426">
		<tag k="name" v="Lauvås" />
		<tag k="natural" v="hill" />
		<tag k="place" v="locality" />
		<tag k="ssr:date" v="2017-01-19" />
		<tag k="ssr:stedsnr" v="755130" />
	</node>
	<node id="-56509" lat="59.108013889" lon="10.2870111048">
		<tag k="name" v="Gamlefjellet" />
		<tag k="natural" v="hill" />
		<tag k="place" v="locality" />
		<tag k="ssr:date" v="2017-01-19" />
		<tag k="ssr:stedsnr" v="755043" />
	</node>
	<node id="-56502" lat="59.2742555591" lon="10.0490416663">
		<tag k="name" v="Kultestykket" />
		<tag k="natural" v="slope" />
		<tag k="place" v="locality" />
		<tag k="ssr:date" v="2017-01-19" />
		<tag k="ssr:stedsnr" v="754815" />
	</node>
	<node id="-56501" lat="59.2887888928" lon="10.0931166744">
		<tag k="name" v="Rønningen" />
		<tag k="natural" v="slope" />
		<tag k="place" v="locality" />
		<tag k="ssr:date" v="2017-01-19" />
		<tag k="ssr:stedsnr" v="754805" />
	</node>
	<node id="-56496" lat="59.2624361132" lon="10.0190333398">
		<tag k="name" v="Sebabrudalen" />
		<tag k="natural" v="valley" />
		<tag k="place" v="locality" />
		<tag k="ssr:date" v="2017-01-19" />
		<tag k="ssr:stedsnr" v="754646" />
	</node>
	<node id="-56495" lat="59.1737833307" lon="10.3204999995">
		<tag k="fixme" v="consider natural=peak for the most distinct mountains in the district" />
		<tag k="name" v="Vestre Skravestadkollen" />
		<tag k="natural" v="hill" />
		<tag k="place" v="locality" />
		<tag k="ssr:date" v="2017-01-19" />
		<tag k="ssr:stedsnr" v="754602" />
	</node>
	<node id="-56494" lat="59.3104611134" lon="10.0247722185">
		<tag k="name" v="Briskåsen" />
		<tag k="natural" v="hill" />
		<tag k="place" v="locality" />
		<tag k="ssr:date" v="2017-01-19" />
		<tag k="ssr:stedsnr" v="754593" />
	</node>
	<node id="-56493" lat="59.3443333371" lon="10.0313638933">
		<tag k="name" v="Trollsvannsdalen" />
		<tag k="natural" v="valley" />
		<tag k="place" v="locality" />
		<tag k="ssr:date" v="2017-01-19" />
		<tag k="ssr:stedsnr" v="754566" />
	</node>
	<node id="-56491" lat="59.1802027774" lon="10.3083166713">
		<tag k="name" v="Hauganåsen" />
		<tag k="natural" v="hill" />
		<tag k="place" v="locality" />
		<tag k="ssr:date" v="2017-01-19" />
		<tag k="ssr:stedsnr" v="753410" />
	</node>
	<node id="-56486" lat="59.2237694444" lon="10.3315416591">
		<tag k="name" v="Gullhaugen" />
		<tag k="natural" v="hill" />
		<tag k="place" v="locality" />
		<tag k="ssr:date" v="2017-01-19" />
		<tag k="ssr:stedsnr" v="753366" />
	</node>
	<node id="-56483" lat="59.0987055583" lon="10.2925055564">
		<tag k="name" v="Vatnhaugen" />
		<tag k="natural" v="hill" />
		<tag k="place" v="locality" />
		<tag k="ssr:date" v="2017-01-19" />
		<tag k="ssr:stedsnr" v="753274" />
	</node>
	<node id="-56480" lat="59.1359249998" lon="10.3151777713">
		<tag k="name" v="Hamburgkilen" />
		<tag k="place" v="locality" />
		<tag k="ssr:date" v="2017-01-19" />
		<tag k="ssr:stedsnr" v="753207" />
	</node>
	<node id="-56475" lat="59.0729944416" lon="10.2999166671">
		<tag k="name" v="Boklumåsen" />
		<tag k="natural" v="hill" />
		<tag k="place" v="locality" />
		<tag k="ssr:date" v="2017-01-19" />
		<tag k="ssr:stedsnr" v="752304" />
	</node>
	<node id="-56473" lat="59.1536333366" lon="10.3080305592">
		<tag k="name" v="Rønnsåsen" />
		<tag k="natural" v="hill" />
		<tag k="place" v="locality" />
		<tag k="ssr:date" v="2017-01-19" />
		<tag k="ssr:stedsnr" v="752266" />
	</node>
	<node id="-54422" lat="59.2224472188" lon="10.0897222301">
		<tag k="name" v="Dammyråsen" />
		<tag k="natural" v="hill" />
		<tag k="place" v="locality" />
		<tag k="ssr:date" v="2017-01-19" />
		<tag k="ssr:stedsnr" v="88980" />
	</node>
	<node id="-54420" lat="59.2191805599" lon="10.1150472294">
		<tag k="name" v="Ulås" />
		<tag k="natural" v="hill" />
		<tag k="place" v="locality" />
		<tag k="ssr:date" v="2017-01-19" />
		<tag k="ssr:stedsnr" v="88966" />
	</node>
	<node id="-54418" lat="59.1408583365" lon="10.1291000001">
		<tag k="name" v="Bjerkåsen" />
		<tag k="natural" v="hill" />
		<tag k="place" v="locality" />
		<tag k="ssr:date" v="2017-01-19" />
		<tag k="ssr:stedsnr" v="88826" />
	</node>
	<node id="-54417" lat="59.2029361111" lon="10.1201611118">
		<tag k="name" v="Heia" />
		<tag k="natural" v="hill" />
		<tag k="place" v="locality" />
		<tag k="ssr:date" v="2017-01-19" />
		<tag k="ssr:stedsnr" v="88809" />
	</node>
	<node id="-54416" lat="59.1960194409" lon="10.108366663">
		<tag k="name" v="Siljustreket" />
		<tag k="natural" v="valley" />
		<tag k="place" v="locality" />
		<tag k="ssr:date" v="2017-01-19" />
		<tag k="ssr:stedsnr" v="88807" />
	</node>
	<node id="-54415" lat="59.1919361113" lon="10.1461194433">
		<tag k="name" v="Dåpaløkka" />
		<tag k="natural" v="hill" />
		<tag k="place" v="locality" />
		<tag k="ssr:date" v="2017-01-19" />
		<tag k="ssr:stedsnr" v="88793" />
	</node>
	<node id="-54414" lat="59.2059249972" lon="10.1528916608">
		<tag k="name" v="Rønningen" />
		<tag k="natural" v="hill" />
		<tag k="place" v="locality" />
		<tag k="ssr:date" v="2017-01-19" />
		<tag k="ssr:stedsnr" v="88790" />
	</node>
	<node id="-54412" lat="59.285125002" lon="10.1159361081">
		<tag k="name" v="Lauvåsdalen" />
		<tag k="natural" v="valley" />
		<tag k="place" v="locality" />
		<tag k="ssr:date" v="2017-01-19" />
		<tag k="ssr:stedsnr" v="88780" />
	</node>
	<node id="-54406" lat="59.2464833308" lon="10.0417666635">
		<tag k="name" v="Smaledal" />
		<tag k="natural" v="valley" />
		<tag k="place" v="locality" />
		<tag k="ssr:date" v="2017-01-19" />
		<tag k="ssr:stedsnr" v="88748" />
	</node>
	<node id="-54405" lat="59.1749444435" lon="10.1469583358">
		<tag k="name" v="Oksverpet" />
		<tag k="place" v="locality" />
		<tag k="ssr:date" v="2017-01-19" />
		<tag k="ssr:stedsnr" v="88740" />
	</node>
	<node id="-54404" lat="59.2595027815" lon="10.1347972174">
		<tag k="name" v="Svarveråsen" />
		<tag k="natural" v="hill" />
		<tag k="place" v="locality" />
		<tag k="ssr:date" v="2017-01-19" />
		<tag k="ssr:stedsnr" v="88741" />
	</node>
	<node id="-54403" lat="59.2651888872" lon="10.132547229">
		<tag k="name" v="Kupedal" />
		<tag k="natural" v="valley" />
		<tag k="place" v="locality" />
		<tag k="ssr:date" v="2017-01-19" />
		<tag k="ssr:stedsnr" v="88736" />
	</node>
	<node id="-54401" lat="59.2643944429" lon="10.1388222262">
		<tag k="name" v="Rønningene" />
		<tag k="natural" v="slope" />
		<tag k="place" v="locality" />
		<tag k="ssr:date" v="2017-01-19" />
		<tag k="ssr:stedsnr" v="88734" />
	</node>
	<node id="-56448" lat="59.2972250029" lon="10.1674388822">
		<tag k="ssr:gml_id" v="GEOMETRY_8e524bcb-63d8-455b-bba0-3e30e2faa929" />
		<tag k="ssr:gml_nr" v="1" />
	</node>
	<node id="-56447" lat="59.2972694412" lon="10.1674749959">
		<tag k="ssr:gml_id" v="GEOMETRY_8e06f6c2-ce2f-4edc-99b6-dc2f4995bae8" />
		<tag k="ssr:gml_nr" v="0" />
	</node>
	<node id="-54398" lat="59.1377166684" lon="10.2657916746">
		<tag k="name" v="Morellåsen" />
		<tag k="natural" v="hill" />
		<tag k="place" v="locality" />
		<tag k="ssr:date" v="2017-01-19" />
		<tag k="ssr:stedsnr" v="88680" />
	</node>
	<node id="-54397" lat="59.1362694412" lon="10.2578027785">
		<tag k="name" v="Gjekstadåsen" />
		<tag k="natural" v="hill" />
		<tag k="place" v="locality" />
		<tag k="ssr:date" v="2017-01-19" />
		<tag k="ssr:stedsnr" v="88679" />
	</node>
	<node id="-54396" lat="59.1417111117" lon="10.2692861096">
		<tag k="name" v="Dronninga" />
		<tag k="natural" v="hill" />
		<tag k="place" v="locality" />
		<tag k="ssr:date" v="2017-01-19" />
		<tag k="ssr:stedsnr" v="88677" />
	</node>
	<node id="-54394" lat="59.2203749965" lon="10.2039027778">
		<tag k="name" v="Store Løkkeåsen" />
		<tag k="natural" v="hill" />
		<tag k="place" v="locality" />
		<tag k="ssr:date" v="2017-01-19" />
		<tag k="ssr:stedsnr" v="88653" />
	</node>
	<node id="-54392" lat="59.2869861104" lon="10.2784749912">
		<tag k="name" v="Brekkeåsen" />
		<tag k="natural" v="hill" />
		<tag k="place" v="locality" />
		<tag k="ssr:date" v="2017-01-19" />
		<tag k="ssr:stedsnr" v="88640" />
	</node>
	<node id="-54389" lat="59.0467027804" lon="10.2709722283">
		<tag k="name" v="Steinkjerringa" />
		<tag k="natural" v="hill" />
		<tag k="place" v="locality" />
		<tag k="ssr:date" v="2017-01-19" />
		<tag k="ssr:stedsnr" v="88549" />
	</node>
	<node id="-54387" lat="59.0854194452" lon="10.1913527744">
		<tag k="name" v="Skerrås" />
		<tag k="natural" v="hill" />
		<tag k="place" v="locality" />
		<tag k="ssr:date" v="2017-01-19" />
		<tag k="ssr:stedsnr" v="88460" />
	</node>
	<node id="-54386" lat="59.3069333347" lon="10.1574083271">
		<tag k="name" v="Skør" />
		<tag k="natural" v="slope" />
		<tag k="place" v="locality" />
		<tag k="ssr:date" v="2017-01-19" />
		<tag k="ssr:stedsnr" v="88368" />
	</node>
	<node id="-54384" lat="59.2997638883" lon="10.2672861096">
		<tag k="name" v="Botnen" />
		<tag k="natural" v="valley" />
		<tag k="place" v="locality" />
		<tag k="ssr:date" v="2017-01-19" />
		<tag k="ssr:stedsnr" v="88295" />
	</node>
	<node id="-54383" lat="59.2968499984" lon="10.2653777767">
		<tag k="fixme" v="consider natural=peak for the most distinct mountains in the district" />
		<tag k="name" v="Søndagsberget" />
		<tag k="natural" v="hill" />
		<tag k="place" v="locality" />
		<tag k="ssr:date" v="2017-01-19" />
		<tag k="ssr:stedsnr" v="88291" />
	</node>
	<node id="-54380" lat="59.2929111138" lon="10.1484749915">
		<tag k="name" v="Rønningen" />
		<tag k="natural" v="slope" />
		<tag k="place" v="locality" />
		<tag k="ssr:date" v="2017-01-19" />
		<tag k="ssr:stedsnr" v="88185" />
	</node>
	<node id="-54378" lat="59.3344555598" lon="10.0606055617">
		<tag k="name" v="Djupedal" />
		<tag k="natural" v="valley" />
		<tag k="place" v="locality" />
		<tag k="ssr:date" v="2017-01-19" />
		<tag k="ssr:stedsnr" v="88167" />
	</node>
	<node id="-54376" lat="59.3616666639" lon="10.10046667">
		<tag k="name" v="Kringlefjell" />
		<tag k="natural" v="hill" />
		<tag k="place" v="locality" />
		<tag k="ssr:date" v="2017-01-19" />
		<tag k="ssr:stedsnr" v="88108" />
	</node>
	<node id="-54368" lat="59.2659111155" lon="10.0133250071">
		<tag k="name" v="Heimoen" />
		<tag k="place" v="locality" />
		<tag k="ssr:date" v="2017-01-19" />
		<tag k="ssr:stedsnr" v="87647" />
	</node>
	<node id="-54367" lat="59.2570527818" lon="10.0085722257">
		<tag k="name" v="Hansesdal" />
		<tag k="natural" v="valley" />
		<tag k="place" v="locality" />
		<tag k="ssr:date" v="2017-01-19" />
		<tag k="ssr:stedsnr" v="87645" />
	</node>
	<node id="-54366" lat="59.3323583351" lon="10.0310694375">
		<tag k="name" v="Lønnabakken" />
		<tag k="natural" v="slope" />
		<tag k="place" v="locality" />
		<tag k="ssr:date" v="2017-01-19" />
		<tag k="ssr:stedsnr" v="87622" />
	</node>
	<node id="-54364" lat="59.1737833307" lon="10.3204999995">
		<tag k="fixme" v="consider natural=peak for the most distinct mountains in the district" />
		<tag k="name" v="Skravestadkollene" />
		<tag k="natural" v="hill" />
		<tag k="place" v="locality" />
		<tag k="ssr:date" v="2017-01-19" />
		<tag k="ssr:stedsnr" v="87601" />
	</node>
	<node id="-54363" lat="59.3127972233" lon="10.0237749995">
		<tag k="name" v="Amurfjell" />
		<tag k="natural" v="hill" />
		<tag k="place" v="locality" />
		<tag k="ssr:date" v="2017-01-19" />
		<tag k="ssr:stedsnr" v="87586" />
	</node>
	<node id="-56409" lat="59.0764833369" lon="10.2699861041">
		<tag k="ssr:gml_id" v="GEOMETRY_5c155c59-8b38-4874-bbd0-d55b28579ced" />
		<tag k="ssr:gml_nr" v="4" />
	</node>
	<node id="-56408" lat="59.076486112" lon="10.2699861194">
		<tag k="ssr:gml_id" v="GEOMETRY_1c795c72-83ca-43b4-b0f0-d6e203a8153a" />
		<tag k="ssr:gml_nr" v="3" />
	</node>
	<node id="-56407" lat="59.0793611147" lon="10.2682638822">
		<tag k="ssr:gml_id" v="GEOMETRY_0f1a931d-984c-48c7-9922-d903d50f4a02" />
		<tag k="ssr:gml_nr" v="2" />
	</node>
	<node id="-56406" lat="59.0764777777" lon="10.2699805601">
		<tag k="ssr:gml_id" v="GEOMETRY_898d0581-4346-48d9-9cc1-d505a7ab6c23" />
		<tag k="ssr:gml_nr" v="1" />
	</node>
	<node id="-54357" lat="59.2337111106" lon="10.3082638815">
		<tag k="name" v="Kjetilstuåsen" />
		<tag k="natural" v="hill" />
		<tag k="place" v="locality" />
		<tag k="ssr:date" v="2017-01-19" />
		<tag k="ssr:stedsnr" v="86447" />
	</node>
	<node id="-54353" lat="59.2272499961" lon="10.3533083318">
		<tag k="name" v="Matisåsen" />
		<tag k="natural" v="hill" />
		<tag k="place" v="locality" />
		<tag k="ssr:date" v="2017-01-19" />
		<tag k="ssr:stedsnr" v="86417" />
	</node>
	<node id="-54351" lat="59.1425500045" lon="10.3110194361">
		<tag k="name" v="Mølleråsen" />
		<tag k="natural" v="hill" />
		<tag k="place" v="locality" />
		<tag k="ssr:date" v="2017-01-19" />
		<tag k="ssr:stedsnr" v="86307" />
	</node>
	<node id="-54350" lat="59.1713972203" lon="10.3015194433">
		<tag k="name" v="Tronka" />
		<tag k="natural" v="hill" />
		<tag k="place" v="locality" />
		<tag k="ssr:date" v="2017-01-19" />
		<tag k="ssr:stedsnr" v="85366" />
	</node>
	<node id="-54345" lat="59.0690138926" lon="10.3101055621">
		<tag k="name" v="Strandvikåsen" />
		<tag k="natural" v="hill" />
		<tag k="place" v="locality" />
		<tag k="ssr:date" v="2017-01-19" />
		<tag k="ssr:stedsnr" v="85270" />
	</node>
	<node id="-54343" lat="59.1335611092" lon="10.2817111128">
		<tag k="name" v="Seileråsen" />
		<tag k="natural" v="hill" />
		<tag k="place" v="locality" />
		<tag k="ssr:date" v="2017-01-19" />
		<tag k="ssr:stedsnr" v="85206" />
	</node>
	<node id="-54341" lat="59.3315444486" lon="10.0280361128">
		<tag k="ssr:gml_id" v="GEOMETRY_48efe990-04d9-4454-b256-6468dff373fc" />
		<tag k="ssr:gml_nr" v="2" />
	</node>
	<node id="-54340" lat="59.3315416685" lon="10.0280333396">
		<tag k="ssr:gml_id" v="GEOMETRY_9bd5138a-5310-4b2a-b7fb-2aed84c72263" />
		<tag k="ssr:gml_nr" v="1" />
	</node>
	<node id="-54339" lat="59.3319333316" lon="10.0285083304">
		<tag k="ssr:gml_id" v="GEOMETRY_c70a7fd7-29c7-475a-aec2-2f6517c4729e" />
		<tag k="ssr:gml_nr" v="0" />
	</node>
	<node id="-54332" lat="59.3126277795" lon="10.1129138928">
		<tag k="ssr:gml_id" v="GEOMETRY_53bc16fc-7bb0-49db-a77e-e529d6778792" />
		<tag k="ssr:gml_nr" v="1" />
	</node>
	<node id="-54331" lat="59.313377779" lon="10.1073305487">
		<tag k="ssr:gml_id" v="GEOMETRY_69dcaf61-a354-4c9c-8b7f-f7e41476047d" />
		<tag k="ssr:gml_nr" v="0" />
	</node>
	<node id="-56373" lat="59.1424416644" lon="10.1326750086">
		<tag k="ssr:gml_id" v="GEOMETRY_476a8335-077d-4830-8eac-73b7204ae5aa" />
		<tag k="ssr:gml_nr" v="2" />
	</node>
	<node id="-56372" lat="59.14284444" lon="10.1342083401">
		<tag k="ssr:gml_id" v="GEOMETRY_c0c4fa42-c144-445e-bf9b-94607cba5053" />
		<tag k="ssr:gml_nr" v="1" />
	</node>
	<node id="-56371" lat="59.1428416712" lon="10.1342055566">
		<tag k="ssr:gml_id" v="GEOMETRY_33bc5911-681a-4b56-93af-416cd2408ca6" />
		<tag k="ssr:gml_nr" v="0" />
	</node>
	<node id="-56368" lat="59.152650003" lon="10.2341500032">
		<tag k="ssr:gml_id" v="GEOMETRY_7f35f719-8351-40dc-bc66-6d3d694b07cb" />
		<tag k="ssr:gml_nr" v="2" />
	</node>
	<node id="-56367" lat="59.1493777752" lon="10.2342888832">
		<tag k="ssr:gml_id" v="GEOMETRY_e997eb12-6022-4451-b159-af37a722af57" />
		<tag k="ssr:gml_nr" v="1" />
	</node>
	<node id="-56366" lat="59.1493749994" lon="10.2342861083">
		<tag k="ssr:gml_id" v="GEOMETRY_9e079716-fac2-471a-9bd2-c8ee5e7d667c" />
		<tag k="ssr:gml_nr" v="0" />
	</node>
	<node id="-54317" lat="59.2191527743" lon="10.1691111036">
		<tag k="ssr:gml_id" v="GEOMETRY_62b925d7-debc-4feb-9cf1-cd7afffcef66" />
		<tag k="ssr:gml_nr" v="0" />
	</node>
	<node id="-54319" lat="59.2177777782" lon="10.1666972135">
		<tag k="ssr:gml_id" v="GEOMETRY_0679ec21-fb88-47c7-a974-f57d70a632f6" />
		<tag k="ssr:gml_nr" v="2" />
	</node>
	<node id="-56349" lat="59.2377583294" lon="10.1314972134">
		<tag k="name" v="Kørpås" />
		<tag k="natural" v="hill" />
		<tag k="place" v="locality" />
		<tag k="ssr:date" v="2017-01-19" />
		<tag k="ssr:stedsnr" v="695994" />
	</node>
	<node id="-56348" lat="59.2442750018" lon="10.1343250087">
		<tag k="name" v="Hov øvre" />
		<tag k="natural" v="hill" />
		<tag k="place" v="locality" />
		<tag k="ssr:date" v="2017-01-19" />
		<tag k="ssr:stedsnr" v="695989" />
	</node>
	<node id="-56347" lat="59.2264249961" lon="10.060713888">
		<tag k="name" v="Tveitanholmen" />
		<tag k="place" v="locality" />
		<tag k="ssr:date" v="2017-01-19" />
		<tag k="ssr:stedsnr" v="695988" />
	</node>
	<node id="-56344" lat="59.2250861102" lon="10.0878444431">
		<tag k="name" v="Barlindknatten" />
		<tag k="natural" v="hill" />
		<tag k="place" v="locality" />
		<tag k="ssr:date" v="2017-01-19" />
		<tag k="ssr:stedsnr" v="695977" />
	</node>
	<node id="-56339" lat="59.265677782" lon="10.0695583355">
		<tag k="name" v="Haukeli" />
		<tag k="natural" v="slope" />
		<tag k="place" v="locality" />
		<tag k="ssr:date" v="2017-01-19" />
		<tag k="ssr:stedsnr" v="695783" />
	</node>
	<node id="-56337" lat="59.1383444436" lon="10.2253472279">
		<tag k="name" v="Mølleråsen" />
		<tag k="natural" v="hill" />
		<tag k="place" v="locality" />
		<tag k="ssr:date" v="2017-01-19" />
		<tag k="ssr:stedsnr" v="695752" />
	</node>
	<node id="-56335" lat="59.1572416652" lon="10.2488694375">
		<tag k="name" v="Påskeåsen" />
		<tag k="natural" v="hill" />
		<tag k="place" v="locality" />
		<tag k="ssr:date" v="2017-01-19" />
		<tag k="ssr:stedsnr" v="695738" />
	</node>
	<node id="-56334" lat="59.1815166683" lon="10.168711107">
		<tag k="name" v="Rønningbakken" />
		<tag k="natural" v="slope" />
		<tag k="place" v="locality" />
		<tag k="ssr:date" v="2017-01-19" />
		<tag k="ssr:stedsnr" v="695728" />
	</node>
	<node id="-54285" lat="59.2386583334" lon="10.2136916674">
		<tag k="ssr:gml_id" v="GEOMETRY_b48faba9-814b-49d1-8ca7-bbbbd8d1a990" />
		<tag k="ssr:gml_nr" v="1" />
	</node>
	<node id="-54284" lat="59.2386555572" lon="10.2136888868">
		<tag k="ssr:gml_id" v="GEOMETRY_1ef0e1db-4be3-49ee-bc37-f7ce36dfa099" />
		<tag k="ssr:gml_nr" v="0" />
	</node>
	<node id="-56331" lat="59.195058331" lon="10.1700861078">
		<tag k="name" v="Drangedalen" />
		<tag k="natural" v="valley" />
		<tag k="place" v="locality" />
		<tag k="ssr:date" v="2017-01-19" />
		<tag k="ssr:stedsnr" v="695708" />
	</node>
	<node id="-56325" lat="59.0867611072" lon="10.2579750083">
		<tag k="ssr:gml_id" v="GEOMETRY_428256a9-083e-4cb3-bbba-395149c5e767" />
		<tag k="ssr:gml_nr" v="1" />
	</node>
	<node id="-56324" lat="59.0863888854" lon="10.2588888925">
		<tag k="ssr:gml_id" v="GEOMETRY_4c36807a-6c56-45b8-ae26-319cf42ac919" />
		<tag k="ssr:gml_nr" v="0" />
	</node>
	<node id="-54273" lat="59.2401805544" lon="10.2370777739">
		<tag k="ssr:gml_id" v="GEOMETRY_5a366286-49af-43e8-ac11-4c8e64b795d4" />
		<tag k="ssr:gml_nr" v="3" />
	</node>
	<node id="-54272" lat="59.2188305512" lon="10.2265111041">
		<tag k="ssr:gml_id" v="GEOMETRY_6a10d1dd-6724-44c2-9733-f683f657992c" />
		<tag k="ssr:gml_nr" v="2" />
	</node>
	<node id="-54271" lat="59.242405557" lon="10.2381749933">
		<tag k="ssr:gml_id" v="GEOMETRY_e3322d36-be05-4e30-8bbf-9e37479c1da2" />
		<tag k="ssr:gml_nr" v="1" />
	</node>
	<node id="-56318" lat="59.3029277799" lon="10.1663138856">
		<tag k="name" v="Stigen" />
		<tag k="natural" v="slope" />
		<tag k="place" v="locality" />
		<tag k="ssr:date" v="2017-01-19" />
		<tag k="ssr:stedsnr" v="695446" />
	</node>
	<node id="-56313" lat="59.29707222" lon="10.1848416747">
		<tag k="name" v="Kjoneåsen" />
		<tag k="natural" v="hill" />
		<tag k="place" v="locality" />
		<tag k="ssr:date" v="2017-01-19" />
		<tag k="ssr:stedsnr" v="695359" />
	</node>
	<node id="-56311" lat="59.3002777735" lon="10.122644436">
		<tag k="name" v="Tamburhaugen" />
		<tag k="natural" v="hill" />
		<tag k="place" v="locality" />
		<tag k="ssr:date" v="2017-01-19" />
		<tag k="ssr:stedsnr" v="695271" />
	</node>
	<node id="-56309" lat="59.2992666641" lon="10.0562277739">
		<tag k="name" v="Våtåsen" />
		<tag k="natural" v="hill" />
		<tag k="place" v="locality" />
		<tag k="ssr:date" v="2017-01-19" />
		<tag k="ssr:stedsnr" v="695246" />
	</node>
	<node id="-54113" lat="59.2308027735" lon="10.3343194434">
		<tag k="ssr:gml_id" v="GEOMETRY_41bbdb1a-979a-4e48-9003-ad6af323b556" />
		<tag k="ssr:gml_nr" v="0" />
	</node>
	<node id="-56306" lat="59.3151305567" lon="10.1313694381">
		<tag k="name" v="Barlindsletta" />
		<tag k="place" v="locality" />
		<tag k="ssr:date" v="2017-01-19" />
		<tag k="ssr:stedsnr" v="695236" />
	</node>
	<node id="-56305" lat="59.3245055569" lon="10.12751945">
		<tag k="name" v="Kviåsen" />
		<tag k="natural" v="hill" />
		<tag k="place" v="locality" />
		<tag k="ssr:date" v="2017-01-19" />
		<tag k="ssr:stedsnr" v="695233" />
	</node>
	<node id="-56304" lat="59.3332555575" lon="10.1379499994">
		<tag k="name" v="Galteryggen" />
		<tag k="natural" v="ridge" />
		<tag k="place" v="locality" />
		<tag k="ssr:date" v="2017-01-19" />
		<tag k="ssr:stedsnr" v="695228" />
	</node>
	<node id="-56303" lat="59.3226916631" lon="10.0469888838">
		<tag k="name" v="Haralegda" />
		<tag k="natural" v="slope" />
		<tag k="place" v="locality" />
		<tag k="ssr:date" v="2017-01-19" />
		<tag k="ssr:stedsnr" v="695213" />
	</node>
	<node id="-54522" lat="59.2343888877" lon="10.0823527808">
		<tag k="ssr:gml_id" v="GEOMETRY_d639fb2e-385e-4a59-8c3a-403bf89c2717" />
		<tag k="ssr:gml_nr" v="2" />
	</node>
	<node id="-56299" lat="59.2906583292" lon="10.1024138953">
		<tag k="name" v="Ringdal" />
		<tag k="natural" v="valley" />
		<tag k="place" v="locality" />
		<tag k="ssr:date" v="2017-01-19" />
		<tag k="ssr:stedsnr" v="694811" />
	</node>
	<node id="-56297" lat="59.2884583302" lon="10.0806333339">
		<tag k="name" v="Enga" />
		<tag k="place" v="locality" />
		<tag k="ssr:date" v="2017-01-19" />
		<tag k="ssr:stedsnr" v="694805" />
	</node>
	<node id="-56290" lat="59.2819999982" lon="10.1094472281">
		<tag k="name" v="Lauvås" />
		<tag k="natural" v="hill" />
		<tag k="place" v="locality" />
		<tag k="ssr:date" v="2017-01-19" />
		<tag k="ssr:stedsnr" v="694782" />
	</node>
	<node id="-53755" lat="59.3235527734" lon="10.1226499941">
		<tag k="ssr:gml_id" v="GEOMETRY_d5b6e504-b8e2-49d8-a21c-f73ac98ed2b6" />
		<tag k="ssr:gml_nr" v="1" />
	</node>
	<node id="-56288" lat="59.2630305595" lon="10.1144972151">
		<tag k="name" v="Storemyråsane" />
		<tag k="natural" v="hill" />
		<tag k="place" v="locality" />
		<tag k="ssr:date" v="2017-01-19" />
		<tag k="ssr:stedsnr" v="694760" />
	</node>
	<node id="-56287" lat="59.2895138911" lon="10.042366663">
		<tag k="name" v="Rønningen" />
		<tag k="place" v="locality" />
		<tag k="ssr:date" v="2017-01-19" />
		<tag k="ssr:stedsnr" v="694639" />
	</node>
	<node id="-56286" lat="59.3243249975" lon="10.0286722239">
		<tag k="name" v="Halvorslier" />
		<tag k="natural" v="slope" />
		<tag k="place" v="locality" />
		<tag k="ssr:date" v="2017-01-19" />
		<tag k="ssr:stedsnr" v="694605" />
	</node>
	<node id="-53754" lat="59.3225555591" lon="10.1230583419">
		<tag k="ssr:gml_id" v="GEOMETRY_8de248d0-8f78-4f6e-a5cd-dfe9cf1984d2" />
		<tag k="ssr:gml_nr" v="0" />
	</node>
	<node id="-56279" lat="59.3498555536" lon="10.0631166754">
		<tag k="name" v="Elveåsane" />
		<tag k="natural" v="hill" />
		<tag k="place" v="locality" />
		<tag k="ssr:date" v="2017-01-19" />
		<tag k="ssr:stedsnr" v="695172" />
	</node>
	<node id="-56278" lat="59.3533916651" lon="10.1184944442">
		<tag k="name" v="Dalaåsen" />
		<tag k="natural" v="hill" />
		<tag k="place" v="locality" />
		<tag k="ssr:date" v="2017-01-19" />
		<tag k="ssr:stedsnr" v="695164" />
	</node>
	<node id="-56275" lat="59.2390500034" lon="10.333594441">
		<tag k="fixme" v="consider natural=peak for the most distinct mountains in the district" />
		<tag k="name" v="Saueberget" />
		<tag k="natural" v="hill" />
		<tag k="place" v="locality" />
		<tag k="ssr:date" v="2017-01-19" />
		<tag k="ssr:stedsnr" v="693459" />
	</node>
	<node id="-56270" lat="59.2137666661" lon="10.3075277703">
		<tag k="name" v="Hvålsåsen" />
		<tag k="natural" v="hill" />
		<tag k="place" v="locality" />
		<tag k="ssr:date" v="2017-01-19" />
		<tag k="ssr:stedsnr" v="693436" />
	</node>
	<node id="-56267" lat="59.1902333296" lon="10.3016777827">
		<tag k="name" v="Stavnumlia" />
		<tag k="natural" v="valley" />
		<tag k="place" v="locality" />
		<tag k="ssr:date" v="2017-01-19" />
		<tag k="ssr:stedsnr" v="692445" />
	</node>
	<node id="-53751" lat="59.3401027817" lon="10.0160583317">
		<tag k="name" v="Halsås" />
		<tag k="natural" v="hill" />
		<tag k="place" v="locality" />
		<tag k="ssr:date" v="2017-01-19" />
		<tag k="ssr:stedsnr" v="366749" />
	</node>
	<node id="-56263" lat="59.2202472256" lon="10.3362805638">
		<tag k="name" v="Melsomvik" />
		<tag k="natural" v="hill" />
		<tag k="place" v="locality" />
		<tag k="ssr:date" v="2017-01-19" />
		<tag k="ssr:stedsnr" v="692386" />
	</node>
	<node id="-56262" lat="59.0556916711" lon="10.2741861051">
		<tag k="name" v="Krokekollen" />
		<tag k="natural" v="hill" />
		<tag k="place" v="locality" />
		<tag k="ssr:date" v="2017-01-19" />
		<tag k="ssr:stedsnr" v="692306" />
	</node>
	<node id="-54194" lat="59.1200944409" lon="10.2515000033">
		<tag k="ssr:gml_id" v="GEOMETRY_de918e65-332e-4b18-96e9-f3a76435c80d" />
		<tag k="ssr:gml_nr" v="1" />
	</node>
	<node id="-56241" lat="59.2814500029" lon="10.1422333356">
		<tag k="ssr:gml_id" v="GEOMETRY_5124b7b9-dc38-42b3-b164-f97dd5c036c4" />
		<tag k="ssr:gml_nr" v="2" />
	</node>
	<node id="-56240" lat="59.2814611148" lon="10.1425361088">
		<tag k="ssr:gml_id" v="GEOMETRY_834685c1-0297-4d88-9af6-d4972420680b" />
		<tag k="ssr:gml_nr" v="1" />
	</node>
	<node id="-56239" lat="59.2814638926" lon="10.1425388871">
		<tag k="ssr:gml_id" v="GEOMETRY_cef6cf75-f1fd-4043-8c92-c2eb3f703d07" />
		<tag k="ssr:gml_nr" v="0" />
	</node>
	<node id="-54187" lat="59.1102972186" lon="10.223958332">
		<tag k="ssr:gml_id" v="GEOMETRY_44cf83c5-ae5a-446c-8ff1-0a455bcfc83e" />
		<tag k="ssr:gml_nr" v="1" />
	</node>
	<node id="-54186" lat="59.1105555523" lon="10.2239583384">
		<tag k="ssr:gml_id" v="GEOMETRY_0ded0b0b-b1ec-422c-aa7a-e21be9e6c8be" />
		<tag k="ssr:gml_nr" v="0" />
	</node>
	<node id="-54181" lat="59.2421472219" lon="10.1108250054">
		<tag k="name" v="Askedalene" />
		<tag k="natural" v="valley" />
		<tag k="place" v="locality" />
		<tag k="ssr:date" v="2017-01-19" />
		<tag k="ssr:stedsnr" v="27990" />
	</node>
	<node id="-54179" lat="59.2270194423" lon="10.0649638826">
		<tag k="name" v="Risdalen" />
		<tag k="natural" v="valley" />
		<tag k="place" v="locality" />
		<tag k="ssr:date" v="2017-01-19" />
		<tag k="ssr:stedsnr" v="27967" />
	</node>
	<node id="-54178" lat="59.2100638859" lon="10.0742388813">
		<tag k="name" v="Neritraet" />
		<tag k="place" v="locality" />
		<tag k="ssr:date" v="2017-01-19" />
		<tag k="ssr:stedsnr" v="27965" />
	</node>
	<node id="-54177" lat="59.1974500044" lon="10.1309305504">
		<tag k="name" v="Smørfatåsen" />
		<tag k="natural" v="hill" />
		<tag k="place" v="locality" />
		<tag k="ssr:date" v="2017-01-19" />
		<tag k="ssr:stedsnr" v="27839" />
	</node>
	<node id="-54176" lat="59.2041361081" lon="10.1302222199">
		<tag k="name" v="Miudal" />
		<tag k="natural" v="valley" />
		<tag k="place" v="locality" />
		<tag k="ssr:date" v="2017-01-19" />
		<tag k="ssr:stedsnr" v="27840" />
	</node>
	<node id="-54166" lat="59.3042555511" lon="10.0404027784">
		<tag k="name" v="Nilsedalen" />
		<tag k="natural" v="valley" />
		<tag k="place" v="locality" />
		<tag k="ssr:date" v="2017-01-19" />
		<tag k="ssr:stedsnr" v="27562" />
	</node>
	<node id="-54157" lat="59.1751083349" lon="10.1561555549">
		<tag k="name" v="Vilderåsen" />
		<tag k="natural" v="hill" />
		<tag k="place" v="locality" />
		<tag k="ssr:date" v="2017-01-19" />
		<tag k="ssr:stedsnr" v="27775" />
	</node>
	<node id="-54156" lat="59.1463944463" lon="10.2579111117">
		<tag k="name" v="Frebergåsen" />
		<tag k="natural" v="hill" />
		<tag k="place" v="locality" />
		<tag k="ssr:date" v="2017-01-19" />
		<tag k="ssr:stedsnr" v="27771" />
	</node>
	<node id="-54154" lat="59.2064999965" lon="10.2653444436">
		<tag k="name" v="Russeltvedt" />
		<tag k="place" v="locality" />
		<tag k="ssr:date" v="2017-01-19" />
		<tag k="ssr:stedsnr" v="27743" />
	</node>
	<node id="-54152" lat="59.2242527794" lon="10.2336333337">
		<tag k="name" v="Aspelund" />
		<tag k="natural" v="hill" />
		<tag k="place" v="locality" />
		<tag k="ssr:date" v="2017-01-19" />
		<tag k="ssr:stedsnr" v="27714" />
	</node>
	<node id="-54147" lat="59.3381138869" lon="10.1664083253">
		<tag k="name" v="Godthull" />
		<tag k="natural" v="valley" />
		<tag k="place" v="locality" />
		<tag k="ssr:date" v="2017-01-19" />
		<tag k="ssr:stedsnr" v="27395" />
	</node>
	<node id="-54145" lat="59.3214944486" lon="10.2227972296">
		<tag k="name" v="Kjonåsen" />
		<tag k="natural" v="hill" />
		<tag k="place" v="locality" />
		<tag k="ssr:date" v="2017-01-19" />
		<tag k="ssr:stedsnr" v="27452" />
	</node>
	<node id="-54142" lat="59.3007611073" lon="10.1024944475">
		<tag k="name" v="Lykkja" />
		<tag k="place" v="locality" />
		<tag k="ssr:date" v="2017-01-19" />
		<tag k="ssr:stedsnr" v="27252" />
	</node>
	<node id="-54141" lat="59.3654722202" lon="10.0974861174">
		<tag k="name" v="Djupedal" />
		<tag k="natural" v="valley" />
		<tag k="place" v="locality" />
		<tag k="ssr:date" v="2017-01-19" />
		<tag k="ssr:stedsnr" v="27250" />
	</node>
	<node id="-54133" lat="59.315611114" lon="10.0965666755">
		<tag k="name" v="Bakkevannsfjellet" />
		<tag k="natural" v="hill" />
		<tag k="place" v="locality" />
		<tag k="ssr:date" v="2017-01-19" />
		<tag k="ssr:stedsnr" v="27175" />
	</node>
	<node id="-54132" lat="59.3827722261" lon="10.0972027788">
		<tag k="name" v="Flatås" />
		<tag k="natural" v="hill" />
		<tag k="place" v="locality" />
		<tag k="ssr:date" v="2017-01-19" />
		<tag k="ssr:stedsnr" v="27065" />
	</node>
	<node id="-54128" lat="59.2813083349" lon="10.0823555642">
		<tag k="name" v="Tolleåsen" />
		<tag k="natural" v="hill" />
		<tag k="place" v="locality" />
		<tag k="ssr:date" v="2017-01-19" />
		<tag k="ssr:stedsnr" v="26763" />
	</node>
	<node id="-54114" lat="59.2284222226" lon="10.3352472166">
		<tag k="ssr:gml_id" v="GEOMETRY_74354237-f969-43f2-bdd2-a1db4411ff9b" />
		<tag k="ssr:gml_nr" v="1" />
	</node>
	<node id="-57147" lat="59.1632777775" lon="10.2375694444">
		<tag k="ssr:gml_id" v="GEOMETRY_f183598e-0ce8-4595-8133-d9a96055e42a" />
		<tag k="ssr:gml_nr" v="1" />
	</node>
	<node id="-54109" lat="59.2199027782" lon="10.3112722255">
		<tag k="name" v="Laholmåsen" />
		<tag k="natural" v="hill" />
		<tag k="place" v="locality" />
		<tag k="ssr:date" v="2017-01-19" />
		<tag k="ssr:stedsnr" v="25419" />
	</node>
	<node id="-54108" lat="59.0847055557" lon="10.2999749968">
		<tag k="name" v="Eianåsen" />
		<tag k="natural" v="hill" />
		<tag k="place" v="locality" />
		<tag k="ssr:date" v="2017-01-19" />
		<tag k="ssr:stedsnr" v="25340" />
	</node>
	<node id="-54107" lat="59.0885277796" lon="10.3070277722">
		<tag k="name" v="Flautangåsen" />
		<tag k="natural" v="hill" />
		<tag k="place" v="locality" />
		<tag k="ssr:date" v="2017-01-19" />
		<tag k="ssr:stedsnr" v="25336" />
	</node>
	<node id="-54106" lat="59.1471527747" lon="10.2961027718">
		<tag k="name" v="Oksåsen" />
		<tag k="natural" v="hill" />
		<tag k="place" v="locality" />
		<tag k="ssr:date" v="2017-01-19" />
		<tag k="ssr:stedsnr" v="25318" />
	</node>
	<node id="-54104" lat="59.3016583361" lon="10.0993500079">
		<tag k="name" v="Åmotåsen" />
		<tag k="natural" v="hill" />
		<tag k="place" v="locality" />
		<tag k="ssr:date" v="2017-01-19" />
		<tag k="ssr:stedsnr" v="27238" />
	</node>
	<node id="-54101" lat="59.308688887" lon="10.0966111111">
		<tag k="name" v="Brænnås" />
		<tag k="natural" v="hill" />
		<tag k="place" v="locality" />
		<tag k="ssr:date" v="2017-01-19" />
		<tag k="ssr:stedsnr" v="27204" />
	</node>
	<node id="-56148" lat="59.24624167" lon="10.0773305478">
		<tag k="ssr:gml_id" v="GEOMETRY_104c42b4-5df7-4219-86f4-b0a6103c456a" />
		<tag k="ssr:gml_nr" v="2" />
	</node>
	<node id="-56147" lat="59.2467500002" lon="10.0802750036">
		<tag k="ssr:gml_id" v="GEOMETRY_634a67ac-db5b-4cc5-b3bc-60c6fbaa8139" />
		<tag k="ssr:gml_nr" v="1" />
	</node>
	<node id="-56146" lat="59.2467499964" lon="10.0802722158">
		<tag k="ssr:gml_id" v="GEOMETRY_54165dda-6e44-4388-9e66-8cfd6ffe26b9" />
		<tag k="ssr:gml_nr" v="0" />
	</node>
	<node id="-54094" lat="59.3730777811" lon="10.1324861183">
		<tag k="name" v="Kjerketomtåsen" />
		<tag k="natural" v="hill" />
		<tag k="place" v="locality" />
		<tag k="ssr:date" v="2017-01-19" />
		<tag k="ssr:stedsnr" v="27121" />
	</node>
	<node id="-54090" lat="59.0521972195" lon="10.2755499981">
		<tag k="name" v="Midtåsen" />
		<tag k="natural" v="hill" />
		<tag k="place" v="locality" />
		<tag k="ssr:date" v="2017-01-19" />
		<tag k="ssr:stedsnr" v="24327" />
	</node>
	<node id="-54088" lat="59.0708694407" lon="10.3045138829">
		<tag k="name" v="Kjerkeglovåsen" />
		<tag k="natural" v="hill" />
		<tag k="place" v="locality" />
		<tag k="ssr:date" v="2017-01-19" />
		<tag k="ssr:stedsnr" v="24318" />
	</node>
	<node id="-54087" lat="59.0833416625" lon="10.2774194457">
		<tag k="name" v="Båtåsen" />
		<tag k="natural" v="hill" />
		<tag k="place" v="locality" />
		<tag k="ssr:date" v="2017-01-19" />
		<tag k="ssr:stedsnr" v="24291" />
	</node>
	<node id="-54085" lat="59.133316669" lon="10.3261916711">
		<tag k="name" v="Furuvikåsen" />
		<tag k="natural" v="hill" />
		<tag k="place" v="locality" />
		<tag k="ssr:date" v="2017-01-19" />
		<tag k="ssr:stedsnr" v="24249" />
	</node>
	<node id="-54080" lat="59.2647222197" lon="9.99305000407">
		<tag k="ssr:gml_id" v="GEOMETRY_e6a89d04-2445-48c7-bec1-2dc27f0b0028" />
		<tag k="ssr:gml_nr" v="2" />
	</node>
	<node id="-54079" lat="59.270277782" lon="9.992341668">
		<tag k="ssr:gml_id" v="GEOMETRY_d3feb2a7-83e9-4191-8fa3-ceb9511712c9" />
		<tag k="ssr:gml_nr" v="1" />
	</node>
	<node id="-54078" lat="59.2678444487" lon="9.99271388498">
		<tag k="ssr:gml_id" v="GEOMETRY_0ab0e75a-ea21-4dfd-bfd7-cc290a1589a6" />
		<tag k="ssr:gml_nr" v="0" />
	</node>
	<node id="-56121" lat="59.2830611074" lon="10.2360083265">
		<tag k="name" v="Brattåsåsen" />
		<tag k="natural" v="hill" />
		<tag k="place" v="locality" />
		<tag k="ssr:date" v="2017-01-19" />
		<tag k="ssr:stedsnr" v="634447" />
	</node>
	<node id="-56119" lat="59.2197750024" lon="10.0623083269">
		<tag k="name" v="Holmene nedre" />
		<tag k="natural" v="slope" />
		<tag k="place" v="locality" />
		<tag k="ssr:date" v="2017-01-19" />
		<tag k="ssr:stedsnr" v="633979" />
	</node>
	<node id="-56118" lat="59.2216583336" lon="10.0833444462">
		<tag k="name" v="Rønningsåsene" />
		<tag k="natural" v="hill" />
		<tag k="place" v="locality" />
		<tag k="ssr:date" v="2017-01-19" />
		<tag k="ssr:stedsnr" v="633976" />
	</node>
	<node id="-54069" lat="59.3099166658" lon="10.1487027797">
		<tag k="ssr:gml_id" v="GEOMETRY_dd818bb7-62c2-4749-8273-4b5c05dfddfa" />
		<tag k="ssr:gml_nr" v="1" />
	</node>
	<node id="-54068" lat="59.3095777799" lon="10.149802781">
		<tag k="ssr:gml_id" v="GEOMETRY_1e11930c-0393-4b22-b20d-b46508d1a585" />
		<tag k="ssr:gml_nr" v="0" />
	</node>
	<node id="-56115" lat="59.225369446" lon="10.1400583417">
		<tag k="name" v="Huken" />
		<tag k="natural" v="slope" />
		<tag k="place" v="locality" />
		<tag k="ssr:date" v="2017-01-19" />
		<tag k="ssr:stedsnr" v="633964" />
	</node>
	<node id="-56112" lat="59.2910638844" lon="10.1120944527">
		<tag k="name" v="Smedalen" />
		<tag k="natural" v="valley" />
		<tag k="place" v="locality" />
		<tag k="ssr:date" v="2017-01-19" />
		<tag k="ssr:stedsnr" v="633855" />
	</node>
	<node id="-56110" lat="59.2010583299" lon="10.1102777802">
		<tag k="name" v="Nurkholtåsen" />
		<tag k="natural" v="hill" />
		<tag k="place" v="locality" />
		<tag k="ssr:date" v="2017-01-19" />
		<tag k="ssr:stedsnr" v="633853" />
	</node>
	<node id="-56109" lat="59.1931249998" lon="10.1505944449">
		<tag k="name" v="Kleggedalen" />
		<tag k="natural" v="valley" />
		<tag k="place" v="locality" />
		<tag k="ssr:date" v="2017-01-19" />
		<tag k="ssr:stedsnr" v="633843" />
	</node>
	<node id="-56108" lat="59.2755999971" lon="10.11946389">
		<tag k="name" v="Flatås" />
		<tag k="natural" v="hill" />
		<tag k="place" v="locality" />
		<tag k="ssr:date" v="2017-01-19" />
		<tag k="ssr:stedsnr" v="633839" />
	</node>
	<node id="-56103" lat="59.2276138895" lon="10.0327416616">
		<tag k="name" v="Andersbånn" />
		<tag k="natural" v="valley" />
		<tag k="place" v="locality" />
		<tag k="ssr:date" v="2017-01-19" />
		<tag k="ssr:stedsnr" v="633802" />
	</node>
	<node id="-54054" lat="59.2700777814" lon="10.1099388964">
		<tag k="ssr:gml_id" v="GEOMETRY_6c38b81c-b36f-45ff-84b2-0992ba6cf08d" />
		<tag k="ssr:gml_nr" v="3" />
	</node>
	<node id="-56101" lat="59.1400472181" lon="10.1930916704">
		<tag k="name" v="Svartås" />
		<tag k="natural" v="hill" />
		<tag k="place" v="locality" />
		<tag k="ssr:date" v="2017-01-19" />
		<tag k="ssr:stedsnr" v="633790" />
	</node>
	<node id="-54052" lat="59.2697277817" lon="10.1102388931">
		<tag k="ssr:gml_id" v="GEOMETRY_5c91d45a-a9a8-4b27-9a30-428d709fcea8" />
		<tag k="ssr:gml_nr" v="1" />
	</node>
	<node id="-54051" lat="59.2697000013" lon="10.1092138876">
		<tag k="ssr:gml_id" v="GEOMETRY_89adc61f-67a2-41ea-8e69-2e378251cc21" />
		<tag k="ssr:gml_nr" v="0" />
	</node>
	<node id="-56098" lat="59.1374999991" lon="10.2222222196">
		<tag k="ssr:gml_id" v="GEOMETRY_2bb70c27-0844-4495-befc-d20815669188" />
		<tag k="ssr:gml_nr" v="0" />
	</node>
	<node id="-56096" lat="59.1411388932" lon="10.2126388925">
		<tag k="ssr:gml_id" v="GEOMETRY_45f976cc-4f52-4575-b1c0-64852b7abcb8" />
		<tag k="ssr:gml_nr" v="3" />
	</node>
	<node id="-56095" lat="59.1415555593" lon="10.2131388902">
		<tag k="ssr:gml_id" v="GEOMETRY_c91a42f9-55cc-439c-bc5f-91eebe90d382" />
		<tag k="ssr:gml_nr" v="2" />
	</node>
	<node id="-56094" lat="59.1415583356" lon="10.2131416628">
		<tag k="ssr:gml_id" v="GEOMETRY_353c891b-e12c-4985-a9d8-ddac36445e50" />
		<tag k="ssr:gml_nr" v="1" />
	</node>
	<node id="-56093" lat="59.1434472179" lon="10.2094750068">
		<tag k="ssr:gml_id" v="GEOMETRY_6373a54d-e4e8-4859-8da4-65351860abef" />
		<tag k="ssr:gml_nr" v="0" />
	</node>
	<node id="-56091" lat="59.1857222238" lon="10.171713893">
		<tag k="name" v="Tjønnåsen" />
		<tag k="natural" v="hill" />
		<tag k="place" v="locality" />
		<tag k="ssr:date" v="2017-01-19" />
		<tag k="ssr:stedsnr" v="633732" />
	</node>
	<node id="-54038" lat="59.3384833354" lon="10.0330833258">
		<tag k="name" v="Kornmyrfjell" />
		<tag k="natural" v="hill" />
		<tag k="place" v="locality" />
		<tag k="ssr:date" v="2017-01-19" />
		<tag k="ssr:stedsnr" v="2751" />
	</node>
	<node id="-54037" lat="59.2213861151" lon="10.128525001">
		<tag k="ssr:gml_id" v="GEOMETRY_9be73ebe-f8d3-4c3a-b168-58e1c125fe5c" />
		<tag k="ssr:gml_nr" v="2" />
	</node>
	<node id="-56084" lat="59.3156944422" lon="10.0353694405">
		<tag k="name" v="Dammyrlegda" />
		<tag k="natural" v="slope" />
		<tag k="place" v="locality" />
		<tag k="ssr:date" v="2017-01-19" />
		<tag k="ssr:stedsnr" v="633593" />
	</node>
	<node id="-54035" lat="59.2206777786" lon="10.1255222191">
		<tag k="ssr:gml_id" v="GEOMETRY_a9a17f3e-9ebc-425f-aaa4-16e119d35ce4" />
		<tag k="ssr:gml_nr" v="0" />
	</node>
	<node id="-56080" lat="59.0926944442" lon="10.2107083338">
		<tag k="name" v="Kiserudåsen" />
		<tag k="natural" v="hill" />
		<tag k="place" v="locality" />
		<tag k="ssr:date" v="2017-01-19" />
		<tag k="ssr:stedsnr" v="633548" />
	</node>
	<node id="-54744" lat="59.2366388864" lon="10.0490305545">
		<tag k="ssr:gml_id" v="GEOMETRY_377b0044-8f37-40eb-b5f7-a96bb4551597" />
		<tag k="ssr:gml_nr" v="0" />
	</node>
	<node id="-56073" lat="59.3411416706" lon="10.1702000046">
		<tag k="name" v="Paltene" />
		<tag k="natural" v="slope" />
		<tag k="place" v="locality" />
		<tag k="ssr:date" v="2017-01-19" />
		<tag k="ssr:stedsnr" v="633414" />
	</node>
	<node id="-56072" lat="59.3345444468" lon="10.177577779">
		<tag k="ssr:gml_id" v="GEOMETRY_fc43823a-b02d-40c4-9605-72e1f2eae15c" />
		<tag k="ssr:gml_nr" v="1" />
	</node>
	<node id="-56071" lat="59.3364888892" lon="10.1771222293">
		<tag k="ssr:gml_id" v="GEOMETRY_cf6eac10-8ca4-4a90-8319-572f03b89479" />
		<tag k="ssr:gml_nr" v="0" />
	</node>
	<node id="-56449" lat="59.2972750024" lon="10.1674777851">
		<tag k="ssr:gml_id" v="GEOMETRY_70d856a3-1a80-4d6e-99c8-2a1b87a8bd52" />
		<tag k="ssr:gml_nr" v="2" />
	</node>
	<node id="-56067" lat="59.3004361089" lon="10.1189000007">
		<tag k="name" v="Ulvekula" />
		<tag k="natural" v="hill" />
		<tag k="place" v="locality" />
		<tag k="ssr:date" v="2017-01-19" />
		<tag k="ssr:stedsnr" v="633280" />
	</node>
	<node id="-56066" lat="59.374786109" lon="10.0943805519">
		<tag k="name" v="Vrangdal" />
		<tag k="natural" v="valley" />
		<tag k="place" v="locality" />
		<tag k="ssr:date" v="2017-01-19" />
		<tag k="ssr:stedsnr" v="633277" />
	</node>
	<node id="-56065" lat="59.3608499966" lon="10.0476722252">
		<tag k="name" v="Stutaua" />
		<tag k="natural" v="hill" />
		<tag k="place" v="locality" />
		<tag k="ssr:date" v="2017-01-19" />
		<tag k="ssr:stedsnr" v="633272" />
	</node>
	<node id="-56064" lat="59.3136250023" lon="10.1264805593">
		<tag k="name" v="Brånæskastet" />
		<tag k="natural" v="hill" />
		<tag k="place" v="locality" />
		<tag k="ssr:date" v="2017-01-19" />
		<tag k="ssr:stedsnr" v="633262" />
	</node>
	<node id="-56057" lat="59.3487833332" lon="10.0772055633">
		<tag k="name" v="Furumoåsen" />
		<tag k="natural" v="hill" />
		<tag k="place" v="locality" />
		<tag k="ssr:date" v="2017-01-19" />
		<tag k="ssr:stedsnr" v="633182" />
	</node>
	<node id="-56055" lat="59.3373111103" lon="10.0801916647">
		<tag k="name" v="Geitedal" />
		<tag k="natural" v="valley" />
		<tag k="place" v="locality" />
		<tag k="ssr:date" v="2017-01-19" />
		<tag k="ssr:stedsnr" v="633180" />
	</node>
	<node id="-56053" lat="59.3415194483" lon="10.1431333294">
		<tag k="name" v="Bjønnås" />
		<tag k="natural" v="hill" />
		<tag k="place" v="locality" />
		<tag k="ssr:date" v="2017-01-19" />
		<tag k="ssr:stedsnr" v="633173" />
	</node>
	<node id="-56048" lat="59.1938555582" lon="10.2989500066">
		<tag k="name" v="Kleppan V" />
		<tag k="natural" v="hill" />
		<tag k="place" v="locality" />
		<tag k="ssr:date" v="2017-01-19" />
		<tag k="ssr:stedsnr" v="631455" />
	</node>
	<node id="-56043" lat="59.0508611122" lon="10.278947215">
		<tag k="name" v="Hestefjellet" />
		<tag k="natural" v="hill" />
		<tag k="place" v="locality" />
		<tag k="ssr:date" v="2017-01-19" />
		<tag k="ssr:stedsnr" v="631327" />
	</node>
	<node id="-56041" lat="59.0820222204" lon="10.2937194467">
		<tag k="fixme" v="consider natural=peak for the most distinct mountains in the district" />
		<tag k="name" v="Aslefjellet" />
		<tag k="natural" v="hill" />
		<tag k="place" v="locality" />
		<tag k="ssr:date" v="2017-01-19" />
		<tag k="ssr:stedsnr" v="631284" />
	</node>
	<node id="-56039" lat="59.1629833331" lon="10.2959916699">
		<tag k="name" v="Skårsåsen" />
		<tag k="natural" v="hill" />
		<tag k="place" v="locality" />
		<tag k="ssr:date" v="2017-01-19" />
		<tag k="ssr:stedsnr" v="631268" />
	</node>
	<node id="-56036" lat="59.13272222" lon="10.2774333367">
		<tag k="name" v="Høgenhallåsen" />
		<tag k="natural" v="hill" />
		<tag k="place" v="locality" />
		<tag k="ssr:date" v="2017-01-19" />
		<tag k="ssr:stedsnr" v="631226" />
	</node>
	<node id="-56033" lat="59.3332305512" lon="10.1166222165">
		<tag k="ssr:gml_id" v="GEOMETRY_d22e4b5e-704e-4d90-ba48-0a8491c9a4d1" />
		<tag k="ssr:gml_nr" v="2" />
	</node>
	<node id="-56032" lat="59.3324972218" lon="10.1163972309">
		<tag k="ssr:gml_id" v="GEOMETRY_cc27d290-24d4-4340-92dd-f2edaa687125" />
		<tag k="ssr:gml_nr" v="1" />
	</node>
	<node id="-56031" lat="59.3327111098" lon="10.1171000056">
		<tag k="ssr:gml_id" v="GEOMETRY_cd0e3a28-8514-4f6d-9455-37f550fc255f" />
		<tag k="ssr:gml_nr" v="0" />
	</node>
	<node id="-54053" lat="59.269699998" lon="10.1092111154">
		<tag k="ssr:gml_id" v="GEOMETRY_be1da2c9-735d-432f-9c3c-e96acf7742c4" />
		<tag k="ssr:gml_nr" v="2" />
	</node>
	<node id="-57146" lat="59.1632750017" lon="10.237566668">
		<tag k="ssr:gml_id" v="GEOMETRY_044258ca-44d3-4c59-9c2c-2524dff2a37a" />
		<tag k="ssr:gml_nr" v="0" />
	</node>
	<node id="-53969" lat="59.1740111107" lon="10.1826000071">
		<tag k="ssr:gml_id" v="GEOMETRY_5abaf151-0ea3-4840-bf49-ea65e27fb99e" />
		<tag k="ssr:gml_nr" v="1" />
	</node>
	<node id="-53968" lat="59.1740083339" lon="10.1825972168">
		<tag k="ssr:gml_id" v="GEOMETRY_e2e37d87-fe64-4e1f-ac30-7692205ac6cb" />
		<tag k="ssr:gml_nr" v="0" />
	</node>
	<node id="-55992" lat="59.2249805592" lon="10.2257833371">
		<tag k="ssr:gml_id" v="GEOMETRY_a0b59716-3fe6-457d-a68d-4ba5726d2507" />
		<tag k="ssr:gml_nr" v="1" />
	</node>
	<node id="-55991" lat="59.2248361078" lon="10.2255388932">
		<tag k="ssr:gml_id" v="GEOMETRY_7890ee2e-b6f5-4770-b5b2-c4ee1939a0e7" />
		<tag k="ssr:gml_nr" v="0" />
	</node>
	<node id="-55986" lat="59.2304333341" lon="10.0862166638">
		<tag k="ssr:gml_id" v="GEOMETRY_74bde75a-b43a-4568-b5ab-db34a79b8413" />
		<tag k="ssr:gml_nr" v="2" />
	</node>
	<node id="-55985" lat="59.2294500034" lon="10.0863833393">
		<tag k="ssr:gml_id" v="GEOMETRY_7d8096d5-0ffa-4b70-a925-22baf72f0b6a" />
		<tag k="ssr:gml_nr" v="1" />
	</node>
	<node id="-55984" lat="59.2294499998" lon="10.0863805528">
		<tag k="ssr:gml_id" v="GEOMETRY_5f9bf2bd-c343-4b01-88b1-5f93f1dc0788" />
		<tag k="ssr:gml_nr" v="0" />
	</node>
	<node id="-55977" lat="59.2467027748" lon="10.1963638923">
		<tag k="ssr:gml_id" v="GEOMETRY_ee3b58a9-8ac1-46ea-ac43-9a45c1dd6817" />
		<tag k="ssr:gml_nr" v="2" />
	</node>
	<node id="-55976" lat="59.2459777741" lon="10.1904583404">
		<tag k="ssr:gml_id" v="GEOMETRY_90f1bcfc-d8a8-4269-9ca7-e4017c70caa3" />
		<tag k="ssr:gml_nr" v="1" />
	</node>
	<node id="-55975" lat="59.2459749973" lon="10.1904555611">
		<tag k="ssr:gml_id" v="GEOMETRY_468be5e5-dbd2-4000-9d7f-d1011dbb9f72" />
		<tag k="ssr:gml_nr" v="0" />
	</node>
	<node id="-55954" lat="59.1609499992" lon="10.2768861183">
		<tag k="ssr:gml_id" v="GEOMETRY_119d081a-c3f0-4645-a0bd-42687ae28285" />
		<tag k="ssr:gml_nr" v="2" />
	</node>
	<node id="-55953" lat="59.160949999" lon="10.2768888816">
		<tag k="ssr:gml_id" v="GEOMETRY_2f241dd1-d06e-4b54-8340-db749da80649" />
		<tag k="ssr:gml_nr" v="1" />
	</node>
	<node id="-55952" lat="59.1597444415" lon="10.2755805602">
		<tag k="ssr:gml_id" v="GEOMETRY_12f04062-421a-4c9e-95de-47ba0b00826f" />
		<tag k="ssr:gml_nr" v="0" />
	</node>
	<node id="-53760" lat="59.2587750025" lon="10.0039555496">
		<tag k="ssr:gml_id" v="GEOMETRY_0b47a236-544b-42ae-889b-73733f20c794" />
		<tag k="ssr:gml_nr" v="0" />
	</node>
	<node id="-53897" lat="59.1020277734" lon="10.2505138844">
		<tag k="ssr:gml_id" v="GEOMETRY_ff1e56be-fd89-4749-bbd5-67eb6a94ec51" />
		<tag k="ssr:gml_nr" v="1" />
	</node>
	<node id="-53896" lat="59.1027777746" lon="10.250513887">
		<tag k="ssr:gml_id" v="GEOMETRY_c097f3f8-1b64-4da4-9169-cf0a300ae0ff" />
		<tag k="ssr:gml_nr" v="0" />
	</node>
	<node id="-53893" lat="59.109333333" lon="10.2465277864">
		<tag k="name" v="Huseby" />
		<tag k="place" v="locality" />
		<tag k="ssr:date" v="2017-01-19" />
		<tag k="ssr:stedsnr" v="392621" />
	</node>
	<node id="-53885" lat="59.2358138861" lon="10.0738194495">
		<tag k="name" v="Kjøyta" />
		<tag k="natural" v="slope" />
		<tag k="place" v="locality" />
		<tag k="ssr:date" v="2017-01-19" />
		<tag k="ssr:stedsnr" v="391999" />
	</node>
	<node id="-53882" lat="59.2063916684" lon="10.1187249925">
		<tag k="name" v="Bruåsen" />
		<tag k="natural" v="hill" />
		<tag k="place" v="locality" />
		<tag k="ssr:date" v="2017-01-19" />
		<tag k="ssr:stedsnr" v="391975" />
	</node>
	<node id="-53881" lat="59.1623305566" lon="10.1492805616">
		<tag k="name" v="Klavenesåsen" />
		<tag k="natural" v="hill" />
		<tag k="place" v="locality" />
		<tag k="ssr:date" v="2017-01-19" />
		<tag k="ssr:stedsnr" v="391877" />
	</node>
	<node id="-54036" lat="59.2206805566" lon="10.1255250086">
		<tag k="ssr:gml_id" v="GEOMETRY_62dd924b-f55e-4dff-9f20-6f7734e6ea4b" />
		<tag k="ssr:gml_nr" v="1" />
	</node>
	<node id="-53878" lat="59.274788892" lon="10.1139500078">
		<tag k="name" v="Piddåsane" />
		<tag k="natural" v="hill" />
		<tag k="place" v="locality" />
		<tag k="ssr:date" v="2017-01-19" />
		<tag k="ssr:stedsnr" v="391843" />
	</node>
	<node id="-53877" lat="59.280438889" lon="10.1411416581">
		<tag k="name" v="Hauganhågan" />
		<tag k="natural" v="hill" />
		<tag k="place" v="locality" />
		<tag k="ssr:date" v="2017-01-19" />
		<tag k="ssr:stedsnr" v="391839" />
	</node>
	<node id="-53874" lat="59.2611638926" lon="10.0492694438">
		<tag k="name" v="Uleåsen" />
		<tag k="natural" v="hill" />
		<tag k="place" v="locality" />
		<tag k="ssr:date" v="2017-01-19" />
		<tag k="ssr:stedsnr" v="391817" />
	</node>
	<node id="-53873" lat="59.2734055522" lon="10.126261118">
		<tag k="name" v="Bokemodalen" />
		<tag k="natural" v="valley" />
		<tag k="place" v="locality" />
		<tag k="ssr:date" v="2017-01-19" />
		<tag k="ssr:stedsnr" v="391810" />
	</node>
	<node id="-53872" lat="59.2288555572" lon="10.0450805614">
		<tag k="name" v="Mørkåsen" />
		<tag k="natural" v="hill" />
		<tag k="place" v="locality" />
		<tag k="ssr:date" v="2017-01-19" />
		<tag k="ssr:stedsnr" v="391809" />
	</node>
	<node id="-53870" lat="59.2590222254" lon="10.1438416691">
		<tag k="name" v="Hesterønningen" />
		<tag k="natural" v="slope" />
		<tag k="place" v="locality" />
		<tag k="ssr:date" v="2017-01-19" />
		<tag k="ssr:stedsnr" v="391797" />
	</node>
	<node id="-53869" lat="59.2615194466" lon="10.1224611104">
		<tag k="name" v="Dammedal" />
		<tag k="natural" v="valley" />
		<tag k="place" v="locality" />
		<tag k="ssr:date" v="2017-01-19" />
		<tag k="ssr:stedsnr" v="391794" />
	</node>
	<node id="-53860" lat="59.1483888901" lon="10.2331611188">
		<tag k="name" v="Bjørnåsen" />
		<tag k="natural" v="hill" />
		<tag k="place" v="locality" />
		<tag k="ssr:date" v="2017-01-19" />
		<tag k="ssr:stedsnr" v="391763" />
	</node>
	<node id="-53859" lat="59.1434222215" lon="10.2172805643">
		<tag k="ssr:gml_id" v="GEOMETRY_144a25cf-7a8f-419d-b70d-1d4b28854a21" />
		<tag k="ssr:gml_nr" v="1" />
	</node>
	<node id="-53858" lat="59.1436111107" lon="10.2163888803">
		<tag k="ssr:gml_id" v="GEOMETRY_c6434b09-a9ae-4839-b1ea-d97e449d40ca" />
		<tag k="ssr:gml_nr" v="0" />
	</node>
	<node id="-53853" lat="59.2922666667" lon="10.2696972224">
		<tag k="name" v="Brattekværna" />
		<tag k="natural" v="slope" />
		<tag k="place" v="locality" />
		<tag k="ssr:date" v="2017-01-19" />
		<tag k="ssr:stedsnr" v="391711" />
	</node>
	<node id="-53851" lat="59.2696499973" lon="10.2711305613">
		<tag k="name" v="Huppeåsen" />
		<tag k="natural" v="hill" />
		<tag k="place" v="locality" />
		<tag k="ssr:date" v="2017-01-19" />
		<tag k="ssr:stedsnr" v="391698" />
	</node>
	<node id="-53837" lat="59.3114361152" lon="10.1740499968">
		<tag k="name" v="Kjørkåsen" />
		<tag k="natural" v="hill" />
		<tag k="place" v="locality" />
		<tag k="ssr:date" v="2017-01-19" />
		<tag k="ssr:stedsnr" v="391454" />
	</node>
	<node id="-53829" lat="59.3004194431" lon="10.0694527753">
		<tag k="name" v="Djupdalen" />
		<tag k="natural" v="valley" />
		<tag k="place" v="locality" />
		<tag k="ssr:date" v="2017-01-19" />
		<tag k="ssr:stedsnr" v="391249" />
	</node>
	<node id="-53828" lat="59.3042833313" lon="10.1501000048">
		<tag k="name" v="Tømmerdalen" />
		<tag k="natural" v="valley" />
		<tag k="place" v="locality" />
		<tag k="ssr:date" v="2017-01-19" />
		<tag k="ssr:stedsnr" v="391240" />
	</node>
	<node id="-55873" lat="59.143019444" lon="10.1515472205">
		<tag k="ssr:gml_id" v="GEOMETRY_4795f7ef-6d91-4e40-b684-d4cc5cc83d61" />
		<tag k="ssr:gml_nr" v="2" />
	</node>
	<node id="-55872" lat="59.1428944484" lon="10.1511138915">
		<tag k="ssr:gml_id" v="GEOMETRY_7dcdba0a-c589-45f5-a7da-e574906458b8" />
		<tag k="ssr:gml_nr" v="1" />
	</node>
	<node id="-55871" lat="59.142891671" lon="10.1511111064">
		<tag k="ssr:gml_id" v="GEOMETRY_11a244f5-b6ab-43e5-babe-8ba1e4e0eae6" />
		<tag k="ssr:gml_nr" v="0" />
	</node>
	<node id="-53822" lat="59.342386111" lon="10.1525333349">
		<tag k="name" v="Sagåsen" />
		<tag k="natural" v="hill" />
		<tag k="place" v="locality" />
		<tag k="ssr:date" v="2017-01-19" />
		<tag k="ssr:stedsnr" v="391146" />
	</node>
	<node id="-53821" lat="59.362969445" lon="10.1419916693">
		<tag k="name" v="Heimdalsåsen" />
		<tag k="natural" v="hill" />
		<tag k="place" v="locality" />
		<tag k="ssr:date" v="2017-01-19" />
		<tag k="ssr:stedsnr" v="391132" />
	</node>
	<node id="-53820" lat="59.3490444447" lon="10.0451527791">
		<tag k="name" v="Middagsåsen" />
		<tag k="natural" v="hill" />
		<tag k="place" v="locality" />
		<tag k="ssr:date" v="2017-01-19" />
		<tag k="ssr:stedsnr" v="391130" />
	</node>
	<node id="-53817" lat="59.2857722222" lon="10.0648555507">
		<tag k="name" v="Ådnerønningen" />
		<tag k="natural" v="slope" />
		<tag k="place" v="locality" />
		<tag k="ssr:date" v="2017-01-19" />
		<tag k="ssr:stedsnr" v="390790" />
	</node>
	<node id="-53812" lat="59.2904420572" lon="10.1504267657">
		<tag k="name" v="Ulspipa" />
		<tag k="natural" v="hill" />
		<tag k="place" v="locality" />
		<tag k="ssr:date" v="2018-03-13" />
		<tag k="ssr:stedsnr" v="390353" />
	</node>
	<node id="-53811" lat="59.1119394863" lon="10.2519710839">
		<tag k="name" v="Kariåsen" />
		<tag k="natural" v="hill" />
		<tag k="place" v="locality" />
		<tag k="ssr:date" v="2018-03-13" />
		<tag k="ssr:stedsnr" v="390310" />
	</node>
	<node id="-55858" lat="59.2831222247" lon="10.2262888945">
		<tag k="name" v="Åsåsen" />
		<tag k="natural" v="hill" />
		<tag k="place" v="locality" />
		<tag k="ssr:date" v="2017-01-19" />
		<tag k="ssr:stedsnr" v="574465" />
	</node>
	<node id="-55857" lat="59.2661555515" lon="10.184358329">
		<tag k="name" v="Vinnelrødåsen" />
		<tag k="natural" v="hill" />
		<tag k="place" v="locality" />
		<tag k="ssr:date" v="2017-01-19" />
		<tag k="ssr:stedsnr" v="574458" />
	</node>
	<node id="-55855" lat="59.2516083371" lon="10.2067249964">
		<tag k="name" v="Holtan" />
		<tag k="natural" v="hill" />
		<tag k="place" v="locality" />
		<tag k="ssr:date" v="2017-01-19" />
		<tag k="ssr:stedsnr" v="574454" />
	</node>
	<node id="-53805" lat="59.2195777804" lon="10.2901083385">
		<tag k="fixme" v="consider natural=peak for the most distinct mountains in the district" />
		<tag k="name" v="Bærefjell" />
		<tag k="natural" v="hill" />
		<tag k="place" v="locality" />
		<tag k="ssr:date" v="2017-01-19" />
		<tag k="ssr:stedsnr" v="389453" />
	</node>
	<node id="-55852" lat="59.2380916645" lon="10.1437694492">
		<tag k="name" v="Verpedalsås" />
		<tag k="natural" v="hill" />
		<tag k="place" v="locality" />
		<tag k="ssr:date" v="2017-01-19" />
		<tag k="ssr:stedsnr" v="573986" />
	</node>
	<node id="-55851" lat="59.2136666709" lon="10.0951666602">
		<tag k="name" v="Ljøsterød" />
		<tag k="natural" v="valley" />
		<tag k="place" v="locality" />
		<tag k="ssr:date" v="2017-01-19" />
		<tag k="ssr:stedsnr" v="573962" />
	</node>
	<node id="-55850" lat="59.223422223" lon="10.1177500057">
		<tag k="name" v="Brånan" />
		<tag k="natural" v="hill" />
		<tag k="place" v="locality" />
		<tag k="ssr:date" v="2017-01-19" />
		<tag k="ssr:stedsnr" v="573957" />
	</node>
	<node id="-53801" lat="59.2153361138" lon="10.3375944431">
		<tag k="name" v="Solnesåsen" />
		<tag k="natural" v="hill" />
		<tag k="place" v="locality" />
		<tag k="ssr:date" v="2017-01-19" />
		<tag k="ssr:stedsnr" v="389433" />
	</node>
	<node id="-55845" lat="59.1969888867" lon="10.1216500031">
		<tag k="name" v="Brånaråsen" />
		<tag k="natural" v="hill" />
		<tag k="place" v="locality" />
		<tag k="ssr:date" v="2017-01-19" />
		<tag k="ssr:stedsnr" v="573808" />
	</node>
	<node id="-55844" lat="59.1983833356" lon="10.1068583386">
		<tag k="name" v="Siriåsen" />
		<tag k="natural" v="hill" />
		<tag k="place" v="locality" />
		<tag k="ssr:date" v="2017-01-19" />
		<tag k="ssr:stedsnr" v="573809" />
	</node>
	<node id="-53790" lat="59.2776888903" lon="10.02262222">
		<tag k="ssr:gml_id" v="GEOMETRY_a44b150a-d0a4-4149-aa7a-f55cc7dddb6f" />
		<tag k="ssr:gml_nr" v="1" />
	</node>
	<node id="-53789" lat="59.2782055593" lon="10.0229361122">
		<tag k="ssr:gml_id" v="GEOMETRY_0a3e4769-4d8f-4be9-a4a8-7708f02e1533" />
		<tag k="ssr:gml_nr" v="0" />
	</node>
	<node id="-55836" lat="59.2376222245" lon="10.0462055555">
		<tag k="name" v="Smaldal" />
		<tag k="natural" v="valley" />
		<tag k="place" v="locality" />
		<tag k="ssr:date" v="2017-01-19" />
		<tag k="ssr:stedsnr" v="573764" />
	</node>
	<node id="-55826" lat="59.1950888911" lon="10.1784916733">
		<tag k="name" v="Merradalen" />
		<tag k="natural" v="valley" />
		<tag k="place" v="locality" />
		<tag k="ssr:date" v="2017-01-19" />
		<tag k="ssr:stedsnr" v="573694" />
	</node>
	<node id="-55824" lat="59.2258361116" lon="10.2457111033">
		<tag k="name" v="Undelstvetåsen" />
		<tag k="natural" v="hill" />
		<tag k="place" v="locality" />
		<tag k="ssr:date" v="2017-01-19" />
		<tag k="ssr:stedsnr" v="573633" />
	</node>
	<node id="-55823" lat="59.0583027783" lon="10.2640944422">
		<tag k="name" v="Rønningsåsen" />
		<tag k="natural" v="hill" />
		<tag k="place" v="locality" />
		<tag k="ssr:date" v="2017-01-19" />
		<tag k="ssr:stedsnr" v="573594" />
	</node>
	<node id="-55822" lat="59.3084694478" lon="10.0271944371">
		<tag k="name" v="Seterdalen" />
		<tag k="natural" v="valley" />
		<tag k="place" v="locality" />
		<tag k="ssr:date" v="2017-01-19" />
		<tag k="ssr:stedsnr" v="573584" />
	</node>
	<node id="-55819" lat="59.1063916685" lon="10.2606249997">
		<tag k="ssr:gml_id" v="GEOMETRY_d99a6045-f529-4daf-bcab-1f190d049bfc" />
		<tag k="ssr:gml_nr" v="1" />
	</node>
	<node id="-55818" lat="59.105833332" lon="10.2606250016">
		<tag k="ssr:gml_id" v="GEOMETRY_b823a016-325d-42e0-92f5-1a683cef0d51" />
		<tag k="ssr:gml_nr" v="0" />
	</node>
	<node id="-55816" lat="59.0840027803" lon="10.2623333327">
		<tag k="name" v="Steinglova" />
		<tag k="natural" v="valley" />
		<tag k="place" v="locality" />
		<tag k="ssr:date" v="2017-01-19" />
		<tag k="ssr:stedsnr" v="573513" />
	</node>
	<node id="-55815" lat="59.0929111073" lon="10.2182944387">
		<tag k="name" v="Lønneglovene" />
		<tag k="natural" v="valley" />
		<tag k="place" v="locality" />
		<tag k="ssr:date" v="2017-01-19" />
		<tag k="ssr:stedsnr" v="573507" />
	</node>
	<node id="-55814" lat="59.0877333364" lon="10.1966305482">
		<tag k="name" v="Påskeåsen" />
		<tag k="natural" v="hill" />
		<tag k="place" v="locality" />
		<tag k="ssr:date" v="2017-01-19" />
		<tag k="ssr:stedsnr" v="573503" />
	</node>
	<node id="-55812" lat="59.3238111106" lon="10.2189388928">
		<tag k="name" v="Fjosåsen" />
		<tag k="natural" v="hill" />
		<tag k="place" v="locality" />
		<tag k="ssr:date" v="2017-01-19" />
		<tag k="ssr:stedsnr" v="573416" />
	</node>
	<node id="-53761" lat="59.2584805534" lon="10.0060888836">
		<tag k="ssr:gml_id" v="GEOMETRY_9ae4aa91-aceb-4450-b4ae-7d1eb2ca10ad" />
		<tag k="ssr:gml_nr" v="1" />
	</node>
	<node id="-55808" lat="59.2507944447" lon="10.214458325">
		<tag k="name" v="Gravdal" />
		<tag k="natural" v="valley" />
		<tag k="place" v="locality" />
		<tag k="ssr:date" v="2017-01-19" />
		<tag k="ssr:stedsnr" v="573371" />
	</node>
	<node id="-55807" lat="59.3452027777" lon="10.1694638886">
		<tag k="name" v="Uleberget" />
		<tag k="natural" v="hill" />
		<tag k="place" v="locality" />
		<tag k="ssr:date" v="2017-01-19" />
		<tag k="ssr:stedsnr" v="573366" />
	</node>
	<node id="-55806" lat="59.3054555512" lon="10.2485416632">
		<tag k="name" v="Bokeli" />
		<tag k="natural" v="slope" />
		<tag k="place" v="locality" />
		<tag k="ssr:date" v="2017-01-19" />
		<tag k="ssr:stedsnr" v="573335" />
	</node>
	<node id="-56405" lat="59.0764805528" lon="10.269983332">
		<tag k="ssr:gml_id" v="GEOMETRY_201140fa-063d-49d1-8954-960822a79506" />
		<tag k="ssr:gml_nr" v="0" />
	</node>
	<node id="-53756" lat="59.3225611125" lon="10.1230611082">
		<tag k="ssr:gml_id" v="GEOMETRY_98c78c0a-7823-41d7-9ece-234790cf8587" />
		<tag k="ssr:gml_nr" v="2" />
	</node>
	<node id="-55803" lat="59.3032277747" lon="10.0949833322">
		<tag k="name" v="Leirdal" />
		<tag k="natural" v="valley" />
		<tag k="place" v="locality" />
		<tag k="ssr:date" v="2017-01-19" />
		<tag k="ssr:stedsnr" v="573237" />
	</node>
	<node id="-55802" lat="59.3018111097" lon="10.1130305607">
		<tag k="name" v="Langerønningane" />
		<tag k="natural" v="hill" />
		<tag k="place" v="locality" />
		<tag k="ssr:date" v="2017-01-19" />
		<tag k="ssr:stedsnr" v="573234" />
	</node>
	<node id="-55800" lat="59.3298500037" lon="10.0779000045">
		<tag k="name" v="Vassbånn" />
		<tag k="place" v="locality" />
		<tag k="ssr:date" v="2017-01-19" />
		<tag k="ssr:stedsnr" v="573206" />
	</node>
	<node id="-55799" lat="59.3208833299" lon="10.0821805639">
		<tag k="name" v="Tranumkollen" />
		<tag k="natural" v="hill" />
		<tag k="place" v="locality" />
		<tag k="ssr:date" v="2017-01-19" />
		<tag k="ssr:stedsnr" v="573195" />
	</node>
	<node id="-55794" lat="59.2906611099" lon="10.1069750016">
		<tag k="name" v="Åstra" />
		<tag k="place" v="locality" />
		<tag k="ssr:date" v="2017-01-19" />
		<tag k="ssr:stedsnr" v="572828" />
	</node>
	<node id="-55792" lat="59.2500222237" lon="10.0198111078">
		<tag k="name" v="Skogdalen" />
		<tag k="natural" v="valley" />
		<tag k="place" v="locality" />
		<tag k="ssr:date" v="2017-01-19" />
		<tag k="ssr:stedsnr" v="572663" />
	</node>
	<node id="-55791" lat="59.2755416705" lon="10.0394972214">
		<tag k="name" v="Kjettedalen" />
		<tag k="natural" v="valley" />
		<tag k="place" v="locality" />
		<tag k="ssr:date" v="2017-01-19" />
		<tag k="ssr:stedsnr" v="572655" />
	</node>
	<node id="-55788" lat="59.3238527809" lon="10.0156972154">
		<tag k="name" v="Bølevannsskærvene" />
		<tag k="natural" v="hill" />
		<tag k="place" v="locality" />
		<tag k="ssr:date" v="2017-01-19" />
		<tag k="ssr:stedsnr" v="572628" />
	</node>
	<node id="-55787" lat="59.3512416701" lon="10.0413472187">
		<tag k="ssr:gml_id" v="GEOMETRY_926537bb-b440-4586-a026-d786395ce2ad" />
		<tag k="ssr:gml_nr" v="1" />
	</node>
	<node id="-55786" lat="59.3549666652" lon="10.0463388901">
		<tag k="ssr:gml_id" v="GEOMETRY_40c85703-2677-4690-a30c-f4ea9935894d" />
		<tag k="ssr:gml_nr" v="0" />
	</node>
	<node id="-55785" lat="59.1296250035" lon="10.2321000044">
		<tag k="ssr:gml_id" v="GEOMETRY_9768b26f-8d83-4b93-bca6-0f4770f7c37a" />
		<tag k="ssr:gml_nr" v="2" />
	</node>
	<node id="-55784" lat="59.1309250044" lon="10.233447218">
		<tag k="ssr:gml_id" v="GEOMETRY_c46345fe-487c-4038-84a3-4e3fbb7ea0da" />
		<tag k="ssr:gml_nr" v="1" />
	</node>
	<node id="-55783" lat="59.1322222194" lon="10.2316666744">
		<tag k="ssr:gml_id" v="GEOMETRY_cefd25e1-773d-48a0-b32d-042c5d23487d" />
		<tag k="ssr:gml_nr" v="0" />
	</node>
	<node id="-54694" lat="59.2022944482" lon="10.2938249951">
		<tag k="ssr:gml_id" v="GEOMETRY_f118648a-3a9a-4a4e-9f54-9f144ef1cf2a" />
		<tag k="ssr:gml_nr" v="1" />
	</node>
	<node id="-55776" lat="59.1501472242" lon="10.3039694521">
		<tag k="name" v="Hønnerødåsen" />
		<tag k="natural" v="hill" />
		<tag k="place" v="locality" />
		<tag k="ssr:date" v="2017-01-19" />
		<tag k="ssr:stedsnr" v="571272" />
	</node>
	<node id="-54709" lat="59.2457055573" lon="10.1143083348">
		<tag k="ssr:gml_id" v="GEOMETRY_578b4f8e-d18f-4cac-9ca0-75a80ed2e749" />
		<tag k="ssr:gml_nr" v="2" />
	</node>
	<node id="-55768" lat="59.1335499961" lon="10.2831083374">
		<tag k="name" v="Klokkatolvåsen" />
		<tag k="natural" v="hill" />
		<tag k="place" v="locality" />
		<tag k="ssr:date" v="2017-01-19" />
		<tag k="ssr:stedsnr" v="570215" />
	</node>
	<node id="-55767" lat="59.2025361084" lon="10.301730547">
		<tag k="name" v="Stubberød" />
		<tag k="place" v="locality" />
		<tag k="ssr:date" v="2017-01-19" />
		<tag k="ssr:stedsnr" v="570209" />
	</node>
	<node id="-55765" lat="59.1253305522" lon="10.2876666678">
		<tag k="name" v="Sundeåsen" />
		<tag k="natural" v="hill" />
		<tag k="place" v="locality" />
		<tag k="ssr:date" v="2017-01-19" />
		<tag k="ssr:stedsnr" v="570201" />
	</node>
	<node id="-53716" lat="59.125463885" lon="10.2477583391">
		<tag k="ssr:gml_id" v="GEOMETRY_7d957fb6-09f2-477d-bef9-0dfeafc2fdd8" />
		<tag k="ssr:gml_nr" v="4" />
	</node>
	<node id="-53715" lat="59.1231249977" lon="10.2454472162">
		<tag k="ssr:gml_id" v="GEOMETRY_23c08cd3-94b9-4f19-90a2-f5526c29e9ca" />
		<tag k="ssr:gml_nr" v="3" />
	</node>
	<node id="-53714" lat="59.1233333376" lon="10.2454166754">
		<tag k="ssr:gml_id" v="GEOMETRY_cafc7f69-57bb-45f0-9082-1ecf6f8b8cd7" />
		<tag k="ssr:gml_nr" v="2" />
	</node>
	<node id="-53713" lat="59.1231277821" lon="10.2454500076">
		<tag k="ssr:gml_id" v="GEOMETRY_28bcedf6-7cd0-4bd0-9059-471d606316c3" />
		<tag k="ssr:gml_nr" v="1" />
	</node>
	<node id="-53712" lat="59.1231305577" lon="10.2454527813">
		<tag k="ssr:gml_id" v="GEOMETRY_4d87f56c-c934-4388-9e03-d8a3aa111dac" />
		<tag k="ssr:gml_nr" v="0" />
	</node>
	<node id="-55751" lat="59.3210083302" lon="10.0415500064">
		<tag k="ssr:gml_id" v="GEOMETRY_15792a45-b62f-403a-a994-1b74822af641" />
		<tag k="ssr:gml_nr" v="1" />
	</node>
	<node id="-55750" lat="59.3208388858" lon="10.0422972245">
		<tag k="ssr:gml_id" v="GEOMETRY_948dd423-1ce2-4c9f-9f90-e1db58ee6750" />
		<tag k="ssr:gml_nr" v="0" />
	</node>
	<node id="-53696" lat="59.2422944466" lon="10.0373750022">
		<tag k="ssr:gml_id" v="GEOMETRY_28ab0bdf-ca90-4a10-b3c1-89533b51adb2" />
		<tag k="ssr:gml_nr" v="1" />
	</node>
	<node id="-53695" lat="59.240824998" lon="10.0383999975">
		<tag k="ssr:gml_id" v="GEOMETRY_35b42b0f-3e9d-4bc9-96a7-27714b612b59" />
		<tag k="ssr:gml_nr" v="0" />
	</node>
	<node id="-55737" lat="59.3407694474" lon="10.0648638822">
		<tag k="ssr:gml_id" v="GEOMETRY_e0fd2598-0971-41d4-bdf3-8c9ede21d362" />
		<tag k="ssr:gml_nr" v="1" />
	</node>
	<node id="-55736" lat="59.340908329" lon="10.0668916596">
		<tag k="ssr:gml_id" v="GEOMETRY_f1a35f9e-62c5-4d02-9376-514f0181f1f0" />
		<tag k="ssr:gml_nr" v="0" />
	</node>
	<node id="-53675" lat="59.1775083364" lon="10.151522222">
		<tag k="ssr:gml_id" v="GEOMETRY_b08bf8d1-0a92-4a45-98ae-18c17e4283f2" />
		<tag k="ssr:gml_nr" v="2" />
	</node>
	<node id="-53674" lat="59.1775499979" lon="10.1526805627">
		<tag k="ssr:gml_id" v="GEOMETRY_fc77b4bb-e606-42b9-879d-7385dcb68e60" />
		<tag k="ssr:gml_nr" v="1" />
	</node>
	<node id="-53673" lat="59.1775499956" lon="10.1526777805">
		<tag k="ssr:gml_id" v="GEOMETRY_3d885c31-e598-4b27-ba69-ea82da9617f5" />
		<tag k="ssr:gml_nr" v="0" />
	</node>
	<node id="-55364" lat="59.1969749968" lon="10.1798916613">
		<tag k="ssr:gml_id" v="GEOMETRY_9453c9ba-cfe2-4f48-a5a1-fe09ac90ce1a" />
		<tag k="ssr:gml_nr" v="2" />
	</node>
	<node id="-55363" lat="59.1969749984" lon="10.179894445">
		<tag k="ssr:gml_id" v="GEOMETRY_742cb613-1e57-4195-a626-38a7b1579885" />
		<tag k="ssr:gml_nr" v="1" />
	</node>
	<node id="-53995" lat="59.2425237917" lon="10.1292708142">
		<tag k="name" v="Haugåsen" />
		<tag k="natural" v="hill" />
		<tag k="place" v="locality" />
		<tag k="ssr:date" v="2018-03-13" />
		<tag k="ssr:stedsnr" v="1333" />
	</node>
	<node id="-55677" lat="59.0537138929" lon="10.2716527813">
		<tag k="ssr:gml_id" v="GEOMETRY_8a5380f9-322a-4556-a7b3-cb4498a2bdbf" />
		<tag k="ssr:gml_nr" v="1" />
	</node>
	<node id="-55676" lat="59.053711109" lon="10.2716499934">
		<tag k="ssr:gml_id" v="GEOMETRY_6a62315b-a267-4057-a761-b79ecc0a303b" />
		<tag k="ssr:gml_nr" v="0" />
	</node>
	<node id="-53619" lat="59.1154000026" lon="10.2574805547">
		<tag k="name" v="Lille Ringkollen" />
		<tag k="natural" v="hill" />
		<tag k="place" v="locality" />
		<tag k="ssr:date" v="2017-01-19" />
		<tag k="ssr:stedsnr" v="331562" />
	</node>
	<node id="-55665" lat="59.1911361114" lon="10.1432416584">
		<tag k="ssr:gml_id" v="GEOMETRY_847beb48-a3d2-4b4c-b340-1359cecfc2e0" />
		<tag k="ssr:gml_nr" v="2" />
	</node>
	<node id="-55664" lat="59.191802781" lon="10.1463694459">
		<tag k="ssr:gml_id" v="GEOMETRY_a105360b-fb4a-414f-b4e3-10872a87ad46" />
		<tag k="ssr:gml_nr" v="1" />
	</node>
	<node id="-55663" lat="59.1918000033" lon="10.1463666746">
		<tag k="ssr:gml_id" v="GEOMETRY_75ed70ca-2d56-4784-8557-605777f5707c" />
		<tag k="ssr:gml_nr" v="0" />
	</node>
	<node id="-53610" lat="59.2418777796" lon="10.1027111177">
		<tag k="name" v="Dalene søndre" />
		<tag k="natural" v="valley" />
		<tag k="place" v="locality" />
		<tag k="ssr:date" v="2017-01-19" />
		<tag k="ssr:stedsnr" v="330994" />
	</node>
	<node id="-53609" lat="59.2413333301" lon="10.1508666579">
		<tag k="name" v="Vilderåsen" />
		<tag k="natural" v="hill" />
		<tag k="place" v="locality" />
		<tag k="ssr:date" v="2017-01-19" />
		<tag k="ssr:stedsnr" v="330990" />
	</node>
	<node id="-53606" lat="59.210975002" lon="10.06992222">
		<tag k="name" v="Kvernebakken" />
		<tag k="natural" v="slope" />
		<tag k="place" v="locality" />
		<tag k="ssr:date" v="2017-01-19" />
		<tag k="ssr:stedsnr" v="330980" />
	</node>
	<node id="-53604" lat="59.2157722229" lon="10.1153833317">
		<tag k="name" v="Tiuråsen" />
		<tag k="natural" v="hill" />
		<tag k="place" v="locality" />
		<tag k="ssr:date" v="2017-01-19" />
		<tag k="ssr:stedsnr" v="330967" />
	</node>
	<node id="-55013" lat="59.372658329" lon="10.099597216">
		<tag k="ssr:gml_id" v="GEOMETRY_5e476a71-5c9c-4f58-88f5-eb24a6ad3319" />
		<tag k="ssr:gml_nr" v="1" />
	</node>
	<node id="-53596" lat="59.2030305585" lon="10.1120444434">
		<tag k="name" v="Brure hølet" />
		<tag k="natural" v="valley" />
		<tag k="place" v="locality" />
		<tag k="ssr:date" v="2017-01-19" />
		<tag k="ssr:stedsnr" v="330864" />
	</node>
	<node id="-53595" lat="59.1996138921" lon="10.1069055569">
		<tag k="name" v="Hanekneet" />
		<tag k="place" v="locality" />
		<tag k="ssr:date" v="2017-01-19" />
		<tag k="ssr:stedsnr" v="330863" />
	</node>
	<node id="-53593" lat="59.270652782" lon="10.0624722271">
		<tag k="name" v="Flisefyr" />
		<tag k="natural" v="hill" />
		<tag k="place" v="locality" />
		<tag k="ssr:date" v="2017-01-19" />
		<tag k="ssr:stedsnr" v="330858" />
	</node>
	<node id="-53592" lat="59.274602774" lon="10.0676444365">
		<tag k="name" v="Styggedalen" />
		<tag k="natural" v="valley" />
		<tag k="place" v="locality" />
		<tag k="ssr:date" v="2017-01-19" />
		<tag k="ssr:stedsnr" v="330857" />
	</node>
	<node id="-53589" lat="59.2805944471" lon="10.130383341">
		<tag k="name" v="Hauganåsen" />
		<tag k="natural" v="hill" />
		<tag k="place" v="locality" />
		<tag k="ssr:date" v="2017-01-19" />
		<tag k="ssr:stedsnr" v="330847" />
	</node>
	<node id="-53587" lat="59.2523944455" lon="10.0564833352">
		<tag k="name" v="Kjerringdalen" />
		<tag k="natural" v="valley" />
		<tag k="place" v="locality" />
		<tag k="ssr:date" v="2017-01-19" />
		<tag k="ssr:stedsnr" v="330834" />
	</node>
	<node id="-53586" lat="59.2639444468" lon="10.0761805638">
		<tag k="name" v="Rønningen" />
		<tag k="natural" v="slope" />
		<tag k="place" v="locality" />
		<tag k="ssr:date" v="2017-01-19" />
		<tag k="ssr:stedsnr" v="330825" />
	</node>
	<node id="-53584" lat="59.2580388883" lon="10.1449583308">
		<tag k="name" v="Kåssene" />
		<tag k="natural" v="hill" />
		<tag k="place" v="locality" />
		<tag k="ssr:date" v="2017-01-19" />
		<tag k="ssr:stedsnr" v="330814" />
	</node>
	<node id="-53577" lat="59.2609250003" lon="10.0410249962">
		<tag k="name" v="Snappeås" />
		<tag k="natural" v="hill" />
		<tag k="place" v="locality" />
		<tag k="ssr:date" v="2017-01-19" />
		<tag k="ssr:stedsnr" v="330707" />
	</node>
	<node id="-53570" lat="59.3136611156" lon="10.1719916664">
		<tag k="name" v="Ulvekula" />
		<tag k="natural" v="hill" />
		<tag k="place" v="locality" />
		<tag k="ssr:date" v="2017-01-19" />
		<tag k="ssr:stedsnr" v="330453" />
	</node>
	<node id="-53568" lat="59.3037694427" lon="10.2653444388">
		<tag k="name" v="Askedalsåsen" />
		<tag k="natural" v="hill" />
		<tag k="place" v="locality" />
		<tag k="ssr:date" v="2017-01-19" />
		<tag k="ssr:stedsnr" v="330368" />
	</node>
	<node id="-53562" lat="59.3025333336" lon="10.1170666669">
		<tag k="name" v="Hamnedalen" />
		<tag k="natural" v="valley" />
		<tag k="place" v="locality" />
		<tag k="ssr:date" v="2017-01-19" />
		<tag k="ssr:stedsnr" v="330253" />
	</node>
	<node id="-53561" lat="59.3121722216" lon="10.142011116">
		<tag k="name" v="Mærkedalen" />
		<tag k="natural" v="valley" />
		<tag k="place" v="locality" />
		<tag k="ssr:date" v="2017-01-19" />
		<tag k="ssr:stedsnr" v="330251" />
	</node>
	<node id="-53560" lat="59.3151916676" lon="10.1048638836">
		<tag k="name" v="Askedalsåsane" />
		<tag k="natural" v="hill" />
		<tag k="place" v="locality" />
		<tag k="ssr:date" v="2017-01-19" />
		<tag k="ssr:stedsnr" v="330248" />
	</node>
	<node id="-53559" lat="59.3294500007" lon="10.0488750049">
		<tag k="name" v="Pinene" />
		<tag k="natural" v="slope" />
		<tag k="place" v="locality" />
		<tag k="ssr:date" v="2017-01-19" />
		<tag k="ssr:stedsnr" v="330236" />
	</node>
	<node id="-53558" lat="59.3243111069" lon="10.0661583364">
		<tag k="name" v="Kjørkerønningen" />
		<tag k="natural" v="slope" />
		<tag k="place" v="locality" />
		<tag k="ssr:date" v="2017-01-19" />
		<tag k="ssr:stedsnr" v="330237" />
	</node>
	<node id="-55605" lat="59.1059944436" lon="10.2512999921">
		<tag k="ssr:gml_id" v="GEOMETRY_d602fd80-a122-4092-9293-3fdc166d155d" />
		<tag k="ssr:gml_nr" v="1" />
	</node>
	<node id="-53556" lat="59.3526666631" lon="10.0708277714">
		<tag k="name" v="Klosteråsen" />
		<tag k="natural" v="hill" />
		<tag k="place" v="locality" />
		<tag k="ssr:date" v="2017-01-19" />
		<tag k="ssr:stedsnr" v="330185" />
	</node>
	<node id="-53555" lat="59.3400444455" lon="10.1140444465">
		<tag k="name" v="Spirås" />
		<tag k="natural" v="hill" />
		<tag k="place" v="locality" />
		<tag k="ssr:date" v="2017-01-19" />
		<tag k="ssr:stedsnr" v="330182" />
	</node>
	<node id="-55602" lat="59.2762083312" lon="10.2111500006">
		<tag k="name" v="Svinningen" />
		<tag k="natural" v="hill" />
		<tag k="place" v="locality" />
		<tag k="ssr:date" v="2017-01-19" />
		<tag k="ssr:stedsnr" v="513517" />
	</node>
	<node id="-53553" lat="59.376941663" lon="10.1388805556">
		<tag k="name" v="Duedalen" />
		<tag k="natural" v="valley" />
		<tag k="place" v="locality" />
		<tag k="ssr:date" v="2017-01-19" />
		<tag k="ssr:stedsnr" v="330169" />
	</node>
	<node id="-55599" lat="59.2295222202" lon="10.0974861152">
		<tag k="name" v="Smårønningene" />
		<tag k="natural" v="slope" />
		<tag k="place" v="locality" />
		<tag k="ssr:date" v="2017-01-19" />
		<tag k="ssr:stedsnr" v="513000" />
	</node>
	<node id="-55598" lat="59.2335500026" lon="10.085113882">
		<tag k="name" v="Vardalen" />
		<tag k="natural" v="valley" />
		<tag k="place" v="locality" />
		<tag k="ssr:date" v="2017-01-19" />
		<tag k="ssr:stedsnr" v="512999" />
	</node>
	<node id="-55597" lat="59.2291250008" lon="10.0931833345">
		<tag k="name" v="Myrdalen" />
		<tag k="natural" v="valley" />
		<tag k="place" v="locality" />
		<tag k="ssr:date" v="2017-01-19" />
		<tag k="ssr:stedsnr" v="512998" />
	</node>
	<node id="-53548" lat="59.1715583349" lon="10.2857166729">
		<tag k="name" v="Roveåsen" />
		<tag k="natural" v="hill" />
		<tag k="place" v="locality" />
		<tag k="ssr:date" v="2017-01-19" />
		<tag k="ssr:stedsnr" v="328427" />
	</node>
	<node id="-55594" lat="59.2483361093" lon="10.1365694435">
		<tag k="name" v="Reklingmyråsen" />
		<tag k="natural" v="hill" />
		<tag k="place" v="locality" />
		<tag k="ssr:date" v="2017-01-19" />
		<tag k="ssr:stedsnr" v="512986" />
	</node>
	<node id="-55593" lat="59.2337444441" lon="10.1399444527">
		<tag k="name" v="Tassås" />
		<tag k="natural" v="hill" />
		<tag k="place" v="locality" />
		<tag k="ssr:date" v="2017-01-19" />
		<tag k="ssr:stedsnr" v="512981" />
	</node>
	<node id="-55587" lat="59.2716111106" lon="10.0474361151">
		<tag k="name" v="Skrubbåsen" />
		<tag k="natural" v="hill" />
		<tag k="place" v="locality" />
		<tag k="ssr:date" v="2017-01-19" />
		<tag k="ssr:stedsnr" v="512852" />
	</node>
	<node id="-55585" lat="59.2794249978" lon="10.0857861138">
		<tag k="name" v="Franserønningen" />
		<tag k="natural" v="slope" />
		<tag k="place" v="locality" />
		<tag k="ssr:date" v="2017-01-19" />
		<tag k="ssr:stedsnr" v="512843" />
	</node>
	<node id="-53535" lat="59.1417138915" lon="10.2813444519">
		<tag k="name" v="Vitaåsen" />
		<tag k="natural" v="hill" />
		<tag k="place" v="locality" />
		<tag k="ssr:date" v="2017-01-19" />
		<tag k="ssr:stedsnr" v="328239" />
	</node>
	<node id="-55582" lat="59.190447222" lon="10.1305083408">
		<tag k="name" v="Skjedalen" />
		<tag k="natural" v="valley" />
		<tag k="place" v="locality" />
		<tag k="ssr:date" v="2017-01-19" />
		<tag k="ssr:stedsnr" v="512827" />
	</node>
	<node id="-55580" lat="59.248897223" lon="10.0926583376">
		<tag k="name" v="Burvald" />
		<tag k="natural" v="valley" />
		<tag k="place" v="locality" />
		<tag k="ssr:date" v="2017-01-19" />
		<tag k="ssr:stedsnr" v="512798" />
	</node>
	<node id="-55577" lat="59.181294445" lon="10.1430805602">
		<tag k="name" v="Langekilåsen" />
		<tag k="natural" v="hill" />
		<tag k="place" v="locality" />
		<tag k="ssr:date" v="2017-01-19" />
		<tag k="ssr:stedsnr" v="512793" />
	</node>
	<node id="-55576" lat="59.264833332" lon="10.1446388969">
		<tag k="name" v="Hagalia" />
		<tag k="natural" v="slope" />
		<tag k="place" v="locality" />
		<tag k="ssr:date" v="2017-01-19" />
		<tag k="ssr:stedsnr" v="512789" />
	</node>
	<node id="-54318" lat="59.2191555513" lon="10.1691138965">
		<tag k="ssr:gml_id" v="GEOMETRY_fca7bc68-29cd-4625-94dc-4b2fb0092a9f" />
		<tag k="ssr:gml_nr" v="1" />
	</node>
	<node id="-55570" lat="59.1703361097" lon="10.177872219">
		<tag k="name" v="Lastelandet" />
		<tag k="place" v="locality" />
		<tag k="ssr:date" v="2017-01-19" />
		<tag k="ssr:stedsnr" v="512754" />
	</node>
	<node id="-55569" lat="59.1408805529" lon="10.2566138863">
		<tag k="name" v="Flatåsen" />
		<tag k="natural" v="hill" />
		<tag k="place" v="locality" />
		<tag k="ssr:date" v="2017-01-19" />
		<tag k="ssr:stedsnr" v="512736" />
	</node>
	<node id="-55565" lat="59.3254611092" lon="10.0365333322">
		<tag k="name" v="Gampekaståsen" />
		<tag k="natural" v="hill" />
		<tag k="place" v="locality" />
		<tag k="ssr:date" v="2017-01-19" />
		<tag k="ssr:stedsnr" v="512669" />
	</node>
	<node id="-55563" lat="59.075605559" lon="10.2650861198">
		<tag k="name" v="Urdeåsen" />
		<tag k="natural" v="hill" />
		<tag k="place" v="locality" />
		<tag k="ssr:date" v="2017-01-19" />
		<tag k="ssr:stedsnr" v="512629" />
	</node>
	<node id="-55560" lat="59.083316663" lon="10.2619527824">
		<tag k="name" v="Sjøberget" />
		<tag k="natural" v="hill" />
		<tag k="place" v="locality" />
		<tag k="ssr:date" v="2017-01-19" />
		<tag k="ssr:stedsnr" v="512555" />
	</node>
	<node id="-55553" lat="59.2768999965" lon="10.1674972241">
		<tag k="name" v="Skjellandsåsen" />
		<tag k="natural" v="hill" />
		<tag k="place" v="locality" />
		<tag k="ssr:date" v="2017-01-19" />
		<tag k="ssr:stedsnr" v="512494" />
	</node>
	<node id="-55552" lat="59.3313138859" lon="10.1851277835">
		<tag k="ssr:gml_id" v="GEOMETRY_32a131bc-df3c-4314-980e-c413669d4556" />
		<tag k="ssr:gml_nr" v="1" />
	</node>
	<node id="-55551" lat="59.3313166629" lon="10.1851305519">
		<tag k="ssr:gml_id" v="GEOMETRY_e3b2388d-1f4d-4267-9710-dd5c64444c90" />
		<tag k="ssr:gml_nr" v="0" />
	</node>
	<node id="-55550" lat="59.3097083322" lon="10.1580388924">
		<tag k="name" v="Svebrekke" />
		<tag k="natural" v="slope" />
		<tag k="place" v="locality" />
		<tag k="ssr:date" v="2017-01-19" />
		<tag k="ssr:stedsnr" v="512431" />
	</node>
	<node id="-55546" lat="59.261966667" lon="10.2567722204">
		<tag k="name" v="Dalen" />
		<tag k="natural" v="valley" />
		<tag k="place" v="locality" />
		<tag k="ssr:date" v="2017-01-19" />
		<tag k="ssr:stedsnr" v="512397" />
	</node>
	<node id="-55545" lat="59.3453833344" lon="10.1729750079">
		<tag k="name" v="Svarteknipa" />
		<tag k="natural" v="valley" />
		<tag k="place" v="locality" />
		<tag k="ssr:date" v="2017-01-19" />
		<tag k="ssr:stedsnr" v="512394" />
	</node>
	<node id="-55544" lat="59.3119777756" lon="10.2593944363">
		<tag k="name" v="Hoksrødåsen" />
		<tag k="natural" v="hill" />
		<tag k="place" v="locality" />
		<tag k="ssr:date" v="2017-01-19" />
		<tag k="ssr:stedsnr" v="512352" />
	</node>
	<node id="-55541" lat="59.1234443164" lon="10.2562433464">
		<tag k="name" v="Varden" />
		<tag k="natural" v="hill" />
		<tag k="place" v="locality" />
		<tag k="ssr:date" v="2018-03-13" />
		<tag k="ssr:stedsnr" v="512319" />
	</node>
	<node id="-55536" lat="59.3656500004" lon="10.0723361132">
		<tag k="name" v="Stytteberget" />
		<tag k="natural" v="hill" />
		<tag k="place" v="locality" />
		<tag k="ssr:date" v="2017-01-19" />
		<tag k="ssr:stedsnr" v="512245" />
	</node>
	<node id="-55535" lat="59.362241664" lon="10.061980548">
		<tag k="name" v="Bjørdal" />
		<tag k="natural" v="valley" />
		<tag k="place" v="locality" />
		<tag k="ssr:date" v="2017-01-19" />
		<tag k="ssr:stedsnr" v="512243" />
	</node>
	<node id="-55528" lat="59.3405583311" lon="10.045266664">
		<tag k="name" v="Portås" />
		<tag k="natural" v="hill" />
		<tag k="place" v="locality" />
		<tag k="ssr:date" v="2017-01-19" />
		<tag k="ssr:stedsnr" v="512136" />
	</node>
	<node id="-56017" lat="59.2682000015" lon="10.0579333377">
		<tag k="name" v="Flisefyr" />
		<tag k="natural" v="hill" />
		<tag k="place" v="locality" />
		<tag k="ssr:date" v="2017-01-19" />
		<tag k="ssr:stedsnr" v="609888" />
	</node>
	<node id="-55524" lat="59.1236305555" lon="10.249691663">
		<tag k="name" v="Vestvarden" />
		<tag k="natural" v="hill" />
		<tag k="place" v="locality" />
		<tag k="ssr:date" v="2017-01-19" />
		<tag k="ssr:stedsnr" v="510613" />
	</node>
	<node id="-55523" lat="59.1750638888" lon="10.3270249968">
		<tag k="fixme" v="consider natural=peak for the most distinct mountains in the district" />
		<tag k="name" v="Østre Skravestadkollen" />
		<tag k="natural" v="hill" />
		<tag k="place" v="locality" />
		<tag k="ssr:date" v="2017-01-19" />
		<tag k="ssr:stedsnr" v="510599" />
	</node>
	<node id="-55511" lat="59.0970944439" lon="10.2874166729">
		<tag k="name" v="Øyåsen" />
		<tag k="natural" v="hill" />
		<tag k="place" v="locality" />
		<tag k="ssr:date" v="2017-01-19" />
		<tag k="ssr:stedsnr" v="510290" />
	</node>
	<node id="-55507" lat="59.204825004" lon="10.2850972165">
		<tag k="name" v="Kihle" />
		<tag k="place" v="locality" />
		<tag k="ssr:date" v="2017-01-19" />
		<tag k="ssr:stedsnr" v="510232" />
	</node>
	<node id="-53435" lat="59.3625777738" lon="10.0669555619">
		<tag k="ssr:gml_id" v="GEOMETRY_e48126ed-464f-44f7-a018-1902a23e92fb" />
		<tag k="ssr:gml_nr" v="3" />
	</node>
	<node id="-53434" lat="59.3625750035" lon="10.0669527833">
		<tag k="ssr:gml_id" v="GEOMETRY_bce9d885-da9d-42d5-a118-5358d67c60a3" />
		<tag k="ssr:gml_nr" v="2" />
	</node>
	<node id="-53433" lat="59.3622166667" lon="10.0680916679">
		<tag k="ssr:gml_id" v="GEOMETRY_c1ccca5c-8f3a-4cdb-b58c-0802e958715f" />
		<tag k="ssr:gml_nr" v="1" />
	</node>
	<node id="-53432" lat="59.3622111123" lon="10.0680888897">
		<tag k="ssr:gml_id" v="GEOMETRY_e4297dce-a5c2-4566-b286-d690a110b8d5" />
		<tag k="ssr:gml_nr" v="0" />
	</node>
	<node id="-55460" lat="59.2505111096" lon="10.1559694525">
		<tag k="ssr:gml_id" v="GEOMETRY_d5037a5f-b1be-4836-a206-b4955830395d" />
		<tag k="ssr:gml_nr" v="2" />
	</node>
	<node id="-55459" lat="59.2459916638" lon="10.1398777799">
		<tag k="ssr:gml_id" v="GEOMETRY_7422ec62-5570-41b5-9a3a-3fc555f6b208" />
		<tag k="ssr:gml_nr" v="1" />
	</node>
	<node id="-55458" lat="59.2459861082" lon="10.1398722294">
		<tag k="ssr:gml_id" v="GEOMETRY_be7baffd-9f8f-44cb-9aff-96b1deca2085" />
		<tag k="ssr:gml_nr" v="0" />
	</node>
	<node id="-53406" lat="59.1139944452" lon="10.2424277706">
		<tag k="ssr:gml_id" v="GEOMETRY_6a1f12a6-5fd0-40c2-993e-eaf8e2a4bf92" />
		<tag k="ssr:gml_nr" v="3" />
	</node>
	<node id="-53405" lat="59.1136666659" lon="10.2426388864">
		<tag k="ssr:gml_id" v="GEOMETRY_c2517819-de84-46c4-a141-4ebc53c36d24" />
		<tag k="ssr:gml_nr" v="2" />
	</node>
	<node id="-53404" lat="59.1147027755" lon="10.2427527721">
		<tag k="ssr:gml_id" v="GEOMETRY_08c97277-ef92-49dd-8653-6a6342140bce" />
		<tag k="ssr:gml_nr" v="1" />
	</node>
	<node id="-53403" lat="59.1146999998" lon="10.2427499993">
		<tag k="ssr:gml_id" v="GEOMETRY_567a0b12-5120-4c7e-aabd-294a3d23e8f9" />
		<tag k="ssr:gml_nr" v="0" />
	</node>
	<node id="-53397" lat="59.211897226" lon="10.2081138956">
		<tag k="ssr:gml_id" v="GEOMETRY_d44f1616-5816-4b2f-8686-cde138e71c97" />
		<tag k="ssr:gml_nr" v="2" />
	</node>
	<node id="-53396" lat="59.2113305538" lon="10.2077500024">
		<tag k="ssr:gml_id" v="GEOMETRY_f7f6b6f9-f504-4316-ac7b-cdcc21ee89f8" />
		<tag k="ssr:gml_nr" v="1" />
	</node>
	<node id="-53395" lat="59.2113277787" lon="10.207749992">
		<tag k="ssr:gml_id" v="GEOMETRY_280c152b-c5e6-4169-a5da-d10e14f29331" />
		<tag k="ssr:gml_nr" v="0" />
	</node>
	<node id="-55853" lat="59.2500749991" lon="10.1949194526">
		<tag k="name" v="Horntvedt M" />
		<tag k="natural" v="slope" />
		<tag k="place" v="locality" />
		<tag k="ssr:date" v="2017-01-19" />
		<tag k="ssr:stedsnr" v="574447" />
	</node>
	<node id="-55423" lat="59.1815666647" lon="10.1590888916">
		<tag k="ssr:gml_id" v="GEOMETRY_4496a1cf-c366-406b-a837-a52fa862ae63" />
		<tag k="ssr:gml_nr" v="2" />
	</node>
	<node id="-55422" lat="59.1819249986" lon="10.1588472234">
		<tag k="ssr:gml_id" v="GEOMETRY_af15bf02-3489-4597-a429-dabbe06ea00b" />
		<tag k="ssr:gml_nr" v="1" />
	</node>
	<node id="-55421" lat="59.1819249964" lon="10.1588444409">
		<tag k="ssr:gml_id" v="GEOMETRY_3d8e4baf-812a-45b2-875e-0e5a2e09dae5" />
		<tag k="ssr:gml_nr" v="0" />
	</node>
	<node id="-53369" lat="59.1708416651" lon="10.2459027726">
		<tag k="name" v="Feensåsen" />
		<tag k="natural" v="hill" />
		<tag k="place" v="locality" />
		<tag k="ssr:date" v="2017-01-19" />
		<tag k="ssr:stedsnr" v="271777" />
	</node>
	<node id="-53368" lat="59.1746166647" lon="10.222722219">
		<tag k="name" v="Husåsen" />
		<tag k="natural" v="hill" />
		<tag k="place" v="locality" />
		<tag k="ssr:date" v="2017-01-19" />
		<tag k="ssr:stedsnr" v="271776" />
	</node>
	<node id="-53366" lat="59.1061333317" lon="10.2561638833">
		<tag k="name" v="Tjømeåsen" />
		<tag k="natural" v="hill" />
		<tag k="place" v="locality" />
		<tag k="ssr:date" v="2017-01-19" />
		<tag k="ssr:stedsnr" v="271626" />
	</node>
	<node id="-53362" lat="59.2823416702" lon="10.2499833355">
		<tag k="name" v="Pikås" />
		<tag k="natural" v="hill" />
		<tag k="place" v="locality" />
		<tag k="ssr:date" v="2017-01-19" />
		<tag k="ssr:stedsnr" v="271465" />
	</node>
	<node id="-53359" lat="59.2349055543" lon="10.0896916705">
		<tag k="name" v="Barlindglovåsane S." />
		<tag k="natural" v="hill" />
		<tag k="place" v="locality" />
		<tag k="ssr:date" v="2017-01-19" />
		<tag k="ssr:stedsnr" v="270997" />
	</node>
	<node id="-53358" lat="59.2111361093" lon="10.0741055627">
		<tag k="name" v="Vestpåhaugen" />
		<tag k="natural" v="hill" />
		<tag k="place" v="locality" />
		<tag k="ssr:date" v="2017-01-19" />
		<tag k="ssr:stedsnr" v="270973" />
	</node>
	<node id="-53356" lat="59.2143750021" lon="10.074063885">
		<tag k="name" v="Grinhaugen" />
		<tag k="natural" v="hill" />
		<tag k="place" v="locality" />
		<tag k="ssr:date" v="2017-01-19" />
		<tag k="ssr:stedsnr" v="270966" />
	</node>
	<node id="-53354" lat="59.2112805549" lon="10.1080944421">
		<tag k="name" v="Trollås nordre" />
		<tag k="natural" v="hill" />
		<tag k="place" v="locality" />
		<tag k="ssr:date" v="2017-01-19" />
		<tag k="ssr:stedsnr" v="270953" />
	</node>
	<node id="-53353" lat="59.2092222185" lon="10.1043833329">
		<tag k="name" v="Dårestigen" />
		<tag k="natural" v="hill" />
		<tag k="place" v="locality" />
		<tag k="ssr:date" v="2017-01-19" />
		<tag k="ssr:stedsnr" v="270951" />
	</node>
	<node id="-53352" lat="59.1424027795" lon="10.127086117">
		<tag k="name" v="Nyllahellinga" />
		<tag k="natural" v="slope" />
		<tag k="place" v="locality" />
		<tag k="ssr:date" v="2017-01-19" />
		<tag k="ssr:stedsnr" v="270839" />
	</node>
	<node id="-53350" lat="59.2736916679" lon="10.1042972248">
		<tag k="name" v="Kjønnåsen" />
		<tag k="natural" v="hill" />
		<tag k="place" v="locality" />
		<tag k="ssr:date" v="2017-01-19" />
		<tag k="ssr:stedsnr" v="270801" />
	</node>
	<node id="-53349" lat="59.1892583301" lon="10.1421611035">
		<tag k="name" v="Strutelia" />
		<tag k="natural" v="slope" />
		<tag k="place" v="locality" />
		<tag k="ssr:date" v="2017-01-19" />
		<tag k="ssr:stedsnr" v="270795" />
	</node>
	<node id="-53348" lat="59.2807138875" lon="10.1368416642">
		<tag k="name" v="Båhusåsen" />
		<tag k="natural" v="hill" />
		<tag k="place" v="locality" />
		<tag k="ssr:date" v="2017-01-19" />
		<tag k="ssr:stedsnr" v="270796" />
	</node>
	<node id="-53347" lat="59.1945499996" lon="10.1139555567">
		<tag k="name" v="Muskebånn-hølen" />
		<tag k="natural" v="valley" />
		<tag k="place" v="locality" />
		<tag k="ssr:date" v="2017-01-19" />
		<tag k="ssr:stedsnr" v="270790" />
	</node>
	<node id="-53346" lat="59.2870527783" lon="10.1124138949">
		<tag k="name" v="Lauvåskleiva" />
		<tag k="natural" v="slope" />
		<tag k="place" v="locality" />
		<tag k="ssr:date" v="2017-01-19" />
		<tag k="ssr:stedsnr" v="270788" />
	</node>
	<node id="-53344" lat="59.2719055531" lon="10.1183722244">
		<tag k="name" v="Orekollen" />
		<tag k="natural" v="hill" />
		<tag k="place" v="locality" />
		<tag k="ssr:date" v="2017-01-19" />
		<tag k="ssr:stedsnr" v="270772" />
	</node>
	<node id="-53342" lat="59.2591222228" lon="10.1092472136">
		<tag k="name" v="Brudalsåsen" />
		<tag k="natural" v="hill" />
		<tag k="place" v="locality" />
		<tag k="ssr:date" v="2017-01-19" />
		<tag k="ssr:stedsnr" v="270762" />
	</node>
	<node id="-53341" lat="59.2602638878" lon="10.134597224">
		<tag k="name" v="Halrønningen" />
		<tag k="natural" v="slope" />
		<tag k="place" v="locality" />
		<tag k="ssr:date" v="2017-01-19" />
		<tag k="ssr:stedsnr" v="270759" />
	</node>
	<node id="-53338" lat="59.1452750007" lon="10.2459472153">
		<tag k="name" v="Hemsbakken" />
		<tag k="natural" v="slope" />
		<tag k="place" v="locality" />
		<tag k="ssr:date" v="2017-01-19" />
		<tag k="ssr:stedsnr" v="270748" />
	</node>
	<node id="-53335" lat="59.0606333313" lon="10.2625888802">
		<tag k="name" v="Rørvikåsen" />
		<tag k="natural" v="hill" />
		<tag k="place" v="locality" />
		<tag k="ssr:date" v="2017-01-19" />
		<tag k="ssr:stedsnr" v="270630" />
	</node>
	<node id="-53334" lat="59.1195916699" lon="10.2118972257">
		<tag k="ssr:gml_id" v="GEOMETRY_a0ba035e-4e21-4194-b305-87b271be597f" />
		<tag k="ssr:gml_nr" v="1" />
	</node>
	<node id="-53333" lat="59.1194444464" lon="10.2118972151">
		<tag k="ssr:gml_id" v="GEOMETRY_fbb4686e-6f69-455c-8154-17a864f6e5ce" />
		<tag k="ssr:gml_nr" v="0" />
	</node>
	<node id="-53329" lat="59.2998500018" lon="10.0348277851">
		<tag k="name" v="Tryteberget" />
		<tag k="natural" v="hill" />
		<tag k="place" v="locality" />
		<tag k="ssr:date" v="2017-01-19" />
		<tag k="ssr:stedsnr" v="270565" />
	</node>
	<node id="-53322" lat="59.3267777789" lon="10.2273500068">
		<tag k="name" v="Bakken" />
		<tag k="natural" v="slope" />
		<tag k="place" v="locality" />
		<tag k="ssr:date" v="2017-01-19" />
		<tag k="ssr:stedsnr" v="270430" />
	</node>
	<node id="-53318" lat="59.2943277736" lon="10.1996222183">
		<tag k="name" v="Bjønnehølet" />
		<tag k="natural" v="valley" />
		<tag k="place" v="locality" />
		<tag k="ssr:date" v="2017-01-19" />
		<tag k="ssr:stedsnr" v="270353" />
	</node>
	<node id="-53316" lat="59.3733111136" lon="10.0821166596">
		<tag k="name" v="Hestedalen" />
		<tag k="natural" v="valley" />
		<tag k="place" v="locality" />
		<tag k="ssr:date" v="2017-01-19" />
		<tag k="ssr:stedsnr" v="270257" />
	</node>
	<node id="-53315" lat="59.2980555568" lon="10.0508416703">
		<tag k="name" v="Haralegda" />
		<tag k="natural" v="slope" />
		<tag k="place" v="locality" />
		<tag k="ssr:date" v="2017-01-19" />
		<tag k="ssr:stedsnr" v="270244" />
	</node>
	<node id="-55362" lat="59.1959027805" lon="10.1828583364">
		<tag k="ssr:gml_id" v="GEOMETRY_25151848-99b8-474b-b3a0-0e94c92dc408" />
		<tag k="ssr:gml_nr" v="0" />
	</node>
	<node id="-53313" lat="59.3151472252" lon="10.1253777737">
		<tag k="name" v="Strutemoa" />
		<tag k="place" v="locality" />
		<tag k="ssr:date" v="2017-01-19" />
		<tag k="ssr:stedsnr" v="270234" />
	</node>
	<node id="-53311" lat="59.3289805527" lon="10.1264138879">
		<tag k="name" v="Mursteinåsen" />
		<tag k="natural" v="hill" />
		<tag k="place" v="locality" />
		<tag k="ssr:date" v="2017-01-19" />
		<tag k="ssr:stedsnr" v="270229" />
	</node>
	<node id="-53310" lat="59.3175222207" lon="10.1395777733">
		<tag k="name" v="Taranrødmoa" />
		<tag k="place" v="locality" />
		<tag k="ssr:date" v="2017-01-19" />
		<tag k="ssr:stedsnr" v="270223" />
	</node>
	<node id="-53308" lat="59.1849111104" lon="10.1660805571">
		<tag k="name" v="Kjelleråsen" />
		<tag k="natural" v="hill" />
		<tag k="place" v="locality" />
		<tag k="ssr:date" v="2017-01-19" />
		<tag k="ssr:stedsnr" v="270711" />
	</node>
	<node id="-54695" lat="59.199677774" lon="10.2889972181">
		<tag k="ssr:gml_id" v="GEOMETRY_7f4b3ab8-a7d7-47a2-a1d9-f9046d3a46cf" />
		<tag k="ssr:gml_nr" v="2" />
	</node>
	<node id="-53304" lat="59.2260805525" lon="10.2376166627">
		<tag k="name" v="Elgåsen" />
		<tag k="natural" v="hill" />
		<tag k="place" v="locality" />
		<tag k="ssr:date" v="2017-01-19" />
		<tag k="ssr:stedsnr" v="270698" />
	</node>
	<node id="-53299" lat="59.3838749959" lon="10.0953722297">
		<tag k="name" v="Kjyridalen" />
		<tag k="natural" v="valley" />
		<tag k="place" v="locality" />
		<tag k="ssr:date" v="2017-01-19" />
		<tag k="ssr:stedsnr" v="270068" />
	</node>
	<node id="-53295" lat="59.2749194484" lon="10.071663882">
		<tag k="name" v="Kølabånn" />
		<tag k="natural" v="slope" />
		<tag k="place" v="locality" />
		<tag k="ssr:date" v="2017-01-19" />
		<tag k="ssr:stedsnr" v="269814" />
	</node>
	<node id="-53294" lat="59.2815388853" lon="10.0667861188">
		<tag k="name" v="Ravneflau" />
		<tag k="natural" v="ridge" />
		<tag k="old_name" v="Ravnefau" />
		<tag k="place" v="locality" />
		<tag k="ssr:date" v="2017-01-19" />
		<tag k="ssr:stedsnr" v="269812" />
	</node>
	<node id="-53293" lat="59.3550083339" lon="10.0800055563">
		<tag k="name" v="Haukås" />
		<tag k="natural" v="hill" />
		<tag k="place" v="locality" />
		<tag k="ssr:date" v="2017-01-19" />
		<tag k="ssr:stedsnr" v="270171" />
	</node>
	<node id="-55339" lat="59.1644055512" lon="10.2263611145">
		<tag k="name" v="Hjertås" />
		<tag k="natural" v="hill" />
		<tag k="place" v="locality" />
		<tag k="ssr:date" v="2017-01-19" />
		<tag k="ssr:stedsnr" v="453704" />
	</node>
	<node id="-53290" lat="59.3267194409" lon="10.0240388856">
		<tag k="name" v="Storemyrhøgdene" />
		<tag k="natural" v="hill" />
		<tag k="place" v="locality" />
		<tag k="ssr:date" v="2017-01-19" />
		<tag k="ssr:stedsnr" v="269629" />
	</node>
	<node id="-53288" lat="59.3107694433" lon="10.0202083411">
		<tag k="name" v="Briskemyr" />
		<tag k="place" v="locality" />
		<tag k="ssr:date" v="2017-01-19" />
		<tag k="ssr:stedsnr" v="269599" />
	</node>
	<node id="-55335" lat="59.2361305585" lon="10.2255861079">
		<tag k="name" v="Grinnane" />
		<tag k="natural" v="slope" />
		<tag k="place" v="locality" />
		<tag k="ssr:date" v="2017-01-19" />
		<tag k="ssr:stedsnr" v="453690" />
	</node>
	<node id="-55332" lat="59.1165888916" lon="10.2581361126">
		<tag k="ssr:gml_id" v="GEOMETRY_eacb9f48-115e-4b76-a0d6-9825db34687b" />
		<tag k="ssr:gml_nr" v="1" />
	</node>
	<node id="-55331" lat="59.1162500008" lon="10.2580555533">
		<tag k="ssr:gml_id" v="GEOMETRY_903bc70f-b0b4-435b-8f62-e773198e797a" />
		<tag k="ssr:gml_nr" v="0" />
	</node>
	<node id="-55322" lat="59.2297972191" lon="10.0933499924">
		<tag k="name" v="Kvennerønningen" />
		<tag k="natural" v="slope" />
		<tag k="place" v="locality" />
		<tag k="ssr:date" v="2017-01-19" />
		<tag k="ssr:stedsnr" v="452997" />
	</node>
	<node id="-55321" lat="59.2345194403" lon="10.0723444457">
		<tag k="name" v="Furuåsen" />
		<tag k="natural" v="hill" />
		<tag k="place" v="locality" />
		<tag k="ssr:date" v="2017-01-19" />
		<tag k="ssr:stedsnr" v="452994" />
	</node>
	<node id="-55319" lat="59.2127277793" lon="10.1305333408">
		<tag k="name" v="Plassen" />
		<tag k="place" v="locality" />
		<tag k="ssr:date" v="2017-01-19" />
		<tag k="ssr:stedsnr" v="452970" />
	</node>
	<node id="-55317" lat="59.1370250031" lon="10.1222944385">
		<tag k="name" v="Oredalen" />
		<tag k="natural" v="valley" />
		<tag k="place" v="locality" />
		<tag k="ssr:date" v="2017-01-19" />
		<tag k="ssr:stedsnr" v="452853" />
	</node>
	<node id="-55316" lat="59.1394750002" lon="10.1228527811">
		<tag k="name" v="Fjeldbolia" />
		<tag k="natural" v="slope" />
		<tag k="place" v="locality" />
		<tag k="ssr:date" v="2017-01-19" />
		<tag k="ssr:stedsnr" v="452851" />
	</node>
	<node id="-55315" lat="59.2038722189" lon="10.1278166686">
		<tag k="name" v="Husåsen" />
		<tag k="natural" v="hill" />
		<tag k="place" v="locality" />
		<tag k="ssr:date" v="2017-01-19" />
		<tag k="ssr:stedsnr" v="452839" />
	</node>
	<node id="-55314" lat="59.1959111122" lon="10.1305999961">
		<tag k="name" v="Vassvollen" />
		<tag k="natural" v="hill" />
		<tag k="place" v="locality" />
		<tag k="ssr:date" v="2017-01-19" />
		<tag k="ssr:stedsnr" v="452833" />
	</node>
	<node id="-55313" lat="59.2045638918" lon="10.1022749918">
		<tag k="name" v="Tyskedal" />
		<tag k="natural" v="valley" />
		<tag k="place" v="locality" />
		<tag k="ssr:date" v="2017-01-19" />
		<tag k="ssr:stedsnr" v="452828" />
	</node>
	<node id="-55312" lat="59.281230554" lon="10.1498194499">
		<tag k="ssr:gml_id" v="GEOMETRY_0f621751-fc1e-41bc-baf0-7ffef890436a" />
		<tag k="ssr:gml_nr" v="1" />
	</node>
	<node id="-55311" lat="59.2812333293" lon="10.1498194382">
		<tag k="ssr:gml_id" v="GEOMETRY_29392deb-dca5-4d84-a74f-cdf64afd9b81" />
		<tag k="ssr:gml_nr" v="0" />
	</node>
	<node id="-55310" lat="59.2819027746" lon="10.1203638867">
		<tag k="name" v="Byttingåsen" />
		<tag k="natural" v="hill" />
		<tag k="place" v="locality" />
		<tag k="ssr:date" v="2017-01-19" />
		<tag k="ssr:stedsnr" v="452815" />
	</node>
	<node id="-55308" lat="59.2722666678" lon="10.1218638829">
		<tag k="name" v="Obbedalsåsen" />
		<tag k="natural" v="hill" />
		<tag k="place" v="locality" />
		<tag k="ssr:date" v="2017-01-19" />
		<tag k="ssr:stedsnr" v="452793" />
	</node>
	<node id="-55307" lat="59.2469305539" lon="10.0916611115">
		<tag k="name" v="Oddelia" />
		<tag k="natural" v="slope" />
		<tag k="place" v="locality" />
		<tag k="ssr:date" v="2017-01-19" />
		<tag k="ssr:stedsnr" v="452786" />
	</node>
	<node id="-55304" lat="59.2977805587" lon="10.284499993">
		<tag k="name" v="Bekkevaråsen" />
		<tag k="natural" v="hill" />
		<tag k="place" v="locality" />
		<tag k="ssr:date" v="2017-01-19" />
		<tag k="ssr:stedsnr" v="452747" />
	</node>
	<node id="-55300" lat="59.1677138909" lon="10.1643472219">
		<tag k="name" v="Tryteberget" />
		<tag k="natural" v="hill" />
		<tag k="place" v="locality" />
		<tag k="ssr:date" v="2017-01-19" />
		<tag k="ssr:stedsnr" v="452722" />
	</node>
	<node id="-55299" lat="59.1670138881" lon="10.172491658">
		<tag k="name" v="Semsbakken" />
		<tag k="natural" v="slope" />
		<tag k="place" v="locality" />
		<tag k="ssr:date" v="2017-01-19" />
		<tag k="ssr:stedsnr" v="452720" />
	</node>
	<way id="-11519">
		<tag k="name" v="Vadumåsen" />
		<tag k="natural" v="hill" />
		<tag k="place" v="locality" />
		<tag k="ssr:date" v="2017-01-19" />
		<tag k="ssr:stedsnr" v="25427" />
		<nd ref="-54113" />
		<nd ref="-54114" />
	</way>
	<way id="-11645">
		<tag k="name" v="Storås" />
		<tag k="natural" v="hill" />
		<tag k="place" v="locality" />
		<tag k="ssr:date" v="2017-01-19" />
		<tag k="ssr:stedsnr" v="184296" />
		<nd ref="-54744" />
		<nd ref="-54745" />
		<nd ref="-54746" />
	</way>
	<way id="-11772">
		<tag k="name" v="Ringkollen" />
		<tag k="natural" v="hill" />
		<tag k="place" v="locality" />
		<tag k="ssr:date" v="2017-01-19" />
		<tag k="ssr:stedsnr" v="453594" />
		<nd ref="-55331" />
		<nd ref="-55332" />
	</way>
	<way id="-11849">
		<tag k="name" v="Sørpynten" />
		<tag k="natural" v="hill" />
		<tag k="place" v="locality" />
		<tag k="ssr:date" v="2017-01-19" />
		<tag k="ssr:stedsnr" v="547201" />
		<nd ref="-55676" />
		<nd ref="-55677" />
	</way>
	<way id="-11770">
		<tag k="name" v="Halumåsen" />
		<tag k="natural" v="hill" />
		<tag k="place" v="locality" />
		<tag k="ssr:date" v="2017-01-19" />
		<tag k="ssr:stedsnr" v="452819" />
		<nd ref="-55311" />
		<nd ref="-55312" />
	</way>
	<way id="-11525">
		<tag k="name" v="Ommestadkollen" />
		<tag k="natural" v="hill" />
		<tag k="place" v="locality" />
		<tag k="ssr:date" v="2017-01-19" />
		<tag k="ssr:stedsnr" v="28567" />
		<nd ref="-54186" />
		<nd ref="-54187" />
	</way>
	<way id="-12023">
		<tag k="name" v="Vetan" />
		<tag k="natural" v="hill" />
		<tag k="place" v="locality" />
		<tag k="ssr:date" v="2017-01-19" />
		<tag k="ssr:stedsnr" v="731810" />
		<nd ref="-56447" />
		<nd ref="-56448" />
		<nd ref="-56449" />
	</way>
	<way id="-11881">
		<tag k="name" v="Delingsdalen" />
		<tag k="natural" v="valley" />
		<tag k="place" v="locality" />
		<tag k="ssr:date" v="2017-01-19" />
		<tag k="ssr:stedsnr" v="572556" />
		<nd ref="-55786" />
		<nd ref="-55787" />
	</way>
	<way id="-11731">
		<tag k="alt_name" v="Røver'n" />
		<tag k="name" v="Røveren" />
		<tag k="natural" v="hill" />
		<tag k="place" v="locality" />
		<tag k="ssr:date" v="2017-01-19" />
		<tag k="ssr:stedsnr" v="426182" />
		<nd ref="-55130" />
		<nd ref="-55131" />
		<nd ref="-55132" />
		<nd ref="-55133" />
	</way>
	<way id="-11759">
		<tag k="name" v="Dalaåsen" />
		<tag k="natural" v="hill" />
		<tag k="place" v="locality" />
		<tag k="ssr:date" v="2017-01-19" />
		<tag k="ssr:stedsnr" v="428841" />
		<nd ref="-55216" />
		<nd ref="-55217" />
	</way>
	<way id="-11886">
		<tag k="name" v="Pinseåsen" />
		<tag k="natural" v="hill" />
		<tag k="place" v="locality" />
		<tag k="ssr:date" v="2017-01-19" />
		<tag k="ssr:stedsnr" v="607022" />
		<nd ref="-55871" />
		<nd ref="-55872" />
		<nd ref="-55873" />
	</way>
	<way id="-11500">
		<tag k="name" v="Stiåsen" />
		<tag k="natural" v="hill" />
		<tag k="place" v="locality" />
		<tag k="ssr:date" v="2017-01-19" />
		<tag k="ssr:stedsnr" v="2389" />
		<nd ref="-54035" />
		<nd ref="-54036" />
		<nd ref="-54037" />
	</way>
	<way id="-11882">
		<tag k="name" v="Langåkeråsen" />
		<tag k="natural" v="hill" />
		<tag k="place" v="locality" />
		<tag k="ssr:date" v="2017-01-19" />
		<tag k="ssr:stedsnr" v="573541" />
		<nd ref="-55818" />
		<nd ref="-55819" />
	</way>
	<way id="-12137">
		<tag k="name" v="Rambergåsen" />
		<tag k="natural" v="hill" />
		<tag k="place" v="locality" />
		<tag k="ssr:date" v="2017-01-19" />
		<tag k="ssr:stedsnr" v="877604" />
		<nd ref="-57026" />
		<nd ref="-57027" />
	</way>
	<way id="-11880">
		<tag k="name" v="Preståsen" />
		<tag k="natural" v="hill" />
		<tag k="place" v="locality" />
		<tag k="ssr:date" v="2017-01-19" />
		<tag k="ssr:stedsnr" v="572336" />
		<nd ref="-55783" />
		<nd ref="-55784" />
		<nd ref="-55785" />
	</way>
	<way id="-12135">
		<tag k="name" v="Rauneflauget" />
		<tag k="natural" v="hill" />
		<tag k="place" v="locality" />
		<tag k="ssr:date" v="2017-01-19" />
		<tag k="ssr:stedsnr" v="877391" />
		<nd ref="-57009" />
		<nd ref="-57010" />
	</way>
	<way id="-11921">
		<tag k="alt_name" v="N. Brånarhusåsen" />
		<tag k="name" v="Brånarhusåsen" />
		<tag k="natural" v="hill" />
		<tag k="place" v="locality" />
		<tag k="ssr:date" v="2017-01-19" />
		<tag k="ssr:stedsnr" v="608329" />
		<nd ref="-55984" />
		<nd ref="-55985" />
		<nd ref="-55986" />
	</way>
	<way id="-11779">
		<tag k="name" v="Kobberåsen" />
		<tag k="natural" v="hill" />
		<tag k="place" v="locality" />
		<tag k="ssr:date" v="2017-01-19" />
		<tag k="ssr:stedsnr" v="486143" />
		<nd ref="-55362" />
		<nd ref="-55363" />
		<nd ref="-55364" />
	</way>
	<way id="-12130">
		<tag k="name" v="Brænna" />
		<tag k="natural" v="hill" />
		<tag k="place" v="locality" />
		<tag k="ssr:date" v="2017-01-19" />
		<tag k="ssr:stedsnr" v="876645" />
		<nd ref="-56980" />
		<nd ref="-56981" />
	</way>
	<way id="-12129">
		<tag k="name" v="Brånafjell" />
		<tag k="natural" v="hill" />
		<tag k="place" v="locality" />
		<tag k="ssr:date" v="2017-01-19" />
		<tag k="ssr:stedsnr" v="876365" />
		<nd ref="-56977" />
		<nd ref="-56978" />
		<nd ref="-56979" />
	</way>
	<way id="-11616">
		<tag k="name" v="Huvikåsen" />
		<tag k="natural" v="hill" />
		<tag k="place" v="locality" />
		<tag k="ssr:date" v="2017-01-19" />
		<tag k="ssr:stedsnr" v="148773" />
		<nd ref="-54627" />
		<nd ref="-54628" />
	</way>
	<way id="-11358">
		<tag k="name" v="Flatås" />
		<tag k="natural" v="hill" />
		<tag k="place" v="locality" />
		<tag k="ssr:date" v="2017-01-19" />
		<tag k="ssr:stedsnr" v="304121" />
		<nd ref="-53395" />
		<nd ref="-53396" />
		<nd ref="-53397" />
	</way>
	<way id="-11997">
		<tag k="name" v="Midtåsen" />
		<tag k="natural" v="hill" />
		<tag k="place" v="locality" />
		<tag k="ssr:date" v="2017-01-19" />
		<tag k="ssr:stedsnr" v="729022" />
		<nd ref="-56371" />
		<nd ref="-56372" />
		<nd ref="-56373" />
	</way>
	<way id="-11995">
		<tag k="name" v="Drakeåsen" />
		<tag k="natural" v="hill" />
		<tag k="place" v="locality" />
		<tag k="ssr:date" v="2017-01-19" />
		<tag k="ssr:stedsnr" v="729006" />
		<nd ref="-56366" />
		<nd ref="-56367" />
		<nd ref="-56368" />
	</way>
	<way id="-11482">
		<tag k="name" v="Semsåsen" />
		<tag k="natural" v="hill" />
		<tag k="place" v="locality" />
		<tag k="ssr:date" v="2017-01-19" />
		<tag k="ssr:stedsnr" v="1203" />
		<nd ref="-53968" />
		<nd ref="-53969" />
	</way>
	<way id="-11350">
		<tag k="alt_name" v="Virikollen" />
		<tag k="name" v="Virikkollen" />
		<tag k="natural" v="hill" />
		<tag k="place" v="locality" />
		<tag k="ssr:date" v="2017-01-19" />
		<tag k="ssr:stedsnr" v="270624" />
		<nd ref="-53333" />
		<nd ref="-53334" />
	</way>
	<way id="-12117">
		<tag k="name" v="Dalseteråsen" />
		<tag k="natural" v="hill" />
		<tag k="place" v="locality" />
		<tag k="ssr:date" v="2017-01-19" />
		<tag k="ssr:stedsnr" v="852738" />
		<nd ref="-56919" />
		<nd ref="-56920" />
	</way>
	<way id="-11511">
		<tag k="name" v="Skørsåsane" />
		<tag k="natural" v="hill" />
		<tag k="place" v="locality" />
		<tag k="ssr:date" v="2017-01-19" />
		<tag k="ssr:stedsnr" v="3828" />
		<nd ref="-54068" />
		<nd ref="-54069" />
	</way>
	<way id="-11987">
		<tag k="name" v="Sjøbakken" />
		<tag k="place" v="locality" />
		<tag k="ssr:date" v="2017-01-19" />
		<tag k="ssr:stedsnr" v="695555" />
		<nd ref="-56324" />
		<nd ref="-56325" />
	</way>
	<way id="-11605">
		<tag k="name" v="Kirilåsen" />
		<tag k="natural" v="hill" />
		<tag k="place" v="locality" />
		<tag k="ssr:date" v="2017-01-19" />
		<tag k="ssr:stedsnr" v="124743" />
		<nd ref="-54545" />
		<nd ref="-54546" />
	</way>
	<way id="-12085">
		<tag k="name" v="Traåsen" />
		<tag k="natural" v="hill" />
		<tag k="place" v="locality" />
		<tag k="ssr:date" v="2017-01-19" />
		<tag k="ssr:stedsnr" v="816774" />
		<nd ref="-56788" />
		<nd ref="-56789" />
	</way>
	<way id="-11596">
		<tag k="name" v="Vardås" />
		<tag k="natural" v="hill" />
		<tag k="place" v="locality" />
		<tag k="ssr:date" v="2017-01-19" />
		<tag k="ssr:stedsnr" v="123365" />
		<nd ref="-54520" />
		<nd ref="-54521" />
		<nd ref="-54522" />
		<nd ref="-54523" />
	</way>
	<way id="-11810">
		<tag k="name" v="Vilderåsen" />
		<tag k="natural" v="hill" />
		<tag k="place" v="locality" />
		<tag k="ssr:date" v="2017-01-19" />
		<tag k="ssr:stedsnr" v="487302" />
		<nd ref="-55458" />
		<nd ref="-55459" />
		<nd ref="-55460" />
	</way>
	<way id="-11978">
		<tag k="name" v="Flåttåsen" />
		<tag k="natural" v="hill" />
		<tag k="place" v="locality" />
		<tag k="ssr:date" v="2017-01-19" />
		<tag k="ssr:stedsnr" v="670829" />
		<nd ref="-56239" />
		<nd ref="-56240" />
		<nd ref="-56241" />
	</way>
	<way id="-11767">
		<tag k="alt_name" v="Sundås" />
		<tag k="name" v="Sundåsen" />
		<tag k="natural" v="hill" />
		<tag k="place" v="locality" />
		<tag k="ssr:date" v="2017-01-19" />
		<tag k="ssr:stedsnr" v="450462" />
		<nd ref="-55255" />
		<nd ref="-55256" />
	</way>
	<way id="-11463">
		<tag k="name" v="Tangenåsen" />
		<tag k="natural" v="hill" />
		<tag k="place" v="locality" />
		<tag k="ssr:date" v="2017-01-19" />
		<tag k="ssr:stedsnr" v="392630" />
		<nd ref="-53896" />
		<nd ref="-53897" />
	</way>
	<way id="-11873">
		<tag k="name" v="Glovåsen" />
		<tag k="natural" v="hill" />
		<tag k="place" v="locality" />
		<tag k="ssr:date" v="2017-01-19" />
		<tag k="ssr:stedsnr" v="549759" />
		<nd ref="-55750" />
		<nd ref="-55751" />
	</way>
	<way id="-12099">
		<tag k="name" v="Bergeåsen" />
		<tag k="natural" v="hill" />
		<tag k="place" v="locality" />
		<tag k="ssr:date" v="2017-01-19" />
		<tag k="ssr:stedsnr" v="851151" />
		<nd ref="-56862" />
		<nd ref="-56863" />
		<nd ref="-56864" />
	</way>
	<way id="-11457">
		<tag k="name" v="Midtås" />
		<tag k="natural" v="hill" />
		<tag k="place" v="locality" />
		<tag k="ssr:date" v="2017-01-19" />
		<tag k="ssr:stedsnr" v="391758" />
		<nd ref="-53858" />
		<nd ref="-53859" />
	</way>
	<way id="-11360">
		<tag k="name" v="Rødsåsen" />
		<tag k="natural" v="hill" />
		<tag k="place" v="locality" />
		<tag k="ssr:date" v="2017-01-19" />
		<tag k="ssr:stedsnr" v="305058" />
		<nd ref="-53403" />
		<nd ref="-53404" />
		<nd ref="-53405" />
		<nd ref="-53406" />
	</way>
	<way id="-11829">
		<tag k="name" v="Stulsåsen" />
		<tag k="natural" v="hill" />
		<tag k="place" v="locality" />
		<tag k="ssr:date" v="2017-01-19" />
		<tag k="ssr:stedsnr" v="512451" />
		<nd ref="-55551" />
		<nd ref="-55552" />
	</way>
	<way id="-11452">
		<tag k="alt_name" v="Plankeås" />
		<tag k="name" v="Plankeåsen" />
		<tag k="natural" v="hill" />
		<tag k="place" v="locality" />
		<tag k="ssr:date" v="2017-01-19" />
		<tag k="ssr:stedsnr" v="367893" />
		<nd ref="-53789" />
		<nd ref="-53790" />
	</way>
	<way id="-11552">
		<tag k="name" v="Traåsen" />
		<tag k="natural" v="hill" />
		<tag k="place" v="locality" />
		<tag k="ssr:date" v="2017-01-19" />
		<tag k="ssr:stedsnr" v="62331" />
		<nd ref="-54284" />
		<nd ref="-54285" />
	</way>
	<way id="-11831">
		<tag k="name" v="Holtåsen" />
		<tag k="natural" v="hill" />
		<tag k="place" v="locality" />
		<tag k="ssr:date" v="2017-01-19" />
		<tag k="ssr:stedsnr" v="513612" />
		<nd ref="-55604" />
		<nd ref="-55605" />
	</way>
	<way id="-11721">
		<tag k="name" v="Konåsen" />
		<tag k="natural" v="hill" />
		<tag k="place" v="locality" />
		<tag k="ssr:date" v="2017-01-19" />
		<tag k="ssr:stedsnr" v="426043" />
		<nd ref="-55097" />
		<nd ref="-55098" />
		<nd ref="-55099" />
	</way>
	<way id="-11699">
		<tag k="name" v="Nautås" />
		<tag k="natural" v="hill" />
		<tag k="place" v="locality" />
		<tag k="ssr:date" v="2017-01-19" />
		<tag k="ssr:stedsnr" v="245190" />
		<nd ref="-55012" />
		<nd ref="-55013" />
		<nd ref="-55014" />
	</way>
	<way id="-11569">
		<tag k="alt_name" v="Sæteråsen" />
		<tag k="name" v="Seteråsen" />
		<tag k="natural" v="hill" />
		<tag k="place" v="locality" />
		<tag k="ssr:date" v="2017-01-19" />
		<tag k="ssr:stedsnr" v="70672" />
		<nd ref="-54339" />
		<nd ref="-54340" />
		<nd ref="-54341" />
	</way>
	<way id="-11439">
		<tag k="name" v="Bustingen" />
		<tag k="natural" v="hill" />
		<tag k="place" v="locality" />
		<tag k="ssr:date" v="2017-01-19" />
		<tag k="ssr:stedsnr" v="366790" />
		<nd ref="-53754" />
		<nd ref="-53755" />
		<nd ref="-53756" />
	</way>
	<way id="-11566">
		<tag k="name" v="Veggeråsen" />
		<tag k="natural" v="hill" />
		<tag k="place" v="locality" />
		<tag k="ssr:date" v="2017-01-19" />
		<tag k="ssr:stedsnr" v="64848" />
		<nd ref="-54331" />
		<nd ref="-54332" />
	</way>
	<way id="-11948">
		<tag k="name" v="Fuglemyråsane" />
		<tag k="natural" v="hill" />
		<tag k="place" v="locality" />
		<tag k="ssr:date" v="2017-01-19" />
		<tag k="ssr:stedsnr" v="669270" />
		<nd ref="-56146" />
		<nd ref="-56147" />
		<nd ref="-56148" />
	</way>
	<way id="-12074">
		<tag k="name" v="Gørpusåsen" />
		<tag k="natural" v="hill" />
		<tag k="place" v="locality" />
		<tag k="ssr:date" v="2017-01-19" />
		<tag k="ssr:stedsnr" v="791806" />
		<nd ref="-56700" />
		<nd ref="-56701" />
		<nd ref="-56702" />
	</way>
	<way id="-11561">
		<tag k="alt_name" v="Skjenaåsen" />
		<tag k="name" v="Skjenåsen" />
		<tag k="natural" v="hill" />
		<tag k="place" v="locality" />
		<tag k="ssr:date" v="2017-01-19" />
		<tag k="ssr:stedsnr" v="63390" />
		<nd ref="-54317" />
		<nd ref="-54318" />
		<nd ref="-54319" />
	</way>
	<way id="-11944">
		<tag k="name" v="Mattisberget" />
		<tag k="natural" v="hill" />
		<tag k="place" v="locality" />
		<tag k="ssr:date" v="2017-01-19" />
		<tag k="ssr:stedsnr" v="633779" />
		<nd ref="-56098" />
		<nd ref="-56099" />
	</way>
	<way id="-11943">
		<tag k="name" v="Mokollen" />
		<tag k="natural" v="hill" />
		<tag k="place" v="locality" />
		<tag k="ssr:date" v="2017-01-19" />
		<tag k="ssr:stedsnr" v="633759" />
		<nd ref="-56093" />
		<nd ref="-56094" />
		<nd ref="-56095" />
		<nd ref="-56096" />
	</way>
	<way id="-11942">
		<tag k="name" v="Almedal" />
		<tag k="natural" v="valley" />
		<tag k="place" v="locality" />
		<tag k="ssr:date" v="2017-01-19" />
		<tag k="ssr:stedsnr" v="633385" />
		<nd ref="-56071" />
		<nd ref="-56072" />
	</way>
	<way id="-11505">
		<tag k="name" v="Piddane" />
		<tag k="natural" v="hill" />
		<tag k="place" v="locality" />
		<tag k="ssr:date" v="2017-01-19" />
		<tag k="ssr:stedsnr" v="2875" />
		<nd ref="-54051" />
		<nd ref="-54052" />
		<nd ref="-54053" />
		<nd ref="-54054" />
	</way>
	<way id="-11633">
		<tag k="name" v="Askedalsåsane" />
		<tag k="natural" v="hill" />
		<tag k="place" v="locality" />
		<tag k="ssr:date" v="2017-01-19" />
		<tag k="ssr:stedsnr" v="183269" />
		<nd ref="-54707" />
		<nd ref="-54708" />
		<nd ref="-54709" />
	</way>
	<way id="-11427">
		<tag k="alt_name" v="Kamfjordåsane" />
		<tag k="name" v="Kamfjordåsen" />
		<tag k="natural" v="hill" />
		<tag k="place" v="locality" />
		<tag k="ssr:date" v="2017-01-19" />
		<tag k="ssr:stedsnr" v="366047" />
		<nd ref="-53712" />
		<nd ref="-53713" />
		<nd ref="-53714" />
		<nd ref="-53715" />
		<nd ref="-53716" />
	</way>
	<way id="-11938">
		<tag k="name" v="Storås" />
		<tag k="natural" v="hill" />
		<tag k="place" v="locality" />
		<tag k="ssr:date" v="2017-01-19" />
		<tag k="ssr:stedsnr" v="616662" />
		<nd ref="-56031" />
		<nd ref="-56032" />
		<nd ref="-56033" />
	</way>
	<way id="-11867">
		<tag k="name" v="Dalsåsen" />
		<tag k="natural" v="hill" />
		<tag k="place" v="locality" />
		<tag k="ssr:date" v="2017-01-19" />
		<tag k="ssr:stedsnr" v="548745" />
		<nd ref="-55736" />
		<nd ref="-55737" />
	</way>
	<way id="-11765">
		<tag k="name" v="Storås" />
		<tag k="natural" v="hill" />
		<tag k="place" v="locality" />
		<tag k="ssr:date" v="2017-01-19" />
		<tag k="ssr:stedsnr" v="434651" />
		<nd ref="-55232" />
		<nd ref="-55233" />
	</way>
	<way id="-11603">
		<tag k="name" v="Brånan" />
		<tag k="natural" v="hill" />
		<tag k="place" v="locality" />
		<tag k="ssr:date" v="2017-01-19" />
		<tag k="ssr:stedsnr" v="123946" />
		<nd ref="-54540" />
		<nd ref="-54541" />
		<nd ref="-54542" />
	</way>
	<way id="-11441">
		<tag k="alt_name" v="Andersdalsskarvene" />
		<tag k="name" v="Andersdalskarva" />
		<tag k="natural" v="hill" />
		<tag k="place" v="locality" />
		<tag k="ssr:date" v="2017-01-19" />
		<tag k="ssr:stedsnr" v="366854" />
		<nd ref="-53760" />
		<nd ref="-53761" />
	</way>
	<way id="-11421">
		<tag k="alt_name" v="Sørensåsene" />
		<tag k="name" v="Sørensåsane" />
		<tag k="natural" v="hill" />
		<tag k="place" v="locality" />
		<tag k="ssr:date" v="2017-01-19" />
		<tag k="ssr:stedsnr" v="365339" />
		<nd ref="-53695" />
		<nd ref="-53696" />
	</way>
	<way id="-11548">
		<tag k="name" v="Djupedal" />
		<tag k="natural" v="valley" />
		<tag k="place" v="locality" />
		<tag k="ssr:date" v="2017-01-19" />
		<tag k="ssr:stedsnr" v="62276" />
		<nd ref="-54270" />
		<nd ref="-54271" />
		<nd ref="-54272" />
		<nd ref="-54273" />
	</way>
	<way id="-12092">
		<tag k="name" v="Olsåsen" />
		<tag k="natural" v="hill" />
		<tag k="place" v="locality" />
		<tag k="ssr:date" v="2017-01-19" />
		<tag k="ssr:stedsnr" v="851024" />
		<nd ref="-56835" />
		<nd ref="-56836" />
		<nd ref="-56837" />
		<nd ref="-56838" />
	</way>
	<way id="-12186">
		<tag k="name" v="Jerpedal" />
		<tag k="natural" v="valley" />
		<tag k="place" v="locality" />
		<tag k="ssr:date" v="2017-01-19" />
		<tag k="ssr:stedsnr" v="937687" />
		<nd ref="-57273" />
		<nd ref="-57274" />
	</way>
	<way id="-12185">
		<tag k="name" v="Båtsdalen" />
		<tag k="natural" v="valley" />
		<tag k="place" v="locality" />
		<tag k="ssr:date" v="2017-01-19" />
		<tag k="ssr:stedsnr" v="937569" />
		<nd ref="-57261" />
		<nd ref="-57262" />
	</way>
	<way id="-11415">
		<tag k="name" v="Brentåsen" />
		<tag k="natural" v="hill" />
		<tag k="place" v="locality" />
		<tag k="ssr:date" v="2017-01-19" />
		<tag k="ssr:stedsnr" v="365190" />
		<nd ref="-53673" />
		<nd ref="-53674" />
		<nd ref="-53675" />
	</way>
	<way id="-11670">
		<tag k="name" v="Bånås" />
		<tag k="natural" v="hill" />
		<tag k="place" v="locality" />
		<tag k="ssr:date" v="2017-01-19" />
		<tag k="ssr:stedsnr" v="209360" />
		<nd ref="-54853" />
		<nd ref="-54854" />
	</way>
	<way id="-11628">
		<tag k="name" v="Husumåsen" />
		<tag k="natural" v="hill" />
		<tag k="place" v="locality" />
		<tag k="ssr:date" v="2017-01-19" />
		<tag k="ssr:stedsnr" v="183123" />
		<nd ref="-54693" />
		<nd ref="-54694" />
		<nd ref="-54695" />
	</way>
	<way id="-11923">
		<tag k="name" v="Storås" />
		<tag k="natural" v="hill" />
		<tag k="place" v="locality" />
		<tag k="ssr:date" v="2017-01-19" />
		<tag k="ssr:stedsnr" v="608336" />
		<nd ref="-55991" />
		<nd ref="-55992" />
	</way>
	<way id="-11516">
		<tag k="alt_name" v="Grevesteinen" />
		<tag k="name" v="Grevestein" />
		<tag k="natural" v="hill" />
		<tag k="place" v="locality" />
		<tag k="ssr:date" v="2018-01-09" />
		<tag k="ssr:stedsnr" v="3895" />
		<nd ref="-54078" />
		<nd ref="-54079" />
		<nd ref="-54080" />
	</way>
	<way id="-11369">
		<tag k="alt_name" v="Åletjørnkollen" />
		<tag k="name" v="Åletjønnkollen" />
		<tag k="natural" v="hill" />
		<tag k="place" v="locality" />
		<tag k="ssr:date" v="2017-01-19" />
		<tag k="ssr:stedsnr" v="305210" />
		<nd ref="-53432" />
		<nd ref="-53433" />
		<nd ref="-53434" />
		<nd ref="-53435" />
	</way>
	<way id="-11918">
		<tag k="name" v="Bastelinsåsen" />
		<tag k="natural" v="hill" />
		<tag k="place" v="locality" />
		<tag k="ssr:date" v="2017-01-19" />
		<tag k="ssr:stedsnr" v="608301" />
		<nd ref="-55975" />
		<nd ref="-55976" />
		<nd ref="-55977" />
	</way>
	<way id="-11658">
		<tag k="alt_name" v="Andersdalen" />
		<tag k="name" v="Andersdal" />
		<tag k="natural" v="valley" />
		<tag k="place" v="locality" />
		<tag k="ssr:date" v="2017-01-19" />
		<tag k="ssr:stedsnr" v="184906" />
		<nd ref="-54783" />
		<nd ref="-54784" />
		<nd ref="-54785" />
	</way>
	<way id="-12008">
		<tag k="fixme" v="multiple name tags, choose one and add the other to alt_name" />
		<tag k="name" v="Auvefjell;Vardås" />
		<tag k="natural" v="hill" />
		<tag k="place" v="locality" />
		<tag k="ssr:date" v="2017-01-19" />
		<tag k="ssr:stedsnr" v="730138" />
		<nd ref="-56405" />
		<nd ref="-56406" />
		<nd ref="-56407" />
		<nd ref="-56408" />
		<nd ref="-56409" />
	</way>
	<way id="-11528">
		<tag k="name" v="Hubroåsen" />
		<tag k="natural" v="hill" />
		<tag k="place" v="locality" />
		<tag k="ssr:date" v="2017-01-19" />
		<tag k="ssr:stedsnr" v="28592" />
		<nd ref="-54193" />
		<nd ref="-54194" />
	</way>
	<way id="-11911">
		<tag k="name" v="Ringfjellet" />
		<tag k="natural" v="hill" />
		<tag k="place" v="locality" />
		<tag k="ssr:date" v="2017-01-19" />
		<tag k="ssr:stedsnr" v="608225" />
		<nd ref="-55952" />
		<nd ref="-55953" />
		<nd ref="-55954" />
	</way>
	<way id="-11798">
		<tag k="name" v="Eikåsen" />
		<tag k="natural" v="hill" />
		<tag k="place" v="locality" />
		<tag k="ssr:date" v="2017-01-19" />
		<tag k="ssr:stedsnr" v="487174" />
		<nd ref="-55421" />
		<nd ref="-55422" />
		<nd ref="-55423" />
	</way>
	<way id="-12169">
		<tag k="alt_name" v="N. Barlindglovåsane" />
		<tag k="name" v="Barlindglovåsane" />
		<tag k="natural" v="hill" />
		<tag k="place" v="locality" />
		<tag k="ssr:date" v="2017-01-19" />
		<tag k="ssr:stedsnr" v="912346" />
		<nd ref="-57166" />
		<nd ref="-57167" />
		<nd ref="-57168" />
	</way>
	<way id="-12163">
		<tag k="name" v="Storåsen" />
		<tag k="natural" v="hill" />
		<tag k="place" v="locality" />
		<tag k="ssr:date" v="2017-01-19" />
		<tag k="ssr:stedsnr" v="912312" />
		<nd ref="-57146" />
		<nd ref="-57147" />
		<nd ref="-57148" />
	</way>
	<way id="-11845">
		<tag k="name" v="Lyrkollen" />
		<tag k="natural" v="hill" />
		<tag k="place" v="locality" />
		<tag k="ssr:date" v="2017-01-19" />
		<tag k="ssr:stedsnr" v="547171" />
		<nd ref="-55663" />
		<nd ref="-55664" />
		<nd ref="-55665" />
	</way>
</osm>
