<?xml version="1.0" encoding="UTF-8"?>
<osm generator="osmapis" version="0.6">
	<node id="-53759" lat="59.3322666688" lon="10.1326555511">
		<tag k="ssr:gml_id" v="GEOMETRY_763818f5-399e-4abb-8369-5596898d7263" />
		<tag k="ssr:gml_nr" v="2" />
	</node>
	<node id="-53758" lat="59.3323916687" lon="10.1323999926">
		<tag k="ssr:gml_id" v="GEOMETRY_52603600-2166-42b2-857e-a6d02696b9ab" />
		<tag k="ssr:gml_nr" v="1" />
	</node>
	<node id="-53757" lat="59.3323944438" lon="10.132399997">
		<tag k="ssr:gml_id" v="GEOMETRY_9a844f70-7ec2-4908-a2bd-9a838bd35346" />
		<tag k="ssr:gml_nr" v="0" />
	</node>
	<node id="-55804" lat="59.3579666659" lon="10.0517222234">
		<tag k="name" v="Enersrødkilen" />
		<tag k="natural" v="bay" />
		<tag k="ssr:date" v="2017-01-19" />
		<tag k="ssr:stedsnr" v="573246" />
	</node>
	<node id="-55801" lat="59.3134083336" lon="10.0658722212">
		<tag k="fixme" v="consider water=pond" />
		<tag k="name" v="Oksenaua" />
		<tag k="natural" v="water" />
		<tag k="ssr:date" v="2017-01-19" />
		<tag k="ssr:stedsnr" v="573215" />
		<tag k="water" v="lake" />
	</node>
	<node id="-55892" lat="59.2228111124" lon="10.2142861153">
		<tag k="ssr:gml_id" v="GEOMETRY_3e84454a-be76-4dfb-83c4-276693f772cd" />
		<tag k="ssr:gml_nr" v="1" />
	</node>
	<node id="-56062" lat="59.2905944467" lon="10.0669833353">
		<tag k="ssr:gml_id" v="GEOMETRY_1156bb26-691c-43e4-831e-451938d40998" />
		<tag k="ssr:gml_nr" v="2" />
	</node>
	<node id="-54099" lat="59.3536583303" lon="10.0697833259">
		<tag k="name" v="Sæterbekken" />
		<tag k="ssr:date" v="2017-01-19" />
		<tag k="ssr:stedsnr" v="27139" />
		<tag k="waterway" v="stream" />
	</node>
	<node id="-53501" lat="59.3108888923" lon="10.2384527697">
		<tag k="ssr:gml_id" v="GEOMETRY_4f00af1c-2341-4cb7-81f4-874ef228a7c7" />
		<tag k="ssr:gml_nr" v="0" />
	</node>
	<node id="-54251" lat="59.1955805529" lon="10.1245333401">
		<tag k="ssr:gml_id" v="GEOMETRY_ef61ed09-e66f-42e9-ad6c-10b2a3054763" />
		<tag k="ssr:gml_nr" v="2" />
	</node>
	<node id="-56298" lat="59.2807722212" lon="10.094527781">
		<tag k="fixme" v="consider water=pond" />
		<tag k="name" v="Nordre Skarsholttjønn" />
		<tag k="natural" v="water" />
		<tag k="ssr:date" v="2017-01-19" />
		<tag k="ssr:stedsnr" v="694809" />
		<tag k="water" v="lake" />
	</node>
	<node id="-55273" lat="59.36780278" lon="10.1060666676">
		<tag k="name" v="Aulesjordbekken" />
		<tag k="ssr:date" v="2017-01-19" />
		<tag k="ssr:stedsnr" v="452129" />
		<tag k="waterway" v="stream" />
	</node>
	<node id="-53500" lat="59.2986305591" lon="10.0366388974">
		<tag k="ssr:gml_id" v="GEOMETRY_b77eba7c-34a5-4f2f-997a-620873d9cbca" />
		<tag k="ssr:gml_nr" v="2" />
	</node>
	<node id="-54757" lat="59.2321638869" lon="10.1103972283">
		<tag k="ssr:gml_id" v="GEOMETRY_9093f4a5-ff18-4331-88d2-f5527079062f" />
		<tag k="ssr:gml_nr" v="2" />
	</node>
	<node id="-54756" lat="59.2326166662" lon="10.1203083355">
		<tag k="ssr:gml_id" v="GEOMETRY_7d544d93-4ee4-49ce-ae0b-9ef79d99867b" />
		<tag k="ssr:gml_nr" v="1" />
	</node>
	<node id="-54755" lat="59.2326138879" lon="10.120305563">
		<tag k="ssr:gml_id" v="GEOMETRY_5ee21aaf-34c6-404b-847f-a075f0bca47e" />
		<tag k="ssr:gml_nr" v="0" />
	</node>
	<node id="-56289" lat="59.1943972187" lon="10.1196111068">
		<tag k="name" v="Trollsåsbukta" />
		<tag k="natural" v="bay" />
		<tag k="ssr:date" v="2017-01-19" />
		<tag k="ssr:stedsnr" v="694780" />
	</node>
	<node id="-55261" lat="59.3370361067" lon="10.0204944424">
		<tag k="fixme" v="consider water=pond" />
		<tag k="name" v="Lorttjern" />
		<tag k="natural" v="water" />
		<tag k="ssr:date" v="2017-01-19" />
		<tag k="ssr:stedsnr" v="451566" />
		<tag k="water" v="lake" />
	</node>
	<node id="-54402" lat="59.1791638896" lon="10.1401611161">
		<tag k="name" v="Matskapet" />
		<tag k="natural" v="cape" />
		<tag k="place" v="locality" />
		<tag k="ssr:date" v="2017-01-19" />
		<tag k="ssr:stedsnr" v="88737" />
	</node>
	<node id="-56274" lat="59.2259833355" lon="10.3402444443">
		<tag k="ssr:gml_id" v="GEOMETRY_5183d8f4-c22b-4e44-8e00-5da461202717" />
		<tag k="ssr:gml_nr" v="1" />
	</node>
	<node id="-56273" lat="59.2350388854" lon="10.3383805641">
		<tag k="ssr:gml_id" v="GEOMETRY_59ebbbae-48dd-497b-977b-ca76e94f1bcd" />
		<tag k="ssr:gml_nr" v="0" />
	</node>
	<node id="-55220" lat="59.2887750039" lon="10.1896361153">
		<tag k="ssr:gml_id" v="GEOMETRY_2d510277-7d8a-4371-abb9-e66a70a3048d" />
		<tag k="ssr:gml_nr" v="0" />
	</node>
	<node id="-55756" lat="59.3033361145" lon="10.0691166752">
		<tag k="ssr:gml_id" v="GEOMETRY_6dbe2683-ba6a-4cd8-9df7-d2f109efef2d" />
		<tag k="ssr:gml_nr" v="2" />
	</node>
	<node id="-55755" lat="59.3035305582" lon="10.0692527707">
		<tag k="ssr:gml_id" v="GEOMETRY_3d17b32e-ec41-46a2-a849-9d019e5ee54d" />
		<tag k="ssr:gml_nr" v="1" />
	</node>
	<node id="-55754" lat="59.3035333374" lon="10.0692555624">
		<tag k="ssr:gml_id" v="GEOMETRY_6e86bafa-c342-413d-8f0c-488474624ac1" />
		<tag k="ssr:gml_nr" v="0" />
	</node>
	<node id="-57286" lat="59.3339055564" lon="10.0488333396">
		<tag k="name" v="Åletjønnelva" />
		<tag k="ssr:date" v="2017-01-19" />
		<tag k="ssr:stedsnr" v="937804" />
		<tag k="waterway" v="river" />
	</node>
	<node id="-55201" lat="59.3221861113" lon="10.115316669">
		<tag k="ssr:gml_id" v="GEOMETRY_452f656f-7426-4f1e-9940-de5ae61798e1" />
		<tag k="ssr:gml_nr" v="0" />
	</node>
	<node id="-56771" lat="59.2827055581" lon="10.1928638935">
		<tag k="name" v="Lagårdsøya" />
		<tag k="natural" v="cape" />
		<tag k="place" v="locality" />
		<tag k="ssr:date" v="2017-01-19" />
		<tag k="ssr:stedsnr" v="816537" />
	</node>
	<node id="-56770" lat="59.2873277747" lon="10.2093472236">
		<tag k="name" v="Kullerødvannet" />
		<tag k="natural" v="water" />
		<tag k="ssr:date" v="2017-01-19" />
		<tag k="ssr:stedsnr" v="816516" />
		<tag k="water" v="lake" />
	</node>
	<node id="-55227" lat="59.2936583354" lon="10.1178444455">
		<tag k="ssr:gml_id" v="GEOMETRY_af8aa2ae-5aa3-40f6-8281-f325d6d170c4" />
		<tag k="ssr:gml_nr" v="2" />
	</node>
	<node id="-56762" lat="59.2982694401" lon="10.1232527839">
		<tag k="name" v="Hegrebekk" />
		<tag k="ssr:date" v="2017-01-19" />
		<tag k="ssr:stedsnr" v="816273" />
		<tag k="waterway" v="stream" />
	</node>
	<node id="-55225" lat="59.2936194423" lon="10.119261111">
		<tag k="ssr:gml_id" v="GEOMETRY_dc38d53b-ccf4-4135-8382-ee867bdb4852" />
		<tag k="ssr:gml_nr" v="0" />
	</node>
	<node id="-56760" lat="59.371652781" lon="10.0584861078">
		<tag k="name" v="Fiskebekk" />
		<tag k="ssr:date" v="2017-01-19" />
		<tag k="ssr:stedsnr" v="816259" />
		<tag k="waterway" v="stream" />
	</node>
	<node id="-55223" lat="59.288794445" lon="10.1906055531">
		<tag k="ssr:gml_id" v="GEOMETRY_90aad706-8e39-4f87-bd94-a0e542d620fb" />
		<tag k="ssr:gml_nr" v="3" />
	</node>
	<node id="-55222" lat="59.2933277782" lon="10.1846305496">
		<tag k="ssr:gml_id" v="GEOMETRY_ed87dd1a-886e-4387-9d97-db76f91ddc16" />
		<tag k="ssr:gml_nr" v="2" />
	</node>
	<node id="-55221" lat="59.2887750023" lon="10.1896333416">
		<tag k="ssr:gml_id" v="GEOMETRY_86b32583-edea-4110-895d-379484cf731e" />
		<tag k="ssr:gml_nr" v="1" />
	</node>
	<node id="-56756" lat="59.3259527805" lon="10.1250861165">
		<tag k="fixme" v="consider water=pond" />
		<tag k="name" v="Lorttjønn" />
		<tag k="natural" v="water" />
		<tag k="ssr:date" v="2017-01-19" />
		<tag k="ssr:stedsnr" v="816233" />
		<tag k="water" v="lake" />
	</node>
	<node id="-56755" lat="59.3258111076" lon="10.113908326">
		<tag k="fixme" v="consider water=pond" />
		<tag k="name" v="Veslevann" />
		<tag k="natural" v="water" />
		<tag k="ssr:date" v="2017-01-19" />
		<tag k="ssr:stedsnr" v="816209" />
		<tag k="water" v="lake" />
	</node>
	<node id="-57265" lat="59.2970027767" lon="10.0294222151">
		<tag k="name" v="Steindalsbekken" />
		<tag k="ssr:date" v="2017-01-19" />
		<tag k="ssr:stedsnr" v="937576" />
		<tag k="waterway" v="stream" />
	</node>
	<node id="-57264" lat="59.3036777788" lon="10.0305916754">
		<tag k="name" v="Bjørkedalsbekken" />
		<tag k="ssr:date" v="2017-01-19" />
		<tag k="ssr:stedsnr" v="937574" />
		<tag k="waterway" v="stream" />
	</node>
	<node id="-56747" lat="59.2772027797" lon="10.0186472188">
		<tag k="name" v="Heielva" />
		<tag k="ssr:date" v="2017-01-19" />
		<tag k="ssr:stedsnr" v="815600" />
		<tag k="waterway" v="stream" />
	</node>
	<node id="-56234" lat="59.2589388904" lon="10.0362333342">
		<tag k="ssr:gml_id" v="GEOMETRY_d405d835-18b4-49b5-a8a1-1dcd100c93da" />
		<tag k="ssr:gml_nr" v="0" />
	</node>
	<node id="-56745" lat="59.3188416706" lon="10.0297194434">
		<tag k="name" v="Kirilvaet" />
		<tag k="ssr:date" v="2017-01-19" />
		<tag k="ssr:stedsnr" v="815577" />
		<tag k="waterway" v="stream" />
	</node>
	<node id="-54513" lat="59.0723111067" lon="10.2621388896">
		<tag k="ssr:gml_id" v="GEOMETRY_9b9ca5eb-a4fe-4cbe-be95-73b950554d2d" />
		<tag k="ssr:gml_nr" v="2" />
	</node>
	<node id="-55203" lat="59.3221777748" lon="10.1150083279">
		<tag k="ssr:gml_id" v="GEOMETRY_9aa1788d-b524-43f2-98ce-9ddb45c3bf3b" />
		<tag k="ssr:gml_nr" v="2" />
	</node>
	<node id="-55714" lat="59.375816669" lon="10.0733833301">
		<tag k="ssr:gml_id" v="GEOMETRY_d92bbcb1-d4c8-47cc-9a9f-529fc6a3e3cd" />
		<tag k="ssr:gml_nr" v="1" />
	</node>
	<node id="-55713" lat="59.3755777804" lon="10.0732083255">
		<tag k="ssr:gml_id" v="GEOMETRY_0f080be8-69ee-4fd2-964d-4ae97a5007f8" />
		<tag k="ssr:gml_nr" v="0" />
	</node>
	<node id="-57248" lat="59.29526667" lon="10.1595861026">
		<tag k="name" v="Døvlebekken" />
		<tag k="ssr:date" v="2017-01-19" />
		<tag k="ssr:stedsnr" v="937368" />
		<tag k="waterway" v="stream" />
	</node>
	<node id="-54000" lat="59.2515305599" lon="10.1914083376">
		<tag k="ssr:gml_id" v="GEOMETRY_aa8022e6-3a9a-43ba-b6e6-6b49b6c8ca15" />
		<tag k="ssr:gml_nr" v="2" />
	</node>
	<node id="-56532" lat="59.2941527744" lon="10.1097722271">
		<tag k="name" v="Kolkinnelva" />
		<tag k="ssr:date" v="2017-01-19" />
		<tag k="ssr:stedsnr" v="755266" />
		<tag k="waterway" v="river" />
	</node>
	<node id="-56986" lat="59.2723388902" lon="10.0803361056">
		<tag k="ssr:gml_id" v="GEOMETRY_9f601c35-a28f-413d-9a34-b9ab65605be5" />
		<tag k="ssr:gml_nr" v="0" />
	</node>
	<node id="-56217" lat="59.3778444401" lon="10.0468305531">
		<tag k="ssr:gml_id" v="GEOMETRY_4b80f4ed-56b2-4b18-9ec1-b1aaf72a2d68" />
		<tag k="ssr:gml_nr" v="2" />
	</node>
	<node id="-56216" lat="59.3778583334" lon="10.0467555638">
		<tag k="ssr:gml_id" v="GEOMETRY_0fad80d7-4843-48d2-92b1-6e25a378d507" />
		<tag k="ssr:gml_nr" v="1" />
	</node>
	<node id="-54167" lat="59.1031749971" lon="10.1857361181">
		<tag k="fixme" v="consider water=pond" />
		<tag k="name" v="Marumdammen" />
		<tag k="natural" v="water" />
		<tag k="ssr:date" v="2017-01-19" />
		<tag k="ssr:stedsnr" v="27568" />
		<tag k="water" v="lake" />
	</node>
	<node id="-55190" lat="59.353555555" lon="10.0334138966">
		<tag k="ssr:gml_id" v="GEOMETRY_553000ba-6ab2-444a-95bf-fccfbe998ea1" />
		<tag k="ssr:gml_nr" v="1" />
	</node>
	<node id="-54677" lat="59.0927777745" lon="10.2244444418">
		<tag k="name" v="Båtstangen" />
		<tag k="natural" v="cape" />
		<tag k="place" v="locality" />
		<tag k="ssr:date" v="2017-01-19" />
		<tag k="ssr:stedsnr" v="181589" />
	</node>
	<node id="-57236" lat="59.3752750043" lon="10.150688895">
		<tag k="name" v="Svællabekken" />
		<tag k="ssr:date" v="2017-01-19" />
		<tag k="ssr:stedsnr" v="937166" />
		<tag k="waterway" v="stream" />
	</node>
	<node id="-55192" lat="59.3535583309" lon="10.0334194507">
		<tag k="ssr:gml_id" v="GEOMETRY_72aef4dd-e9a2-4a51-b3e6-815b7d4de7d4" />
		<tag k="ssr:gml_nr" v="3" />
	</node>
	<node id="-54155" lat="59.1723805541" lon="10.1595222211">
		<tag k="name" v="Oddane" />
		<tag k="natural" v="beach" />
		<tag k="ssr:date" v="2017-01-19" />
		<tag k="ssr:stedsnr" v="27751" />
	</node>
	<node id="-56215" lat="59.3778611132" lon="10.0467583247">
		<tag k="ssr:gml_id" v="GEOMETRY_bace066c-3cca-43b0-9524-b59ba89b9e4c" />
		<tag k="ssr:gml_nr" v="0" />
	</node>
	<node id="-56711" lat="59.2946444468" lon="10.0508750076">
		<tag k="ssr:gml_id" v="GEOMETRY_d18d91fa-af6c-4895-8dd0-453ef830d665" />
		<tag k="ssr:gml_nr" v="2" />
	</node>
	<node id="-56710" lat="59.2946916704" lon="10.0509916753">
		<tag k="ssr:gml_id" v="GEOMETRY_15542022-bec9-487a-9e09-90ee834c7512" />
		<tag k="ssr:gml_nr" v="1" />
	</node>
	<node id="-56709" lat="59.2946472219" lon="10.0508750054">
		<tag k="ssr:gml_id" v="GEOMETRY_9edac2ed-de92-404c-8526-a9ce1e25d6b5" />
		<tag k="ssr:gml_nr" v="0" />
	</node>
	<node id="-55681" lat="59.1734527804" lon="10.2943777801">
		<tag k="ssr:gml_id" v="GEOMETRY_05648361-ab28-4944-8943-4040f96d500f" />
		<tag k="ssr:gml_nr" v="2" />
	</node>
	<node id="-55680" lat="59.1711416708" lon="10.2932250051">
		<tag k="ssr:gml_id" v="GEOMETRY_8a95c88a-2e13-4311-b4b8-95cc33c0bf6b" />
		<tag k="ssr:gml_nr" v="1" />
	</node>
	<node id="-55679" lat="59.1711388873" lon="10.2932222233">
		<tag k="ssr:gml_id" v="GEOMETRY_6d3afe0e-383e-4f92-a3b4-328a731e51e3" />
		<tag k="ssr:gml_nr" v="0" />
	</node>
	<node id="-55189" lat="59.353558335" lon="10.033416672">
		<tag k="ssr:gml_id" v="GEOMETRY_ac315810-f1e9-46b7-84f7-dcd963e2dc92" />
		<tag k="ssr:gml_nr" v="0" />
	</node>
	<node id="-56187" lat="59.216094445" lon="10.0900000079">
		<tag k="ssr:gml_id" v="GEOMETRY_6cfd516b-3bf5-470c-9cea-4e5cf317243f" />
		<tag k="ssr:gml_nr" v="2" />
	</node>
	<node id="-56186" lat="59.2160277744" lon="10.0897250012">
		<tag k="ssr:gml_id" v="GEOMETRY_1c20e65c-7bd5-42f6-a59d-aac7275f0ea5" />
		<tag k="ssr:gml_nr" v="1" />
	</node>
	<node id="-56185" lat="59.2160249957" lon="10.089722215">
		<tag k="ssr:gml_id" v="GEOMETRY_0d517dbe-6eb6-4678-998c-d4bc40dd43fe" />
		<tag k="ssr:gml_nr" v="0" />
	</node>
	<node id="-56184" lat="59.1968249957" lon="10.1019333351">
		<tag k="ssr:gml_id" v="GEOMETRY_0c27e73b-02c6-41c7-97ce-114252839d29" />
		<tag k="ssr:gml_nr" v="2" />
	</node>
	<node id="-56183" lat="59.1968250034" lon="10.1019250019">
		<tag k="ssr:gml_id" v="GEOMETRY_7e1d86b3-1245-43c1-b290-44ed57b24e8b" />
		<tag k="ssr:gml_nr" v="1" />
	</node>
	<node id="-56182" lat="59.1968250013" lon="10.1019305517">
		<tag k="ssr:gml_id" v="GEOMETRY_45792a40-1e32-4dbb-ad1f-22caa379c7d7" />
		<tag k="ssr:gml_nr" v="0" />
	</node>
	<node id="-54249" lat="59.1952916685" lon="10.1249833411">
		<tag k="ssr:gml_id" v="GEOMETRY_a626bb94-fc0d-40b4-a7e5-280cb2173e02" />
		<tag k="ssr:gml_nr" v="0" />
	</node>
	<node id="-53618" lat="59.0868277819" lon="10.2010444519">
		<tag k="ssr:gml_id" v="GEOMETRY_c5f3239b-b76d-4332-9feb-a73d823ebad0" />
		<tag k="ssr:gml_nr" v="2" />
	</node>
	<node id="-53617" lat="59.0970333345" lon="10.1890166621">
		<tag k="ssr:gml_id" v="GEOMETRY_1c4a2094-7649-416b-b462-4578eed1087c" />
		<tag k="ssr:gml_nr" v="1" />
	</node>
	<node id="-53616" lat="59.1099277812" lon="10.1808833273">
		<tag k="ssr:gml_id" v="GEOMETRY_8c0ac1cf-5fed-448f-a22a-f3f8e1ac6eed" />
		<tag k="ssr:gml_nr" v="0" />
	</node>
	<node id="-54637" lat="59.1851250024" lon="10.1404194453">
		<tag k="name" v="Boroa" />
		<tag k="natural" v="cape" />
		<tag k="place" v="locality" />
		<tag k="ssr:date" v="2017-01-19" />
		<tag k="ssr:stedsnr" v="148819" />
	</node>
	<node id="-54313" lat="59.3702777738" lon="10.1552833267">
		<tag k="ssr:gml_id" v="GEOMETRY_48d53619-70df-4889-a433-9ec24679700c" />
		<tag k="ssr:gml_nr" v="1" />
	</node>
	<node id="-53989" lat="59.2441666633" lon="10.3276166709">
		<tag k="ssr:gml_id" v="GEOMETRY_1dffda92-e05b-4aa2-aa3c-04789acb3be3" />
		<tag k="ssr:gml_nr" v="0" />
	</node>
	<node id="-54116" lat="59.2422027767" lon="10.3105083305">
		<tag k="name" v="Haslestadbekken" />
		<tag k="ssr:date" v="2017-01-19" />
		<tag k="ssr:stedsnr" v="25438" />
		<tag k="waterway" v="stream" />
	</node>
	<node id="-54115" lat="59.2408361137" lon="10.3518111163">
		<tag k="name" v="Robergvannet" />
		<tag k="natural" v="water" />
		<tag k="ssr:date" v="2017-01-19" />
		<tag k="ssr:stedsnr" v="25435" />
		<tag k="water" v="lake" />
	</node>
	<node id="-54626" lat="59.1308027742" lon="10.2376166741">
		<tag k="ssr:gml_id" v="GEOMETRY_ab79e06c-5b5f-4e4d-9552-421fb77a623a" />
		<tag k="ssr:gml_nr" v="1" />
	</node>
	<node id="-54625" lat="59.1311111143" lon="10.2374444422">
		<tag k="ssr:gml_id" v="GEOMETRY_9c5f8150-2b38-4921-bafa-3089579c0528" />
		<tag k="ssr:gml_nr" v="0" />
	</node>
	<node id="-57183" lat="59.355211108" lon="10.0725138949">
		<tag k="ssr:gml_id" v="GEOMETRY_afb836c0-d4a7-456d-8808-d2a728003287" />
		<tag k="ssr:gml_nr" v="2" />
	</node>
	<node id="-57182" lat="59.3552416676" lon="10.0723722144">
		<tag k="ssr:gml_id" v="GEOMETRY_e5efa1cb-325d-42ce-a411-5332cd00e33e" />
		<tag k="ssr:gml_nr" v="1" />
	</node>
	<node id="-53597" lat="59.2738027805" lon="10.1004222278">
		<tag k="fixme" v="consider water=pond" />
		<tag k="name" v="Søndre Skarsholttjønn" />
		<tag k="natural" v="water" />
		<tag k="ssr:date" v="2017-01-19" />
		<tag k="ssr:stedsnr" v="330865" />
		<tag k="water" v="lake" />
	</node>
	<node id="-57145" lat="59.2574277745" lon="10.2870916607">
		<tag k="ssr:gml_id" v="GEOMETRY_4d7f2e51-403c-4ce9-81be-7c860c559a43" />
		<tag k="ssr:gml_nr" v="2" />
	</node>
	<node id="-53588" lat="59.1882861074" lon="10.1304888903">
		<tag k="name" v="Tryteskjæret" />
		<tag k="natural" v="islet" />
		<tag k="ssr:date" v="2017-01-19" />
		<tag k="ssr:stedsnr" v="330846" />
	</node>
	<node id="-54611" lat="59.2899611104" lon="10.1865111197">
		<tag k="name" v="Åsenstranda" />
		<tag k="natural" v="beach" />
		<tag k="ssr:date" v="2017-01-19" />
		<tag k="ssr:stedsnr" v="148513" />
	</node>
	<node id="-54097" lat="59.3524111149" lon="10.0775694491">
		<tag k="name" v="Klosterbekken" />
		<tag k="ssr:date" v="2017-01-19" />
		<tag k="ssr:stedsnr" v="27133" />
		<tag k="waterway" v="stream" />
	</node>
	<node id="-55437" lat="59.3619055591" lon="10.038675006">
		<tag k="ssr:gml_id" v="GEOMETRY_b4234b2a-5276-4985-b048-73b0992fc7ec" />
		<tag k="ssr:gml_nr" v="2" />
	</node>
	<node id="-54312" lat="59.36669167" lon="10.1478138876">
		<tag k="ssr:gml_id" v="GEOMETRY_90927408-3f76-4e3b-95b2-320caf3eb742" />
		<tag k="ssr:gml_nr" v="0" />
	</node>
	<node id="-53815" lat="59.2869861149" lon="10.1534083409">
		<tag k="name" v="Moafossane" />
		<tag k="natural" v="waterfall" />
		<tag k="ssr:date" v="2017-01-19" />
		<tag k="ssr:stedsnr" v="390770" />
	</node>
	<node id="-53573" lat="59.0511888888" lon="10.2608527702">
		<tag k="name" v="Ødegårdsbåen" />
		<tag k="place" v="locality" />
		<tag k="seamark:type" v="rock" />
		<tag k="ssr:date" v="2017-01-19" />
		<tag k="ssr:stedsnr" v="330630" />
	</node>
	<node id="-54596" lat="59.2509111079" lon="10.0483694435">
		<tag k="ssr:gml_id" v="GEOMETRY_6c2fc6c4-ee12-4dfd-978d-5e0d1997d23b" />
		<tag k="ssr:gml_nr" v="1" />
	</node>
	<node id="-54595" lat="59.2509138875" lon="10.0483722292">
		<tag k="ssr:gml_id" v="GEOMETRY_47f63505-520c-49f1-94ab-517d4fbdd897" />
		<tag k="ssr:gml_nr" v="0" />
	</node>
	<node id="-54082" lat="59.2678638921" lon="10.0259249959">
		<tag k="ssr:gml_id" v="GEOMETRY_d0e73d3b-dc45-481c-bfaf-1f015405a890" />
		<tag k="ssr:gml_nr" v="1" />
	</node>
	<node id="-54081" lat="59.2678666633" lon="10.025927781">
		<tag k="ssr:gml_id" v="GEOMETRY_86939932-f16f-490a-8b10-69fcf36c25f4" />
		<tag k="ssr:gml_nr" v="0" />
	</node>
	<node id="-53459" lat="59.2404527755" lon="10.2023583282">
		<tag k="ssr:gml_id" v="GEOMETRY_f3c0e845-2afa-4fe6-b581-72581c09d5b6" />
		<tag k="ssr:gml_nr" v="6" />
	</node>
	<node id="-54585" lat="59.30108611" lon="10.0134333416">
		<tag k="fixme" v="consider water=pond" />
		<tag k="name" v="Rennesikdammen" />
		<tag k="natural" v="water" />
		<tag k="ssr:date" v="2017-01-19" />
		<tag k="ssr:stedsnr" v="147556" />
		<tag k="water" v="lake" />
	</node>
	<node id="-57144" lat="59.2437749992" lon="10.2753916598">
		<tag k="ssr:gml_id" v="GEOMETRY_7e58c50b-bba5-4cc1-a239-38c7d51d6373" />
		<tag k="ssr:gml_nr" v="1" />
	</node>
	<node id="-57143" lat="59.2437749994" lon="10.2753888897">
		<tag k="ssr:gml_id" v="GEOMETRY_a6fc6c09-0077-4975-9e6b-cb5d57cd260d" />
		<tag k="ssr:gml_nr" v="0" />
	</node>
	<node id="-56030" lat="59.2753222263" lon="10.0065194454">
		<tag k="ssr:gml_id" v="GEOMETRY_b60749ed-94a5-4123-ac4c-fc1cba69568a" />
		<tag k="ssr:gml_nr" v="2" />
	</node>
	<node id="-53554" lat="59.3666750044" lon="10.1009055535">
		<tag k="name" v="Vrangdalsbekken" />
		<tag k="ssr:date" v="2017-01-19" />
		<tag k="ssr:stedsnr" v="330177" />
		<tag k="waterway" v="stream" />
	</node>
	<node id="-56610" lat="59.1483500024" lon="10.2664972148">
		<tag k="ssr:gml_id" v="GEOMETRY_5e2b898b-d53b-4c0e-97a8-f2e929088c0a" />
		<tag k="ssr:gml_nr" v="2" />
	</node>
	<node id="-56609" lat="59.1501750014" lon="10.2617138825">
		<tag k="ssr:gml_id" v="GEOMETRY_e4f1b56d-bd6a-4926-beab-2caedde235ab" />
		<tag k="ssr:gml_nr" v="1" />
	</node>
	<node id="-56608" lat="59.1501750014" lon="10.2617111025">
		<tag k="ssr:gml_id" v="GEOMETRY_7b8099f5-bf40-4c01-9669-ad46cf4df098" />
		<tag k="ssr:gml_nr" v="0" />
	</node>
	<node id="-56089" lat="59.220175002" lon="10.2155583324">
		<tag k="fixme" v="consider water=pond" />
		<tag k="name" v="Skjeldbredammen" />
		<tag k="natural" v="water" />
		<tag k="ssr:date" v="2017-01-19" />
		<tag k="ssr:stedsnr" v="633714" />
		<tag k="water" v="lake" />
	</node>
	<node id="-55573" lat="59.1308750044" lon="10.1943694506">
		<tag k="fixme" v="consider water=pond" />
		<tag k="name" v="Bugårdsdammen" />
		<tag k="natural" v="water" />
		<tag k="ssr:date" v="2017-01-19" />
		<tag k="ssr:stedsnr" v="512776" />
		<tag k="water" v="lake" />
	</node>
	<node id="-55489" lat="59.3214249956" lon="10.0617916673">
		<tag k="ssr:gml_id" v="GEOMETRY_8269ff8c-785f-47de-80c2-c97424729c4f" />
		<tag k="ssr:gml_nr" v="2" />
	</node>
	<node id="-56592" lat="59.2308916683" lon="10.2352749966">
		<tag k="name" v="Vassbonnen" />
		<tag k="natural" v="shoal" />
		<tag k="place" v="locality" />
		<tag k="ssr:date" v="2017-01-19" />
		<tag k="ssr:stedsnr" v="756697" />
	</node>
	<node id="-54829" lat="59.2886083327" lon="10.0174055562">
		<tag k="name" v="Svartåa" />
		<tag k="ssr:date" v="2017-01-19" />
		<tag k="ssr:stedsnr" v="208616" />
		<tag k="waterway" v="stream" />
	</node>
	<node id="-54865" lat="59.1146222211" lon="10.2042194399">
		<tag k="name" v="Skaubekken" />
		<tag k="ssr:date" v="2017-01-19" />
		<tag k="ssr:stedsnr" v="209607" />
		<tag k="waterway" v="stream" />
	</node>
	<node id="-56587" lat="59.2847777798" lon="10.217124993">
		<tag k="name" v="Kulerødvannet" />
		<tag k="natural" v="water" />
		<tag k="ssr:date" v="2017-01-19" />
		<tag k="ssr:stedsnr" v="756417" />
		<tag k="water" v="lake" />
	</node>
	<node id="-54022" lat="59.3562666654" lon="10.0605333266">
		<tag k="ssr:gml_id" v="GEOMETRY_db0c9077-db91-4df0-9d2d-39d52f7dfa40" />
		<tag k="ssr:gml_nr" v="4" />
	</node>
	<node id="-54021" lat="59.3650611105" lon="10.0544611032">
		<tag k="ssr:gml_id" v="GEOMETRY_347d82dc-24e0-47e0-94eb-df2808d2ef39" />
		<tag k="ssr:gml_nr" v="3" />
	</node>
	<node id="-53508" lat="59.3279749992" lon="10.0158055632">
		<tag k="ssr:gml_id" v="GEOMETRY_16ab6e44-ed53-41b1-ad45-2bc82a0bbc05" />
		<tag k="ssr:gml_nr" v="0" />
	</node>
	<node id="-54019" lat="59.3652750017" lon="10.0555611097">
		<tag k="ssr:gml_id" v="GEOMETRY_0ef3206d-628b-44c0-9f9c-008aba74b387" />
		<tag k="ssr:gml_nr" v="1" />
	</node>
	<node id="-53506" lat="59.3406000021" lon="10.1250944511">
		<tag k="ssr:gml_id" v="GEOMETRY_c5ce83ee-cae3-4de2-aeaf-d29e847f4be8" />
		<tag k="ssr:gml_nr" v="1" />
	</node>
	<node id="-53505" lat="59.3406027804" lon="10.1250972154">
		<tag k="ssr:gml_id" v="GEOMETRY_6d9ce2cb-419d-4726-9000-dd08a169ef21" />
		<tag k="ssr:gml_nr" v="0" />
	</node>
	<node id="-53504" lat="59.3108916679" lon="10.2384555582">
		<tag k="ssr:gml_id" v="GEOMETRY_52a5e7dc-98b8-4c99-8957-ffc5efe21d12" />
		<tag k="ssr:gml_nr" v="3" />
	</node>
	<node id="-53503" lat="59.3121444479" lon="10.2396305626">
		<tag k="ssr:gml_id" v="GEOMETRY_f4fd4b57-f9d4-45cc-bd77-2a2047398f61" />
		<tag k="ssr:gml_nr" v="2" />
	</node>
	<node id="-53502" lat="59.3108861075" lon="10.2384499983">
		<tag k="ssr:gml_id" v="GEOMETRY_5f58f1df-4c6d-4b37-a202-d354145d8f36" />
		<tag k="ssr:gml_nr" v="1" />
	</node>
	<node id="-56061" lat="59.2980972236" lon="10.0618500068">
		<tag k="ssr:gml_id" v="GEOMETRY_d6566c53-18af-4b0a-b9a2-7bfd6246aae1" />
		<tag k="ssr:gml_nr" v="1" />
	</node>
	<node id="-56060" lat="59.3133361092" lon="10.0505722233">
		<tag k="ssr:gml_id" v="GEOMETRY_d2af3a6d-3bef-4d3d-88a9-5d93026624bb" />
		<tag k="ssr:gml_nr" v="0" />
	</node>
	<node id="-53499" lat="59.2985055582" lon="10.0375250015">
		<tag k="ssr:gml_id" v="GEOMETRY_1723242c-103d-4940-afc2-2737a84aa445" />
		<tag k="ssr:gml_nr" v="1" />
	</node>
	<node id="-53498" lat="59.2985083334" lon="10.0375249982">
		<tag k="ssr:gml_id" v="GEOMETRY_fb4f738e-6cd5-4511-bedd-4f80647ec886" />
		<tag k="ssr:gml_nr" v="0" />
	</node>
	<node id="-56056" lat="59.3413277803" lon="10.0963083327">
		<tag k="name" v="Nesbekken" />
		<tag k="ssr:date" v="2017-01-19" />
		<tag k="ssr:stedsnr" v="633179" />
		<tag k="waterway" v="stream" />
	</node>
	<node id="-55031" lat="59.3155750031" lon="10.0940555493">
		<tag k="ssr:gml_id" v="GEOMETRY_5be1c4f0-8866-4a35-91c4-945660cb0ede" />
		<tag k="ssr:gml_nr" v="2" />
	</node>
	<node id="-55030" lat="59.3156888902" lon="10.0941583287">
		<tag k="ssr:gml_id" v="GEOMETRY_b52a2f84-b14e-43a3-a03a-bf8178564890" />
		<tag k="ssr:gml_nr" v="1" />
	</node>
	<node id="-55029" lat="59.315691669" lon="10.0941611059">
		<tag k="ssr:gml_id" v="GEOMETRY_3b4879d0-2e40-4d56-8954-8d69654b2d92" />
		<tag k="ssr:gml_nr" v="0" />
	</node>
	<node id="-54002" lat="59.2427888861" lon="10.1799194455">
		<tag k="ssr:gml_id" v="GEOMETRY_bdc671ab-1271-46f2-8826-103fa40f0408" />
		<tag k="ssr:gml_nr" v="4" />
	</node>
	<node id="-55537" lat="59.3002888859" lon="10.1492194528">
		<tag k="name" v="Døvlebekken" />
		<tag k="ssr:date" v="2017-01-19" />
		<tag k="ssr:stedsnr" v="512251" />
		<tag k="waterway" v="stream" />
	</node>
	<node id="-54512" lat="59.0712166651" lon="10.2582249991">
		<tag k="ssr:gml_id" v="GEOMETRY_a4004f54-b895-45c8-b71b-187c7aa0541f" />
		<tag k="ssr:gml_nr" v="1" />
	</node>
	<node id="-54511" lat="59.0712138898" lon="10.2582250022">
		<tag k="ssr:gml_id" v="GEOMETRY_b7dbb8df-c809-44c0-a43f-4059ae3385b9" />
		<tag k="ssr:gml_nr" v="0" />
	</node>
	<node id="-53998" lat="59.2425861109" lon="10.179852782">
		<tag k="ssr:gml_id" v="GEOMETRY_462ed707-3d33-4767-b443-2335ba6da552" />
		<tag k="ssr:gml_nr" v="0" />
	</node>
	<node id="-55531" lat="59.3271305551" lon="10.1520083379">
		<tag k="ssr:gml_id" v="GEOMETRY_480a2ff4-f7c6-480d-8e33-d299463ccf02" />
		<tag k="ssr:gml_nr" v="1" />
	</node>
	<node id="-53994" lat="59.249441669" lon="10.3247194469">
		<tag k="ssr:gml_id" v="GEOMETRY_118d9119-688f-4508-aa6f-c168cfde5e8b" />
		<tag k="ssr:gml_nr" v="5" />
	</node>
	<node id="-53993" lat="59.2447194436" lon="10.3281000038">
		<tag k="ssr:gml_id" v="GEOMETRY_89026528-2c71-4ca1-bd89-0ff30a30b304" />
		<tag k="ssr:gml_nr" v="4" />
	</node>
	<node id="-53992" lat="59.2546083353" lon="10.332822226">
		<tag k="ssr:gml_id" v="GEOMETRY_62e124c7-4366-4763-a902-2bd4687db482" />
		<tag k="ssr:gml_nr" v="3" />
	</node>
	<node id="-53991" lat="59.2521388853" lon="10.3290527705">
		<tag k="ssr:gml_id" v="GEOMETRY_0d691eb2-ca3d-48ad-8ad4-c3d7da8b69d5" />
		<tag k="ssr:gml_nr" v="2" />
	</node>
	<node id="-53990" lat="59.2441694462" lon="10.327619444">
		<tag k="ssr:gml_id" v="GEOMETRY_60282676-2377-4541-a8f5-22f9fc0e2381" />
		<tag k="ssr:gml_nr" v="1" />
	</node>
	<node id="-57061" lat="59.2520249986" lon="10.0269750031">
		<tag k="fixme" v="consider water=pond" />
		<tag k="name" v="Diplingane" />
		<tag k="natural" v="water" />
		<tag k="ssr:date" v="2017-01-19" />
		<tag k="ssr:stedsnr" v="913927" />
		<tag k="water" v="lake" />
	</node>
	<node id="-56545" lat="59.1112222188" lon="10.1962305614">
		<tag k="name" v="Hanastadbekken" />
		<tag k="ssr:date" v="2017-01-19" />
		<tag k="ssr:stedsnr" v="755610" />
		<tag k="waterway" v="stream" />
	</node>
	<node id="-56542" lat="59.2858500012" lon="10.1715638963">
		<tag k="name" v="Kjæråselva" />
		<tag k="ssr:date" v="2017-01-19" />
		<tag k="ssr:stedsnr" v="755509" />
		<tag k="waterway" v="river" />
	</node>
	<node id="-56029" lat="59.2752500016" lon="10.0071083414">
		<tag k="ssr:gml_id" v="GEOMETRY_307b7118-05cf-48bd-b6f0-11eabe2f9737" />
		<tag k="ssr:gml_nr" v="1" />
	</node>
	<node id="-56028" lat="59.2752527823" lon="10.0071111082">
		<tag k="ssr:gml_id" v="GEOMETRY_bcb221e9-8cb1-4793-8ada-1f6d50ac1fa7" />
		<tag k="ssr:gml_nr" v="0" />
	</node>
	<node id="-55891" lat="59.2228111114" lon="10.2142833295">
		<tag k="ssr:gml_id" v="GEOMETRY_974a261a-e9dc-4222-a2f1-449f08f2784b" />
		<tag k="ssr:gml_nr" v="0" />
	</node>
	<node id="-53460" lat="59.2029277783" lon="10.177186104">
		<tag k="ssr:gml_id" v="GEOMETRY_9289327e-52ff-4ddc-abca-08d8178130f1" />
		<tag k="ssr:gml_nr" v="7" />
	</node>
	<node id="-56531" lat="59.2942805517" lon="10.1202833285">
		<tag k="name" v="Rørodden" />
		<tag k="natural" v="cape" />
		<tag k="place" v="locality" />
		<tag k="ssr:date" v="2017-01-19" />
		<tag k="ssr:stedsnr" v="755267" />
	</node>
	<node id="-53458" lat="59.3484999981" lon="10.2886555571">
		<tag k="ssr:gml_id" v="GEOMETRY_85c3bfea-c379-4839-a7fb-7c1130eb71fd" />
		<tag k="ssr:gml_nr" v="5" />
	</node>
	<node id="-53457" lat="59.2420277812" lon="10.2016583404">
		<tag k="ssr:gml_id" v="GEOMETRY_ab4a8d5f-337b-4a24-845d-6b105e0b17ae" />
		<tag k="ssr:gml_nr" v="4" />
	</node>
	<node id="-53456" lat="59.2427777773" lon="10.2016749994">
		<tag k="ssr:gml_id" v="GEOMETRY_9d057291-9e0a-43e6-bf29-4753450ea213" />
		<tag k="ssr:gml_nr" v="3" />
	</node>
	<node id="-53455" lat="59.3484999976" lon="10.2886583357">
		<tag k="ssr:gml_id" v="GEOMETRY_13781609-59ee-43c7-a592-e268dde2be3b" />
		<tag k="ssr:gml_nr" v="2" />
	</node>
	<node id="-55502" lat="59.2778444481" lon="10.2931444391">
		<tag k="ssr:gml_id" v="GEOMETRY_46a4df84-bf8e-4f8c-ac8b-5a3dc7f909a5" />
		<tag k="ssr:gml_nr" v="1" />
	</node>
	<node id="-53453" lat="59.2196555591" lon="10.1850944381">
		<tag k="ssr:gml_id" v="GEOMETRY_46b47c74-8670-4622-b24a-7da6133e28eb" />
		<tag k="ssr:gml_nr" v="0" />
	</node>
	<node id="-54988" lat="59.2339249961" lon="10.2437250007">
		<tag k="ssr:gml_id" v="GEOMETRY_353ae6ec-4930-45e7-8f1f-a27ef6294259" />
		<tag k="ssr:gml_nr" v="3" />
	</node>
	<node id="-54987" lat="59.2338111138" lon="10.2450611189">
		<tag k="ssr:gml_id" v="GEOMETRY_fdb2a593-2f89-44fe-b931-42f54c614a3a" />
		<tag k="ssr:gml_nr" v="2" />
	</node>
	<node id="-54986" lat="59.23391667" lon="10.2437222263">
		<tag k="ssr:gml_id" v="GEOMETRY_36a7b7a8-06e0-4036-8c8d-85ed1007527d" />
		<tag k="ssr:gml_nr" v="1" />
	</node>
	<node id="-54985" lat="59.2339222209" lon="10.2437250048">
		<tag k="ssr:gml_id" v="GEOMETRY_69f6d606-072a-4a97-aff2-92028f9e5aef" />
		<tag k="ssr:gml_nr" v="0" />
	</node>
	<node id="-56520" lat="59.3172166638" lon="10.0554500013">
		<tag k="ssr:gml_id" v="GEOMETRY_639786f2-dfdf-4a03-8023-b0708a26a7de" />
		<tag k="ssr:gml_nr" v="1" />
	</node>
	<node id="-55501" lat="59.2778638868" lon="10.2974444443">
		<tag k="ssr:gml_id" v="GEOMETRY_7a531c2d-7909-4678-a08a-cb708df4ddee" />
		<tag k="ssr:gml_nr" v="0" />
	</node>
	<node id="-54561" lat="59.2872805522" lon="10.033236116">
		<tag k="ssr:gml_id" v="GEOMETRY_dceebf76-3685-4da9-bf49-fdc30b0982b5" />
		<tag k="ssr:gml_nr" v="1" />
	</node>
	<node id="-54980" lat="59.2287888879" lon="10.1407249981">
		<tag k="ssr:gml_id" v="GEOMETRY_cdea3812-abee-4834-a0b1-e497d44dcdd5" />
		<tag k="ssr:gml_nr" v="3" />
	</node>
	<node id="-54979" lat="59.2293055585" lon="10.1407749984">
		<tag k="ssr:gml_id" v="GEOMETRY_51d5f67e-ca9a-4e44-b41a-e23fb8a65fcf" />
		<tag k="ssr:gml_nr" v="2" />
	</node>
	<node id="-54978" lat="59.2287861127" lon="10.1407249931">
		<tag k="ssr:gml_id" v="GEOMETRY_2875824a-7f90-4285-8ee1-bb0d344d7d6f" />
		<tag k="ssr:gml_nr" v="1" />
	</node>
	<node id="-54977" lat="59.2287861101" lon="10.1407222242">
		<tag k="ssr:gml_id" v="GEOMETRY_bee2d5c2-1679-468e-8680-68a9033428e0" />
		<tag k="ssr:gml_nr" v="0" />
	</node>
	<node id="-55488" lat="59.3214222251" lon="10.0617888925">
		<tag k="ssr:gml_id" v="GEOMETRY_dc154ef1-852a-4d9b-b1e4-4644223e80aa" />
		<tag k="ssr:gml_nr" v="1" />
	</node>
	<node id="-55487" lat="59.3216000006" lon="10.0617527751">
		<tag k="ssr:gml_id" v="GEOMETRY_3afe76f8-3f23-40b7-8d6c-7bec6108d532" />
		<tag k="ssr:gml_nr" v="0" />
	</node>
	<node id="-55202" lat="59.322183333" lon="10.1153138895">
		<tag k="ssr:gml_id" v="GEOMETRY_0427f5ff-ea57-49c1-9cf8-59e662ee9772" />
		<tag k="ssr:gml_nr" v="1" />
	</node>
	<node id="-57015" lat="59.3250250014" lon="10.1827249968">
		<tag k="name" v="Stulsbekken" />
		<tag k="ssr:date" v="2017-01-19" />
		<tag k="ssr:stedsnr" v="877453" />
		<tag k="waterway" v="stream" />
	</node>
	<node id="-55990" lat="59.2340222223" lon="10.1017611162">
		<tag k="ssr:gml_id" v="GEOMETRY_1e2c1d75-d96c-4498-84c8-9377b6df37f8" />
		<tag k="ssr:gml_nr" v="3" />
	</node>
	<node id="-55989" lat="59.2131416684" lon="10.1112055625">
		<tag k="ssr:gml_id" v="GEOMETRY_9c9bce0d-d435-49f4-860f-e90bdbff7558" />
		<tag k="ssr:gml_nr" v="2" />
	</node>
	<node id="-55988" lat="59.2353861139" lon="10.1010500012">
		<tag k="ssr:gml_id" v="GEOMETRY_e2971e56-fba7-4c56-af55-439b5557cd49" />
		<tag k="ssr:gml_nr" v="1" />
	</node>
	<node id="-55987" lat="59.2353861105" lon="10.1010472143">
		<tag k="ssr:gml_id" v="GEOMETRY_98452bd6-ed98-4bb0-973c-d57bc8331b95" />
		<tag k="ssr:gml_nr" v="0" />
	</node>
	<node id="-54250" lat="59.1952944467" lon="10.1249861109">
		<tag k="ssr:gml_id" v="GEOMETRY_8074920d-bb3b-4c6d-8d43-d60d089cca41" />
		<tag k="ssr:gml_nr" v="1" />
	</node>
	<node id="-57003" lat="59.3079666693" lon="10.0924750084">
		<tag k="name" v="Halstvedtelva" />
		<tag k="ssr:date" v="2017-01-19" />
		<tag k="ssr:stedsnr" v="877261" />
		<tag k="waterway" v="stream" />
	</node>
	<node id="-56490" lat="59.239991671" lon="10.334591667">
		<tag k="name" v="Englibukta" />
		<tag k="natural" v="bay" />
		<tag k="ssr:date" v="2017-01-19" />
		<tag k="ssr:stedsnr" v="753387" />
	</node>
	<node id="-56519" lat="59.3265111149" lon="10.0472666679">
		<tag k="ssr:gml_id" v="GEOMETRY_82ba557f-ae9a-404a-a069-77a622286053" />
		<tag k="ssr:gml_nr" v="0" />
	</node>
	<node id="-53454" lat="59.2420333344" lon="10.2016638827">
		<tag k="ssr:gml_id" v="GEOMETRY_60ed9e49-8f71-478d-ad2d-6b8273ce233e" />
		<tag k="ssr:gml_nr" v="1" />
	</node>
	<node id="-56996" lat="59.326024999" lon="10.1100249943">
		<tag k="fixme" v="consider water=pond" />
		<tag k="name" v="Stutaua" />
		<tag k="natural" v="water" />
		<tag k="ssr:date" v="2017-01-19" />
		<tag k="ssr:stedsnr" v="877210" />
		<tag k="water" v="lake" />
	</node>
	<node id="-56995" lat="59.3338138866" lon="10.1055722288">
		<tag k="name" v="Skjauffbekken" />
		<tag k="ssr:date" v="2017-01-19" />
		<tag k="ssr:stedsnr" v="877211" />
		<tag k="waterway" v="stream" />
	</node>
	<node id="-55968" lat="59.2485777757" lon="10.0289611187">
		<tag k="ssr:gml_id" v="GEOMETRY_81a1c938-69b8-46f4-b8ae-1998d4950d06" />
		<tag k="ssr:gml_nr" v="2" />
	</node>
	<node id="-55967" lat="59.2477000042" lon="10.0295999996">
		<tag k="ssr:gml_id" v="GEOMETRY_c723a255-775f-4615-8a3d-2323c82443b4" />
		<tag k="ssr:gml_nr" v="1" />
	</node>
	<node id="-55966" lat="59.2476999991" lon="10.0295972292">
		<tag k="ssr:gml_id" v="GEOMETRY_0e67d86b-c158-49e4-929f-3c5d15367a11" />
		<tag k="ssr:gml_nr" v="0" />
	</node>
	<node id="-56987" lat="59.2641694443" lon="10.0863583267">
		<tag k="ssr:gml_id" v="GEOMETRY_246984be-995a-49a8-ae02-164010155b1c" />
		<tag k="ssr:gml_nr" v="1" />
	</node>
	<node id="-54426" lat="59.2825972208" lon="10.2407527831">
		<tag k="name" v="Liadammen" />
		<tag k="natural" v="water" />
		<tag k="ssr:date" v="2017-01-19" />
		<tag k="ssr:stedsnr" v="89449" />
		<tag k="water" v="lake" />
	</node>
	<node id="-56982" lat="59.3335972252" lon="10.0401138935">
		<tag k="name" v="Missmørbekken" />
		<tag k="ssr:date" v="2017-01-19" />
		<tag k="ssr:stedsnr" v="876648" />
		<tag k="waterway" v="stream" />
	</node>
	<node id="-53999" lat="59.2425916648" lon="10.1798583384">
		<tag k="ssr:gml_id" v="GEOMETRY_b2db856b-3111-4568-9a08-8f6b8abb45b9" />
		<tag k="ssr:gml_nr" v="1" />
	</node>
	<node id="-54419" lat="59.1573611087" lon="10.147424995">
		<tag k="name" v="Bøbukta" />
		<tag k="natural" v="bay" />
		<tag k="ssr:date" v="2017-01-19" />
		<tag k="ssr:stedsnr" v="88852" />
	</node>
	<node id="-54413" lat="59.1938972188" lon="10.1221527715">
		<tag k="name" v="Kalven" />
		<tag k="natural" v="cape" />
		<tag k="place" v="locality" />
		<tag k="ssr:date" v="2017-01-19" />
		<tag k="ssr:stedsnr" v="88782" />
	</node>
	<node id="-55436" lat="59.3619166673" lon="10.0400027734">
		<tag k="ssr:gml_id" v="GEOMETRY_80a718cd-c199-4399-a4f6-4c7badb72715" />
		<tag k="ssr:gml_nr" v="1" />
	</node>
	<node id="-55435" lat="59.3619194472" lon="10.0400055501">
		<tag k="ssr:gml_id" v="GEOMETRY_2f718716-910a-42f7-8694-092c13eb7f9a" />
		<tag k="ssr:gml_nr" v="0" />
	</node>
	<node id="-54409" lat="59.2691194428" lon="10.1532444473">
		<tag k="name" v="Svartefossa" />
		<tag k="natural" v="waterfall" />
		<tag k="ssr:date" v="2017-01-19" />
		<tag k="ssr:stedsnr" v="88754" />
	</node>
	<node id="-55943" lat="59.2074249995" lon="10.0718361135">
		<tag k="ssr:gml_id" v="GEOMETRY_32dda0e4-a605-4275-a001-a37c6c86386c" />
		<tag k="ssr:gml_nr" v="5" />
	</node>
	<node id="-55942" lat="59.241338892" lon="10.0593638847">
		<tag k="ssr:gml_id" v="GEOMETRY_2d4fe050-e933-480c-8a9e-462cbf64655e" />
		<tag k="ssr:gml_nr" v="4" />
	</node>
	<node id="-55941" lat="59.2131249986" lon="10.0673805527">
		<tag k="ssr:gml_id" v="GEOMETRY_d43839aa-2604-496a-ac98-7ebf9bfdd41a" />
		<tag k="ssr:gml_nr" v="3" />
	</node>
	<node id="-55940" lat="59.2015194486" lon="10.0755749993">
		<tag k="ssr:gml_id" v="GEOMETRY_dc9ce7b6-14be-40b0-94b1-bb551c3234ab" />
		<tag k="ssr:gml_nr" v="2" />
	</node>
	<node id="-55939" lat="59.2074194452" lon="10.0718333301">
		<tag k="ssr:gml_id" v="GEOMETRY_64ab0a24-48ed-4ff4-bad0-e9bad2638869" />
		<tag k="ssr:gml_nr" v="1" />
	</node>
	<node id="-53890" lat="59.2897055592" lon="10.2547138877">
		<tag k="name" v="Fossnesdammen" />
		<tag k="natural" v="water" />
		<tag k="ssr:date" v="2017-01-19" />
		<tag k="ssr:stedsnr" v="392540" />
		<tag k="water" v="lake" />
	</node>
	<node id="-56427" lat="59.1713305526" lon="10.1473972196">
		<tag k="ssr:gml_id" v="GEOMETRY_f89fc2b0-a8c4-4ecf-93bd-06ee5a019c53" />
		<tag k="ssr:gml_nr" v="2" />
	</node>
	<node id="-53884" lat="59.2325027767" lon="10.1027388898">
		<tag k="name" v="Skorgefossen" />
		<tag k="natural" v="waterfall" />
		<tag k="ssr:date" v="2017-01-19" />
		<tag k="ssr:stedsnr" v="391987" />
	</node>
	<node id="-56425" lat="59.1692499985" lon="10.1607611157">
		<tag k="ssr:gml_id" v="GEOMETRY_97cba349-b58e-4583-84f0-95c73688dc58" />
		<tag k="ssr:gml_nr" v="0" />
	</node>
	<node id="-53871" lat="59.3310000041" lon="10.045177778">
		<tag k="name" v="Trollvannselva" />
		<tag k="ssr:date" v="2017-01-19" />
		<tag k="ssr:stedsnr" v="391806" />
		<tag k="waterway" v="river" />
	</node>
	<node id="-54382" lat="59.3686750019" lon="10.0704833405">
		<tag k="name" v="Grønntjønnbekken" />
		<tag k="ssr:date" v="2017-01-19" />
		<tag k="ssr:stedsnr" v="88202" />
		<tag k="waterway" v="stream" />
	</node>
	<node id="-53357" lat="59.2085027815" lon="10.0729083357">
		<tag k="name" v="Liverødbekken" />
		<tag k="ssr:date" v="2017-01-19" />
		<tag k="ssr:stedsnr" v="270971" />
		<tag k="waterway" v="stream" />
	</node>
	<node id="-54379" lat="59.3056333336" lon="10.0779861039">
		<tag k="name" v="Guslandbekken" />
		<tag k="ssr:date" v="2017-01-19" />
		<tag k="ssr:stedsnr" v="88173" />
		<tag k="waterway" v="stream" />
	</node>
	<node id="-56426" lat="59.1692500006" lon="10.1607638972">
		<tag k="ssr:gml_id" v="GEOMETRY_8e178d57-f893-4284-9781-5a37361565db" />
		<tag k="ssr:gml_nr" v="1" />
	</node>
	<node id="-55191" lat="59.354333329" lon="10.0322055564">
		<tag k="ssr:gml_id" v="GEOMETRY_88cdb6dc-0f2c-4d54-8e16-a4edd7644042" />
		<tag k="ssr:gml_nr" v="2" />
	</node>
	<node id="-56936" lat="59.2698583357" lon="10.0198472229">
		<tag k="ssr:gml_id" v="GEOMETRY_2d0f5541-3eb5-4754-bd70-7bc810124a63" />
		<tag k="ssr:gml_nr" v="3" />
	</node>
	<node id="-56935" lat="59.2695277755" lon="10.0198000073">
		<tag k="ssr:gml_id" v="GEOMETRY_2379f902-eb9c-4e45-82c7-d81254ec1f87" />
		<tag k="ssr:gml_nr" v="2" />
	</node>
	<node id="-56934" lat="59.2694361124" lon="10.0195527698">
		<tag k="ssr:gml_id" v="GEOMETRY_a45a683d-f8e4-45e2-b667-6353aefe31c0" />
		<tag k="ssr:gml_nr" v="1" />
	</node>
	<node id="-56421" lat="59.1834138911" lon="10.1737555582">
		<tag k="ssr:gml_id" v="GEOMETRY_6e80676b-5554-46f7-959b-9c561a69c936" />
		<tag k="ssr:gml_nr" v="1" />
	</node>
	<node id="-54884" lat="59.1652555551" lon="10.1445027826">
		<tag k="name" v="Sandtangen" />
		<tag k="natural" v="cape" />
		<tag k="place" v="locality" />
		<tag k="ssr:date" v="2017-01-19" />
		<tag k="ssr:stedsnr" v="209774" />
	</node>
	<node id="-56422" lat="59.1837055573" lon="10.1722777821">
		<tag k="ssr:gml_id" v="GEOMETRY_6adc30aa-7a6f-417c-a0ed-81cd7accab53" />
		<tag k="ssr:gml_nr" v="2" />
	</node>
	<node id="-54369" lat="59.2879888858" lon="10.1543305469">
		<tag k="fixme" v="consider water=pond" />
		<tag k="name" v="Kjæråsdammen" />
		<tag k="natural" v="water" />
		<tag k="ssr:date" v="2017-01-19" />
		<tag k="ssr:stedsnr" v="87786" />
		<tag k="water" v="lake" />
	</node>
	<node id="-53343" lat="59.2475750013" lon="10.06213611">
		<tag k="name" v="Kjerringdalsbekken" />
		<tag k="ssr:date" v="2017-01-19" />
		<tag k="ssr:stedsnr" v="270768" />
		<tag k="waterway" v="stream" />
	</node>
	<node id="-54373" lat="59.3578527813" lon="10.1126055613">
		<tag k="name" v="Skaugbekken" />
		<tag k="ssr:date" v="2017-01-19" />
		<tag k="ssr:stedsnr" v="88103" />
		<tag k="waterway" v="stream" />
	</node>
	<node id="-53340" lat="59.1722916702" lon="10.1559055518">
		<tag k="name" v="Merkemellom" />
		<tag k="natural" v="cape" />
		<tag k="place" v="locality" />
		<tag k="ssr:date" v="2017-01-19" />
		<tag k="ssr:stedsnr" v="270756" />
	</node>
	<node id="-55226" lat="59.2936166641" lon="10.1192583336">
		<tag k="ssr:gml_id" v="GEOMETRY_9317b3a5-651e-4f18-bc7e-995b4184b269" />
		<tag k="ssr:gml_nr" v="1" />
	</node>
	<node id="-56420" lat="59.183411114" lon="10.1737527854">
		<tag k="ssr:gml_id" v="GEOMETRY_98c849a1-295c-4838-989f-c11f6f50d306" />
		<tag k="ssr:gml_nr" v="0" />
	</node>
	<node id="-55893" lat="59.2261249961" lon="10.2104166583">
		<tag k="ssr:gml_id" v="GEOMETRY_1a3d08ae-fa53-4598-bbd1-968c8ccf7951" />
		<tag k="ssr:gml_nr" v="2" />
	</node>
	<node id="-54356" lat="59.2403611119" lon="10.3320527771">
		<tag k="name" v="Tryteknatten" />
		<tag k="place" v="islet" />
		<tag k="ssr:date" v="2017-01-19" />
		<tag k="ssr:stedsnr" v="86441" />
	</node>
	<node id="-56915" lat="59.219541664" lon="10.1370583406">
		<tag k="ssr:gml_id" v="GEOMETRY_3232ef7f-94cf-4630-8433-e9765210d641" />
		<tag k="ssr:gml_nr" v="2" />
	</node>
	<node id="-56914" lat="59.2191777797" lon="10.136755547">
		<tag k="ssr:gml_id" v="GEOMETRY_6b982ddd-fca5-460f-abd3-a9a27d2997e1" />
		<tag k="ssr:gml_nr" v="1" />
	</node>
	<node id="-56913" lat="59.2191833353" lon="10.13676111">
		<tag k="ssr:gml_id" v="GEOMETRY_eca1da03-51d4-4464-8c1b-c80e18d4cff8" />
		<tag k="ssr:gml_nr" v="0" />
	</node>
	<node id="-55224" lat="59.2887749965" lon="10.1896388887">
		<tag k="ssr:gml_id" v="GEOMETRY_13e2dee2-6f01-46a8-8320-dd307b6d7ef8" />
		<tag k="ssr:gml_nr" v="4" />
	</node>
	<node id="-54001" lat="59.2542611133" lon="10.1659638922">
		<tag k="ssr:gml_id" v="GEOMETRY_67be1f2d-1167-41ab-be96-029749fa9452" />
		<tag k="ssr:gml_nr" v="3" />
	</node>
	<node id="-53827" lat="59.2902277811" lon="10.1370055548">
		<tag k="ssr:gml_id" v="GEOMETRY_1e916477-7240-4763-9493-aef3bf859238" />
		<tag k="ssr:gml_nr" v="1" />
	</node>
	<node id="-53826" lat="59.2928916664" lon="10.1249527859">
		<tag k="ssr:gml_id" v="GEOMETRY_e552160e-0a91-4634-8df2-3628dc4a0955" />
		<tag k="ssr:gml_nr" v="0" />
	</node>
	<node id="-53825" lat="59.3172249982" lon="10.0457638822">
		<tag k="name" v="Sagbekken" />
		<tag k="ssr:date" v="2017-01-19" />
		<tag k="ssr:stedsnr" v="391206" />
		<tag k="waterway" v="stream" />
	</node>
	<node id="-54018" lat="59.3652833341" lon="10.0557499923">
		<tag k="ssr:gml_id" v="GEOMETRY_23261327-e0fd-4691-a0ac-737780e02b09" />
		<tag k="ssr:gml_nr" v="0" />
	</node>
	<node id="-54846" lat="59.3706638858" lon="10.0812166583">
		<tag k="name" v="Hestedalsbekken" />
		<tag k="ssr:date" v="2017-01-19" />
		<tag k="ssr:stedsnr" v="209262" />
		<tag k="waterway" v="stream" />
	</node>
	<node id="-54839" lat="59.3103694465" lon="10.0487583375">
		<tag k="name" v="Langevannsbekken" />
		<tag k="ssr:date" v="2017-01-19" />
		<tag k="ssr:stedsnr" v="209226" />
		<tag k="waterway" v="stream" />
	</node>
	<node id="-56886" lat="59.2438111135" lon="10.057130547">
		<tag k="ssr:gml_id" v="GEOMETRY_6a252351-d35f-4b9e-926c-b86c8817e04e" />
		<tag k="ssr:gml_nr" v="2" />
	</node>
	<node id="-56885" lat="59.2428749962" lon="10.0578861086">
		<tag k="ssr:gml_id" v="GEOMETRY_e51acfed-7855-4037-a3fc-dab4920d7a2b" />
		<tag k="ssr:gml_nr" v="1" />
	</node>
	<node id="-56884" lat="59.2428750008" lon="10.0578833388">
		<tag k="ssr:gml_id" v="GEOMETRY_e2eb71f5-6e57-4aa2-bf98-26101f806c1f" />
		<tag k="ssr:gml_nr" v="0" />
	</node>
	<node id="-53598" lat="59.2015611137" lon="10.1202055626">
		<tag k="name" v="Trollsåselva" />
		<tag k="ssr:date" v="2017-01-19" />
		<tag k="ssr:stedsnr" v="330866" />
		<tag k="waterway" v="stream" />
	</node>
	<node id="-53297" lat="59.2910555539" lon="10.0866194465">
		<tag k="name" v="Bakkedamsbekken" />
		<tag k="ssr:date" v="2017-01-19" />
		<tag k="ssr:stedsnr" v="269822" />
		<tag k="waterway" v="stream" />
	</node>
	<node id="-55530" lat="59.3395611113" lon="10.1452777696">
		<tag k="ssr:gml_id" v="GEOMETRY_c4f0f34d-4ec7-4757-8352-df83934f2a70" />
		<tag k="ssr:gml_nr" v="0" />
	</node>
	<node id="-57181" lat="59.3552444468" lon="10.0723749931">
		<tag k="ssr:gml_id" v="GEOMETRY_22fc5e03-f942-4f02-bb79-334d27d01150" />
		<tag k="ssr:gml_nr" v="0" />
	</node>
	<node id="-54316" lat="59.3676249999" lon="10.1465305471">
		<tag k="ssr:gml_id" v="GEOMETRY_b1853df5-d4eb-48d1-b8e5-0c082f7e1012" />
		<tag k="ssr:gml_nr" v="4" />
	</node>
	<node id="-54315" lat="59.3705194408" lon="10.1516027849">
		<tag k="ssr:gml_id" v="GEOMETRY_330e640e-19b3-4bd6-8ed5-2e7cd948e7ec" />
		<tag k="ssr:gml_nr" v="3" />
	</node>
	<node id="-54314" lat="59.3666888923" lon="10.1478111194">
		<tag k="ssr:gml_id" v="GEOMETRY_e20c496e-e883-4ae6-a43b-a05ddeb3ef1b" />
		<tag k="ssr:gml_nr" v="2" />
	</node>
	<node id="-53289" lat="59.3252527775" lon="10.0140611106">
		<tag k="name" v="Bølevannsfossen" />
		<tag k="natural" v="waterfall" />
		<tag k="ssr:date" v="2017-01-19" />
		<tag k="ssr:stedsnr" v="269628" />
	</node>
	<node id="-55848" lat="59.1580277806" lon="10.1415166661">
		<tag k="name" v="Neshella" />
		<tag k="natural" v="cape" />
		<tag k="place" v="locality" />
		<tag k="ssr:date" v="2017-01-19" />
		<tag k="ssr:stedsnr" v="573843" />
	</node>
	<node id="-56753" lat="59.3535249961" lon="10.1128111159">
		<tag k="name" v="Bergsbekken" />
		<tag k="ssr:date" v="2017-01-19" />
		<tag k="ssr:stedsnr" v="816163" />
		<tag k="waterway" v="stream" />
	</node>
	<node id="-54560" lat="59.2871500039" lon="10.0337750006">
		<tag k="ssr:gml_id" v="GEOMETRY_69f320c4-d6a7-4cde-aae1-98d3ca8dfe8a" />
		<tag k="ssr:gml_nr" v="0" />
	</node>
	<node id="-53510" lat="59.3286999996" lon="10.0143972231">
		<tag k="ssr:gml_id" v="GEOMETRY_7129b5b9-0425-4611-a165-7fb313d18400" />
		<tag k="ssr:gml_nr" v="2" />
	</node>
	<node id="-55938" lat="59.2074166659" lon="10.0718305635">
		<tag k="ssr:gml_id" v="GEOMETRY_4a731ea8-4527-4aa2-8c96-af1d99fcd66a" />
		<tag k="ssr:gml_nr" v="0" />
	</node>
	<node id="-55328" lat="59.1109583347" lon="10.2049166628">
		<tag k="ssr:gml_id" v="GEOMETRY_c1b517df-dd7a-4f90-a251-0d150f242a6a" />
		<tag k="ssr:gml_nr" v="1" />
	</node>
	<node id="-55327" lat="59.1147055552" lon="10.2026194505">
		<tag k="ssr:gml_id" v="GEOMETRY_396bcc84-47d4-4d64-8648-dd019e244c69" />
		<tag k="ssr:gml_nr" v="0" />
	</node>
	<node id="-53509" lat="59.3279750028" lon="10.0158027866">
		<tag k="ssr:gml_id" v="GEOMETRY_d8285506-d414-4261-89bc-bb6cac40c449" />
		<tag k="ssr:gml_nr" v="1" />
	</node>
	<node id="-55835" lat="59.1799666675" lon="10.1411027727">
		<tag k="name" v="Langekilen" />
		<tag k="natural" v="bay" />
		<tag k="ssr:date" v="2017-01-19" />
		<tag k="ssr:stedsnr" v="573762" />
	</node>
	<node id="-55834" lat="59.1710666668" lon="10.1538361157">
		<tag k="name" v="Wittenberg" />
		<tag k="natural" v="cape" />
		<tag k="place" v="locality" />
		<tag k="ssr:date" v="2017-01-19" />
		<tag k="ssr:stedsnr" v="573760" />
	</node>
	<node id="-54020" lat="59.365058331" lon="10.0544583251">
		<tag k="ssr:gml_id" v="GEOMETRY_aa175d02-9dbf-48c6-b1ff-104a00e009c1" />
		<tag k="ssr:gml_nr" v="2" />
	</node>
	<node id="-56340" lat="59.2607416625" lon="10.0461055564">
		<tag k="fixme" v="consider water=pond" />
		<tag k="name" v="Ulevannet" />
		<tag k="natural" v="water" />
		<tag k="ssr:date" v="2017-01-19" />
		<tag k="ssr:stedsnr" v="695787" />
		<tag k="water" v="lake" />
	</node>
	<node id="-53507" lat="59.3402361075" lon="10.1250333303">
		<tag k="ssr:gml_id" v="GEOMETRY_5fb7e347-4d2c-4489-982e-ea6e9ccc1415" />
		<tag k="ssr:gml_nr" v="2" />
	</node>
	<node id="-56933" lat="59.2695305596" lon="10.0198000028">
		<tag k="ssr:gml_id" v="GEOMETRY_1865709a-ee98-47c6-846a-74dd1b595e31" />
		<tag k="ssr:gml_nr" v="0" />
	</node>
	<node id="-54836" lat="59.3585805598" lon="10.1472111041">
		<tag k="name" v="Hålandbekken" />
		<tag k="ssr:date" v="2017-01-19" />
		<tag k="ssr:stedsnr" v="209142" />
		<tag k="waterway" v="stream" />
	</node>
	<node id="-54792" lat="59.3326666621" lon="10.0799583412">
		<tag k="ssr:gml_id" v="GEOMETRY_69a68d8f-f09c-4d25-af24-24bc091eed11" />
		<tag k="ssr:gml_nr" v="3" />
	</node>
	<node id="-54791" lat="59.3326916646" lon="10.0800277731">
		<tag k="ssr:gml_id" v="GEOMETRY_4b061675-8b58-4082-b750-971e8106b937" />
		<tag k="ssr:gml_nr" v="2" />
	</node>
	<node id="-54790" lat="59.3357638871" lon="10.0799916697">
		<tag k="ssr:gml_id" v="GEOMETRY_13a71fe7-e95d-4242-9212-3fd15886f576" />
		<tag k="ssr:gml_nr" v="1" />
	</node>
	<node id="-54789" lat="59.3326944437" lon="10.0800305506">
		<tag k="ssr:gml_id" v="GEOMETRY_b34c7631-102a-414e-905b-67980d3a3bc2" />
		<tag k="ssr:gml_nr" v="0" />
	</node>
	<node id="-56235" lat="59.2585611129" lon="10.0373250011">
		<tag k="ssr:gml_id" v="GEOMETRY_825d9615-48ee-46e9-84ae-3a2ec42e523d" />
		<tag k="ssr:gml_nr" v="1" />
	</node>
	<way id="-11648">
		<tag k="name" v="Ivjua" />
		<tag k="ssr:date" v="2017-01-19" />
		<tag k="ssr:stedsnr" v="184311" />
		<tag k="waterway" v="stream" />
		<nd ref="-54755" />
		<nd ref="-54756" />
		<nd ref="-54757" />
	</way>
	<way id="-11390">
		<tag k="fixme" v="consider water=pond" />
		<tag k="name" v="Bølevannet" />
		<tag k="natural" v="water" />
		<tag k="ssr:date" v="2018-01-09" />
		<tag k="ssr:stedsnr" v="306786" />
		<tag k="water" v="lake" />
		<nd ref="-53508" />
		<nd ref="-53509" />
		<nd ref="-53510" />
	</way>
	<way id="-11517">
		<tag k="fixme" v="consider water=pond" />
		<tag k="name" v="Stusserudvannet" />
		<tag k="natural" v="water" />
		<tag k="ssr:date" v="2017-01-19" />
		<tag k="ssr:stedsnr" v="3897" />
		<tag k="water" v="lake" />
		<nd ref="-54081" />
		<nd ref="-54082" />
	</way>
	<way id="-11388">
		<tag k="fixme" v="consider water=pond" />
		<tag k="name" v="Grorødvannet" />
		<tag k="natural" v="water" />
		<tag k="ssr:date" v="2017-01-19" />
		<tag k="ssr:stedsnr" v="306828" />
		<tag k="water" v="lake" />
		<nd ref="-53501" />
		<nd ref="-53502" />
		<nd ref="-53503" />
		<nd ref="-53504" />
	</way>
	<way id="-11771">
		<tag k="name" v="Virikbekken" />
		<tag k="ssr:date" v="2017-01-19" />
		<tag k="ssr:stedsnr" v="453582" />
		<tag k="waterway" v="stream" />
		<nd ref="-55327" />
		<nd ref="-55328" />
	</way>
	<way id="-11893">
		<tag k="alt_name" v="Vesle-elv" />
		<tag k="name" v="Vesleelva" />
		<tag k="ssr:date" v="2017-01-19" />
		<tag k="ssr:stedsnr" v="607393" />
		<tag k="waterway" v="stream" />
		<nd ref="-55891" />
		<nd ref="-55892" />
		<nd ref="-55893" />
	</way>
	<way id="-11762">
		<tag k="fixme" v="consider water=pond" />
		<tag k="name" v="Stålerødvannet" />
		<tag k="natural" v="water" />
		<tag k="ssr:date" v="2017-01-19" />
		<tag k="ssr:stedsnr" v="428873" />
		<tag k="water" v="lake" />
		<nd ref="-55225" />
		<nd ref="-55226" />
		<nd ref="-55227" />
	</way>
	<way id="-11761">
		<tag k="name" v="Askjemvannet" />
		<tag k="natural" v="water" />
		<tag k="ssr:date" v="2017-01-19" />
		<tag k="ssr:stedsnr" v="428869" />
		<tag k="water" v="lake" />
		<nd ref="-55220" />
		<nd ref="-55221" />
		<nd ref="-55222" />
		<nd ref="-55223" />
		<nd ref="-55224" />
	</way>
	<way id="-11375">
		<tag k="alt_name" v="Storelv" />
		<tag k="name" v="Storelva" />
		<tag k="ssr:date" v="2017-01-19" />
		<tag k="ssr:stedsnr" v="305310" />
		<tag k="waterway" v="river" />
		<nd ref="-53453" />
		<nd ref="-53454" />
		<nd ref="-53455" />
		<nd ref="-53456" />
		<nd ref="-53457" />
		<nd ref="-53458" />
		<nd ref="-53459" />
		<nd ref="-53460" />
	</way>
	<way id="-12014">
		<tag k="name" v="Gubbetangen" />
		<tag k="natural" v="cape" />
		<tag k="place" v="locality" />
		<tag k="ssr:date" v="2017-01-19" />
		<tag k="ssr:stedsnr" v="730208" />
		<nd ref="-56425" />
		<nd ref="-56426" />
		<nd ref="-56427" />
	</way>
	<way id="-11389">
		<tag k="fixme" v="consider water=pond" />
		<tag k="name" v="Bergsvannet" />
		<tag k="natural" v="water" />
		<tag k="ssr:date" v="2017-01-19" />
		<tag k="ssr:stedsnr" v="306742" />
		<tag k="water" v="lake" />
		<nd ref="-53505" />
		<nd ref="-53506" />
		<nd ref="-53507" />
	</way>
	<way id="-12012">
		<tag k="alt_name" v="Napperød tj." />
		<tag k="fixme" v="consider water=pond" />
		<tag k="name" v="Napperødtjerna" />
		<tag k="natural" v="water" />
		<tag k="ssr:date" v="2017-01-19" />
		<tag k="ssr:stedsnr" v="730176" />
		<tag k="water" v="lake" />
		<nd ref="-56420" />
		<nd ref="-56421" />
		<nd ref="-56422" />
	</way>
	<way id="-11754">
		<tag k="alt_name" v="Langevann" />
		<tag k="fixme" v="consider water=pond" />
		<tag k="name" v="Langvannet" />
		<tag k="natural" v="water" />
		<tag k="ssr:date" v="2017-01-19" />
		<tag k="ssr:stedsnr" v="427770" />
		<tag k="water" v="lake" />
		<nd ref="-55201" />
		<nd ref="-55202" />
		<nd ref="-55203" />
	</way>
	<way id="-11495">
		<tag k="alt_name" v="Åletjørn;Åetjønn" />
		<tag k="name" v="Åletjønn" />
		<tag k="natural" v="water" />
		<tag k="ssr:date" v="2017-01-19" />
		<tag k="ssr:stedsnr" v="2212" />
		<tag k="water" v="lake" />
		<nd ref="-54018" />
		<nd ref="-54019" />
		<nd ref="-54020" />
		<nd ref="-54021" />
		<nd ref="-54022" />
	</way>
	<way id="-11750">
		<tag k="name" v="Trollsvannet" />
		<tag k="natural" v="water" />
		<tag k="ssr:date" v="2017-01-19" />
		<tag k="ssr:stedsnr" v="427731" />
		<tag k="water" v="lake" />
		<nd ref="-55189" />
		<nd ref="-55190" />
		<nd ref="-55191" />
		<nd ref="-55192" />
	</way>
	<way id="-12131">
		<tag k="name" v="Slettingdalselva" />
		<tag k="ssr:date" v="2017-01-19" />
		<tag k="ssr:stedsnr" v="876828" />
		<tag k="waterway" v="river" />
		<nd ref="-56986" />
		<nd ref="-56987" />
	</way>
	<way id="-11490">
		<tag k="name" v="Sprena" />
		<tag k="ssr:date" v="2017-01-19" />
		<tag k="ssr:stedsnr" v="1336" />
		<tag k="waterway" v="stream" />
		<nd ref="-53998" />
		<nd ref="-53999" />
		<nd ref="-54000" />
		<nd ref="-54001" />
		<nd ref="-54002" />
	</way>
	<way id="-11387">
		<tag k="alt_name" v="Langevann" />
		<tag k="fixme" v="consider water=pond" />
		<tag k="name" v="Langevannet" />
		<tag k="natural" v="water" />
		<tag k="ssr:date" v="2017-01-19" />
		<tag k="ssr:stedsnr" v="306807" />
		<tag k="water" v="lake" />
		<nd ref="-53498" />
		<nd ref="-53499" />
		<nd ref="-53500" />
	</way>
	<way id="-11488">
		<tag k="name" v="Akersvannet" />
		<tag k="natural" v="water" />
		<tag k="ssr:date" v="2017-01-19" />
		<tag k="ssr:stedsnr" v="1331" />
		<tag k="water" v="lake" />
		<nd ref="-53989" />
		<nd ref="-53990" />
		<nd ref="-53991" />
		<nd ref="-53992" />
		<nd ref="-53993" />
		<nd ref="-53994" />
	</way>
	<way id="-11615">
		<tag k="fixme" v="consider water=pond" />
		<tag k="name" v="Brydedammen" />
		<tag k="natural" v="water" />
		<tag k="ssr:date" v="2017-01-19" />
		<tag k="ssr:stedsnr" v="148770" />
		<tag k="water" v="lake" />
		<nd ref="-54625" />
		<nd ref="-54626" />
	</way>
	<way id="-11614">
		<tag k="fixme" v="consider water=pond" />
		<tag k="name" v="Rønningsvannet" />
		<tag k="natural" v="water" />
		<tag k="ssr:date" v="2017-01-19" />
		<tag k="ssr:stedsnr" v="147874" />
		<tag k="water" v="lake" />
		<nd ref="-54595" />
		<nd ref="-54596" />
	</way>
	<way id="-11611">
		<tag k="fixme" v="consider water=pond" />
		<tag k="name" v="Bjønnevann" />
		<tag k="natural" v="water" />
		<tag k="ssr:date" v="2017-01-19" />
		<tag k="ssr:stedsnr" v="124825" />
		<tag k="water" v="lake" />
		<nd ref="-54560" />
		<nd ref="-54561" />
	</way>
	<way id="-12121">
		<tag k="fixme" v="consider water=pond" />
		<tag k="name" v="Heivannet" />
		<tag k="natural" v="water" />
		<tag k="ssr:date" v="2017-01-19" />
		<tag k="ssr:stedsnr" v="852882" />
		<tag k="water" v="lake" />
		<nd ref="-56933" />
		<nd ref="-56934" />
		<nd ref="-56935" />
		<nd ref="-56936" />
	</way>
	<way id="-11860">
		<tag k="alt_name" v="Grønntjønn" />
		<tag k="fixme" v="consider water=pond" />
		<tag k="name" v="Grøntjernet" />
		<tag k="natural" v="water" />
		<tag k="ssr:date" v="2017-01-19" />
		<tag k="ssr:stedsnr" v="548210" />
		<tag k="water" v="lake" />
		<nd ref="-55713" />
		<nd ref="-55714" />
	</way>
	<way id="-12115">
		<tag k="fixme" v="consider water=pond" />
		<tag k="name" v="Stisvannet" />
		<tag k="natural" v="water" />
		<tag k="ssr:date" v="2017-01-19" />
		<tag k="ssr:stedsnr" v="852373" />
		<tag k="water" v="lake" />
		<nd ref="-56913" />
		<nd ref="-56914" />
		<nd ref="-56915" />
	</way>
	<way id="-11986">
		<tag k="name" v="Melsombekken" />
		<tag k="ssr:date" v="2017-01-19" />
		<tag k="ssr:stedsnr" v="693453" />
		<tag k="waterway" v="stream" />
		<nd ref="-56273" />
		<nd ref="-56274" />
	</way>
	<way id="-11875">
		<tag k="fixme" v="consider water=pond" />
		<tag k="name" v="Steinsvannet" />
		<tag k="natural" v="water" />
		<tag k="ssr:date" v="2017-01-19" />
		<tag k="ssr:stedsnr" v="549808" />
		<tag k="water" v="lake" />
		<nd ref="-55754" />
		<nd ref="-55755" />
		<nd ref="-55756" />
	</way>
	<way id="-11850">
		<tag k="name" v="Rovebekken" />
		<tag k="ssr:date" v="2017-01-19" />
		<tag k="ssr:stedsnr" v="547233" />
		<tag k="waterway" v="stream" />
		<nd ref="-55679" />
		<nd ref="-55680" />
		<nd ref="-55681" />
	</way>
	<way id="-12105">
		<tag k="fixme" v="consider water=pond" />
		<tag k="name" v="Gjerstaddammen" />
		<tag k="natural" v="water" />
		<tag k="ssr:date" v="2017-01-19" />
		<tag k="ssr:stedsnr" v="851317" />
		<tag k="water" v="lake" />
		<nd ref="-56884" />
		<nd ref="-56885" />
		<nd ref="-56886" />
	</way>
	<way id="-11976">
		<tag k="name" v="Svartåa" />
		<tag k="ssr:date" v="2017-01-19" />
		<tag k="ssr:stedsnr" v="669932" />
		<tag k="waterway" v="stream" />
		<nd ref="-56234" />
		<nd ref="-56235" />
	</way>
	<way id="-11969">
		<tag k="fixme" v="consider water=pond" />
		<tag k="name" v="Blokkvann" />
		<tag k="natural" v="water" />
		<tag k="ssr:date" v="2017-01-19" />
		<tag k="ssr:stedsnr" v="669175" />
		<tag k="water" v="lake" />
		<nd ref="-56215" />
		<nd ref="-56216" />
		<nd ref="-56217" />
	</way>
	<way id="-11453">
		<tag k="name" v="Bergselva" />
		<tag k="ssr:date" v="2017-01-19" />
		<tag k="ssr:stedsnr" v="391235" />
		<tag k="waterway" v="river" />
		<nd ref="-53826" />
		<nd ref="-53827" />
	</way>
	<way id="-12077">
		<tag k="fixme" v="consider water=pond" />
		<tag k="name" v="Støfseren" />
		<tag k="natural" v="water" />
		<tag k="ssr:date" v="2017-01-19" />
		<tag k="ssr:stedsnr" v="792801" />
		<tag k="water" v="lake" />
		<nd ref="-56709" />
		<nd ref="-56710" />
		<nd ref="-56711" />
	</way>
	<way id="-11703">
		<tag k="fixme" v="consider water=pond" />
		<tag k="name" v="Bakkevannet" />
		<tag k="natural" v="water" />
		<tag k="ssr:date" v="2017-01-19" />
		<tag k="ssr:stedsnr" v="245770" />
		<tag k="water" v="lake" />
		<nd ref="-55029" />
		<nd ref="-55030" />
		<nd ref="-55031" />
	</way>
	<way id="-11958">
		<tag k="name" v="Hagneselva" />
		<tag k="ssr:date" v="2017-01-19" />
		<tag k="ssr:stedsnr" v="668164" />
		<tag k="waterway" v="river" />
		<nd ref="-56182" />
		<nd ref="-56183" />
		<nd ref="-56184" />
	</way>
	<way id="-11593">
		<tag k="name" v="Vøra" />
		<tag k="natural" v="beach" />
		<tag k="ssr:date" v="2017-01-19" />
		<tag k="ssr:stedsnr" v="123158" />
		<nd ref="-54511" />
		<nd ref="-54512" />
		<nd ref="-54513" />
	</way>
	<way id="-11827">
		<tag k="name" v="Røbekk" />
		<tag k="ssr:date" v="2017-01-19" />
		<tag k="ssr:stedsnr" v="512155" />
		<tag k="waterway" v="stream" />
		<nd ref="-55530" />
		<nd ref="-55531" />
	</way>
	<way id="-11825">
		<tag k="name" v="Merkedamselva" />
		<tag k="ssr:date" v="2017-01-19" />
		<tag k="ssr:stedsnr" v="489886" />
		<tag k="waterway" v="stream" />
		<nd ref="-55501" />
		<nd ref="-55502" />
	</way>
	<way id="-11440">
		<tag k="alt_name" v="Molandsvannet" />
		<tag k="fixme" v="consider water=pond" />
		<tag k="name" v="Molandvannet" />
		<tag k="natural" v="water" />
		<tag k="ssr:date" v="2017-01-19" />
		<tag k="ssr:stedsnr" v="366792" />
		<tag k="water" v="lake" />
		<nd ref="-53757" />
		<nd ref="-53758" />
		<nd ref="-53759" />
	</way>
	<way id="-11821">
		<tag k="alt_name" v="Lakstjernet" />
		<tag k="fixme" v="consider water=pond" />
		<tag k="name" v="Lakskjønnvannet" />
		<tag k="natural" v="water" />
		<tag k="ssr:date" v="2017-01-19" />
		<tag k="ssr:stedsnr" v="488787" />
		<tag k="water" v="lake" />
		<nd ref="-55487" />
		<nd ref="-55488" />
		<nd ref="-55489" />
	</way>
	<way id="-11692">
		<tag k="fixme" v="consider water=pond" />
		<tag k="name" v="Gjennestadvannet" />
		<tag k="natural" v="water" />
		<tag k="ssr:date" v="2017-01-19" />
		<tag k="ssr:stedsnr" v="244324" />
		<tag k="water" v="lake" />
		<nd ref="-54985" />
		<nd ref="-54986" />
		<nd ref="-54987" />
		<nd ref="-54988" />
	</way>
	<way id="-11690">
		<tag k="name" v="Gallisvannet" />
		<tag k="natural" v="water" />
		<tag k="ssr:date" v="2017-01-19" />
		<tag k="ssr:stedsnr" v="244315" />
		<tag k="water" v="lake" />
		<nd ref="-54977" />
		<nd ref="-54978" />
		<nd ref="-54979" />
		<nd ref="-54980" />
	</way>
	<way id="-11560">
		<tag k="alt_name" v="Ilestadvannet" />
		<tag k="fixme" v="consider water=pond" />
		<tag k="name" v="Illestadvannet" />
		<tag k="natural" v="water" />
		<tag k="ssr:date" v="2017-01-19" />
		<tag k="ssr:stedsnr" v="63226" />
		<tag k="water" v="lake" />
		<nd ref="-54312" />
		<nd ref="-54313" />
		<nd ref="-54314" />
		<nd ref="-54315" />
		<nd ref="-54316" />
	</way>
	<way id="-11959">
		<tag k="alt_name" v="Uletjønna" />
		<tag k="fixme" v="consider water=pond" />
		<tag k="name" v="Uletjern" />
		<tag k="natural" v="water" />
		<tag k="ssr:date" v="2017-01-19" />
		<tag k="ssr:stedsnr" v="668392" />
		<tag k="water" v="lake" />
		<nd ref="-56185" />
		<nd ref="-56186" />
		<nd ref="-56187" />
	</way>
	<way id="-11940">
		<tag k="name" v="Nøklegårdselva" />
		<tag k="ssr:date" v="2017-01-19" />
		<tag k="ssr:stedsnr" v="633244" />
		<tag k="waterway" v="river" />
		<nd ref="-56060" />
		<nd ref="-56061" />
		<nd ref="-56062" />
	</way>
	<way id="-11937">
		<tag k="fixme" v="multiple name tags, choose one and add the other to alt_name; consider water=pond" />
		<tag k="name" v="Øvre Heivann;Lille Heivannet" />
		<tag k="natural" v="water" />
		<tag k="ssr:date" v="2017-01-19" />
		<tag k="ssr:stedsnr" v="610922" />
		<tag k="water" v="lake" />
		<nd ref="-56028" />
		<nd ref="-56029" />
		<nd ref="-56030" />
	</way>
	<way id="-11803">
		<tag k="fixme" v="consider water=pond" />
		<tag k="name" v="Svartvannet" />
		<tag k="natural" v="water" />
		<tag k="ssr:date" v="2017-01-19" />
		<tag k="ssr:stedsnr" v="487218" />
		<tag k="water" v="lake" />
		<nd ref="-55435" />
		<nd ref="-55436" />
		<nd ref="-55437" />
	</way>
	<way id="-11541">
		<tag k="alt_name" v="Trevlandbukta" />
		<tag k="name" v="Trevlandsbukta" />
		<tag k="natural" v="bay" />
		<tag k="ssr:date" v="2017-01-19" />
		<tag k="ssr:stedsnr" v="62155" />
		<nd ref="-54249" />
		<nd ref="-54250" />
		<nd ref="-54251" />
	</way>
	<way id="-11922">
		<tag k="name" v="Skorgeelva" />
		<tag k="ssr:date" v="2017-01-19" />
		<tag k="ssr:stedsnr" v="608334" />
		<tag k="waterway" v="river" />
		<nd ref="-55987" />
		<nd ref="-55988" />
		<nd ref="-55989" />
		<nd ref="-55990" />
	</way>
	<way id="-12175">
		<tag k="fixme" v="consider water=pond" />
		<tag k="name" v="Klostervannet" />
		<tag k="natural" v="water" />
		<tag k="ssr:date" v="2017-01-19" />
		<tag k="ssr:stedsnr" v="913743" />
		<tag k="water" v="lake" />
		<nd ref="-57181" />
		<nd ref="-57182" />
		<nd ref="-57183" />
	</way>
	<way id="-12045">
		<tag k="alt_name" v="Unnebergbekken" />
		<tag k="name" v="Unnebergsbekken" />
		<tag k="ssr:date" v="2017-01-19" />
		<tag k="ssr:stedsnr" v="790004" />
		<tag k="waterway" v="stream" />
		<nd ref="-56608" />
		<nd ref="-56609" />
		<nd ref="-56610" />
	</way>
	<way id="-11660">
		<tag k="fixme" v="consider water=pond" />
		<tag k="name" v="Kleiveren" />
		<tag k="natural" v="water" />
		<tag k="ssr:date" v="2017-01-19" />
		<tag k="ssr:stedsnr" v="185793" />
		<tag k="water" v="lake" />
		<nd ref="-54789" />
		<nd ref="-54790" />
		<nd ref="-54791" />
		<nd ref="-54792" />
	</way>
	<way id="-11915">
		<tag k="alt_name" v="Diplingene" />
		<tag k="fixme" v="consider water=pond" />
		<tag k="name" v="Diplingane" />
		<tag k="natural" v="water" />
		<tag k="ssr:date" v="2017-01-19" />
		<tag k="ssr:stedsnr" v="608276" />
		<tag k="water" v="lake" />
		<nd ref="-55966" />
		<nd ref="-55967" />
		<nd ref="-55968" />
	</way>
	<way id="-11400">
		<tag k="name" v="Marumbekken" />
		<tag k="ssr:date" v="2017-01-19" />
		<tag k="ssr:stedsnr" v="331555" />
		<tag k="waterway" v="stream" />
		<nd ref="-53616" />
		<nd ref="-53617" />
		<nd ref="-53618" />
	</way>
	<way id="-12037">
		<tag k="name" v="Hynneelva" />
		<tag k="ssr:date" v="2017-01-19" />
		<tag k="ssr:stedsnr" v="755207" />
		<tag k="waterway" v="river" />
		<nd ref="-56519" />
		<nd ref="-56520" />
	</way>
	<way id="-11907">
		<tag k="name" v="Svartåa" />
		<tag k="ssr:date" v="2017-01-19" />
		<tag k="ssr:stedsnr" v="608147" />
		<tag k="waterway" v="river" />
		<nd ref="-55938" />
		<nd ref="-55939" />
		<nd ref="-55940" />
		<nd ref="-55941" />
		<nd ref="-55942" />
		<nd ref="-55943" />
	</way>
	<way id="-12162">
		<tag k="name" v="Borgebekken" />
		<tag k="ssr:date" v="2017-01-19" />
		<tag k="ssr:stedsnr" v="912304" />
		<tag k="waterway" v="stream" />
		<nd ref="-57143" />
		<nd ref="-57144" />
		<nd ref="-57145" />
	</way>
</osm>
