<?xml version="1.0" encoding="UTF-8"?>
<osm generator="osmapis" version="0.6">
	<node id="-892" lat="60.0342722188" lon="12.2671583406">
		<tag k="junction" v="yes" />
		<tag k="name" v="Firehundremeteren" />
		<tag k="place" v="locality" />
		<tag k="ssr:stedsnr" v="108164" />
	</node>
	<node id="-2041" lat="59.9405944425" lon="12.1874916676">
		<tag k="bridge" v="yes" />
		<tag k="layer" v="1" />
		<tag k="name" v="Nordli bru" />
		<tag k="ssr:stedsnr" v="652648" />
	</node>
	<node id="-1684" lat="59.9366666642" lon="12.1984055615">
		<tag k="bridge" v="yes" />
		<tag k="layer" v="1" />
		<tag k="name" v="Kustås bru" />
		<tag k="ssr:stedsnr" v="531697" />
	</node>
	<node id="-242" lat="59.8938250012" lon="11.8658694373">
		<tag k="name" v="Sootkanalen" />
		<tag k="ssr:stedsnr" v="351282" />
		<tag k="waterway" v="canal" />
	</node>
	<node id="-1265" lat="59.980999997" lon="12.1143694406">
		<tag k="bridge" v="yes" />
		<tag k="layer" v="1" />
		<tag k="name" v="Tuhusmoen bru" />
		<tag k="ssr:stedsnr" v="228713" />
	</node>
	<node id="-1264" lat="60.0456722245" lon="12.1316833258">
		<tag k="bridge" v="yes" />
		<tag k="layer" v="1" />
		<tag k="name" v="Jerntjernbråten" />
		<tag k="ssr:stedsnr" v="228710" />
	</node>
	<node id="-488" lat="59.982755559" lon="12.1277555539">
		<tag k="bridge" v="yes" />
		<tag k="layer" v="1" />
		<tag k="name" v="Oberst Krebs bru" />
		<tag k="ssr:stedsnr" v="895618" />
	</node>
	<node id="-874" lat="59.9771166655" lon="12.0606222156">
		<tag k="bridge" v="yes" />
		<tag k="layer" v="1" />
		<tag k="name" v="Tollefsbøl" />
		<tag k="ssr:stedsnr" v="106663" />
	</node>
	<node id="-873" lat="60.0704416696" lon="12.109702785">
		<tag k="bridge" v="yes" />
		<tag k="layer" v="1" />
		<tag k="name" v="Malmerbekken" />
		<tag k="ssr:stedsnr" v="106643" />
	</node>
	<node id="-872" lat="59.9454111114" lon="12.1678111032">
		<tag k="bridge" v="yes" />
		<tag k="layer" v="1" />
		<tag k="name" v="Murissa bru" />
		<tag k="ssr:stedsnr" v="106640" />
	</node>
	<node id="-380" lat="59.9624500003" lon="12.1488500075">
		<tag k="bridge" v="yes" />
		<tag k="layer" v="1" />
		<tag k="name" v="Gaustad bru" />
		<tag k="ssr:stedsnr" v="410657" />
	</node>
	<node id="-2918" lat="59.9365361106" lon="11.9923222159">
		<tag k="bridge" v="yes" />
		<tag k="layer" v="1" />
		<tag k="name" v="Brustad" />
		<tag k="ssr:stedsnr" v="956689" />
	</node>
	<node id="-2404" lat="59.8938666708" lon="11.8661722163">
		<tag k="name" v="Sootkanalen" />
		<tag k="ssr:stedsnr" v="752406" />
		<tag k="waterway" v="canal" />
	</node>
	<node id="-2145" lat="59.966752781" lon="12.2586638836">
		<tag k="junction" v="yes" />
		<tag k="name" v="Korsvega" />
		<tag k="place" v="locality" />
		<tag k="ssr:stedsnr" v="661595" />
	</node>
	<node id="-348" lat="60.0451277741" lon="12.1315833404">
		<tag k="name" v="Grasmo" />
		<tag k="railway" v="station" />
		<tag k="ssr:stedsnr" v="369628" />
		<tag k="train" v="yes" />
	</node>
	<node id="-857" lat="60.0897000001" lon="12.1190111163">
		<tag k="name" v="Eidsbrua" />
		<tag k="railway" v="station" />
		<tag k="ssr:stedsnr" v="66722" />
		<tag k="train" v="yes" />
	</node>
	<node id="-2263" lat="60.0816500019" lon="12.0860305517">
		<tag k="junction" v="yes" />
		<tag k="name" v="Piparhullet" />
		<tag k="place" v="locality" />
		<tag k="ssr:stedsnr" v="715149" />
	</node>
	<node id="-341" lat="60.111352775" lon="12.1142000075">
		<tag k="name" v="Åbogen" />
		<tag k="railway" v="station" />
		<tag k="ssr:stedsnr" v="369467" />
		<tag k="train" v="yes" />
	</node>
	<node id="-2643" lat="60.0610472237" lon="12.2014388978">
		<tag k="highway" v="path" />
		<tag k="name" v="Langfossætervegen" />
		<tag k="ssr:stedsnr" v="837189" />
	</node>
	<node id="-3013" lat="60.0159388885" lon="12.286961116">
		<tag k="highway" v="path" />
		<tag k="name" v="Møllergata" />
		<tag k="ssr:stedsnr" v="958856" />
	</node>
	<node id="-192" lat="59.9393777812" lon="12.0746722164">
		<tag k="bridge" v="yes" />
		<tag k="layer" v="1" />
		<tag k="name" v="Ingelsrud bru" />
		<tag k="ssr:stedsnr" v="349704" />
	</node>
	<node id="-2495" lat="59.9798166679" lon="11.8760416688">
		<tag k="name" v="Støbrua" />
		<tag k="place" v="locality" />
		<tag k="ssr:stedsnr" v="776606" />
	</node>
	<node id="-2621" lat="59.8936277787" lon="12.1292416602">
		<tag k="ford" v="yes" />
		<tag k="name" v="Steinvadet" />
		<tag k="place" v="locality" />
		<tag k="ssr:stedsnr" v="837065" />
	</node>
	<node id="-671" lat="59.9348027758" lon="12.1654222292">
		<tag k="bridge" v="yes" />
		<tag k="layer" v="1" />
		<tag k="name" v="Lerbekken bru" />
		<tag k="ssr:stedsnr" v="45616" />
	</node>
	<node id="-1079" lat="60.0375138907" lon="12.2514722244">
		<tag k="highway" v="path" />
		<tag k="name" v="Kirkevegen" />
		<tag k="ssr:stedsnr" v="169093" />
	</node>
	<node id="-949" lat="60.0241222191" lon="12.2977611116">
		<tag k="highway" v="path" />
		<tag k="name" v="Delevegen" />
		<tag k="ssr:stedsnr" v="108854" />
	</node>
	<node id="-2919" lat="60.0591805544" lon="12.1239333396">
		<tag k="bridge" v="yes" />
		<tag k="layer" v="1" />
		<tag k="name" v="Brenna bru" />
		<tag k="ssr:stedsnr" v="956690" />
	</node>
	<node id="-681" lat="60.0751194411" lon="12.0212444524">
		<tag k="junction" v="yes" />
		<tag k="name" v="Dal" />
		<tag k="place" v="locality" />
		<tag k="ssr:stedsnr" v="47099" />
	</node>
	<node id="-1058" lat="59.9579805551" lon="12.1615944491">
		<tag k="bridge" v="yes" />
		<tag k="layer" v="1" />
		<tag k="name" v="Torpsæter bru" />
		<tag k="ssr:stedsnr" v="167700" />
	</node>
	<node id="-1057" lat="59.9345027823" lon="11.9026027747">
		<tag k="bridge" v="yes" />
		<tag k="layer" v="1" />
		<tag k="name" v="Ljønerbekken" />
		<tag k="ssr:stedsnr" v="167692" />
	</node>
	<node id="-880" lat="59.9319500034" lon="11.9384944417">
		<tag k="name" v="Lunnbenka" />
		<tag k="place" v="locality" />
		<tag k="ssr:stedsnr" v="108014" />
	</node>
	<node id="-2590" lat="59.9383611147" lon="12.1919055629">
		<tag k="bridge" v="yes" />
		<tag k="layer" v="1" />
		<tag k="name" v="Leirbekken" />
		<tag k="ssr:stedsnr" v="835695" />
	</node>
	<node id="-1818" lat="60.0270166668" lon="12.124625">
		<tag k="name" v="Matrand" />
		<tag k="railway" v="station" />
		<tag k="ssr:stedsnr" v="551643" />
		<tag k="train" v="yes" />
	</node>
	<node id="-2073" lat="60.0426638893" lon="12.2844166584">
		<tag k="highway" v="path" />
		<tag k="name" v="Kirkevegen" />
		<tag k="ssr:stedsnr" v="654248" />
	</node>
	<node id="-535" lat="59.9514444468" lon="12.2020083357">
		<tag k="name" v="Magnor" />
		<tag k="railway" v="station" />
		<tag k="ssr:stedsnr" v="897614" />
		<tag k="train" v="yes" />
	</node>
	<node id="-1557" lat="59.9840166665" lon="11.8725694488">
		<tag k="name" v="Kalvmoen" />
		<tag k="place" v="locality" />
		<tag k="ssr:stedsnr" v="472290" />
	</node>
	<node id="-2068" lat="59.9903555567" lon="12.282511105">
		<tag k="bridge" v="yes" />
		<tag k="layer" v="1" />
		<tag k="name" v="Skybrua" />
		<tag k="ssr:stedsnr" v="654181" />
	</node>
	<node id="-784" lat="59.9900861098" lon="12.2945361074">
		<tag k="name" v="Tomta" />
		<tag k="place" v="locality" />
		<tag k="ssr:stedsnr" v="48837" />
	</node>
	<node id="-910" lat="59.9930833329" lon="11.9297277724">
		<tag k="name" v="Malmersaga" />
		<tag k="place" v="locality" />
		<tag k="ssr:stedsnr" v="108314" />
	</node>
	<node id="-779" lat="59.9587722235" lon="11.9497333316">
		<tag k="junction" v="yes" />
		<tag k="name" v="Kvist" />
		<tag k="place" v="locality" />
		<tag k="ssr:stedsnr" v="48769" />
	</node>
	<node id="-1418" lat="59.9840416647" lon="12.1187305538">
		<tag k="name" v="Skotterud" />
		<tag k="railway" v="station" />
		<tag k="ssr:stedsnr" v="248490" />
		<tag k="train" v="yes" />
	</node>
	<node id="-387" lat="60.0162555585" lon="12.2622444481">
		<tag k="highway" v="path" />
		<tag k="name" v="Høgdevegen" />
		<tag k="ssr:stedsnr" v="411089" />
	</node>
</osm>
