<?xml version="1.0" encoding="UTF-8"?>
<osm generator="osmapis" version="0.6">
	<node id="-2046" lat="59.9781611142" lon="12.1405638922">
		<tag k="name" v="Halbekken" />
		<tag k="place" v="neighbourhood" />
		<tag k="ssr:stedsnr" v="653883" />
	</node>
	<node id="-2045" lat="60.0105333292" lon="12.1361944417">
		<tag k="name" v="Jegerud" />
		<tag k="place" v="farm" />
		<tag k="ssr:stedsnr" v="653168" />
	</node>
	<node id="-2044" lat="60.0214694415" lon="12.0522333355">
		<tag k="name" v="Linnebakken" />
		<tag k="place" v="farm" />
		<tag k="ssr:stedsnr" v="653155" />
	</node>
	<node id="-2043" lat="59.9220499989" lon="11.9685638849">
		<tag k="name" v="Langvassbråtan" />
		<tag k="place" v="farm" />
		<tag k="ssr:stedsnr" v="653154" />
	</node>
	<node id="-2042" lat="59.9449777745" lon="11.9836666698">
		<tag k="fixme" v="consider place=farm" />
		<tag k="name" v="Elveli" />
		<tag k="place" v="isolated_dwelling" />
		<tag k="ssr:stedsnr" v="653151" />
	</node>
	<node id="-2032" lat="59.9526916684" lon="12.0473888916">
		<tag k="name" v="Nord-Delvika" />
		<tag k="place" v="farm" />
		<tag k="ssr:stedsnr" v="627024" />
	</node>
	<node id="-2031" lat="60.1343444485" lon="12.2353861157">
		<tag k="name" v="Snekkerberget" />
		<tag k="place" v="farm" />
		<tag k="ssr:stedsnr" v="612959" />
	</node>
	<node id="-2029" lat="60.0086333368" lon="12.0801111132">
		<tag k="name" v="Holen" />
		<tag k="place" v="farm" />
		<tag k="ssr:stedsnr" v="612859" />
	</node>
	<node id="-2027" lat="59.9997500019" lon="12.164450006">
		<tag k="name" v="Dalen" />
		<tag k="place" v="farm" />
		<tag k="ssr:stedsnr" v="612842" />
	</node>
	<node id="-2022" lat="60.070544444" lon="11.9287388834">
		<tag k="building" v="cabin" />
		<tag k="name" v="Gammelsætra" />
		<tag k="place" v="isolated_dwelling" />
		<tag k="ssr:stedsnr" v="612700" />
	</node>
	<node id="-2021" lat="60.0879500022" lon="12.1774833272">
		<tag k="name" v="Grønbekken" />
		<tag k="place" v="farm" />
		<tag k="ssr:stedsnr" v="612693" />
	</node>
	<node id="-2020" lat="60.0497444413" lon="12.0839388809">
		<tag k="alt_name" v="Tjernsli" />
		<tag k="name" v="Tjennsli" />
		<tag k="place" v="farm" />
		<tag k="ssr:stedsnr" v="612680" />
	</node>
	<node id="-2015" lat="59.9845027759" lon="12.0907777722">
		<tag k="name" v="Sofiendal" />
		<tag k="place" v="farm" />
		<tag k="ssr:stedsnr" v="612529" />
	</node>
	<node id="-2014" lat="59.9728805535" lon="11.9224388827">
		<tag k="name" v="Raserud" />
		<tag k="place" v="farm" />
		<tag k="ssr:stedsnr" v="612505" />
	</node>
	<node id="-2013" lat="59.9843888927" lon="12.1745444517">
		<tag k="name" v="Ilag" />
		<tag k="place" v="hamlet" />
		<tag k="ssr:stedsnr" v="612502" />
	</node>
	<node id="-2012" lat="59.9842555514" lon="12.1521833308">
		<tag k="name" v="Vestli" />
		<tag k="place" v="farm" />
		<tag k="ssr:stedsnr" v="612494" />
	</node>
	<node id="-2011" lat="59.9638888887" lon="12.1142249926">
		<tag k="name" v="Nyjordet" />
		<tag k="place" v="farm" />
		<tag k="ssr:stedsnr" v="612477" />
	</node>
	<node id="-2009" lat="59.9985416699" lon="12.1216111109">
		<tag k="fixme" v="consider place=farm" />
		<tag k="name" v="Sjøli" />
		<tag k="place" v="isolated_dwelling" />
		<tag k="ssr:stedsnr" v="612397" />
	</node>
	<node id="-2008" lat="59.9244777744" lon="11.9258277815">
		<tag k="name" v="Bergerud" />
		<tag k="place" v="farm" />
		<tag k="ssr:stedsnr" v="612371" />
	</node>
	<node id="-2004" lat="59.9133166714" lon="12.1125805476">
		<tag k="name" v="Trandemsætra" />
		<tag k="place" v="farm" />
		<tag k="ssr:stedsnr" v="612339" />
	</node>
	<node id="-2003" lat="59.9116805545" lon="12.0568027829">
		<tag k="building" v="cabin" />
		<tag k="name" v="Slettmoen" />
		<tag k="place" v="isolated_dwelling" />
		<tag k="ssr:stedsnr" v="612337" />
	</node>
	<node id="-2002" lat="59.9560408334" lon="11.8682521891">
		<tag k="alt_name" v="Steinby" />
		<tag k="name" v="Fallet" />
		<tag k="place" v="farm" />
		<tag k="ssr:stedsnr" v="612327" />
	</node>
	<node id="-2001" lat="59.958330553" lon="12.0431555498">
		<tag k="name" v="Nordli" />
		<tag k="place" v="farm" />
		<tag k="ssr:stedsnr" v="612319" />
	</node>
	<node id="-1999" lat="59.9473333338" lon="11.9383416655">
		<tag k="name" v="Rambølsmyra" />
		<tag k="place" v="farm" />
		<tag k="ssr:stedsnr" v="612301" />
	</node>
	<node id="-1998" lat="59.9443361091" lon="11.902313881">
		<tag k="name" v="Karterud" />
		<tag k="place" v="farm" />
		<tag k="ssr:stedsnr" v="612299" />
	</node>
	<node id="-1997" lat="59.9490250036" lon="12.0469111037">
		<tag k="name" v="Delvika" />
		<tag k="place" v="locality" />
		<tag k="ssr:stedsnr" v="612292" />
	</node>
	<node id="-1996" lat="59.945863892" lon="12.0718833362">
		<tag k="name" v="Sørstuen" />
		<tag k="place" v="farm" />
		<tag k="ssr:stedsnr" v="612289" />
	</node>
	<node id="-1993" lat="59.9495722269" lon="12.2261944397">
		<tag k="alt_name" v="Svensrudbråten" />
		<tag k="fixme" v="consider place=farm" />
		<tag k="name" v="Vestli" />
		<tag k="place" v="isolated_dwelling" />
		<tag k="ssr:stedsnr" v="612240" />
	</node>
	<node id="-1992" lat="59.9490972267" lon="12.2316305543">
		<tag k="name" v="Sæterberget" />
		<tag k="place" v="farm" />
		<tag k="ssr:stedsnr" v="612237" />
	</node>
	<node id="-1991" lat="60.0082305537" lon="12.3021277845">
		<tag k="name" v="Storstua" />
		<tag k="place" v="farm" />
		<tag k="ssr:stedsnr" v="612209" />
	</node>
	<node id="-1990" lat="59.8954055545" lon="12.0216527786">
		<tag k="building" v="cabin" />
		<tag k="name" v="Nybakk" />
		<tag k="place" v="isolated_dwelling" />
		<tag k="ssr:stedsnr" v="612202" />
	</node>
	<node id="-1989" lat="59.8953777782" lon="11.8668916746">
		<tag k="name" v="Velta" />
		<tag k="place" v="farm" />
		<tag k="ssr:stedsnr" v="612190" />
	</node>
	<node id="-1986" lat="59.8633833338" lon="11.8824583411">
		<tag k="building" v="cabin" />
		<tag k="name" v="Hanesætra" />
		<tag k="place" v="isolated_dwelling" />
		<tag k="ssr:stedsnr" v="612155" />
	</node>
	<node id="-1985" lat="59.8838888923" lon="11.8822444409">
		<tag k="alt_name" v="Hovelbråten" />
		<tag k="building" v="farm_auxiliary" />
		<tag k="name" v="Hovelbråtan" />
		<tag k="place" v="locality" />
		<tag k="ssr:stedsnr" v="612150" />
	</node>
	<node id="-1977" lat="60.1086583323" lon="12.2204944478">
		<tag k="fixme" v="consider place=farm" />
		<tag k="name" v="Skogset" />
		<tag k="place" v="isolated_dwelling" />
		<tag k="ssr:stedsnr" v="611948" />
	</node>
	<node id="-1976" lat="60.0185083294" lon="12.1210749945">
		<tag k="name" v="Hauger" />
		<tag k="place" v="farm" />
		<tag k="ssr:stedsnr" v="611884" />
	</node>
	<node id="-1973" lat="60.081249999" lon="12.1103833336">
		<tag k="alt_name" v="Malmerlien" />
		<tag k="name" v="Malmerlia" />
		<tag k="place" v="farm" />
		<tag k="ssr:stedsnr" v="611689" />
	</node>
	<node id="-1972" lat="60.0302027741" lon="12.0914499969">
		<tag k="name" v="Nordjordet" />
		<tag k="place" v="farm" />
		<tag k="ssr:stedsnr" v="611666" />
	</node>
	<node id="-1970" lat="59.9795777789" lon="12.173361104">
		<tag k="name" v="Haugen" />
		<tag k="place" v="farm" />
		<tag k="ssr:stedsnr" v="611467" />
	</node>
	<node id="-1969" lat="59.9620166641" lon="12.0430638926">
		<tag k="name" v="Solbakken" />
		<tag k="place" v="farm" />
		<tag k="ssr:stedsnr" v="611450" />
	</node>
	<node id="-1968" lat="59.9680524185" lon="11.9494187575">
		<tag k="fixme" v="consider place=hamlet" />
		<tag k="name" v="Hea" />
		<tag k="place" v="farm" />
		<tag k="ssr:stedsnr" v="611445" />
	</node>
	<node id="-1967" lat="59.9421861092" lon="12.1745500019">
		<tag k="name" v="Boger" />
		<tag k="place" v="farm" />
		<tag k="ssr:stedsnr" v="611388" />
	</node>
	<node id="-1964" lat="59.929158332" lon="11.9912111093">
		<tag k="name" v="Harstad" />
		<tag k="place" v="farm" />
		<tag k="ssr:stedsnr" v="611372" />
	</node>
	<node id="-1962" lat="59.929061107" lon="12.0070111064">
		<tag k="alt_name" v="Klanderudtangen" />
		<tag k="name" v="Tangen" />
		<tag k="place" v="farm" />
		<tag k="ssr:stedsnr" v="611362" />
	</node>
	<node id="-1961" lat="59.9317944446" lon="12.0193861102">
		<tag k="name" v="Sørli" />
		<tag k="place" v="farm" />
		<tag k="ssr:stedsnr" v="611357" />
	</node>
	<node id="-1960" lat="59.9295083366" lon="12.0200472219">
		<tag k="name" v="Øverby" />
		<tag k="place" v="farm" />
		<tag k="ssr:stedsnr" v="611356" />
	</node>
	<node id="-1959" lat="59.9913388854" lon="12.3304833307">
		<tag k="name" v="Elvevoll" />
		<tag k="place" v="farm" />
		<tag k="ssr:stedsnr" v="611250" />
	</node>
	<node id="-326" lat="59.9069527794" lon="12.0330277828">
		<tag k="building" v="cabin" />
		<tag k="name" v="Djupsundet" />
		<tag k="place" v="isolated_dwelling" />
		<tag k="ssr:stedsnr" v="369299" />
	</node>
	<node id="-338" lat="59.9689138871" lon="12.1097111148">
		<tag k="name" v="Sørgarden" />
		<tag k="place" v="farm" />
		<tag k="ssr:stedsnr" v="369405" />
	</node>
	<node id="-325" lat="59.9137111104" lon="11.9894361088">
		<tag k="name" v="Klanderud" />
		<tag k="place" v="farm" />
		<tag k="ssr:stedsnr" v="369297" />
	</node>
	<node id="-1944" lat="59.9179833369" lon="12.166136117">
		<tag k="name" v="Stenset" />
		<tag k="place" v="farm" />
		<tag k="ssr:stedsnr" v="594573" />
	</node>
	<node id="-1943" lat="59.9732555567" lon="12.1302750085">
		<tag k="alt_name" v="Nedre Refsette" />
		<tag k="name" v="Nedre Repset" />
		<tag k="place" v="farm" />
		<tag k="ssr:stedsnr" v="594567" />
	</node>
	<node id="-1942" lat="60.0159500033" lon="12.0573805551">
		<tag k="fixme" v="multiple name tags, choose one and add the other to alt_name" />
		<tag k="name" v="Fjell;Østfjell" />
		<tag k="old_name" v="Fjeld;Øst-Fjeld" />
		<tag k="place" v="farm" />
		<tag k="ssr:stedsnr" v="594558" />
	</node>
	<node id="-474" lat="59.965133332" lon="12.0459333263">
		<tag k="name" v="Tempelåsen" />
		<tag k="place" v="farm" />
		<tag k="ssr:stedsnr" v="473158" />
	</node>
	<node id="-1939" lat="60.0239722223" lon="12.0885527695">
		<tag k="name" v="Sørkisen" />
		<tag k="place" v="farm" />
		<tag k="ssr:stedsnr" v="594340" />
	</node>
	<node id="-1938" lat="59.9771805556" lon="12.1378416692">
		<tag k="name" v="Halbekken" />
		<tag k="place" v="farm" />
		<tag k="ssr:stedsnr" v="594315" />
	</node>
	<node id="-1937" lat="60.0280222188" lon="12.090088896">
		<tag k="name" v="Nordre Nordkisen" />
		<tag k="place" v="farm" />
		<tag k="ssr:stedsnr" v="594311" />
	</node>
	<node id="-1936" lat="59.9728055577" lon="11.8036555479">
		<tag k="loc_name" v="Haveråa" />
		<tag k="name" v="Haveråen" />
		<tag k="place" v="farm" />
		<tag k="ssr:stedsnr" v="594291" />
	</node>
	<node id="-1935" lat="59.9562444428" lon="11.9904666588">
		<tag k="name" v="Nystuen Ødegård" />
		<tag k="place" v="farm" />
		<tag k="ssr:stedsnr" v="594201" />
	</node>
	<node id="-1934" lat="60.131863887" lon="12.1987861141">
		<tag k="name" v="Vangen" />
		<tag k="place" v="farm" />
		<tag k="ssr:stedsnr" v="594188" />
	</node>
	<node id="-1933" lat="59.9767527774" lon="12.1596138935">
		<tag k="name" v="Lysmoen" />
		<tag k="place" v="farm" />
		<tag k="ssr:stedsnr" v="594152" />
	</node>
	<node id="-1932" lat="59.9497944446" lon="12.2381388911">
		<tag k="name" v="Ner-Svensrud" />
		<tag k="place" v="farm" />
		<tag k="ssr:stedsnr" v="594148" />
	</node>
	<node id="-1931" lat="60.0260388895" lon="12.038738884">
		<tag k="name" v="Vestfjellbakken" />
		<tag k="place" v="farm" />
		<tag k="ssr:stedsnr" v="594121" />
	</node>
	<node id="-1930" lat="60.0055666655" lon="12.137530559">
		<tag k="alt_name" v="Bråten" />
		<tag k="loc_name" v="Eriksbråtan" />
		<tag k="name" v="Eriksbråten" />
		<tag k="place" v="farm" />
		<tag k="ssr:stedsnr" v="594109" />
	</node>
	<node id="-1929" lat="60.0491194419" lon="12.2402888829">
		<tag k="building" v="cabin" />
		<tag k="name" v="Neversekken" />
		<tag k="place" v="isolated_dwelling" />
		<tag k="ssr:stedsnr" v="594048" />
	</node>
	<node id="-1928" lat="60.0516527756" lon="12.1879611034">
		<tag k="building" v="cabin" />
		<tag k="name" v="Larsstein" />
		<tag k="place" v="isolated_dwelling" />
		<tag k="ssr:stedsnr" v="594046" />
	</node>
	<node id="-1927" lat="60.0855333295" lon="12.150172214">
		<tag k="name" v="Sand" />
		<tag k="place" v="farm" />
		<tag k="ssr:stedsnr" v="594008" />
	</node>
	<node id="-1926" lat="60.0287833309" lon="12.1271611123">
		<tag k="name" v="Adelsby" />
		<tag k="place" v="neighbourhood" />
		<tag k="ssr:stedsnr" v="593965" />
	</node>
	<node id="-1925" lat="60.101402776" lon="12.1045833311">
		<tag k="name" v="Haget" />
		<tag k="place" v="farm" />
		<tag k="ssr:stedsnr" v="594535" />
	</node>
	<node id="-319" lat="59.9347694463" lon="12.0086277829">
		<tag k="alt_name" v="Jerpsetlia" />
		<tag k="name" v="Lia" />
		<tag k="place" v="farm" />
		<tag k="ssr:stedsnr" v="369242" />
	</node>
	<node id="-613" lat="59.9573861116" lon="11.9421277851">
		<tag k="name" v="Harstadsætra" />
		<tag k="place" v="farm" />
		<tag k="ssr:stedsnr" v="5298" />
	</node>
	<node id="-318" lat="59.9976608027" lon="12.3143776298">
		<tag k="fixme" v="consider place=hamlet" />
		<tag k="name" v="Finnsrud" />
		<tag k="place" v="farm" />
		<tag k="ssr:stedsnr" v="369228" />
	</node>
	<node id="-581" lat="59.9595055587" lon="12.1345305556">
		<tag k="name" v="Kroksenga" />
		<tag k="place" v="farm" />
		<tag k="ssr:stedsnr" v="898595" />
	</node>
	<node id="-1898" lat="59.9259972223" lon="11.857658338">
		<tag k="name" v="Sunby" />
		<tag k="place" v="locality" />
		<tag k="ssr:stedsnr" v="593638" />
	</node>
	<node id="-336" lat="59.9691250001" lon="11.9738638854">
		<tag k="name" v="Vangen" />
		<tag k="place" v="farm" />
		<tag k="ssr:stedsnr" v="369391" />
	</node>
	<node id="-150" lat="59.8889583317" lon="11.8578944495">
		<tag k="alt_name" v="Sjelåen" />
		<tag k="name" v="Skjølåa" />
		<tag k="place" v="farm" />
		<tag k="ssr:stedsnr" v="309145" />
	</node>
	<node id="-131" lat="59.9796952155" lon="12.1614348786">
		<tag k="fixme" v="multiple name tags, choose one and add the other to alt_name" />
		<tag k="name" v="Lysmoen;Søndre Ilag" />
		<tag k="place" v="farm" />
		<tag k="ssr:stedsnr" v="308420" />
	</node>
	<node id="-1880" lat="59.9162388884" lon="11.8054638879">
		<tag k="building" v="industrial" />
		<tag k="industrial" v="factory" />
		<tag k="name" v="Dalfossaga" />
		<tag k="ssr:stedsnr" v="593428" />
	</node>
	<node id="-313" lat="59.9810472197" lon="12.3378999974">
		<tag k="name" v="Finnsrudmoen" />
		<tag k="place" v="farm" />
		<tag k="ssr:stedsnr" v="369183" />
	</node>
	<node id="-1874" lat="59.9725888889" lon="12.1710916667">
		<tag k="name" v="Bergheim" />
		<tag k="place" v="farm" />
		<tag k="ssr:stedsnr" v="593398" />
	</node>
	<node id="-1872" lat="59.9851388858" lon="12.1353750018">
		<tag k="leisure" v="pitch" />
		<tag k="name" v="Eidskoghallen" />
		<tag k="ssr:stedsnr" v="593358" />
	</node>
	<node id="-311" lat="59.9902638893" lon="12.3336722282">
		<tag k="alt_name" v="Engestad" />
		<tag k="name" v="Engstad" />
		<tag k="place" v="farm" />
		<tag k="ssr:stedsnr" v="369177" />
	</node>
	<node id="-1856" lat="59.8921583359" lon="11.8331916718">
		<tag k="name" v="Furumoen" />
		<tag k="place" v="farm" />
		<tag k="ssr:stedsnr" v="593147" />
	</node>
	<node id="-1854" lat="59.9549361118" lon="11.996924999">
		<tag k="name" v="Oppset" />
		<tag k="place" v="farm" />
		<tag k="ssr:stedsnr" v="593145" />
	</node>
	<node id="-1851" lat="60.0729833323" lon="12.2375694517">
		<tag k="name" v="Nordre Enderud" />
		<tag k="place" v="farm" />
		<tag k="ssr:stedsnr" v="593117" />
	</node>
	<node id="-1847" lat="60.1169972223" lon="12.0985583393">
		<tag k="name" v="Nord-Drøserud" />
		<tag k="place" v="farm" />
		<tag k="ssr:stedsnr" v="593067" />
	</node>
	<node id="-1834" lat="59.9662194444" lon="12.2209861029">
		<tag k="name" v="Nevjen" />
		<tag k="place" v="farm" />
		<tag k="ssr:stedsnr" v="582047" />
	</node>
	<node id="-1833" lat="59.8729055514" lon="11.9131333376">
		<tag k="name" v="Nabben" />
		<tag k="place" v="farm" />
		<tag k="ssr:stedsnr" v="567148" />
	</node>
	<node id="-1830" lat="60.0022805586" lon="12.048463883">
		<tag k="name" v="Liåsen" />
		<tag k="place" v="farm" />
		<tag k="ssr:stedsnr" v="551858" />
	</node>
	<node id="-1828" lat="60.0996972265" lon="12.1162305594">
		<tag k="name" v="Kongetorp" />
		<tag k="place" v="farm" />
		<tag k="ssr:stedsnr" v="551727" />
	</node>
	<node id="-1827" lat="60.0683416712" lon="12.1572472162">
		<tag k="name" v="Langfoss" />
		<tag k="place" v="hamlet" />
		<tag k="ssr:stedsnr" v="551723" />
	</node>
	<node id="-1826" lat="60.0748611146" lon="12.1561333303">
		<tag k="name" v="Persmoen" />
		<tag k="place" v="farm" />
		<tag k="ssr:stedsnr" v="551714" />
	</node>
	<node id="-304" lat="60.0235166671" lon="12.2304805495">
		<tag k="name" v="Kjærstadsætra" />
		<tag k="place" v="farm" />
		<tag k="ssr:stedsnr" v="369029" />
	</node>
	<node id="-645" lat="60.0012583366" lon="12.1776166741">
		<tag k="name" v="Billerud" />
		<tag k="place" v="farm" />
		<tag k="ssr:stedsnr" v="5821" />
	</node>
	<node id="-303" lat="59.9466694463" lon="12.2343666746">
		<tag k="name" v="Hansgarden" />
		<tag k="place" v="farm" />
		<tag k="ssr:stedsnr" v="369028" />
	</node>
	<node id="-1816" lat="60.036852777" lon="12.0887666614">
		<tag k="alt_name" v="Skinpungerud" />
		<tag k="fixme" v="consider place=hamlet" />
		<tag k="name" v="Skinnpungrud" />
		<tag k="place" v="farm" />
		<tag k="ssr:stedsnr" v="551626" />
	</node>
	<node id="-644" lat="60.0925611132" lon="12.2094305507">
		<tag k="alt_name" v="Sæteren" />
		<tag k="name" v="Bråtasætra" />
		<tag k="place" v="farm" />
		<tag k="ssr:stedsnr" v="5717" />
	</node>
	<node id="-1813" lat="60.1099416639" lon="12.100674997">
		<tag k="name" v="Åklangberget" />
		<tag k="place" v="farm" />
		<tag k="ssr:stedsnr" v="551516" />
	</node>
	<node id="-1812" lat="59.9888361069" lon="12.1272805569">
		<tag k="name" v="Skotterud" />
		<tag k="place" v="farm" />
		<tag k="ssr:stedsnr" v="551485" />
	</node>
	<node id="-1810" lat="59.9778750039" lon="11.9960777798">
		<tag k="name" v="Teigbråten" />
		<tag k="place" v="farm" />
		<tag k="ssr:stedsnr" v="551472" />
	</node>
	<node id="-1809" lat="59.9875361109" lon="12.1951805592">
		<tag k="name" v="Jansrud" />
		<tag k="place" v="farm" />
		<tag k="ssr:stedsnr" v="551462" />
	</node>
	<node id="-1808" lat="59.987277779" lon="12.2002138846">
		<tag k="name" v="Vinterstad" />
		<tag k="place" v="farm" />
		<tag k="ssr:stedsnr" v="551458" />
	</node>
	<node id="-1807" lat="59.9880666639" lon="12.1457111177">
		<tag k="name" v="Einarsbøl" />
		<tag k="place" v="farm" />
		<tag k="ssr:stedsnr" v="551455" />
	</node>
	<node id="-1806" lat="59.9726055534" lon="12.1041305523">
		<tag k="name" v="Hagerud" />
		<tag k="place" v="locality" />
		<tag k="ssr:stedsnr" v="551442" />
	</node>
	<node id="-1805" lat="59.9788388908" lon="12.0925750023">
		<tag k="name" v="Plassen" />
		<tag k="place" v="farm" />
		<tag k="ssr:stedsnr" v="551441" />
	</node>
	<node id="-1803" lat="59.97292222" lon="12.0520833342">
		<tag k="name" v="Nordstuen" />
		<tag k="place" v="farm" />
		<tag k="ssr:stedsnr" v="551438" />
	</node>
	<node id="-1802" lat="59.9644305579" lon="12.0630527764">
		<tag k="name" v="Ringdal" />
		<tag k="place" v="farm" />
		<tag k="ssr:stedsnr" v="551433" />
	</node>
	<node id="-1801" lat="59.9623888846" lon="11.9696833296">
		<tag k="alt_name" v="Nord Moen" />
		<tag k="name" v="Moen" />
		<tag k="place" v="farm" />
		<tag k="ssr:stedsnr" v="551425" />
	</node>
	<node id="-1800" lat="59.9965000003" lon="11.8983166713">
		<tag k="name" v="Bjørnlia" />
		<tag k="place" v="farm" />
		<tag k="ssr:stedsnr" v="551384" />
	</node>
	<node id="-1799" lat="59.9920777741" lon="12.1402249978">
		<tag k="name" v="Sørheim" />
		<tag k="place" v="farm" />
		<tag k="ssr:stedsnr" v="551379" />
	</node>
	<node id="-1796" lat="59.9162055523" lon="12.0344583408">
		<tag k="name" v="Kulbliksætra" />
		<tag k="place" v="farm" />
		<tag k="ssr:stedsnr" v="551324" />
	</node>
	<node id="-1795" lat="59.9171249962" lon="11.9840249908">
		<tag k="name" v="Almenninga" />
		<tag k="place" v="farm" />
		<tag k="ssr:stedsnr" v="551322" />
	</node>
	<node id="-1787" lat="59.9501999965" lon="12.1559333243">
		<tag k="name" v="Steinbakken" />
		<tag k="place" v="farm" />
		<tag k="ssr:stedsnr" v="551275" />
	</node>
	<node id="-1785" lat="59.9359861118" lon="12.0632749919">
		<tag k="name" v="Granheim" />
		<tag k="place" v="farm" />
		<tag k="ssr:stedsnr" v="551259" />
	</node>
	<node id="-1784" lat="59.9505333296" lon="12.2333250023">
		<tag k="name" v="Svensrud" />
		<tag k="place" v="farm" />
		<tag k="ssr:stedsnr" v="551235" />
	</node>
	<node id="-1783" lat="59.9709083349" lon="12.335005554">
		<tag k="name" v="Snipen" />
		<tag k="place" v="farm" />
		<tag k="ssr:stedsnr" v="551226" />
	</node>
	<node id="-1782" lat="60.0078499986" lon="12.3033000052">
		<tag k="name" v="Erikstua" />
		<tag k="place" v="farm" />
		<tag k="ssr:stedsnr" v="551206" />
	</node>
	<node id="-1777" lat="59.8690722214" lon="11.8798861188">
		<tag k="name" v="Fisketjernmoen" />
		<tag k="place" v="farm" />
		<tag k="ssr:stedsnr" v="551143" />
	</node>
	<node id="-1774" lat="59.943077781" lon="11.8110666642">
		<tag k="alt_name" v="Øiseth" />
		<tag k="name" v="Øyset" />
		<tag k="place" v="farm" />
		<tag k="ssr:stedsnr" v="551079" />
	</node>
	<node id="-1773" lat="60.0083416699" lon="12.2293388965">
		<tag k="name" v="Hansbråtan" />
		<tag k="place" v="farm" />
		<tag k="ssr:stedsnr" v="551048" />
	</node>
	<node id="-1772" lat="60.0275972201" lon="12.2681416626">
		<tag k="name" v="Røsskjølvangen" />
		<tag k="place" v="locality" />
		<tag k="ssr:stedsnr" v="551038" />
	</node>
	<node id="-295" lat="59.9854499961" lon="12.2345499923">
		<tag k="name" v="Stranda" />
		<tag k="old_name" v="Sæteren;Seteren" />
		<tag k="place" v="farm" />
		<tag k="ssr:stedsnr" v="362887" />
	</node>
	<node id="-636" lat="60.0635277776" lon="12.0798500021">
		<tag k="name" v="Våla" />
		<tag k="place" v="farm" />
		<tag k="ssr:stedsnr" v="5635" />
	</node>
	<node id="-1746" lat="59.9709055537" lon="12.0704499984">
		<tag k="name" v="Bekkeli" />
		<tag k="place" v="farm" />
		<tag k="ssr:stedsnr" v="533629" />
	</node>
	<node id="-1745" lat="60.0056027738" lon="12.0746194419">
		<tag k="name" v="Sørstuen" />
		<tag k="old_name" v="Bråten" />
		<tag k="place" v="farm" />
		<tag k="ssr:stedsnr" v="533590" />
	</node>
	<node id="-1744" lat="60.0035583366" lon="12.3130777783">
		<tag k="name" v="Finnsrud" />
		<tag k="place" v="farm" />
		<tag k="ssr:stedsnr" v="533575" />
	</node>
	<node id="-331" lat="59.9425388873" lon="12.1613305574">
		<tag k="name" v="Åsen" />
		<tag k="place" v="farm" />
		<tag k="ssr:stedsnr" v="369338" />
	</node>
	<node id="-288" lat="60.0023083328" lon="11.9123694468">
		<tag k="alt_name" v="Fjellskogen, s;Søndre Fjellskogen" />
		<tag k="name" v="Fjellskogen" />
		<tag k="old_name" v="Fjeldskoven;Fjeldskogen" />
		<tag k="place" v="farm" />
		<tag k="ssr:stedsnr" v="359370" />
	</node>
	<node id="-1720" lat="59.9972805578" lon="12.3176861121">
		<tag k="name" v="Midtre Finnsrud" />
		<tag k="place" v="farm" />
		<tag k="ssr:stedsnr" v="533345" />
	</node>
	<node id="-1719" lat="59.9572416698" lon="12.2919999953">
		<tag k="fixme" v="consider place=farm" />
		<tag k="name" v="Breitjennvillaen" />
		<tag k="place" v="isolated_dwelling" />
		<tag k="ssr:stedsnr" v="533343" />
	</node>
	<node id="-1718" lat="60.0065611073" lon="12.0715027816">
		<tag k="name" v="Vestgarden" />
		<tag k="place" v="farm" />
		<tag k="ssr:stedsnr" v="533333" />
	</node>
	<node id="-1717" lat="60.0394194483" lon="12.1446249949">
		<tag k="name" v="Nordre Torp" />
		<tag k="place" v="farm" />
		<tag k="ssr:stedsnr" v="533317" />
	</node>
	<node id="-1712" lat="59.9339361089" lon="11.8233722265">
		<tag k="building" v="cabin" />
		<tag k="name" v="Steinsbu" />
		<tag k="place" v="isolated_dwelling" />
		<tag k="ssr:stedsnr" v="533282" />
	</node>
	<node id="-1707" lat="59.9061694454" lon="12.1263638889">
		<tag k="building" v="farm_auxiliary" />
		<tag k="name" v="Søli" />
		<tag k="place" v="locality" />
		<tag k="ssr:stedsnr" v="533226" />
	</node>
	<node id="-1705" lat="59.9858083321" lon="12.1610166662">
		<tag k="name" v="Bakketun" />
		<tag k="place" v="farm" />
		<tag k="ssr:stedsnr" v="533188" />
	</node>
	<node id="-1702" lat="59.9887138863" lon="12.1003055551">
		<tag k="name" v="Reppshus" />
		<tag k="place" v="farm" />
		<tag k="ssr:stedsnr" v="533116" />
	</node>
	<node id="-1701" lat="59.9821722254" lon="12.0990111126">
		<tag k="name" v="Tuhus" />
		<tag k="place" v="farm" />
		<tag k="ssr:stedsnr" v="533115" />
	</node>
	<node id="-1700" lat="60.0057444439" lon="12.0904250032">
		<tag k="name" v="Berger" />
		<tag k="place" v="farm" />
		<tag k="ssr:stedsnr" v="533112" />
	</node>
	<node id="-1696" lat="59.9325555524" lon="11.9894611028">
		<tag k="name" v="Berget" />
		<tag k="place" v="farm" />
		<tag k="ssr:stedsnr" v="533060" />
	</node>
	<node id="-1693" lat="59.8936861122" lon="12.1651111173">
		<tag k="name" v="Leirsjøbråten" />
		<tag k="place" v="locality" />
		<tag k="ssr:stedsnr" v="533006" />
	</node>
	<node id="-1691" lat="59.9302222178" lon="12.0000944507">
		<tag k="name" v="Plassen" />
		<tag k="place" v="farm" />
		<tag k="ssr:stedsnr" v="532962" />
	</node>
	<node id="-1677" lat="59.9547833364" lon="12.0500861052">
		<tag k="name" v="Viknes" />
		<tag k="place" v="farm" />
		<tag k="ssr:stedsnr" v="506027" />
	</node>
	<node id="-1675" lat="60.1266138902" lon="12.2354194509">
		<tag k="alt_name" v="Holsætra, s" />
		<tag k="loc_name" v="Søndre Holsætra" />
		<tag k="name" v="Søndre Holsæter" />
		<tag k="place" v="farm" />
		<tag k="ssr:stedsnr" v="491958" />
	</node>
	<node id="-1674" lat="60.0554555553" lon="11.8258555558">
		<tag k="building" v="cabin" />
		<tag k="name" v="Mattisbråten" />
		<tag k="place" v="isolated_dwelling" />
		<tag k="ssr:stedsnr" v="491568" />
	</node>
	<node id="-1673" lat="59.9820111099" lon="11.9641388921">
		<tag k="name" v="Sagmoen" />
		<tag k="place" v="farm" />
		<tag k="ssr:stedsnr" v="491521" />
	</node>
	<node id="-1669" lat="60.0522583311" lon="12.1555499946">
		<tag k="name" v="Kapstad" />
		<tag k="place" v="farm" />
		<tag k="ssr:stedsnr" v="491676" />
	</node>
	<node id="-1667" lat="60.0579000007" lon="12.0881555527">
		<tag k="name" v="Drognes" />
		<tag k="place" v="farm" />
		<tag k="ssr:stedsnr" v="491663" />
	</node>
	<node id="-1664" lat="59.9506500033" lon="12.0260027728">
		<tag k="name" v="Rønningen" />
		<tag k="place" v="farm" />
		<tag k="ssr:stedsnr" v="491296" />
	</node>
	<node id="-1663" lat="59.9478499962" lon="12.067400006">
		<tag k="name" v="Nedgarden" />
		<tag k="place" v="farm" />
		<tag k="ssr:stedsnr" v="491285" />
	</node>
	<node id="-1662" lat="59.9519222212" lon="12.0640222307">
		<tag k="alt_name" v="Neset" />
		<tag k="name" v="Nordjordet" />
		<tag k="place" v="farm" />
		<tag k="ssr:stedsnr" v="491282" />
	</node>
	<node id="-1661" lat="59.9500944448" lon="12.120841673">
		<tag k="name" v="Østli" />
		<tag k="place" v="farm" />
		<tag k="ssr:stedsnr" v="491279" />
	</node>
	<node id="-1659" lat="59.9760138847" lon="12.0312333315">
		<tag k="name" v="Aurbakken" />
		<tag k="place" v="farm" />
		<tag k="ssr:stedsnr" v="491470" />
	</node>
	<node id="-1658" lat="59.9966500041" lon="12.1747972165">
		<tag k="alt_name" v="Nordhølet" />
		<tag k="name" v="Haugen" />
		<tag k="place" v="farm" />
		<tag k="ssr:stedsnr" v="491412" />
	</node>
	<node id="-1657" lat="59.9947277778" lon="12.1715027864">
		<tag k="alt_name" v="Sydhølet" />
		<tag k="loc_name" v="Ilagshølet" />
		<tag k="name" v="Ilagshullet" />
		<tag k="place" v="farm" />
		<tag k="ssr:stedsnr" v="491408" />
	</node>
	<node id="-1655" lat="59.9014749973" lon="11.9875388866">
		<tag k="name" v="Hauga" />
		<tag k="place" v="farm" />
		<tag k="ssr:stedsnr" v="491180" />
	</node>
	<node id="-617" lat="59.9336888914" lon="12.1910222233">
		<tag k="name" v="Østheim" />
		<tag k="place" v="farm" />
		<tag k="ssr:stedsnr" v="5332" />
	</node>
	<node id="-1652" lat="59.8743444402" lon="11.8948000077">
		<tag k="name" v="Kråkfoss" />
		<tag k="place" v="farm" />
		<tag k="ssr:stedsnr" v="491148" />
	</node>
	<node id="-1651" lat="59.8911333368" lon="11.8576333353">
		<tag k="name" v="Tangen" />
		<tag k="place" v="farm" />
		<tag k="ssr:stedsnr" v="491137" />
	</node>
	<node id="-1647" lat="60.0198722198" lon="12.1851861027">
		<tag k="historic" v="shieling" />
		<tag k="name" v="Midtskogsætra" />
		<tag k="place" v="locality" />
		<tag k="ssr:stedsnr" v="490869" />
	</node>
	<node id="-1646" lat="60.0086166649" lon="12.0798166654">
		<tag k="fixme" v="consider place=hamlet" />
		<tag k="name" v="Rødberg" />
		<tag k="place" v="farm" />
		<tag k="ssr:stedsnr" v="490861" />
	</node>
	<node id="-1645" lat="60.0038000034" lon="11.8790750078">
		<tag k="name" v="Gravlia" />
		<tag k="place" v="farm" />
		<tag k="ssr:stedsnr" v="490854" />
	</node>
	<node id="-1644" lat="60.003105551" lon="12.201500007">
		<tag k="name" v="Lauvåsen" />
		<tag k="place" v="farm" />
		<tag k="ssr:stedsnr" v="490844" />
	</node>
	<node id="-1643" lat="60.0059305539" lon="12.101924994">
		<tag k="name" v="Haug" />
		<tag k="place" v="farm" />
		<tag k="ssr:stedsnr" v="490842" />
	</node>
	<node id="-1640" lat="60.0670805548" lon="12.1494972294">
		<tag k="fixme" v="consider place=farm" />
		<tag k="name" v="Snekkermoen" />
		<tag k="place" v="isolated_dwelling" />
		<tag k="ssr:stedsnr" v="490719" />
	</node>
	<node id="-1639" lat="60.0655944403" lon="12.1146166699">
		<tag k="name" v="Forkerud" />
		<tag k="place" v="farm" />
		<tag k="ssr:stedsnr" v="490717" />
	</node>
	<node id="-1638" lat="60.0618611095" lon="12.0134222203">
		<tag k="alt_name" v="Åkroken, s;Åkroken" />
		<tag k="name" v="Søndre Åkroken" />
		<tag k="place" v="farm" />
		<tag k="ssr:stedsnr" v="490715" />
	</node>
	<node id="-1636" lat="60.0725999958" lon="12.1619333323">
		<tag k="alt_name" v="Langfossrydningen" />
		<tag k="loc_name" v="Langfossrønningen" />
		<tag k="name" v="Rønningen" />
		<tag k="place" v="farm" />
		<tag k="ssr:stedsnr" v="490703" />
	</node>
	<node id="-1634" lat="59.9383194427" lon="11.9932250076">
		<tag k="alt_name" v="Brustad" />
		<tag k="name" v="Nordre Brustad" />
		<tag k="place" v="farm" />
		<tag k="ssr:stedsnr" v="491255" />
	</node>
	<node id="-1632" lat="59.939419443" lon="12.1665666669">
		<tag k="name" v="Nymoen" />
		<tag k="place" v="farm" />
		<tag k="ssr:stedsnr" v="490361" />
	</node>
	<node id="-1631" lat="59.923794448" lon="11.9739750072">
		<tag k="name" v="Hellene" />
		<tag k="place" v="farm" />
		<tag k="ssr:stedsnr" v="490325" />
	</node>
	<node id="-1629" lat="59.9636194456" lon="12.1186166745">
		<tag k="alt_name" v="Nygård" />
		<tag k="name" v="Myra" />
		<tag k="place" v="farm" />
		<tag k="ssr:stedsnr" v="490298" />
	</node>
	<node id="-1628" lat="59.9672527782" lon="12.2095611124">
		<tag k="fixme" v="consider place=hamlet" />
		<tag k="name" v="Jøvika" />
		<tag k="place" v="farm" />
		<tag k="ssr:stedsnr" v="490293" />
	</node>
	<node id="-1626" lat="59.9564333342" lon="12.1189055583">
		<tag k="alt_name" v="Tangebråten" />
		<tag k="name" v="Tangebråtan" />
		<tag k="place" v="farm" />
		<tag k="ssr:stedsnr" v="490278" />
	</node>
	<node id="-1624" lat="59.9951444483" lon="12.2313444445">
		<tag k="alt_name" v="Bakken" />
		<tag k="name" v="Vestby" />
		<tag k="place" v="farm" />
		<tag k="ssr:stedsnr" v="490228" />
	</node>
	<node id="-1623" lat="59.9682416704" lon="12.2201972227">
		<tag k="name" v="Nordre Nevjen" />
		<tag k="place" v="farm" />
		<tag k="ssr:stedsnr" v="490197" />
	</node>
	<node id="-2529" lat="59.8957305572" lon="12.1175166596">
		<tag k="name" v="Braserud" />
		<tag k="place" v="farm" />
		<tag k="ssr:stedsnr" v="794167" />
	</node>
	<node id="-1617" lat="60.0372472199" lon="12.2794361121">
		<tag k="alt_name" v="Rønningen" />
		<tag k="name" v="Rønninga" />
		<tag k="place" v="farm" />
		<tag k="ssr:stedsnr" v="490040" />
	</node>
	<node id="-2850" lat="59.9457694434" lon="12.1632111176">
		<tag k="alt_name" v="Helåsen" />
		<tag k="name" v="Hellåsen" />
		<tag k="place" v="farm" />
		<tag k="ssr:stedsnr" v="915354" />
	</node>
	<node id="-1615" lat="59.9802555578" lon="12.2150999914">
		<tag k="name" v="Lauvneset" />
		<tag k="place" v="farm" />
		<tag k="ssr:stedsnr" v="490449" />
	</node>
	<node id="-1614" lat="59.9745027758" lon="12.199991671">
		<tag k="alt_name" v="Punderud" />
		<tag k="name" v="Punnerud" />
		<tag k="place" v="farm" />
		<tag k="ssr:stedsnr" v="490448" />
	</node>
	<node id="-1613" lat="59.969752774" lon="12.1173527818">
		<tag k="name" v="Trandemåsen" />
		<tag k="place" v="farm" />
		<tag k="ssr:stedsnr" v="490432" />
	</node>
	<node id="-122" lat="59.9177444443" lon="12.029405554">
		<tag k="name" v="Svenby" />
		<tag k="place" v="farm" />
		<tag k="ssr:stedsnr" v="308291" />
	</node>
	<node id="-611" lat="59.9581888896" lon="12.1427694527">
		<tag k="name" v="Myrvoll" />
		<tag k="place" v="farm" />
		<tag k="ssr:stedsnr" v="5286" />
	</node>
	<node id="-1598" lat="59.9527388894" lon="12.2050027721">
		<tag k="name" v="Parken" />
		<tag k="place" v="neighbourhood" />
		<tag k="ssr:stedsnr" v="472878" />
	</node>
	<node id="-143" lat="59.9743277792" lon="11.9430000007">
		<tag k="name" v="Høyby" />
		<tag k="place" v="farm" />
		<tag k="ssr:stedsnr" v="309509" />
	</node>
	<node id="-266" lat="59.9464444458" lon="11.9885361127">
		<tag k="name" v="Jerpsetåsen" />
		<tag k="place" v="farm" />
		<tag k="ssr:stedsnr" v="351569" />
	</node>
	<node id="-1584" lat="60.0443194481" lon="12.1297277789">
		<tag k="name" v="Jerntjennbråten" />
		<tag k="place" v="farm" />
		<tag k="ssr:stedsnr" v="472699" />
	</node>
	<node id="-1579" lat="60.0267444433" lon="12.0260166726">
		<tag k="name" v="Bråtan" />
		<tag k="place" v="farm" />
		<tag k="ssr:stedsnr" v="472570" />
	</node>
	<node id="-1578" lat="60.0384861083" lon="12.0942611185">
		<tag k="name" v="Børresberget" />
		<tag k="place" v="farm" />
		<tag k="ssr:stedsnr" v="472558" />
	</node>
	<node id="-1577" lat="60.1087305542" lon="12.1246444355">
		<tag k="name" v="Solbakken" />
		<tag k="place" v="farm" />
		<tag k="ssr:stedsnr" v="472541" />
	</node>
	<node id="-1565" lat="59.9698833347" lon="12.108713888">
		<tag k="name" v="Trandem" />
		<tag k="place" v="hamlet" />
		<tag k="ssr:stedsnr" v="472385" />
	</node>
	<node id="-1562" lat="59.9799722207" lon="12.1098972296">
		<tag k="leisure" v="pitch" />
		<tag k="name" v="Skotterud stadion" />
		<tag k="ssr:stedsnr" v="472363" />
	</node>
	<node id="-1551" lat="59.9327749963" lon="12.0164555617">
		<tag k="alt_name" v="Stangnessæter" />
		<tag k="historic" v="shieling" />
		<tag k="name" v="Stangnessætra" />
		<tag k="place" v="locality" />
		<tag k="ssr:stedsnr" v="472232" />
	</node>
	<node id="-1546" lat="60.0014777739" lon="12.1016388873">
		<tag k="name" v="Høyvang" />
		<tag k="old_name" v="Høivang" />
		<tag k="place" v="farm" />
		<tag k="ssr:stedsnr" v="472183" />
	</node>
	<node id="-1543" lat="60.1157416678" lon="12.1097805638">
		<tag k="name" v="Ulriksfoss" />
		<tag k="place" v="farm" />
		<tag k="ssr:stedsnr" v="472107" />
	</node>
	<node id="-1541" lat="60.002897224" lon="12.3111916599">
		<tag k="name" v="Nedre Strand" />
		<tag k="place" v="farm" />
		<tag k="ssr:stedsnr" v="472105" />
	</node>
	<node id="-1540" lat="59.9685611135" lon="12.134244449">
		<tag k="name" v="Høgvang" />
		<tag k="place" v="farm" />
		<tag k="ssr:stedsnr" v="472094" />
	</node>
	<node id="-1539" lat="59.9298333294" lon="12.2100777777">
		<tag k="name" v="Vangen" />
		<tag k="place" v="farm" />
		<tag k="ssr:stedsnr" v="472090" />
	</node>
	<node id="-155" lat="60.0086555513" lon="12.3041583278">
		<tag k="fixme" v="consider place=hamlet" />
		<tag k="name" v="Billingsø" />
		<tag k="place" v="farm" />
		<tag k="ssr:stedsnr" v="309218" />
	</node>
	<node id="-1536" lat="59.9983694459" lon="12.0768722235">
		<tag k="name" v="Bjørnstad" />
		<tag k="place" v="farm" />
		<tag k="ssr:stedsnr" v="472077" />
	</node>
	<node id="-597" lat="59.8896111088" lon="12.1690500053">
		<tag k="name" v="Leirsjøen" />
		<tag k="place" v="farm" />
		<tag k="ssr:stedsnr" v="5129" />
	</node>
	<node id="-1528" lat="59.9336749991" lon="11.9022638937">
		<tag k="name" v="Ljøner" />
		<tag k="place" v="farm" />
		<tag k="ssr:stedsnr" v="472016" />
	</node>
	<node id="-1527" lat="59.8915277764" lon="12.0987972262">
		<tag k="loc_name" v="Vangen" />
		<tag k="name" v="Repshusvangen" />
		<tag k="place" v="farm" />
		<tag k="ssr:stedsnr" v="472014" />
	</node>
	<node id="-1525" lat="59.9274361156" lon="11.9861722149">
		<tag k="name" v="Nordgarden" />
		<tag k="place" v="farm" />
		<tag k="ssr:stedsnr" v="471162" />
	</node>
	<node id="-1524" lat="59.9986027805" lon="12.0442777736">
		<tag k="name" v="Snesbøllia" />
		<tag k="place" v="farm" />
		<tag k="ssr:stedsnr" v="471148" />
	</node>
	<node id="-1523" lat="60.0254805595" lon="12.0883305521">
		<tag k="alt_name" v="Mellomkisen;Kisen" />
		<tag k="name" v="Mellomkisa" />
		<tag k="place" v="farm" />
		<tag k="ssr:stedsnr" v="467539" />
	</node>
	<node id="-324" lat="59.9582666673" lon="11.940227774">
		<tag k="name" v="Tjernsli" />
		<tag k="place" v="farm" />
		<tag k="ssr:stedsnr" v="369292" />
	</node>
	<node id="-1516" lat="60.0552583327" lon="11.951163891">
		<tag k="building" v="cabin" />
		<tag k="name" v="Aurkyttjennhytta" />
		<tag k="place" v="isolated_dwelling" />
		<tag k="ssr:stedsnr" v="461144" />
	</node>
	<node id="-1513" lat="59.8935305515" lon="11.9457166694">
		<tag k="building" v="cabin" />
		<tag k="name" v="Råkaldbakken" />
		<tag k="place" v="isolated_dwelling" />
		<tag k="ssr:stedsnr" v="431208" />
	</node>
	<node id="-596" lat="59.9466749988" lon="11.8401527693">
		<tag k="name" v="Ljønerholtet" />
		<tag k="place" v="farm" />
		<tag k="ssr:stedsnr" v="5117" />
	</node>
	<node id="-1507" lat="60.0073999977" lon="12.1322555588">
		<tag k="name" v="Skoglund" />
		<tag k="place" v="farm" />
		<tag k="ssr:stedsnr" v="430842" />
	</node>
	<node id="-1506" lat="60.0844861115" lon="12.0457777854">
		<tag k="name" v="Nordre Hornkjølen" />
		<tag k="place" v="farm" />
		<tag k="ssr:stedsnr" v="430732" />
	</node>
	<node id="-1503" lat="60.0723666633" lon="12.0926861189">
		<tag k="name" v="Lemlia" />
		<tag k="place" v="farm" />
		<tag k="ssr:stedsnr" v="430695" />
	</node>
	<node id="-1501" lat="60.0695499976" lon="11.9502111186">
		<tag k="name" v="Nysætra" />
		<tag k="place" v="locality" />
		<tag k="ssr:stedsnr" v="430687" />
	</node>
	<node id="-1500" lat="60.0354333308" lon="11.8677499928">
		<tag k="name" v="Løvneset" />
		<tag k="place" v="farm" />
		<tag k="ssr:stedsnr" v="430674" />
	</node>
	<node id="-1497" lat="59.982608334" lon="12.0940000007">
		<tag k="name" v="Bakken" />
		<tag k="place" v="farm" />
		<tag k="ssr:stedsnr" v="430478" />
	</node>
	<node id="-1495" lat="59.9809777739" lon="12.2124638957">
		<tag k="building" v="cabin" />
		<tag k="name" v="Furuset" />
		<tag k="place" v="isolated_dwelling" />
		<tag k="ssr:stedsnr" v="430450" />
	</node>
	<node id="-1494" lat="59.9833555567" lon="12.1500000053">
		<tag k="name" v="Elgåsen" />
		<tag k="place" v="farm" />
		<tag k="ssr:stedsnr" v="430447" />
	</node>
	<node id="-1493" lat="59.9877500002" lon="12.1643722247">
		<tag k="alt_name" v="Nybakken" />
		<tag k="name" v="Nytomta" />
		<tag k="place" v="farm" />
		<tag k="ssr:stedsnr" v="430446" />
	</node>
	<node id="-1492" lat="59.9739083328" lon="12.114452774">
		<tag k="fixme" v="consider place=hamlet" />
		<tag k="name" v="Trandem" />
		<tag k="place" v="farm" />
		<tag k="ssr:stedsnr" v="430443" />
	</node>
	<node id="-1491" lat="59.9805999999" lon="12.1016888806">
		<tag k="fixme" v="consider place=hamlet" />
		<tag k="name" v="Tuhus" />
		<tag k="place" v="farm" />
		<tag k="ssr:stedsnr" v="430440" />
	</node>
	<node id="-1488" lat="59.9931000042" lon="12.050644438">
		<tag k="fixme" v="consider place=hamlet" />
		<tag k="name" v="Åserud" />
		<tag k="place" v="farm" />
		<tag k="ssr:stedsnr" v="430371" />
	</node>
	<node id="-1487" lat="59.9439583307" lon="12.168594445">
		<tag k="name" v="Murissa" />
		<tag k="place" v="farm" />
		<tag k="ssr:stedsnr" v="430363" />
	</node>
	<node id="-1486" lat="59.9257111101" lon="12.0178611065">
		<tag k="name" v="Myrenga" />
		<tag k="place" v="farm" />
		<tag k="ssr:stedsnr" v="430344" />
	</node>
	<node id="-1485" lat="59.928180557" lon="12.1935361113">
		<tag k="fixme" v="consider place=farm" />
		<tag k="name" v="Skogtun" />
		<tag k="place" v="isolated_dwelling" />
		<tag k="ssr:stedsnr" v="430340" />
	</node>
	<node id="-1484" lat="59.9309861069" lon="12.2083444492">
		<tag k="alt_name" v="Bråten" />
		<tag k="name" v="Bråtan" />
		<tag k="place" v="farm" />
		<tag k="ssr:stedsnr" v="430339" />
	</node>
	<node id="-1482" lat="59.9244027823" lon="11.8704527702">
		<tag k="building" v="cabin" />
		<tag k="name" v="Bunes" />
		<tag k="place" v="isolated_dwelling" />
		<tag k="ssr:stedsnr" v="430334" />
	</node>
	<node id="-1480" lat="59.9626749968" lon="12.1514472236">
		<tag k="name" v="Sørgarden" />
		<tag k="place" v="farm" />
		<tag k="ssr:stedsnr" v="430282" />
	</node>
	<node id="-1479" lat="59.9591527786" lon="12.2041638867">
		<tag k="name" v="Magnoråsen" />
		<tag k="place" v="farm" />
		<tag k="ssr:stedsnr" v="430281" />
	</node>
	<node id="-1478" lat="59.9497416646" lon="11.979088883">
		<tag k="alt_name" v="Nordre Jerpsethaget" />
		<tag k="loc_name" v="Haget" />
		<tag k="name" v="Jerpsethaget" />
		<tag k="place" v="farm" />
		<tag k="ssr:stedsnr" v="430274" />
	</node>
	<node id="-1477" lat="59.9497361101" lon="12.2139944523">
		<tag k="name" v="Sørli" />
		<tag k="place" v="farm" />
		<tag k="ssr:stedsnr" v="430268" />
	</node>
	<node id="-1476" lat="59.9480750016" lon="12.1374750013">
		<tag k="name" v="Mastad" />
		<tag k="place" v="farm" />
		<tag k="ssr:stedsnr" v="430267" />
	</node>
	<node id="-1475" lat="59.940622225" lon="11.8469416755">
		<tag k="name" v="Holtebråtan" />
		<tag k="place" v="farm" />
		<tag k="ssr:stedsnr" v="430263" />
	</node>
	<node id="-1474" lat="59.9396805593" lon="11.9753277782">
		<tag k="name" v="Libergsenga" />
		<tag k="place" v="farm" />
		<tag k="ssr:stedsnr" v="430259" />
	</node>
	<node id="-1473" lat="59.9363138874" lon="11.902961118">
		<tag k="fixme" v="consider place=hamlet" />
		<tag k="name" v="Ljøner" />
		<tag k="place" v="farm" />
		<tag k="ssr:stedsnr" v="430253" />
	</node>
	<node id="-1472" lat="59.9921277791" lon="12.3213972227">
		<tag k="name" v="Enga" />
		<tag k="place" v="farm" />
		<tag k="ssr:stedsnr" v="430241" />
	</node>
	<node id="-928" lat="59.9471083335" lon="12.1908388907">
		<tag k="name" v="Høgsætermoen" />
		<tag k="place" v="neighbourhood" />
		<tag k="ssr:stedsnr" v="108448" />
	</node>
	<node id="-1467" lat="59.8912694453" lon="12.0924277839">
		<tag k="name" v="Sør-Melby" />
		<tag k="place" v="farm" />
		<tag k="ssr:stedsnr" v="430171" />
	</node>
	<node id="-1465" lat="60.0715805593" lon="12.2304027737">
		<tag k="name" v="Paradis" />
		<tag k="place" v="farm" />
		<tag k="ssr:stedsnr" v="430087" />
	</node>
	<node id="-1464" lat="60.0113000015" lon="12.2630000077">
		<tag k="name" v="Trettåsen" />
		<tag k="place" v="farm" />
		<tag k="ssr:stedsnr" v="430056" />
	</node>
	<node id="-1463" lat="59.9390583321" lon="12.226469444">
		<tag k="fixme" v="consider place=farm" />
		<tag k="name" v="Vangli" />
		<tag k="place" v="isolated_dwelling" />
		<tag k="ssr:stedsnr" v="430045" />
	</node>
	<node id="-1461" lat="59.9460499976" lon="12.2501249939">
		<tag k="name" v="Veksåsen" />
		<tag k="place" v="farm" />
		<tag k="ssr:stedsnr" v="430041" />
	</node>
	<node id="-117" lat="59.9866777742" lon="12.2361583288">
		<tag k="name" v="Stranda" />
		<tag k="place" v="farm" />
		<tag k="ssr:stedsnr" v="308226" />
	</node>
	<node id="-1458" lat="60.053711109" lon="12.1659138889">
		<tag k="building" v="cabin" />
		<tag k="name" v="Steinerud" />
		<tag k="place" v="isolated_dwelling" />
		<tag k="ssr:stedsnr" v="430662" />
	</node>
	<node id="-1457" lat="60.0605277768" lon="12.1204833355">
		<tag k="name" v="Dal" />
		<tag k="place" v="farm" />
		<tag k="ssr:stedsnr" v="430652" />
	</node>
	<node id="-1455" lat="60.0373166636" lon="12.1178888877">
		<tag k="alt_name" v="Bakken" />
		<tag k="name" v="Kjellebekk" />
		<tag k="place" v="farm" />
		<tag k="ssr:stedsnr" v="430630" />
	</node>
	<node id="-1451" lat="59.9266428104" lon="11.9962255504">
		<tag k="fixme" v="consider place=hamlet" />
		<tag k="loc_name" v="Klanderudeidet" />
		<tag k="name" v="Eidet" />
		<tag k="old_name" v="Eje;Eie" />
		<tag k="place" v="farm" />
		<tag k="ssr:stedsnr" v="423271" />
	</node>
	<node id="-935" lat="59.9636472238" lon="12.1393027775">
		<tag k="name" v="Tomta" />
		<tag k="place" v="farm" />
		<tag k="ssr:stedsnr" v="108537" />
	</node>
	<node id="-1445" lat="60.1254250032" lon="12.2277583252">
		<tag k="name" v="Melby" />
		<tag k="place" v="farm" />
		<tag k="ssr:stedsnr" v="248955" />
	</node>
	<node id="-1441" lat="60.0148499996" lon="12.121633336">
		<tag k="name" v="Midtskog" />
		<tag k="place" v="farm" />
		<tag k="ssr:stedsnr" v="248877" />
	</node>
	<node id="-1440" lat="60.000413892" lon="11.8460249973">
		<tag k="name" v="Havsjømoen" />
		<tag k="place" v="farm" />
		<tag k="ssr:stedsnr" v="248868" />
	</node>
	<node id="-1439" lat="60.0817972181" lon="12.0261250022">
		<tag k="name" v="Buholtet" />
		<tag k="place" v="farm" />
		<tag k="ssr:stedsnr" v="248757" />
	</node>
	<node id="-1437" lat="60.089758329" lon="12.1175499978">
		<tag k="name" v="Snaret" />
		<tag k="place" v="farm" />
		<tag k="ssr:stedsnr" v="248748" />
	</node>
	<node id="-1436" lat="60.0543972215" lon="11.8605027863">
		<tag k="name" v="Børli" />
		<tag k="place" v="farm" />
		<tag k="ssr:stedsnr" v="248728" />
	</node>
	<node id="-1433" lat="60.0759888855" lon="12.0904361074">
		<tag k="name" v="Tjernsli" />
		<tag k="place" v="farm" />
		<tag k="ssr:stedsnr" v="248714" />
	</node>
	<node id="-1430" lat="60.047663885" lon="11.98822778">
		<tag k="building" v="cabin" />
		<tag k="name" v="Sandtjernlia" />
		<tag k="place" v="isolated_dwelling" />
		<tag k="ssr:stedsnr" v="248687" />
	</node>
	<node id="-1428" lat="60.0292111155" lon="12.1243805522">
		<tag k="fixme" v="consider place=suburb, village or hamlet" />
		<tag k="name" v="Matrand" />
		<tag k="place" v="neighbourhood" />
		<tag k="ssr:stedsnr" v="248659" />
	</node>
	<node id="-1427" lat="60.0282644319" lon="12.0898453773">
		<tag k="alt_name" v="Kisen" />
		<tag k="fixme" v="consider place=hamlet" />
		<tag k="name" v="Kisa" />
		<tag k="place" v="farm" />
		<tag k="ssr:stedsnr" v="248658" />
	</node>
	<node id="-1424" lat="60.1366111079" lon="12.1909527765">
		<tag k="name" v="Framgardsvangen" />
		<tag k="place" v="farm" />
		<tag k="ssr:stedsnr" v="248540" />
	</node>
	<node id="-1422" lat="60.109025003" lon="12.1292249933">
		<tag k="name" v="Øverby" />
		<tag k="place" v="farm" />
		<tag k="ssr:stedsnr" v="248529" />
	</node>
	<node id="-1421" lat="60.1199138905" lon="12.1458138917">
		<tag k="name" v="Høgåsen" />
		<tag k="place" v="farm" />
		<tag k="ssr:stedsnr" v="248502" />
	</node>
	<node id="-1420" lat="59.9845194445" lon="12.0969777833">
		<tag k="fixme" v="consider place=hamlet" />
		<tag k="name" v="Reppshus" />
		<tag k="place" v="farm" />
		<tag k="ssr:stedsnr" v="248493" />
	</node>
	<node id="-1419" lat="59.982797222" lon="12.1280888875">
		<tag k="name" v="Skotterud" />
		<tag k="place" v="village" />
		<tag k="ssr:stedsnr" v="248491" />
	</node>
	<node id="-1417" lat="59.987599996" lon="12.0555916666">
		<tag k="name" v="Åsen" />
		<tag k="place" v="farm" />
		<tag k="ssr:stedsnr" v="248487" />
	</node>
	<node id="-1415" lat="59.990763886" lon="12.2147027706">
		<tag k="name" v="Tangen" />
		<tag k="place" v="farm" />
		<tag k="ssr:stedsnr" v="248465" />
	</node>
	<node id="-1414" lat="59.9775472181" lon="12.0564250015">
		<tag k="name" v="Hagan" />
		<tag k="place" v="farm" />
		<tag k="ssr:stedsnr" v="248444" />
	</node>
	<node id="-1413" lat="59.9682777766" lon="11.9699222173">
		<tag k="name" v="Tobølsætra" />
		<tag k="place" v="farm" />
		<tag k="ssr:stedsnr" v="248436" />
	</node>
	<node id="-1410" lat="59.9957972231" lon="12.2086138806">
		<tag k="name" v="Nes" />
		<tag k="place" v="farm" />
		<tag k="ssr:stedsnr" v="248365" />
	</node>
	<node id="-1409" lat="59.9959194471" lon="12.2180277833">
		<tag k="name" v="Nesteppa" />
		<tag k="place" v="farm" />
		<tag k="ssr:stedsnr" v="248366" />
	</node>
	<node id="-1408" lat="59.9875249987" lon="12.0667000002">
		<tag k="name" v="Smedtorpet" />
		<tag k="place" v="farm" />
		<tag k="ssr:stedsnr" v="248362" />
	</node>
	<node id="-576" lat="60.1088027793" lon="12.2192416742">
		<tag k="fixme" v="consider place=farm" />
		<tag k="name" v="Løvlibråten" />
		<tag k="place" v="isolated_dwelling" />
		<tag k="ssr:stedsnr" v="898318" />
	</node>
	<node id="-1403" lat="59.9082249999" lon="11.979130555">
		<tag k="name" v="Rud" />
		<tag k="place" v="farm" />
		<tag k="ssr:stedsnr" v="248311" />
	</node>
	<node id="-1399" lat="59.9707222241" lon="12.1666416731">
		<tag k="name" v="Nilsrud" />
		<tag k="place" v="farm" />
		<tag k="ssr:stedsnr" v="248296" />
	</node>
	<node id="-1398" lat="59.9563583337" lon="12.1229388884">
		<tag k="name" v="Åsberg" />
		<tag k="place" v="farm" />
		<tag k="ssr:stedsnr" v="248285" />
	</node>
	<node id="-1397" lat="59.956991671" lon="12.1938749959">
		<tag k="name" v="Vestgarden" />
		<tag k="place" v="farm" />
		<tag k="ssr:stedsnr" v="248275" />
	</node>
	<node id="-1396" lat="59.9882277742" lon="12.3321388922">
		<tag k="name" v="Fossheim" />
		<tag k="place" v="farm" />
		<tag k="ssr:stedsnr" v="248247" />
	</node>
	<node id="-1395" lat="59.9493249969" lon="12.2523305474">
		<tag k="building" v="cabin" />
		<tag k="name" v="Toppen" />
		<tag k="place" v="isolated_dwelling" />
		<tag k="ssr:stedsnr" v="248217" />
	</node>
	<node id="-1394" lat="59.948949996" lon="12.2224749978">
		<tag k="name" v="Lund" />
		<tag k="place" v="farm" />
		<tag k="ssr:stedsnr" v="248218" />
	</node>
	<node id="-1392" lat="59.9728499984" lon="12.3467500052">
		<tag k="name" v="Klettås" />
		<tag k="place" v="farm" />
		<tag k="ssr:stedsnr" v="248208" />
	</node>
	<node id="-1391" lat="59.9733027807" lon="12.2854250034">
		<tag k="historic" v="shieling" />
		<tag k="name" v="Plassersætra" />
		<tag k="place" v="locality" />
		<tag k="ssr:stedsnr" v="248201" />
	</node>
	<node id="-1390" lat="59.9724277745" lon="12.2290638963">
		<tag k="name" v="Åsen" />
		<tag k="place" v="farm" />
		<tag k="ssr:stedsnr" v="248199" />
	</node>
	<node id="-1388" lat="60.0110277817" lon="12.300238889">
		<tag k="alt_name" v="Billingsø" />
		<tag k="name" v="Nordgarden" />
		<tag k="place" v="farm" />
		<tag k="ssr:stedsnr" v="248185" />
	</node>
	<node id="-1384" lat="59.8868638851" lon="11.9168944372">
		<tag k="alt_name" v="Finnbråten" />
		<tag k="name" v="Finnbråtan" />
		<tag k="place" v="farm" />
		<tag k="ssr:stedsnr" v="248127" />
	</node>
	<node id="-571" lat="59.9703861099" lon="12.1321527714">
		<tag k="name" v="Høgmo" />
		<tag k="place" v="farm" />
		<tag k="ssr:stedsnr" v="898186" />
	</node>
	<node id="-1368" lat="60.002383337" lon="11.9149611048">
		<tag k="amenity" v="school" />
		<tag k="name" v="Fjellskogen" />
		<tag k="ssr:stedsnr" v="230818" />
	</node>
	<node id="-226" lat="59.9585888912" lon="11.9424222198">
		<tag k="name" v="Nordsætra" />
		<tag k="place" v="farm" />
		<tag k="ssr:stedsnr" v="351137" />
	</node>
	<node id="-1353" lat="59.9749055577" lon="12.1052416669">
		<tag k="name" v="Vestheim" />
		<tag k="place" v="farm" />
		<tag k="ssr:stedsnr" v="230571" />
	</node>
	<node id="-1352" lat="59.96023889" lon="12.183380559">
		<tag k="name" v="Olberg" />
		<tag k="place" v="farm" />
		<tag k="ssr:stedsnr" v="230566" />
	</node>
	<node id="-1351" lat="60.0060499996" lon="12.1372555602">
		<tag k="name" v="Bonsak" />
		<tag k="place" v="farm" />
		<tag k="ssr:stedsnr" v="230548" />
	</node>
	<node id="-1350" lat="59.9975333308" lon="12.3201833396">
		<tag k="name" v="Kvernheim" />
		<tag k="place" v="farm" />
		<tag k="ssr:stedsnr" v="230535" />
	</node>
	<node id="-1348" lat="59.9454694412" lon="12.1715944449">
		<tag k="amenity" v="school" />
		<tag k="name" v="Magnor skole" />
		<tag k="ssr:stedsnr" v="230521" />
	</node>
	<node id="-1344" lat="60.1181055577" lon="12.1122250062">
		<tag k="name" v="Åbogsmoen" />
		<tag k="place" v="neighbourhood" />
		<tag k="ssr:stedsnr" v="230487" />
	</node>
	<node id="-1342" lat="59.9546888888" lon="12.0080194449">
		<tag k="name" v="Søndre Vestli" />
		<tag k="place" v="farm" />
		<tag k="ssr:stedsnr" v="230357" />
	</node>
	<node id="-1341" lat="60.1013222252" lon="12.1445194536">
		<tag k="name" v="Langrekken" />
		<tag k="place" v="farm" />
		<tag k="ssr:stedsnr" v="230333" />
	</node>
	<node id="-1340" lat="60.0924055547" lon="12.1183916676">
		<tag k="name" v="Eidsbrua" />
		<tag k="place" v="farm" />
		<tag k="ssr:stedsnr" v="230330" />
	</node>
	<node id="-1336" lat="59.9607833302" lon="12.1352277714">
		<tag k="name" v="Kroken" />
		<tag k="place" v="farm" />
		<tag k="ssr:stedsnr" v="230239" />
	</node>
	<node id="-1333" lat="59.9542527774" lon="12.0477472197">
		<tag k="name" v="Stangnes" />
		<tag k="place" v="farm" />
		<tag k="ssr:stedsnr" v="230131" />
	</node>
	<node id="-1332" lat="59.946858331" lon="12.0121777734">
		<tag k="name" v="Nordre Bakken" />
		<tag k="place" v="farm" />
		<tag k="ssr:stedsnr" v="230116" />
	</node>
	<node id="-1331" lat="59.9271750041" lon="12.1862138875">
		<tag k="name" v="Skuggerud" />
		<tag k="place" v="farm" />
		<tag k="ssr:stedsnr" v="230106" />
	</node>
	<node id="-1330" lat="59.9296361141" lon="12.1754972149">
		<tag k="name" v="Tomta" />
		<tag k="place" v="farm" />
		<tag k="ssr:stedsnr" v="230107" />
	</node>
	<node id="-1329" lat="60.0648555592" lon="12.2586944395">
		<tag k="fixme" v="consider place=farm" />
		<tag k="name" v="Åsbu" />
		<tag k="place" v="isolated_dwelling" />
		<tag k="ssr:stedsnr" v="230040" />
	</node>
	<node id="-1328" lat="60.0656861133" lon="12.2557972208">
		<tag k="building" v="cabin" />
		<tag k="name" v="Storhaug" />
		<tag k="place" v="isolated_dwelling" />
		<tag k="ssr:stedsnr" v="230038" />
	</node>
	<node id="-1327" lat="60.0237944483" lon="12.2832250082">
		<tag k="name" v="Storneset" />
		<tag k="place" v="farm" />
		<tag k="ssr:stedsnr" v="230030" />
	</node>
	<node id="-1326" lat="60.0579361073" lon="12.2030777775">
		<tag k="building" v="cabin" />
		<tag k="name" v="Myrstua" />
		<tag k="place" v="isolated_dwelling" />
		<tag k="ssr:stedsnr" v="230028" />
	</node>
	<node id="-1325" lat="60.0270833296" lon="12.0900083397">
		<tag k="name" v="Søndre Nordkisen" />
		<tag k="place" v="farm" />
		<tag k="ssr:stedsnr" v="230019" />
	</node>
	<node id="-1324" lat="59.9482638913" lon="11.9821388822">
		<tag k="name" v="Søndre Jerpsethaget" />
		<tag k="place" v="farm" />
		<tag k="ssr:stedsnr" v="230018" />
	</node>
	<node id="-1319" lat="59.940330558" lon="12.1955388873">
		<tag k="name" v="Vilsbergvegen" />
		<tag k="place" v="neighbourhood" />
		<tag k="ssr:stedsnr" v="229922" />
	</node>
	<node id="-1304" lat="59.9332638887" lon="12.2282027774">
		<tag k="name" v="Monte Bello" />
		<tag k="place" v="farm" />
		<tag k="ssr:stedsnr" v="229479" />
	</node>
	<node id="-1296" lat="59.9883250031" lon="12.0741083286">
		<tag k="name" v="Bjørnstadmoen" />
		<tag k="place" v="neighbourhood" />
		<tag k="ssr:stedsnr" v="229421" />
	</node>
	<node id="-1293" lat="59.9817111104" lon="12.0698666594">
		<tag k="name" v="Børrud" />
		<tag k="place" v="neighbourhood" />
		<tag k="ssr:stedsnr" v="229394" />
	</node>
	<node id="-1292" lat="60.1311861086" lon="12.2349805506">
		<tag k="fixme" v="consider place=farm" />
		<tag k="name" v="Løvås" />
		<tag k="place" v="isolated_dwelling" />
		<tag k="ssr:stedsnr" v="229379" />
	</node>
	<node id="-1275" lat="59.9041888905" lon="11.8716388833">
		<tag k="name" v="Skjærvangstua" />
		<tag k="place" v="farm" />
		<tag k="ssr:stedsnr" v="229065" />
	</node>
	<node id="-212" lat="59.9777388873" lon="12.3366277747">
		<tag k="name" v="Åsen" />
		<tag k="place" v="farm" />
		<tag k="ssr:stedsnr" v="351004" />
	</node>
	<node id="-1269" lat="59.9433222258" lon="12.1720305509">
		<tag k="name" v="Løvås" />
		<tag k="place" v="farm" />
		<tag k="ssr:stedsnr" v="229039" />
	</node>
	<node id="-1263" lat="60.0349472255" lon="12.1342999926">
		<tag k="name" v="Søndre Kjærstad" />
		<tag k="place" v="farm" />
		<tag k="ssr:stedsnr" v="224770" />
	</node>
	<node id="-1256" lat="60.0262305532" lon="12.1460805633">
		<tag k="name" v="Søndre Berger" />
		<tag k="place" v="locality" />
		<tag k="ssr:stedsnr" v="218251" />
	</node>
	<node id="-1253" lat="59.9450138892" lon="12.0161277858">
		<tag k="name" v="Sør-Rasta" />
		<tag k="place" v="farm" />
		<tag k="ssr:stedsnr" v="203036" />
	</node>
	<node id="-1250" lat="59.9876583378" lon="12.0707472144">
		<tag k="name" v="Bjørnstadmoen" />
		<tag k="place" v="farm" />
		<tag k="ssr:stedsnr" v="188556" />
	</node>
	<node id="-1248" lat="59.976002776" lon="11.9853472266">
		<tag k="name" v="Sørli" />
		<tag k="place" v="farm" />
		<tag k="ssr:stedsnr" v="188538" />
	</node>
	<node id="-1244" lat="59.9834833325" lon="12.1615777804">
		<tag k="name" v="Åsmoen" />
		<tag k="place" v="farm" />
		<tag k="ssr:stedsnr" v="188519" />
	</node>
	<node id="-1242" lat="59.9516250005" lon="12.1368611065">
		<tag k="name" v="Solli" />
		<tag k="place" v="farm" />
		<tag k="ssr:stedsnr" v="188296" />
	</node>
	<node id="-1237" lat="59.9062583334" lon="12.0914111063">
		<tag k="name" v="Perkerud" />
		<tag k="place" v="farm" />
		<tag k="ssr:stedsnr" v="188203" />
	</node>
	<node id="-1234" lat="60.089211114" lon="12.1505083409">
		<tag k="name" v="Haga" />
		<tag k="place" v="farm" />
		<tag k="ssr:stedsnr" v="187710" />
	</node>
	<node id="-1231" lat="60.0638472235" lon="12.1472027783">
		<tag k="name" v="Svenby" />
		<tag k="place" v="farm" />
		<tag k="ssr:stedsnr" v="187684" />
	</node>
	<node id="-1226" lat="60.0001750002" lon="12.1037805621">
		<tag k="name" v="Sørpebøl" />
		<tag k="place" v="farm" />
		<tag k="ssr:stedsnr" v="187836" />
	</node>
	<node id="-1225" lat="60.0877777773" lon="12.1218583329">
		<tag k="name" v="Eidsbrua" />
		<tag k="place" v="farm" />
		<tag k="ssr:stedsnr" v="187652" />
	</node>
	<node id="-1224" lat="60.0428361129" lon="11.8529277858">
		<tag k="name" v="Fjellbu" />
		<tag k="place" v="locality" />
		<tag k="ssr:stedsnr" v="187647" />
	</node>
	<node id="-1223" lat="60.0454500024" lon="12.1562250057">
		<tag k="name" v="Kapstadmyra" />
		<tag k="place" v="farm" />
		<tag k="ssr:stedsnr" v="187636" />
	</node>
	<node id="-1222" lat="60.0587833349" lon="12.1320250054">
		<tag k="name" v="Sandnes" />
		<tag k="place" v="farm" />
		<tag k="ssr:stedsnr" v="187635" />
	</node>
	<node id="-1218" lat="60.1308000031" lon="12.1423833268">
		<tag k="name" v="Skauby" />
		<tag k="place" v="farm" />
		<tag k="ssr:stedsnr" v="187519" />
	</node>
	<node id="-1217" lat="60.1237472265" lon="12.2172750027">
		<tag k="fixme" v="multiple name tags, choose one and add the other to alt_name" />
		<tag k="name" v="Søgårdsvangen;Vangen" />
		<tag k="place" v="farm" />
		<tag k="ssr:stedsnr" v="187476" />
	</node>
	<node id="-1216" lat="59.9775499956" lon="12.0329416706">
		<tag k="name" v="Kvernkroken" />
		<tag k="place" v="farm" />
		<tag k="ssr:stedsnr" v="187460" />
	</node>
	<node id="-1213" lat="60.0768361112" lon="12.0115361058">
		<tag k="name" v="Dalssætra" />
		<tag k="place" v="farm" />
		<tag k="ssr:stedsnr" v="187666" />
	</node>
	<node id="-1211" lat="60.041455554" lon="12.2164444439">
		<tag k="alt_name" v="Torpsæter" />
		<tag k="building" v="cabin" />
		<tag k="name" v="Torpsætra" />
		<tag k="place" v="isolated_dwelling" />
		<tag k="ssr:stedsnr" v="187590" />
	</node>
	<node id="-1209" lat="60.0288083309" lon="12.0470638818">
		<tag k="name" v="Teppa" />
		<tag k="place" v="farm" />
		<tag k="ssr:stedsnr" v="187585" />
	</node>
	<node id="-1208" lat="59.9399583298" lon="12.1699833326">
		<tag k="name" v="Moen" />
		<tag k="place" v="farm" />
		<tag k="ssr:stedsnr" v="187350" />
	</node>
	<node id="-1207" lat="59.9323500028" lon="12.0847999949">
		<tag k="fixme" v="consider place=farm" />
		<tag k="name" v="Sollia" />
		<tag k="place" v="isolated_dwelling" />
		<tag k="ssr:stedsnr" v="187333" />
	</node>
	<node id="-1206" lat="59.9334249955" lon="12.2046166693">
		<tag k="name" v="Kustås" />
		<tag k="place" v="farm" />
		<tag k="ssr:stedsnr" v="187325" />
	</node>
	<node id="-1205" lat="59.9326638899" lon="12.1703000007">
		<tag k="name" v="Gaustadsætra" />
		<tag k="place" v="farm" />
		<tag k="ssr:stedsnr" v="187321" />
	</node>
	<node id="-1204" lat="59.9252027793" lon="12.0686749934">
		<tag k="alt_name" v="Myrvoll" />
		<tag k="name" v="Myrvang" />
		<tag k="place" v="farm" />
		<tag k="ssr:stedsnr" v="187318" />
	</node>
	<node id="-1203" lat="59.9773000008" lon="12.1050000007">
		<tag k="name" v="Vestby" />
		<tag k="place" v="farm" />
		<tag k="ssr:stedsnr" v="187432" />
	</node>
	<node id="-1202" lat="59.9726916704" lon="12.1261277782">
		<tag k="name" v="Melgard" />
		<tag k="place" v="farm" />
		<tag k="ssr:stedsnr" v="187433" />
	</node>
	<node id="-1201" lat="59.9978638924" lon="12.0518111098">
		<tag k="alt_name" v="Snesbølnygård" />
		<tag k="loc_name" v="Nygard" />
		<tag k="name" v="Nygård" />
		<tag k="place" v="farm" />
		<tag k="ssr:stedsnr" v="187375" />
	</node>
	<node id="-1199" lat="59.9611361069" lon="12.1528750038">
		<tag k="name" v="Nedgarden" />
		<tag k="place" v="farm" />
		<tag k="ssr:stedsnr" v="187288" />
	</node>
	<node id="-1197" lat="59.9490999981" lon="12.0727055535">
		<tag k="name" v="Østgarden" />
		<tag k="place" v="farm" />
		<tag k="ssr:stedsnr" v="187267" />
	</node>
	<node id="-1195" lat="59.9527694443" lon="12.1203861094">
		<tag k="alt_name" v="Sørnby" />
		<tag k="name" v="Sørby" />
		<tag k="place" v="farm" />
		<tag k="ssr:stedsnr" v="187259" />
	</node>
	<node id="-1191" lat="59.864252777" lon="11.8463555562">
		<tag k="alt_name" v="Sjelåsæterhytta" />
		<tag k="building" v="cabin" />
		<tag k="name" v="Skjølåsætra" />
		<tag k="place" v="isolated_dwelling" />
		<tag k="ssr:stedsnr" v="187138" />
	</node>
	<node id="-1188" lat="59.8986749988" lon="12.168033342">
		<tag k="name" v="Morastsætra" />
		<tag k="place" v="farm" />
		<tag k="ssr:stedsnr" v="187133" />
	</node>
	<node id="-1187" lat="59.8917638911" lon="11.871622214">
		<tag k="name" v="Skjølåbråtan" />
		<tag k="place" v="farm" />
		<tag k="ssr:stedsnr" v="187132" />
	</node>
	<node id="-1185" lat="59.8880416637" lon="11.9137194461">
		<tag k="alt_name" v="Almenningsæter" />
		<tag k="building" v="cabin" />
		<tag k="loc_name" v="Almenningssætra" />
		<tag k="name" v="Almenningsætra" />
		<tag k="place" v="isolated_dwelling" />
		<tag k="ssr:stedsnr" v="187128" />
	</node>
	<node id="-1184" lat="59.9740444486" lon="12.1584944449">
		<tag k="name" v="Gulli" />
		<tag k="place" v="farm" />
		<tag k="ssr:stedsnr" v="187304" />
	</node>
	<node id="-1183" lat="59.906124997" lon="11.8599055496">
		<tag k="name" v="Enga" />
		<tag k="place" v="farm" />
		<tag k="ssr:stedsnr" v="187172" />
	</node>
	<node id="-1182" lat="59.9014888852" lon="11.9747277737">
		<tag k="alt_name" v="Høgvall" />
		<tag k="name" v="Høgvoll" />
		<tag k="place" v="farm" />
		<tag k="ssr:stedsnr" v="187168" />
	</node>
	<node id="-1160" lat="59.9937055521" lon="12.1718166699">
		<tag k="name" v="Nordre Ilag" />
		<tag k="place" v="hamlet" />
		<tag k="ssr:stedsnr" v="169978" />
	</node>
	<node id="-876" lat="60.0074416645" lon="12.0452999937">
		<tag k="name" v="Nordlia" />
		<tag k="place" v="farm" />
		<tag k="ssr:stedsnr" v="107140" />
	</node>
	<node id="-193" lat="59.9734083345" lon="12.335469447">
		<tag k="name" v="Skogli" />
		<tag k="place" v="farm" />
		<tag k="ssr:stedsnr" v="350142" />
	</node>
	<node id="-1151" lat="59.9670888868" lon="12.0634333266">
		<tag k="name" v="Solbakken" />
		<tag k="place" v="farm" />
		<tag k="ssr:stedsnr" v="169756" />
	</node>
	<node id="-1150" lat="59.9841444414" lon="12.126158327">
		<tag k="amenity" v="school" />
		<tag k="name" v="Eidskog ungdomsskole" />
		<tag k="ssr:stedsnr" v="169737" />
	</node>
	<node id="-1138" lat="59.9616499961" lon="12.1425666655">
		<tag k="name" v="Søndre Rønningen" />
		<tag k="place" v="farm" />
		<tag k="ssr:stedsnr" v="169583" />
	</node>
	<node id="-1137" lat="59.9683055569" lon="12.174769441">
		<tag k="name" v="Vikerbråten" />
		<tag k="place" v="farm" />
		<tag k="ssr:stedsnr" v="169581" />
	</node>
	<node id="-1136" lat="59.9499861147" lon="11.9754694432">
		<tag k="name" v="Bjørklund" />
		<tag k="place" v="farm" />
		<tag k="ssr:stedsnr" v="169580" />
	</node>
	<node id="-1135" lat="59.9410527793" lon="12.2247166638">
		<tag k="loc_name" v="Bjørkely" />
		<tag k="name" v="Bjerkely" />
		<tag k="place" v="farm" />
		<tag k="ssr:stedsnr" v="169555" />
	</node>
	<node id="-1132" lat="59.9790083325" lon="12.0336222307">
		<tag k="fixme" v="consider place=farm" />
		<tag k="name" v="Åsheim" />
		<tag k="place" v="isolated_dwelling" />
		<tag k="ssr:stedsnr" v="169536" />
	</node>
	<node id="-1127" lat="59.9262999958" lon="12.2281805509">
		<tag k="name" v="Humlegårdsnesset" />
		<tag k="place" v="farm" />
		<tag k="ssr:stedsnr" v="169493" />
	</node>
	<node id="-856" lat="60.0893833303" lon="12.0363416655">
		<tag k="building" v="farm_auxiliary" />
		<tag k="name" v="Hauger" />
		<tag k="place" v="locality" />
		<tag k="ssr:stedsnr" v="66719" />
	</node>
	<node id="-174" lat="60.035000003" lon="12.0888999961">
		<tag k="name" v="Velantun" />
		<tag k="place" v="farm" />
		<tag k="ssr:stedsnr" v="309653" />
	</node>
	<node id="-1110" lat="59.9469527797" lon="12.0707277808">
		<tag k="name" v="Oppgarden" />
		<tag k="place" v="farm" />
		<tag k="ssr:stedsnr" v="169303" />
	</node>
	<node id="-1099" lat="59.9632166634" lon="12.1458472265">
		<tag k="name" v="Torestua" />
		<tag k="place" v="farm" />
		<tag k="ssr:stedsnr" v="169227" />
	</node>
	<node id="-1097" lat="59.974594443" lon="12.1146861039">
		<tag k="name" v="Nordstuen" />
		<tag k="place" v="farm" />
		<tag k="ssr:stedsnr" v="169215" />
	</node>
	<node id="-1095" lat="59.9196777768" lon="12.089086105">
		<tag k="name" v="Søndre Sjøenden" />
		<tag k="place" v="farm" />
		<tag k="ssr:stedsnr" v="169199" />
	</node>
	<node id="-1092" lat="60.0541083323" lon="12.0528333246">
		<tag k="building" v="cabin" />
		<tag k="name" v="Eriksteppa" />
		<tag k="place" v="isolated_dwelling" />
		<tag k="ssr:stedsnr" v="169192" />
	</node>
	<node id="-1085" lat="59.9709861155" lon="12.164647222">
		<tag k="name" v="Østby" />
		<tag k="place" v="farm" />
		<tag k="ssr:stedsnr" v="169129" />
	</node>
	<node id="-1078" lat="59.9375222192" lon="12.1693666701">
		<tag k="name" v="Nymoen" />
		<tag k="place" v="farm" />
		<tag k="ssr:stedsnr" v="169081" />
	</node>
	<node id="-1076" lat="59.9395472244" lon="12.2021277868">
		<tag k="name" v="Åbo" />
		<tag k="place" v="farm" />
		<tag k="ssr:stedsnr" v="169074" />
	</node>
	<node id="-1073" lat="60.0970861074" lon="12.2449388826">
		<tag k="building" v="cabin" />
		<tag k="name" v="Lomvik koja" />
		<tag k="place" v="isolated_dwelling" />
		<tag k="ssr:stedsnr" v="169053" />
	</node>
	<node id="-168" lat="59.9904250001" lon="12.1595138803">
		<tag k="name" v="Ilagsbakken" />
		<tag k="place" v="farm" />
		<tag k="ssr:stedsnr" v="309424" />
	</node>
	<node id="-1071" lat="59.9505583357" lon="11.9447944366">
		<tag k="name" v="Søndre Hornlia" />
		<tag k="place" v="farm" />
		<tag k="ssr:stedsnr" v="169035" />
	</node>
	<node id="-1069" lat="60.0975055514" lon="12.2100194379">
		<tag k="building" v="cabin" />
		<tag k="name" v="Karlsro" />
		<tag k="place" v="isolated_dwelling" />
		<tag k="ssr:stedsnr" v="169019" />
	</node>
	<node id="-1066" lat="59.9392055584" lon="12.1473388973">
		<tag k="name" v="Nord-Gjellaren" />
		<tag k="place" v="farm" />
		<tag k="ssr:stedsnr" v="168883" />
	</node>
	<node id="-172" lat="60.087213885" lon="11.9909777692">
		<tag k="name" v="Tråstadkjølen" />
		<tag k="place" v="farm" />
		<tag k="ssr:stedsnr" v="309727" />
	</node>
	<node id="-1059" lat="59.9048138924" lon="11.9813638974">
		<tag k="fixme" v="consider place=farm" />
		<tag k="name" v="Bakka" />
		<tag k="place" v="isolated_dwelling" />
		<tag k="ssr:stedsnr" v="168068" />
	</node>
	<node id="-1056" lat="60.026802777" lon="12.0895194532">
		<tag k="alt_name" v="Søndre Nordkisen;Kisen" />
		<tag k="name" v="Søndre Nordkisa" />
		<tag k="place" v="farm" />
		<tag k="ssr:stedsnr" v="163723" />
	</node>
	<node id="-858" lat="60.0904250005" lon="12.1310000065">
		<tag k="name" v="Korskjølen" />
		<tag k="place" v="farm" />
		<tag k="ssr:stedsnr" v="66726" />
	</node>
	<node id="-1050" lat="60.0054999973" lon="12.3092527798">
		<tag k="name" v="Billingsøberget" />
		<tag k="place" v="farm" />
		<tag k="ssr:stedsnr" v="157960" />
	</node>
	<node id="-1045" lat="60.0384583355" lon="11.9448277859">
		<tag k="building" v="cabin" />
		<tag k="name" v="Pisenga" />
		<tag k="place" v="isolated_dwelling" />
		<tag k="ssr:stedsnr" v="127714" />
	</node>
	<node id="-1044" lat="60.0417277801" lon="12.0390249915">
		<tag k="name" v="Enga" />
		<tag k="place" v="farm" />
		<tag k="ssr:stedsnr" v="127673" />
	</node>
	<node id="-1043" lat="60.0433250029" lon="12.1180999963">
		<tag k="name" v="Tukun" />
		<tag k="place" v="farm" />
		<tag k="ssr:stedsnr" v="127665" />
	</node>
	<node id="-1042" lat="59.9826527765" lon="12.0412361065">
		<tag k="name" v="Snesbølmoen" />
		<tag k="place" v="farm" />
		<tag k="ssr:stedsnr" v="127540" />
	</node>
	<node id="-1041" lat="59.9757527818" lon="11.9720305479">
		<tag k="name" v="Fløytmoen" />
		<tag k="place" v="farm" />
		<tag k="ssr:stedsnr" v="127527" />
	</node>
	<node id="-444" lat="59.9894722189" lon="12.344802786">
		<tag k="leisure" v="pitch" />
		<tag k="name" v="Finnsrud idrettsplass" />
		<tag k="ssr:stedsnr" v="412374" />
	</node>
	<node id="-1039" lat="59.9916305591" lon="12.1900166587">
		<tag k="name" v="Kaldbakk" />
		<tag k="place" v="farm" />
		<tag k="ssr:stedsnr" v="127521" />
	</node>
	<node id="-1036" lat="60.0025666702" lon="12.3140888875">
		<tag k="alt_name" v="Strand Øvre" />
		<tag k="name" v="Strand" />
		<tag k="place" v="farm" />
		<tag k="ssr:stedsnr" v="127207" />
	</node>
	<node id="-1035" lat="59.8904888914" lon="11.9383499982">
		<tag k="name" v="Rudsvika" />
		<tag k="place" v="farm" />
		<tag k="ssr:stedsnr" v="127202" />
	</node>
	<node id="-1033" lat="59.9053138893" lon="12.1269999982">
		<tag k="building" v="cabin" />
		<tag k="name" v="Lassefallet" />
		<tag k="place" v="isolated_dwelling" />
		<tag k="ssr:stedsnr" v="127189" />
	</node>
	<node id="-1032" lat="59.9466138908" lon="12.1203749997">
		<tag k="name" v="Strømstad" />
		<tag k="place" v="farm" />
		<tag k="ssr:stedsnr" v="127299" />
	</node>
	<node id="-1031" lat="59.9393472248" lon="12.0208972289">
		<tag k="name" v="Franserud" />
		<tag k="place" v="farm" />
		<tag k="ssr:stedsnr" v="127288" />
	</node>
	<node id="-1030" lat="59.9418222215" lon="11.9935500078">
		<tag k="alt_name" v="Søheim" />
		<tag k="name" v="Sørheim" />
		<tag k="place" v="farm" />
		<tag k="ssr:stedsnr" v="127284" />
	</node>
	<node id="-1029" lat="59.9402555574" lon="12.0851277759">
		<tag k="alt_name" v="Åstebølbråten" />
		<tag k="name" v="Bråtan" />
		<tag k="place" v="farm" />
		<tag k="ssr:stedsnr" v="127283" />
	</node>
	<node id="-1027" lat="60.0190527805" lon="12.1741027709">
		<tag k="building" v="cabin" />
		<tag k="name" v="Sæterlia" />
		<tag k="place" v="isolated_dwelling" />
		<tag k="ssr:stedsnr" v="126865" />
	</node>
	<node id="-1026" lat="60.1232277817" lon="12.2205638911">
		<tag k="alt_name" v="Korsgård" />
		<tag k="name" v="Korsgarden" />
		<tag k="place" v="farm" />
		<tag k="ssr:stedsnr" v="126933" />
	</node>
	<node id="-1025" lat="60.000874998" lon="11.9009833335">
		<tag k="name" v="Vangen" />
		<tag k="place" v="farm" />
		<tag k="ssr:stedsnr" v="126853" />
	</node>
	<node id="-1024" lat="60.0031333347" lon="12.1296222147">
		<tag k="fixme" v="consider place=hamlet" />
		<tag k="name" v="Hesbøl" />
		<tag k="place" v="farm" />
		<tag k="ssr:stedsnr" v="126844" />
	</node>
	<node id="-1022" lat="60.131713893" lon="12.2060166698">
		<tag k="name" v="Rælingen" />
		<tag k="place" v="farm" />
		<tag k="ssr:stedsnr" v="126551" />
	</node>
	<node id="-1019" lat="60.0161166661" lon="12.0179361146">
		<tag k="building" v="cabin" />
		<tag k="name" v="Granerud" />
		<tag k="place" v="isolated_dwelling" />
		<tag k="ssr:stedsnr" v="126634" />
	</node>
	<node id="-1016" lat="59.9664138908" lon="12.3391833353">
		<tag k="name" v="Billa" />
		<tag k="place" v="farm" />
		<tag k="ssr:stedsnr" v="126203" />
	</node>
	<node id="-1015" lat="59.9646999978" lon="12.230350003">
		<tag k="name" v="Olsrud" />
		<tag k="place" v="farm" />
		<tag k="ssr:stedsnr" v="126200" />
	</node>
	<node id="-1014" lat="59.9734138865" lon="12.2445444433">
		<tag k="name" v="Bentenga" />
		<tag k="place" v="farm" />
		<tag k="ssr:stedsnr" v="126198" />
	</node>
	<node id="-1013" lat="59.9723055517" lon="12.2238555623">
		<tag k="name" v="Østby" />
		<tag k="place" v="farm" />
		<tag k="ssr:stedsnr" v="126195" />
	</node>
	<node id="-1012" lat="59.9760611149" lon="12.3358333277">
		<tag k="name" v="Bjørndalen" />
		<tag k="place" v="farm" />
		<tag k="ssr:stedsnr" v="126189" />
	</node>
	<node id="-1010" lat="59.9775444441" lon="12.1096861166">
		<tag k="alt_name" v="Trandembråten" />
		<tag k="loc_name" v="Trandemsbråtan" />
		<tag k="name" v="Bråtan" />
		<tag k="place" v="farm" />
		<tag k="ssr:stedsnr" v="126462" />
	</node>
	<node id="-1008" lat="59.9919527758" lon="12.1789083344">
		<tag k="name" v="Høgåsen" />
		<tag k="place" v="farm" />
		<tag k="ssr:stedsnr" v="126383" />
	</node>
	<node id="-1007" lat="59.9573194408" lon="11.9695666675">
		<tag k="alt_name" v="Knutsbrua" />
		<tag k="name" v="Knutbrua" />
		<tag k="place" v="farm" />
		<tag k="ssr:stedsnr" v="126289" />
	</node>
	<node id="-1005" lat="59.9509222183" lon="12.2015138937">
		<tag k="name" v="Magnor" />
		<tag k="place" v="village" />
		<tag k="ssr:stedsnr" v="126268" />
	</node>
	<node id="-1004" lat="59.9598416638" lon="12.2017777783">
		<tag k="name" v="Solås" />
		<tag k="place" v="farm" />
		<tag k="ssr:stedsnr" v="126266" />
	</node>
	<node id="-1003" lat="59.9469249966" lon="12.0197805496">
		<tag k="fixme" v="consider place=hamlet" />
		<tag k="name" v="Rasta" />
		<tag k="place" v="farm" />
		<tag k="ssr:stedsnr" v="126257" />
	</node>
	<node id="-1002" lat="59.8914833346" lon="11.8255861102">
		<tag k="name" v="Krokstadneset" />
		<tag k="place" v="farm" />
		<tag k="ssr:stedsnr" v="126175" />
	</node>
	<node id="-993" lat="60.0448222232" lon="12.2790444522">
		<tag k="name" v="Nordset" />
		<tag k="old_name" v="Nordby" />
		<tag k="place" v="farm" />
		<tag k="ssr:stedsnr" v="126002" />
	</node>
	<node id="-164" lat="59.9094138898" lon="11.9602750055">
		<tag k="name" v="Langsrud" />
		<tag k="place" v="farm" />
		<tag k="ssr:stedsnr" v="309374" />
	</node>
	<node id="-846" lat="59.9843138854" lon="11.9958416647">
		<tag k="name" v="Filbakk" />
		<tag k="place" v="farm" />
		<tag k="ssr:stedsnr" v="66457" />
	</node>
	<node id="-169" lat="59.9771944405" lon="12.0123138912">
		<tag k="alt_name" v="Kjernsli" />
		<tag k="loc_name" v="Tjennsli" />
		<tag k="name" v="Tjernsli" />
		<tag k="place" v="farm" />
		<tag k="ssr:stedsnr" v="309492" />
	</node>
	<node id="-972" lat="59.9432916672" lon="11.9959638859">
		<tag k="name" v="Nyborg" />
		<tag k="place" v="farm" />
		<tag k="ssr:stedsnr" v="109558" />
	</node>
	<node id="-970" lat="60.0173666696" lon="12.0552027804">
		<tag k="name" v="Liset" />
		<tag k="place" v="farm" />
		<tag k="ssr:stedsnr" v="109532" />
	</node>
	<node id="-969" lat="60.0550888909" lon="12.0848305603">
		<tag k="name" v="Sæterlia" />
		<tag k="place" v="farm" />
		<tag k="ssr:stedsnr" v="109529" />
	</node>
	<node id="-968" lat="60.034555556" lon="12.1201555531">
		<tag k="name" v="Skubbersengbakken" />
		<tag k="place" v="farm" />
		<tag k="ssr:stedsnr" v="109525" />
	</node>
	<node id="-967" lat="60.102986107" lon="12.110519453">
		<tag k="name" v="Nystuen" />
		<tag k="place" v="farm" />
		<tag k="ssr:stedsnr" v="109512" />
	</node>
	<node id="-966" lat="60.0525055518" lon="11.9221722274">
		<tag k="name" v="Bjørnstadsæter" />
		<tag k="place" v="locality" />
		<tag k="ssr:stedsnr" v="109350" />
	</node>
	<node id="-965" lat="59.9266416626" lon="12.2214527801">
		<tag k="name" v="Nordre Vilsberg" />
		<tag k="place" v="farm" />
		<tag k="ssr:stedsnr" v="109341" />
	</node>
	<node id="-964" lat="60.0060805529" lon="12.0753222133">
		<tag k="name" v="Sørstuen" />
		<tag k="old_name" v="Rambøl" />
		<tag k="place" v="farm" />
		<tag k="ssr:stedsnr" v="109272" />
	</node>
	<node id="-963" lat="59.9602833362" lon="11.9731305511">
		<tag k="name" v="Øst-Moen" />
		<tag k="place" v="farm" />
		<tag k="ssr:stedsnr" v="109200" />
	</node>
	<node id="-962" lat="59.9294888868" lon="12.1726472179">
		<tag k="fixme" v="consider place=farm" />
		<tag k="name" v="Solås" />
		<tag k="place" v="isolated_dwelling" />
		<tag k="ssr:stedsnr" v="109136" />
	</node>
	<node id="-961" lat="60.0071234368" lon="12.0922191147">
		<tag k="fixme" v="multiple name tags, choose one and add the other to alt_name" />
		<tag k="name" v="Berger;Øgarden" />
		<tag k="old_name" v="Ødegaarden" />
		<tag k="place" v="farm" />
		<tag k="ssr:stedsnr" v="109102" />
	</node>
	<node id="-960" lat="60.060494445" lon="12.2203083405">
		<tag k="name" v="Baksjøberget" />
		<tag k="place" v="farm" />
		<tag k="ssr:stedsnr" v="109046" />
	</node>
	<node id="-160" lat="59.9447500001" lon="11.9939083329">
		<tag k="name" v="Jerpset" />
		<tag k="place" v="farm" />
		<tag k="ssr:stedsnr" v="309316" />
	</node>
	<node id="-3004" lat="59.9719527809" lon="12.0599305642">
		<tag k="amenity" v="school" />
		<tag k="name" v="Tollefsbøl skole" />
		<tag k="ssr:stedsnr" v="958728" />
	</node>
	<node id="-159" lat="59.9485888906" lon="12.0599305477">
		<tag k="alt_name" v="Nordhaga" />
		<tag k="loc_name" v="Hagan" />
		<tag k="name" v="Haget" />
		<tag k="place" v="farm" />
		<tag k="ssr:stedsnr" v="309308" />
	</node>
	<node id="-2994" lat="59.9391444468" lon="12.0764833348">
		<tag k="name" v="Åstebølhagen" />
		<tag k="place" v="farm" />
		<tag k="ssr:stedsnr" v="958615" />
	</node>
	<node id="-2993" lat="60.0714694437" lon="12.2391250006">
		<tag k="name" v="Enderud" />
		<tag k="place" v="farm" />
		<tag k="ssr:stedsnr" v="958606" />
	</node>
	<node id="-2992" lat="59.9847888852" lon="12.1747472241">
		<tag k="name" v="Nedgarden" />
		<tag k="place" v="farm" />
		<tag k="ssr:stedsnr" v="958598" />
	</node>
	<node id="-2991" lat="59.9607499986" lon="12.2122500008">
		<tag k="name" v="Haugen" />
		<tag k="place" v="farm" />
		<tag k="ssr:stedsnr" v="958578" />
	</node>
	<node id="-2990" lat="59.9371194449" lon="12.2198694372">
		<tag k="name" v="Vangsvik" />
		<tag k="place" v="farm" />
		<tag k="ssr:stedsnr" v="958576" />
	</node>
	<node id="-2985" lat="59.9684833304" lon="12.1419472269">
		<tag k="name" v="Solås" />
		<tag k="place" v="farm" />
		<tag k="ssr:stedsnr" v="958543" />
	</node>
	<node id="-2983" lat="60.0139666682" lon="12.1307277833">
		<tag k="fixme" v="consider place=hamlet" />
		<tag k="name" v="Grønnerud" />
		<tag k="place" v="farm" />
		<tag k="ssr:stedsnr" v="958527" />
	</node>
	<node id="-361" lat="60.0206000035" lon="12.1190333319">
		<tag k="name" v="Midtskog" />
		<tag k="place" v="farm" />
		<tag k="ssr:stedsnr" v="369864" />
	</node>
	<node id="-852" lat="60.0448750028" lon="11.897025002">
		<tag k="building" v="cabin" />
		<tag k="name" v="Bekken" />
		<tag k="place" v="isolated_dwelling" />
		<tag k="ssr:stedsnr" v="66651" />
	</node>
	<node id="-2976" lat="60.1322388923" lon="12.2310166608">
		<tag k="name" v="Østli" />
		<tag k="place" v="farm" />
		<tag k="ssr:stedsnr" v="958483" />
	</node>
	<node id="-170" lat="60.1037611133" lon="12.1088777864">
		<tag k="name" v="Øgarden" />
		<tag k="place" v="farm" />
		<tag k="ssr:stedsnr" v="309720" />
	</node>
	<node id="-2971" lat="59.9780444425" lon="12.0515916598">
		<tag k="name" v="Tollefstad" />
		<tag k="place" v="farm" />
		<tag k="ssr:stedsnr" v="958425" />
	</node>
	<node id="-2969" lat="59.9896972251" lon="12.3316749937">
		<tag k="name" v="Brobakken" />
		<tag k="place" v="farm" />
		<tag k="ssr:stedsnr" v="958414" />
	</node>
	<node id="-2968" lat="59.9349083308" lon="12.0066638944">
		<tag k="name" v="Granlund" />
		<tag k="place" v="farm" />
		<tag k="ssr:stedsnr" v="958412" />
	</node>
	<node id="-2967" lat="59.9861305543" lon="12.3362055525">
		<tag k="name" v="Søndre Bekkenga" />
		<tag k="place" v="farm" />
		<tag k="ssr:stedsnr" v="958413" />
	</node>
	<node id="-2965" lat="59.9490861093" lon="11.9399083324">
		<tag k="name" v="Øvre Rambølsmyra" />
		<tag k="place" v="farm" />
		<tag k="ssr:stedsnr" v="958349" />
	</node>
	<node id="-2964" lat="60.0574972246" lon="11.8665361182">
		<tag k="building" v="cabin" />
		<tag k="name" v="Børli" />
		<tag k="place" v="isolated_dwelling" />
		<tag k="ssr:stedsnr" v="958345" />
	</node>
	<node id="-835" lat="59.9941888862" lon="12.1393666587">
		<tag k="alt_name" v="Åsly" />
		<tag k="fixme" v="consider place=farm" />
		<tag k="name" v="Åsli" />
		<tag k="place" v="isolated_dwelling" />
		<tag k="ssr:stedsnr" v="66361" />
	</node>
	<node id="-2960" lat="60.1021138871" lon="12.1079055564">
		<tag k="name" v="Kroken" />
		<tag k="place" v="farm" />
		<tag k="ssr:stedsnr" v="958325" />
	</node>
	<node id="-2956" lat="59.9432277751" lon="12.14296945">
		<tag k="name" v="Bjørneby" />
		<tag k="place" v="farm" />
		<tag k="ssr:stedsnr" v="958266" />
	</node>
	<node id="-2952" lat="59.970261114" lon="12.1284861075">
		<tag k="name" v="Repset" />
		<tag k="place" v="farm" />
		<tag k="ssr:stedsnr" v="958245" />
	</node>
	<node id="-2951" lat="59.9899583308" lon="12.2553388816">
		<tag k="name" v="Støvelholet" />
		<tag k="place" v="farm" />
		<tag k="ssr:stedsnr" v="958236" />
	</node>
	<node id="-2950" lat="60.0281861111" lon="11.9715555551">
		<tag k="name" v="Havmyrlia" />
		<tag k="place" v="farm" />
		<tag k="ssr:stedsnr" v="958228" />
	</node>
	<node id="-2949" lat="60.1150083361" lon="12.2669972259">
		<tag k="name" v="Steffenstorpet" />
		<tag k="place" v="farm" />
		<tag k="ssr:stedsnr" v="958204" />
	</node>
	<node id="-2948" lat="60.0030861079" lon="12.2041972291">
		<tag k="name" v="Tukun" />
		<tag k="place" v="farm" />
		<tag k="ssr:stedsnr" v="958205" />
	</node>
	<node id="-2947" lat="59.9810861149" lon="12.1749916582">
		<tag k="name" v="Søndre Ilag" />
		<tag k="place" v="farm" />
		<tag k="ssr:stedsnr" v="958198" />
	</node>
	<node id="-2945" lat="60.0206472221" lon="12.3025555485">
		<tag k="name" v="Revlemoen" />
		<tag k="place" v="farm" />
		<tag k="ssr:stedsnr" v="958155" />
	</node>
	<node id="-2943" lat="59.923419445" lon="11.9748916636">
		<tag k="name" v="Vestgarden Rambøl" />
		<tag k="place" v="farm" />
		<tag k="ssr:stedsnr" v="958113" />
	</node>
	<node id="-2942" lat="59.9255333291" lon="12.2234472272">
		<tag k="name" v="Søndre Vilsberg" />
		<tag k="place" v="farm" />
		<tag k="ssr:stedsnr" v="958110" />
	</node>
	<node id="-893" lat="60.063086113" lon="12.2599694474">
		<tag k="amenity" v="school" />
		<tag k="name" v="Enderud skole" />
		<tag k="ssr:stedsnr" v="108174" />
	</node>
	<node id="-2940" lat="60.1054861094" lon="12.1335027745">
		<tag k="name" v="Lomtjennbakken" />
		<tag k="place" v="farm" />
		<tag k="ssr:stedsnr" v="958086" />
	</node>
	<node id="-490" lat="59.936358333" lon="12.1542638919">
		<tag k="name" v="Nordhagen" />
		<tag k="place" v="farm" />
		<tag k="ssr:stedsnr" v="897030" />
	</node>
	<node id="-489" lat="59.8847916643" lon="11.8431250058">
		<tag k="name" v="Søndre Sandbakken" />
		<tag k="place" v="farm" />
		<tag k="ssr:stedsnr" v="896168" />
	</node>
	<node id="-2932" lat="59.9091638905" lon="11.9849361122">
		<tag k="name" v="Klanderud" />
		<tag k="place" v="farm" />
		<tag k="ssr:stedsnr" v="958006" />
	</node>
	<node id="-2931" lat="60.0680166668" lon="12.06020555">
		<tag k="building" v="cabin" />
		<tag k="name" v="Grasmosætra" />
		<tag k="place" v="isolated_dwelling" />
		<tag k="ssr:stedsnr" v="958002" />
	</node>
	<node id="-878" lat="59.9326361088" lon="12.1828805539">
		<tag k="name" v="Vangen" />
		<tag k="place" v="farm" />
		<tag k="ssr:stedsnr" v="107820" />
	</node>
	<node id="-877" lat="60.0155111141" lon="12.1299694358">
		<tag k="name" v="Pellerud" />
		<tag k="place" v="farm" />
		<tag k="ssr:stedsnr" v="107150" />
	</node>
	<node id="-2924" lat="59.95112222" lon="12.1774666695">
		<tag k="leisure" v="pitch" />
		<tag k="name" v="Magnor Travbane" />
		<tag k="ssr:stedsnr" v="957531" />
	</node>
	<node id="-875" lat="59.9963999973" lon="12.0441861132">
		<tag k="name" v="Vestheim" />
		<tag k="place" v="farm" />
		<tag k="ssr:stedsnr" v="107122" />
	</node>
	<node id="-2921" lat="59.9244666639" lon="11.9860083321">
		<tag k="name" v="Nestun" />
		<tag k="place" v="farm" />
		<tag k="ssr:stedsnr" v="957160" />
	</node>
	<node id="-2920" lat="60.0951861142" lon="12.2110249964">
		<tag k="name" v="Sæteren" />
		<tag k="place" v="farm" />
		<tag k="ssr:stedsnr" v="958024" />
	</node>
	<node id="-827" lat="59.955722218" lon="12.0068972147">
		<tag k="alt_name" v="Vestli nordre" />
		<tag k="name" v="Vestli" />
		<tag k="place" v="farm" />
		<tag k="ssr:stedsnr" v="66305" />
	</node>
	<node id="-864" lat="60.0231500016" lon="12.323166659">
		<tag k="name" v="Billingsøsætra" />
		<tag k="place" v="locality" />
		<tag k="ssr:stedsnr" v="97950" />
	</node>
	<node id="-862" lat="59.8922888931" lon="12.0437333421">
		<tag k="name" v="Ingelsrudøya" />
		<tag k="old_name" v="Øya indre" />
		<tag k="place" v="farm" />
		<tag k="ssr:stedsnr" v="82019" />
	</node>
	<node id="-2906" lat="59.9969972199" lon="12.2254249979">
		<tag k="name" v="Forkerud" />
		<tag k="place" v="farm" />
		<tag k="ssr:stedsnr" v="931253" />
	</node>
	<node id="-2905" lat="60.1045472188" lon="12.1398361124">
		<tag k="alt_name" v="Pramhus, nordre;Pramhus" />
		<tag k="name" v="Nordre Pramhus" />
		<tag k="place" v="farm" />
		<tag k="ssr:stedsnr" v="916755" />
	</node>
	<node id="-2904" lat="60.1037305576" lon="12.2112138804">
		<tag k="alt_name" v="Pramhussæter" />
		<tag k="name" v="Pramhussætra" />
		<tag k="place" v="farm" />
		<tag k="ssr:stedsnr" v="916753" />
	</node>
	<node id="-855" lat="60.1009138885" lon="12.1262361068">
		<tag k="name" v="Åklangenga" />
		<tag k="place" v="farm" />
		<tag k="ssr:stedsnr" v="66711" />
	</node>
	<node id="-2900" lat="60.0346611136" lon="11.9101694387">
		<tag k="alt_name" v="Steineien" />
		<tag k="name" v="Steineia" />
		<tag k="place" v="farm" />
		<tag k="ssr:stedsnr" v="916715" />
	</node>
	<node id="-142" lat="59.9678333305" lon="11.8021250076">
		<tag k="building" v="cabin" />
		<tag k="name" v="Sandvika" />
		<tag k="place" v="isolated_dwelling" />
		<tag k="ssr:stedsnr" v="308982" />
	</node>
	<node id="-850" lat="60.0205305567" lon="11.9515388908">
		<tag k="historic" v="shieling" />
		<tag k="name" v="Vestfjellsætra" />
		<tag k="place" v="locality" />
		<tag k="ssr:stedsnr" v="66638" />
	</node>
	<node id="-2897" lat="60.1398555516" lon="12.153250006">
		<tag k="name" v="Grønkjølen" />
		<tag k="place" v="farm" />
		<tag k="ssr:stedsnr" v="916554" />
	</node>
	<node id="-2896" lat="59.9832388873" lon="11.9657250082">
		<tag k="name" v="Mobekk" />
		<tag k="place" v="hamlet" />
		<tag k="ssr:stedsnr" v="916516" />
	</node>
	<node id="-824" lat="59.9438055534" lon="11.9849638891">
		<tag k="name" v="Harstadfoss" />
		<tag k="place" v="farm" />
		<tag k="ssr:stedsnr" v="66279" />
	</node>
	<node id="-2894" lat="59.9120999979" lon="11.9777583295">
		<tag k="name" v="Svarthaugen" />
		<tag k="place" v="farm" />
		<tag k="ssr:stedsnr" v="916354" />
	</node>
	<node id="-2893" lat="59.9137250014" lon="12.091200005">
		<tag k="name" v="Reppshussætra" />
		<tag k="place" v="farm" />
		<tag k="ssr:stedsnr" v="916344" />
	</node>
	<node id="-844" lat="59.956156009" lon="11.8680027821">
		<tag k="alt_name" v="Hedumholtet" />
		<tag k="name" v="Hedumsholtet" />
		<tag k="place" v="farm" />
		<tag k="ssr:stedsnr" v="66446" />
	</node>
	<node id="-2891" lat="59.9614388869" lon="12.1218555512">
		<tag k="name" v="Åsli" />
		<tag k="place" v="farm" />
		<tag k="ssr:stedsnr" v="916310" />
	</node>
	<node id="-842" lat="59.9693333315" lon="11.9975027713">
		<tag k="alt_name" v="Høiby" />
		<tag k="name" v="Høyby" />
		<tag k="place" v="farm" />
		<tag k="ssr:stedsnr" v="66413" />
	</node>
	<node id="-2887" lat="59.9357611095" lon="11.9901416648">
		<tag k="fixme" v="consider place=farm" />
		<tag k="name" v="Buåa" />
		<tag k="place" v="isolated_dwelling" />
		<tag k="ssr:stedsnr" v="916267" />
	</node>
	<node id="-2886" lat="59.9393000029" lon="12.0619499972">
		<tag k="name" v="Skogli" />
		<tag k="place" v="farm" />
		<tag k="ssr:stedsnr" v="916264" />
	</node>
	<node id="-837" lat="59.9891499992" lon="11.8485111188">
		<tag k="alt_name" v="Hundeengene" />
		<tag k="building" v="cabin" />
		<tag k="name" v="Hundengene" />
		<tag k="place" v="isolated_dwelling" />
		<tag k="ssr:stedsnr" v="66367" />
	</node>
	<node id="-836" lat="59.9927194439" lon="12.2007472262">
		<tag k="alt_name" v="Bråten" />
		<tag k="name" v="Bråtan" />
		<tag k="place" v="farm" />
		<tag k="ssr:stedsnr" v="66366" />
	</node>
	<node id="-2883" lat="59.9610861096" lon="12.2569222147">
		<tag k="name" v="Avsi" />
		<tag k="place" v="farm" />
		<tag k="ssr:stedsnr" v="916226" />
	</node>
	<node id="-2882" lat="59.9746305547" lon="12.3353500077">
		<tag k="name" v="Åsheim" />
		<tag k="place" v="farm" />
		<tag k="ssr:stedsnr" v="916218" />
	</node>
	<node id="-831" lat="59.9257138879" lon="12.1315805644">
		<tag k="alt_name" v="Nedre Nysætra" />
		<tag k="historic" v="shieling" />
		<tag k="name" v="Nysætra" />
		<tag k="place" v="locality" />
		<tag k="ssr:stedsnr" v="66331" />
	</node>
	<node id="-2878" lat="60.006747226" lon="12.223925002">
		<tag k="name" v="Nordby" />
		<tag k="place" v="farm" />
		<tag k="ssr:stedsnr" v="916055" />
	</node>
	<node id="-2877" lat="60.0237000025" lon="12.2791500015">
		<tag k="name" v="Storneset" />
		<tag k="place" v="farm" />
		<tag k="ssr:stedsnr" v="916045" />
	</node>
	<node id="-828" lat="59.9139888881" lon="12.1302000054">
		<tag k="name" v="Strutmyra" />
		<tag k="place" v="farm" />
		<tag k="ssr:stedsnr" v="66316" />
	</node>
	<node id="-2875" lat="60.0322138865" lon="12.2700694531">
		<tag k="name" v="Røsskjølen" />
		<tag k="place" v="farm" />
		<tag k="ssr:stedsnr" v="916025" />
	</node>
	<node id="-825" lat="59.962041666" lon="12.141941673">
		<tag k="fixme" v="consider place=hamlet" />
		<tag k="name" v="Rønningen" />
		<tag k="place" v="farm" />
		<tag k="ssr:stedsnr" v="66289" />
	</node>
	<node id="-2872" lat="60.1144833297" lon="12.2200000036">
		<tag k="name" v="Olsrud" />
		<tag k="place" v="farm" />
		<tag k="ssr:stedsnr" v="915947" />
	</node>
	<node id="-822" lat="59.9381611106" lon="11.9004000024">
		<tag k="name" v="Nordstuen" />
		<tag k="place" v="farm" />
		<tag k="ssr:stedsnr" v="66255" />
	</node>
	<node id="-137" lat="60.0106944476" lon="12.083150008">
		<tag k="name" v="Nordstuen" />
		<tag k="place" v="farm" />
		<tag k="ssr:stedsnr" v="308857" />
	</node>
	<node id="-820" lat="59.9385583355" lon="12.0136388806">
		<tag k="name" v="Rognlia" />
		<tag k="place" v="farm" />
		<tag k="ssr:stedsnr" v="66242" />
	</node>
	<node id="-2867" lat="60.085030557" lon="12.0669611115">
		<tag k="name" v="Dalsberget" />
		<tag k="place" v="farm" />
		<tag k="ssr:stedsnr" v="915743" />
	</node>
	<node id="-818" lat="60.0014000023" lon="12.3039750045">
		<tag k="name" v="Vestheim" />
		<tag k="place" v="farm" />
		<tag k="ssr:stedsnr" v="66186" />
	</node>
	<node id="-2865" lat="60.09438056" lon="12.1463722174">
		<tag k="alt_name" v="Pramhus, s" />
		<tag k="name" v="Søndre Pramhus" />
		<tag k="place" v="farm" />
		<tag k="ssr:stedsnr" v="915723" />
	</node>
	<node id="-816" lat="59.893283333" lon="12.0982999971">
		<tag k="alt_name" v="Repshusvangen nordre" />
		<tag k="loc_name" v="Vangen" />
		<tag k="name" v="Reppshusvangen" />
		<tag k="place" v="farm" />
		<tag k="ssr:stedsnr" v="66178" />
	</node>
	<node id="-815" lat="59.8968861083" lon="12.0978416671">
		<tag k="alt_name" v="Repshusplassen" />
		<tag k="name" v="Plassen" />
		<tag k="place" v="farm" />
		<tag k="ssr:stedsnr" v="66174" />
	</node>
	<node id="-814" lat="59.90232778" lon="11.9940027808">
		<tag k="name" v="Tønnes" />
		<tag k="place" v="farm" />
		<tag k="ssr:stedsnr" v="66159" />
	</node>
	<node id="-2861" lat="60.0730861105" lon="12.0246972157">
		<tag k="name" v="Sagåsen" />
		<tag k="place" v="farm" />
		<tag k="ssr:stedsnr" v="915677" />
	</node>
	<node id="-2860" lat="60.0855777764" lon="12.1630777836">
		<tag k="name" v="Gusterudmoen" />
		<tag k="place" v="farm" />
		<tag k="ssr:stedsnr" v="915673" />
	</node>
	<node id="-810" lat="59.8867444433" lon="11.8574444429">
		<tag k="name" v="Skjønneborg" />
		<tag k="place" v="farm" />
		<tag k="ssr:stedsnr" v="66125" />
	</node>
	<node id="-2856" lat="60.0336055551" lon="12.0909277819">
		<tag k="name" v="Moa" />
		<tag k="place" v="farm" />
		<tag k="ssr:stedsnr" v="915611" />
	</node>
	<node id="-2855" lat="60.0266944416" lon="12.0258750083">
		<tag k="name" v="Bråtan" />
		<tag k="place" v="locality" />
		<tag k="ssr:stedsnr" v="915609" />
	</node>
	<node id="-2854" lat="59.9723583358" lon="12.0365555555">
		<tag k="name" v="Knepperud" />
		<tag k="place" v="farm" />
		<tag k="ssr:stedsnr" v="915439" />
	</node>
	<node id="-804" lat="59.9171527763" lon="11.8241388803">
		<tag k="alt_name" v="Løvhøgda" />
		<tag k="name" v="Lauvhøgda" />
		<tag k="place" v="farm" />
		<tag k="ssr:stedsnr" v="66019" />
	</node>
	<node id="-802" lat="60.0071999974" lon="11.914236116">
		<tag k="alt_name" v="Fjellskogen, nordre" />
		<tag k="building" v="cabin" />
		<tag k="name" v="Nordre Fjellskogen" />
		<tag k="place" v="isolated_dwelling" />
		<tag k="ssr:stedsnr" v="66843" />
	</node>
	<node id="-2849" lat="59.9399833304" lon="12.194274991">
		<tag k="fixme" v="consider place=farm" />
		<tag k="name" v="Åbo" />
		<tag k="place" v="isolated_dwelling" />
		<tag k="ssr:stedsnr" v="915349" />
	</node>
	<node id="-2848" lat="59.9368583354" lon="12.169444453">
		<tag k="alt_name" v="Østmoen" />
		<tag k="name" v="Østmo" />
		<tag k="place" v="farm" />
		<tag k="ssr:stedsnr" v="915350" />
	</node>
	<node id="-799" lat="59.9579250032" lon="11.803061114">
		<tag k="building" v="cabin" />
		<tag k="name" v="Grønvika" />
		<tag k="place" v="isolated_dwelling" />
		<tag k="ssr:stedsnr" v="65089" />
	</node>
	<node id="-2846" lat="59.9435333318" lon="12.2050027857">
		<tag k="name" v="Maridal" />
		<tag k="place" v="farm" />
		<tag k="ssr:stedsnr" v="915339" />
	</node>
	<node id="-2845" lat="59.9307361104" lon="12.2112277774">
		<tag k="name" v="Enger" />
		<tag k="place" v="farm" />
		<tag k="ssr:stedsnr" v="915328" />
	</node>
	<node id="-2843" lat="59.9198083367" lon="12.1647499922">
		<tag k="alt_name" v="Vest-Linkjølen" />
		<tag k="name" v="Vestlinkjølen" />
		<tag k="place" v="farm" />
		<tag k="ssr:stedsnr" v="915305" />
	</node>
	<node id="-2842" lat="59.9655083367" lon="12.1469638965">
		<tag k="name" v="Nordstuen Gaustad" />
		<tag k="place" v="farm" />
		<tag k="ssr:stedsnr" v="915295" />
	</node>
	<node id="-2863" lat="60.0667777776" lon="12.0137444443">
		<tag k="alt_name" v="Åkroken, nordre" />
		<tag k="name" v="Nordre Åkroken" />
		<tag k="place" v="farm" />
		<tag k="ssr:stedsnr" v="915695" />
	</node>
	<node id="-2840" lat="59.9539638848" lon="11.9730722272">
		<tag k="name" v="Finland" />
		<tag k="place" v="farm" />
		<tag k="ssr:stedsnr" v="915290" />
	</node>
	<node id="-2839" lat="59.9591222215" lon="12.0636083332">
		<tag k="name" v="Tangen" />
		<tag k="place" v="farm" />
		<tag k="ssr:stedsnr" v="915285" />
	</node>
	<node id="-2838" lat="59.948402778" lon="12.0677083364">
		<tag k="name" v="Åstebøl" />
		<tag k="place" v="hamlet" />
		<tag k="ssr:stedsnr" v="915279" />
	</node>
	<node id="-2836" lat="59.985841666" lon="12.2453111105">
		<tag k="name" v="Klanderud" />
		<tag k="place" v="farm" />
		<tag k="ssr:stedsnr" v="915224" />
	</node>
	<node id="-2835" lat="60.0683055547" lon="12.2304749935">
		<tag k="name" v="Baksjødammen" />
		<tag k="place" v="farm" />
		<tag k="ssr:stedsnr" v="915084" />
	</node>
	<node id="-2833" lat="59.8951222203" lon="11.8157444413">
		<tag k="alt_name" v="Vangen" />
		<tag k="name" v="Nord-Vangen" />
		<tag k="place" v="farm" />
		<tag k="ssr:stedsnr" v="914268" />
	</node>
	<node id="-2832" lat="59.9817250005" lon="12.3337611076">
		<tag k="name" v="Fagerli" />
		<tag k="place" v="farm" />
		<tag k="ssr:stedsnr" v="915183" />
	</node>
	<node id="-813" lat="59.901733337" lon="12.0902138969">
		<tag k="alt_name" v="Perkerud søndre" />
		<tag k="name" v="Varderud" />
		<tag k="place" v="farm" />
		<tag k="ssr:stedsnr" v="66155" />
	</node>
	<node id="-2823" lat="59.9358805587" lon="11.9915222238">
		<tag k="fixme" v="consider place=hamlet" />
		<tag k="name" v="Vestmarka" />
		<tag k="place" v="village" />
		<tag k="ssr:stedsnr" v="880157" />
	</node>
	<node id="-2822" lat="60.1337194461" lon="12.2324861196">
		<tag k="name" v="Snekkerbakken" />
		<tag k="place" v="farm" />
		<tag k="ssr:stedsnr" v="855965" />
	</node>
	<node id="-129" lat="59.9615583307" lon="11.9461111161">
		<tag k="name" v="Halvorsrud" />
		<tag k="place" v="farm" />
		<tag k="ssr:stedsnr" v="308394" />
	</node>
	<node id="-2819" lat="60.0137305561" lon="12.0441999944">
		<tag k="fixme" v="consider place=hamlet" />
		<tag k="name" v="Rinda" />
		<tag k="place" v="farm" />
		<tag k="ssr:stedsnr" v="855876" />
	</node>
	<node id="-2818" lat="60.0023083328" lon="11.9123694468">
		<tag k="fixme" v="consider place=hamlet" />
		<tag k="name" v="Fjellskogen" />
		<tag k="old_name" v="Fjeldskogen" />
		<tag k="place" v="farm" />
		<tag k="ssr:stedsnr" v="855871" />
	</node>
	<node id="-2816" lat="60.0019999974" lon="11.8977944473">
		<tag k="name" v="Sørli" />
		<tag k="place" v="farm" />
		<tag k="ssr:stedsnr" v="855867" />
	</node>
	<node id="-2815" lat="60.0110194444" lon="12.1368611149">
		<tag k="name" v="Delerud" />
		<tag k="place" v="farm" />
		<tag k="ssr:stedsnr" v="855865" />
	</node>
	<node id="-2814" lat="60.0828027733" lon="12.0674222252">
		<tag k="name" v="Mila" />
		<tag k="old_name" v="Søndre Mila" />
		<tag k="place" v="farm" />
		<tag k="ssr:stedsnr" v="855768" />
	</node>
	<node id="-2813" lat="60.0940527737" lon="12.0730500073">
		<tag k="name" v="Malmermoen" />
		<tag k="place" v="farm" />
		<tag k="ssr:stedsnr" v="855751" />
	</node>
	<node id="-2812" lat="60.0947305518" lon="12.1177749913">
		<tag k="name" v="Eidsbrua" />
		<tag k="place" v="farm" />
		<tag k="ssr:stedsnr" v="855752" />
	</node>
	<node id="-2858" lat="60.0253527747" lon="12.1085499988">
		<tag k="name" v="Skulstad" />
		<tag k="place" v="farm" />
		<tag k="ssr:stedsnr" v="915618" />
	</node>
	<node id="-2807" lat="60.0653583359" lon="12.0202250089">
		<tag k="alt_name" v="Gotlund" />
		<tag k="name" v="Godtlund" />
		<tag k="place" v="farm" />
		<tag k="ssr:stedsnr" v="855732" />
	</node>
	<node id="-2805" lat="60.0697861146" lon="12.0314749967">
		<tag k="name" v="Lindåsen" />
		<tag k="place" v="farm" />
		<tag k="ssr:stedsnr" v="855725" />
	</node>
	<node id="-756" lat="60.0429861076" lon="11.8535416601">
		<tag k="name" v="Fjellbu" />
		<tag k="place" v="locality" />
		<tag k="ssr:stedsnr" v="48327" />
	</node>
	<node id="-2802" lat="60.0572166704" lon="12.1212111182">
		<tag k="alt_name" v="Nordre Skrådal" />
		<tag k="name" v="Skrådal" />
		<tag k="place" v="farm" />
		<tag k="ssr:stedsnr" v="855691" />
	</node>
	<node id="-2801" lat="60.0553138913" lon="12.0875833333">
		<tag k="name" v="Sætra" />
		<tag k="place" v="farm" />
		<tag k="ssr:stedsnr" v="855683" />
	</node>
	<node id="-2800" lat="60.0182361124" lon="12.0875750031">
		<tag k="name" v="Kisamoen" />
		<tag k="place" v="farm" />
		<tag k="ssr:stedsnr" v="855670" />
	</node>
	<node id="-808" lat="60.0072972265" lon="12.2197444409">
		<tag k="alt_name" v="Nordheim" />
		<tag k="name" v="Nordby" />
		<tag k="place" v="farm" />
		<tag k="ssr:stedsnr" v="66050" />
	</node>
	<node id="-750" lat="59.9386305582" lon="12.1666944374">
		<tag k="name" v="Røysdalsmoen" />
		<tag k="place" v="farm" />
		<tag k="ssr:stedsnr" v="48212" />
	</node>
	<node id="-749" lat="59.9664638906" lon="12.1446527712">
		<tag k="name" v="Hagan" />
		<tag k="place" v="farm" />
		<tag k="ssr:stedsnr" v="48210" />
	</node>
	<node id="-2796" lat="60.0298055593" lon="12.0434277831">
		<tag k="name" v="Nordfjell" />
		<tag k="place" v="farm" />
		<tag k="ssr:stedsnr" v="855647" />
	</node>
	<node id="-2795" lat="60.0371750008" lon="12.0357305591">
		<tag k="name" v="Larsmoen" />
		<tag k="place" v="farm" />
		<tag k="ssr:stedsnr" v="855639" />
	</node>
	<node id="-2794" lat="60.0386999969" lon="12.1580749949">
		<tag k="fixme" v="consider place=farm" />
		<tag k="name" v="Hytta" />
		<tag k="place" v="isolated_dwelling" />
		<tag k="ssr:stedsnr" v="855635" />
	</node>
	<node id="-745" lat="60.1320972201" lon="12.2345722214">
		<tag k="name" v="Holsæterbakken" />
		<tag k="place" v="farm" />
		<tag k="ssr:stedsnr" v="48168" />
	</node>
	<node id="-743" lat="59.9746555528" lon="12.1648611085">
		<tag k="name" v="Moen" />
		<tag k="place" v="farm" />
		<tag k="ssr:stedsnr" v="48128" />
	</node>
	<node id="-742" lat="59.9798583313" lon="12.0501805557">
		<tag k="name" v="Hagan" />
		<tag k="place" v="farm" />
		<tag k="ssr:stedsnr" v="48120" />
	</node>
	<node id="-2788" lat="59.9848194402" lon="12.0443000013">
		<tag k="name" v="Snesbøl" />
		<tag k="place" v="farm" />
		<tag k="ssr:stedsnr" v="855478" />
	</node>
	<node id="-739" lat="59.9817138864" lon="12.1758500072">
		<tag k="name" v="Sørgarden" />
		<tag k="place" v="farm" />
		<tag k="ssr:stedsnr" v="48078" />
	</node>
	<node id="-738" lat="60.0304916709" lon="12.1170944435">
		<tag k="name" v="Prestegården" />
		<tag k="place" v="farm" />
		<tag k="ssr:stedsnr" v="48075" />
	</node>
	<node id="-737" lat="60.0239777758" lon="12.0996388832">
		<tag k="name" v="Skogheim" />
		<tag k="place" v="farm" />
		<tag k="ssr:stedsnr" v="48074" />
	</node>
	<node id="-843" lat="59.9786555556" lon="12.0656388843">
		<tag k="fixme" v="consider place=hamlet" />
		<tag k="name" v="Børrud" />
		<tag k="place" v="farm" />
		<tag k="ssr:stedsnr" v="66424" />
	</node>
	<node id="-161" lat="59.9541694411" lon="11.8497805522">
		<tag k="name" v="Lunderby" />
		<tag k="place" v="farm" />
		<tag k="ssr:stedsnr" v="309325" />
	</node>
	<node id="-2781" lat="59.9764555541" lon="12.0656861052">
		<tag k="name" v="Børrudhagen" />
		<tag k="place" v="farm" />
		<tag k="ssr:stedsnr" v="855440" />
	</node>
	<node id="-732" lat="60.0731138877" lon="11.9763388889">
		<tag k="building" v="cabin" />
		<tag k="name" v="Helledammen" />
		<tag k="place" v="isolated_dwelling" />
		<tag k="ssr:stedsnr" v="48055" />
	</node>
	<node id="-2779" lat="59.9666416649" lon="11.9579777732">
		<tag k="name" v="Grusjølia" />
		<tag k="place" v="farm" />
		<tag k="ssr:stedsnr" v="855425" />
	</node>
	<node id="-730" lat="60.066227774" lon="12.1111472266">
		<tag k="name" v="Sør-Dal" />
		<tag k="place" v="farm" />
		<tag k="ssr:stedsnr" v="48039" />
	</node>
	<node id="-729" lat="59.944747219" lon="12.0606472141">
		<tag k="name" v="Sydhaga" />
		<tag k="place" v="farm" />
		<tag k="ssr:stedsnr" v="48021" />
	</node>
	<node id="-728" lat="60.0554833308" lon="12.0875277719">
		<tag k="name" v="Sætra" />
		<tag k="place" v="farm" />
		<tag k="ssr:stedsnr" v="48017" />
	</node>
	<node id="-2774" lat="59.9917250038" lon="12.1708861139">
		<tag k="name" v="Solås" />
		<tag k="place" v="farm" />
		<tag k="ssr:stedsnr" v="855382" />
	</node>
	<node id="-2772" lat="59.9964777821" lon="12.0917749991">
		<tag k="alt_name" v="Grenmoen" />
		<tag k="fixme" v="consider place=farm" />
		<tag k="name" v="Stormoen" />
		<tag k="place" v="isolated_dwelling" />
		<tag k="ssr:stedsnr" v="855369" />
	</node>
	<node id="-2769" lat="59.9259777743" lon="11.9796833407">
		<tag k="name" v="Jegeråsen" />
		<tag k="place" v="farm" />
		<tag k="ssr:stedsnr" v="855353" />
	</node>
	<node id="-2767" lat="59.9273249984" lon="12.0848861023">
		<tag k="name" v="Høgbakken" />
		<tag k="place" v="farm" />
		<tag k="ssr:stedsnr" v="855346" />
	</node>
	<node id="-2766" lat="59.929183333" lon="12.0725250034">
		<tag k="alt_name" v="Engebråten" />
		<tag k="name" v="Engebråtan" />
		<tag k="place" v="farm" />
		<tag k="ssr:stedsnr" v="855344" />
	</node>
	<node id="-2765" lat="59.9340527797" lon="12.1574249955">
		<tag k="name" v="Haget" />
		<tag k="place" v="farm" />
		<tag k="ssr:stedsnr" v="855331" />
	</node>
	<node id="-2764" lat="59.9345055592" lon="12.163824998">
		<tag k="name" v="Brattli" />
		<tag k="place" v="farm" />
		<tag k="ssr:stedsnr" v="855332" />
	</node>
	<node id="-2763" lat="59.9284777747" lon="12.1540916673">
		<tag k="name" v="Gjøslia" />
		<tag k="place" v="farm" />
		<tag k="ssr:stedsnr" v="855328" />
	</node>
	<node id="-2760" lat="59.9255861141" lon="12.2022166647">
		<tag k="alt_name" v="Fagerlia" />
		<tag k="name" v="Fagerli" />
		<tag k="place" v="farm" />
		<tag k="ssr:stedsnr" v="855314" />
	</node>
	<node id="-2758" lat="59.9520083311" lon="12.1531722156">
		<tag k="alt_name" v="Haget" />
		<tag k="name" v="Nordhaget" />
		<tag k="place" v="farm" />
		<tag k="ssr:stedsnr" v="855277" />
	</node>
	<node id="-2757" lat="59.9350833375" lon="12.005258333">
		<tag k="name" v="Åsen" />
		<tag k="place" v="farm" />
		<tag k="ssr:stedsnr" v="855264" />
	</node>
	<node id="-2756" lat="59.9974583365" lon="12.3033972197">
		<tag k="name" v="Bråtan" />
		<tag k="place" v="farm" />
		<tag k="ssr:stedsnr" v="855246" />
	</node>
	<node id="-2755" lat="59.9718083297" lon="12.2466638823">
		<tag k="name" v="Berget" />
		<tag k="place" v="farm" />
		<tag k="ssr:stedsnr" v="855207" />
	</node>
	<node id="-2754" lat="59.9792000027" lon="12.3383666684">
		<tag k="name" v="Nystuen" />
		<tag k="place" v="farm" />
		<tag k="ssr:stedsnr" v="855196" />
	</node>
	<node id="-2753" lat="59.9750500026" lon="12.2317888854">
		<tag k="name" v="Holtet" />
		<tag k="place" v="farm" />
		<tag k="ssr:stedsnr" v="855195" />
	</node>
	<node id="-2752" lat="60.0103111087" lon="12.2747805601">
		<tag k="name" v="Vålvatnet" />
		<tag k="old_name" v="Ørreberget" />
		<tag k="place" v="farm" />
		<tag k="ssr:stedsnr" v="855193" />
	</node>
	<node id="-2751" lat="59.9800083307" lon="12.228183332">
		<tag k="name" v="Gransætra" />
		<tag k="place" v="farm" />
		<tag k="ssr:stedsnr" v="855191" />
	</node>
	<node id="-2749" lat="59.9924638908" lon="12.3307416645">
		<tag k="alt_name" v="Rokstad" />
		<tag k="name" v="Rogstad" />
		<tag k="place" v="farm" />
		<tag k="ssr:stedsnr" v="855185" />
	</node>
	<node id="-2748" lat="59.886108334" lon="11.8447777867">
		<tag k="alt_name" v="Sandbakken" />
		<tag k="name" v="Nordre Sandbakken" />
		<tag k="place" v="farm" />
		<tag k="ssr:stedsnr" v="855183" />
	</node>
	<node id="-2747" lat="59.9816527763" lon="12.2256750024">
		<tag k="name" v="Tangen" />
		<tag k="place" v="farm" />
		<tag k="ssr:stedsnr" v="855184" />
	</node>
	<node id="-2847" lat="59.9418972219" lon="12.1527555573">
		<tag k="alt_name" v="Øst-Stubberud" />
		<tag k="name" v="Stubberud" />
		<tag k="place" v="farm" />
		<tag k="ssr:stedsnr" v="915345" />
	</node>
	<node id="-2741" lat="59.8885749989" lon="11.9242666722">
		<tag k="name" v="Verpet" />
		<tag k="place" v="farm" />
		<tag k="ssr:stedsnr" v="855129" />
	</node>
	<node id="-679" lat="60.1336722203" lon="12.197408331">
		<tag k="name" v="Holsætervangen" />
		<tag k="place" v="farm" />
		<tag k="ssr:stedsnr" v="47069" />
	</node>
	<node id="-676" lat="60.057211107" lon="11.8685361109">
		<tag k="fixme" v="consider place=farm" />
		<tag k="name" v="Børli" />
		<tag k="place" v="isolated_dwelling" />
		<tag k="ssr:stedsnr" v="47050" />
	</node>
	<node id="-2787" lat="59.9814972233" lon="12.0070416741">
		<tag k="name" v="Grunntjernlia" />
		<tag k="place" v="farm" />
		<tag k="ssr:stedsnr" v="855473" />
	</node>
	<node id="-669" lat="59.9717750035" lon="12.1338055629">
		<tag k="alt_name" v="Refset" />
		<tag k="name" v="Refsette" />
		<tag k="place" v="farm" />
		<tag k="ssr:stedsnr" v="42686" />
	</node>
	<node id="-663" lat="59.9662194444" lon="12.2209861029">
		<tag k="fixme" v="consider place=hamlet" />
		<tag k="name" v="Nevjen" />
		<tag k="place" v="farm" />
		<tag k="ssr:stedsnr" v="23990" />
	</node>
	<node id="-2841" lat="59.9725722238" lon="12.1869861131">
		<tag k="name" v="Deldalen" />
		<tag k="place" v="farm" />
		<tag k="ssr:stedsnr" v="915292" />
	</node>
	<node id="-659" lat="59.9544749962" lon="12.1219277694">
		<tag k="alt_name" v="Korsåsen;Korsåsen nordre" />
		<tag k="name" v="Nordre Korsåsen" />
		<tag k="place" v="farm" />
		<tag k="ssr:stedsnr" v="6285" />
	</node>
	<node id="-658" lat="59.947936107" lon="12.1583749946">
		<tag k="name" v="Hagerud" />
		<tag k="place" v="farm" />
		<tag k="ssr:stedsnr" v="6278" />
	</node>
	<node id="-657" lat="59.9351305581" lon="11.9729222169">
		<tag k="name" v="Delbekk" />
		<tag k="place" v="farm" />
		<tag k="ssr:stedsnr" v="6269" />
	</node>
	<node id="-656" lat="59.8909305543" lon="12.027905561">
		<tag k="alt_name" v="Larsbråten" />
		<tag k="building" v="cabin" />
		<tag k="name" v="Larsbråtan" />
		<tag k="place" v="isolated_dwelling" />
		<tag k="ssr:stedsnr" v="6206" />
	</node>
	<node id="-654" lat="59.8990833339" lon="11.8631111141">
		<tag k="name" v="Monsrud" />
		<tag k="place" v="farm" />
		<tag k="ssr:stedsnr" v="6184" />
	</node>
	<node id="-653" lat="59.9727833331" lon="11.8043000012">
		<tag k="name" v="Haveråa" />
		<tag k="place" v="farm" />
		<tag k="ssr:stedsnr" v="5980" />
	</node>
	<node id="-651" lat="60.1109499959" lon="12.2210861056">
		<tag k="building" v="cabin" />
		<tag k="name" v="Slettmo" />
		<tag k="place" v="isolated_dwelling" />
		<tag k="ssr:stedsnr" v="5936" />
	</node>
	<node id="-649" lat="60.0264750044" lon="12.1691833281">
		<tag k="name" v="Holtet" />
		<tag k="place" v="farm" />
		<tag k="ssr:stedsnr" v="5843" />
	</node>
	<node id="-646" lat="60.0061694438" lon="12.2052583356">
		<tag k="name" v="Tukuenga" />
		<tag k="place" v="farm" />
		<tag k="ssr:stedsnr" v="5823" />
	</node>
	<node id="-2693" lat="59.9603055562" lon="12.1431472304">
		<tag k="name" v="Oppgarden" />
		<tag k="place" v="farm" />
		<tag k="ssr:stedsnr" v="837593" />
	</node>
	<node id="-2692" lat="59.9931000042" lon="12.050644438">
		<tag k="name" v="Søndre Åserud" />
		<tag k="place" v="farm" />
		<tag k="ssr:stedsnr" v="837579" />
	</node>
	<node id="-2691" lat="59.9846194417" lon="12.2333388956">
		<tag k="name" v="Sæteråsen" />
		<tag k="place" v="farm" />
		<tag k="ssr:stedsnr" v="837566" />
	</node>
	<node id="-2690" lat="59.9160611103" lon="11.9972861028">
		<tag k="name" v="Klanderudlia" />
		<tag k="place" v="farm" />
		<tag k="ssr:stedsnr" v="837558" />
	</node>
	<node id="-641" lat="60.0793833339" lon="12.1193555491">
		<tag k="name" v="Malmerenga" />
		<tag k="place" v="farm" />
		<tag k="ssr:stedsnr" v="5668" />
	</node>
	<node id="-639" lat="60.0551305535" lon="12.148102781">
		<tag k="name" v="Grasmo" />
		<tag k="place" v="farm" />
		<tag k="ssr:stedsnr" v="5648" />
	</node>
	<node id="-638" lat="60.0569805549" lon="12.1569611164">
		<tag k="name" v="Skjørberg" />
		<tag k="place" v="farm" />
		<tag k="ssr:stedsnr" v="5647" />
	</node>
	<node id="-2685" lat="59.964022222" lon="12.1464749987">
		<tag k="name" v="Gaustad" />
		<tag k="place" v="hamlet" />
		<tag k="ssr:stedsnr" v="837519" />
	</node>
	<node id="-2684" lat="59.9548416628" lon="12.1191416749">
		<tag k="name" v="Kremmerud" />
		<tag k="place" v="farm" />
		<tag k="ssr:stedsnr" v="837518" />
	</node>
	<node id="-635" lat="60.0228249964" lon="12.051272215">
		<tag k="fixme" v="consider place=hamlet" />
		<tag k="name" v="Østfjell" />
		<tag k="place" v="farm" />
		<tag k="ssr:stedsnr" v="5629" />
	</node>
	<node id="-2682" lat="59.9805527767" lon="12.0943583246">
		<tag k="name" v="Plasserbakka" />
		<tag k="place" v="neighbourhood" />
		<tag k="ssr:stedsnr" v="837510" />
	</node>
	<node id="-633" lat="60.1220472266" lon="12.1165277805">
		<tag k="name" v="Duelia" />
		<tag k="place" v="farm" />
		<tag k="ssr:stedsnr" v="5485" />
	</node>
	<node id="-2664" lat="59.9257194484" lon="12.1272222277">
		<tag k="name" v="Øvre Nysætra" />
		<tag k="place" v="locality" />
		<tag k="ssr:stedsnr" v="837363" />
	</node>
	<node id="-631" lat="59.9779083293" lon="12.1580694425">
		<tag k="name" v="Rognhaug" />
		<tag k="place" v="farm" />
		<tag k="ssr:stedsnr" v="5449" />
	</node>
	<node id="-630" lat="59.9732818196" lon="12.0649938318">
		<tag k="fixme" v="consider place=hamlet" />
		<tag k="name" v="Tollefsbøl" />
		<tag k="place" v="farm" />
		<tag k="ssr:stedsnr" v="5446" />
	</node>
	<node id="-629" lat="59.9730722262" lon="12.0656666639">
		<tag k="name" v="Øststuen" />
		<tag k="place" v="farm" />
		<tag k="ssr:stedsnr" v="5443" />
	</node>
	<node id="-627" lat="59.9689888847" lon="12.0579333364">
		<tag k="name" v="Østjordet" />
		<tag k="place" v="farm" />
		<tag k="ssr:stedsnr" v="5429" />
	</node>
	<node id="-2674" lat="59.9482944413" lon="12.1783722273">
		<tag k="leisure" v="pitch" />
		<tag k="name" v="Magnor stadion" />
		<tag k="ssr:stedsnr" v="837418" />
	</node>
	<node id="-625" lat="59.9663972246" lon="12.0637472224">
		<tag k="alt_name" v="Tollefsbølstranda" />
		<tag k="name" v="Stranda" />
		<tag k="place" v="farm" />
		<tag k="ssr:stedsnr" v="5427" />
	</node>
	<node id="-624" lat="59.9988027754" lon="12.0929638958">
		<tag k="fixme" v="consider place=farm" />
		<tag k="name" v="Vestgarden" />
		<tag k="place" v="isolated_dwelling" />
		<tag k="ssr:stedsnr" v="5389" />
	</node>
	<node id="-622" lat="59.9915583316" lon="11.8673222166">
		<tag k="alt_name" v="Nordre Kjensmo" />
		<tag k="loc_name" v="Tjennsmo" />
		<tag k="name" v="Tjernsmo" />
		<tag k="place" v="farm" />
		<tag k="ssr:stedsnr" v="5381" />
	</node>
	<node id="-619" lat="59.9384722219" lon="12.148063894">
		<tag k="name" v="Gjellaren" />
		<tag k="place" v="farm" />
		<tag k="ssr:stedsnr" v="5355" />
	</node>
	<node id="-618" lat="59.9327777799" lon="12.1892277698">
		<tag k="name" v="Gaustadsætra" />
		<tag k="place" v="farm" />
		<tag k="ssr:stedsnr" v="5333" />
	</node>
	<node id="-2665" lat="59.9231833294" lon="12.0846055602">
		<tag k="alt_name" v="Sjøenden nordre" />
		<tag k="name" v="Nordre Sjøenden" />
		<tag k="place" v="farm" />
		<tag k="ssr:stedsnr" v="837364" />
	</node>
	<node id="-616" lat="59.9182888874" lon="12.1697972215">
		<tag k="alt_name" v="Øst-Linkjølen" />
		<tag k="name" v="Østlinkjølen" />
		<tag k="place" v="farm" />
		<tag k="ssr:stedsnr" v="5308" />
	</node>
	<node id="-615" lat="59.9155388905" lon="12.090244439">
		<tag k="name" v="Gransbråtan" />
		<tag k="place" v="farm" />
		<tag k="ssr:stedsnr" v="5305" />
	</node>
	<node id="-2662" lat="59.9682083352" lon="11.9542888875">
		<tag k="name" v="Østre Hea" />
		<tag k="place" v="farm" />
		<tag k="ssr:stedsnr" v="837358" />
	</node>
	<node id="-785" lat="59.9520250006" lon="11.946530562">
		<tag k="name" v="Nordre Hornlia" />
		<tag k="place" v="farm" />
		<tag k="ssr:stedsnr" v="48839" />
	</node>
	<node id="-612" lat="59.9570500024" lon="12.033502784">
		<tag k="name" v="Høgåsen" />
		<tag k="place" v="farm" />
		<tag k="ssr:stedsnr" v="5294" />
	</node>
	<node id="-2659" lat="60.000330552" lon="11.9057111147">
		<tag k="building" v="cabin" />
		<tag k="name" v="Haraposten" />
		<tag k="place" v="isolated_dwelling" />
		<tag k="ssr:stedsnr" v="837349" />
	</node>
	<node id="-610" lat="59.9508999996" lon="12.0687527757">
		<tag k="fixme" v="consider place=farm" />
		<tag k="name" v="Steinli" />
		<tag k="place" v="isolated_dwelling" />
		<tag k="ssr:stedsnr" v="5275" />
	</node>
	<node id="-2656" lat="59.9935555524" lon="12.050938896">
		<tag k="name" v="Nordre Åserud" />
		<tag k="place" v="farm" />
		<tag k="ssr:stedsnr" v="837314" />
	</node>
	<node id="-604" lat="59.8979166637" lon="12.092183327">
		<tag k="name" v="Nord-Melby" />
		<tag k="place" v="farm" />
		<tag k="ssr:stedsnr" v="5184" />
	</node>
	<node id="-603" lat="59.8947027791" lon="12.0921750088">
		<tag k="name" v="Mellagarden" />
		<tag k="place" v="farm" />
		<tag k="ssr:stedsnr" v="5183" />
	</node>
	<node id="-602" lat="59.9046388916" lon="11.9891305613">
		<tag k="name" v="Kulblik" />
		<tag k="place" v="farm" />
		<tag k="ssr:stedsnr" v="5172" />
	</node>
	<node id="-100" lat="59.8980527762" lon="11.8926194418">
		<tag k="name" v="Nordre Karlsenga" />
		<tag k="place" v="farm" />
		<tag k="ssr:stedsnr" v="291382" />
	</node>
	<node id="-2645" lat="59.8957944469" lon="12.1741222214">
		<tag k="name" v="Holtet" />
		<tag k="place" v="farm" />
		<tag k="ssr:stedsnr" v="837217" />
	</node>
	<node id="-2644" lat="59.9836361092" lon="12.0005194409">
		<tag k="name" v="Teigen" />
		<tag k="place" v="farm" />
		<tag k="ssr:stedsnr" v="837211" />
	</node>
	<node id="-593" lat="60.0006083342" lon="12.2266333296">
		<tag k="name" v="Enga" />
		<tag k="place" v="farm" />
		<tag k="ssr:stedsnr" v="5043" />
	</node>
	<node id="-592" lat="60.0092250022" lon="12.2266833298">
		<tag k="name" v="Åbakken" />
		<tag k="place" v="farm" />
		<tag k="ssr:stedsnr" v="5039" />
	</node>
	<node id="-2638" lat="59.9955111124" lon="12.3073361175">
		<tag k="name" v="Skogtun" />
		<tag k="place" v="farm" />
		<tag k="ssr:stedsnr" v="837140" />
	</node>
	<node id="-2636" lat="60.0219805579" lon="12.2998166708">
		<tag k="name" v="Sandby" />
		<tag k="place" v="farm" />
		<tag k="ssr:stedsnr" v="837129" />
	</node>
	<node id="-2633" lat="59.9894805536" lon="12.2325416612">
		<tag k="name" v="Inntaket" />
		<tag k="place" v="farm" />
		<tag k="ssr:stedsnr" v="837119" />
	</node>
	<node id="-2632" lat="59.9720333319" lon="12.0521722181">
		<tag k="name" v="Arstuen" />
		<tag k="place" v="farm" />
		<tag k="ssr:stedsnr" v="837118" />
	</node>
	<node id="-2631" lat="60.0297166711" lon="12.075319436">
		<tag k="name" v="Lindkjølteigen" />
		<tag k="place" v="farm" />
		<tag k="ssr:stedsnr" v="837111" />
	</node>
	<node id="-2629" lat="59.9413638909" lon="12.1558333246">
		<tag k="name" v="Nyvoll" />
		<tag k="place" v="farm" />
		<tag k="ssr:stedsnr" v="837087" />
	</node>
	<node id="-580" lat="60.0584138848" lon="12.1208722201">
		<tag k="name" v="Brenna" />
		<tag k="place" v="farm" />
		<tag k="ssr:stedsnr" v="898570" />
	</node>
	<node id="-579" lat="59.9881944491" lon="12.1546472165">
		<tag k="name" v="Haget" />
		<tag k="place" v="farm" />
		<tag k="ssr:stedsnr" v="898552" />
	</node>
	<node id="-2626" lat="60.0123611124" lon="12.1312777846">
		<tag k="name" v="Midtskog" />
		<tag k="place" v="farm" />
		<tag k="ssr:stedsnr" v="837083" />
	</node>
	<node id="-2624" lat="59.9825666681" lon="12.106105557">
		<tag k="name" v="Tankerud" />
		<tag k="place" v="farm" />
		<tag k="ssr:stedsnr" v="837074" />
	</node>
	<node id="-575" lat="59.9389194483" lon="12.0016611113">
		<tag k="name" v="Nordre Brustadhaugen" />
		<tag k="place" v="farm" />
		<tag k="ssr:stedsnr" v="898309" />
	</node>
	<node id="-574" lat="59.9186611096" lon="11.857783325">
		<tag k="name" v="Lien" />
		<tag k="place" v="farm" />
		<tag k="ssr:stedsnr" v="898303" />
	</node>
	<node id="-573" lat="59.9270888894" lon="12.2068444526">
		<tag k="name" v="Østli" />
		<tag k="place" v="farm" />
		<tag k="ssr:stedsnr" v="898234" />
	</node>
	<node id="-572" lat="59.9810000003" lon="11.968230561">
		<tag k="name" v="Mobekk" />
		<tag k="place" v="farm" />
		<tag k="ssr:stedsnr" v="898197" />
	</node>
	<node id="-2619" lat="59.8908222187" lon="12.161863889">
		<tag k="name" v="Bryngel" />
		<tag k="place" v="farm" />
		<tag k="ssr:stedsnr" v="837058" />
	</node>
	<node id="-570" lat="59.9700305542" lon="12.1727388927">
		<tag k="name" v="Nybakk" />
		<tag k="place" v="farm" />
		<tag k="ssr:stedsnr" v="898155" />
	</node>
	<node id="-569" lat="59.932838887" lon="11.9793583409">
		<tag k="name" v="Solbakken" />
		<tag k="place" v="farm" />
		<tag k="ssr:stedsnr" v="898111" />
	</node>
	<node id="-568" lat="59.9557111136" lon="12.198150008">
		<tag k="name" v="Søstuen" />
		<tag k="place" v="farm" />
		<tag k="ssr:stedsnr" v="898108" />
	</node>
	<node id="-567" lat="59.9596194486" lon="11.9722777727">
		<tag k="loc_name" v="Sør-Moen" />
		<tag k="name" v="Syd-Moen" />
		<tag k="place" v="farm" />
		<tag k="ssr:stedsnr" v="898052" />
	</node>
	<node id="-566" lat="60.0321250034" lon="12.2833277866">
		<tag k="name" v="Jegerheimet" />
		<tag k="place" v="farm" />
		<tag k="ssr:stedsnr" v="898022" />
	</node>
	<node id="-565" lat="59.9612222204" lon="12.1529250025">
		<tag k="name" v="Søndre Sørgarden" />
		<tag k="place" v="farm" />
		<tag k="ssr:stedsnr" v="898018" />
	</node>
	<node id="-775" lat="59.9802333349" lon="12.0385222283">
		<tag k="name" v="Snesbølmoen" />
		<tag k="place" v="farm" />
		<tag k="ssr:stedsnr" v="48736" />
	</node>
	<node id="-433" lat="59.9832277808" lon="11.9434722151">
		<tag k="name" v="Søndre Haugen" />
		<tag k="place" v="farm" />
		<tag k="ssr:stedsnr" v="412332" />
	</node>
	<node id="-2596" lat="59.9482305565" lon="12.1920861152">
		<tag k="amenity" v="school" />
		<tag k="name" v="Barnehage" />
		<tag k="ssr:stedsnr" v="836178" />
	</node>
	<node id="-2595" lat="59.9799083293" lon="12.169111107">
		<tag k="name" v="Nystuen" />
		<tag k="place" v="farm" />
		<tag k="ssr:stedsnr" v="836146" />
	</node>
	<node id="-2594" lat="60.0568027799" lon="11.8648250033">
		<tag k="fixme" v="consider place=farm" />
		<tag k="name" v="Børli" />
		<tag k="place" v="isolated_dwelling" />
		<tag k="ssr:stedsnr" v="836050" />
	</node>
	<node id="-2593" lat="59.9721472266" lon="11.9700527701">
		<tag k="building" v="cabin" />
		<tag k="name" v="Brakka" />
		<tag k="place" v="isolated_dwelling" />
		<tag k="ssr:stedsnr" v="836042" />
	</node>
	<node id="-2592" lat="60.0448499965" lon="11.8972888947">
		<tag k="building" v="cabin" />
		<tag k="name" v="Bekken" />
		<tag k="place" v="isolated_dwelling" />
		<tag k="ssr:stedsnr" v="836036" />
	</node>
	<node id="-2591" lat="59.9687388907" lon="11.9494388831">
		<tag k="name" v="Nordre Hea" />
		<tag k="place" v="farm" />
		<tag k="ssr:stedsnr" v="836031" />
	</node>
	<node id="-2587" lat="59.9469166707" lon="12.161950004">
		<tag k="name" v="Hagerud" />
		<tag k="place" v="farm" />
		<tag k="ssr:stedsnr" v="830859" />
	</node>
	<node id="-2583" lat="59.9707000034" lon="12.0500777696">
		<tag k="name" v="Sørstuen" />
		<tag k="place" v="farm" />
		<tag k="ssr:stedsnr" v="810035" />
	</node>
	<node id="-2582" lat="59.9511527823" lon="12.0461749991">
		<tag k="name" v="Sør-Delvika" />
		<tag k="place" v="farm" />
		<tag k="ssr:stedsnr" v="810033" />
	</node>
	<node id="-2581" lat="59.9339194458" lon="11.977936113">
		<tag k="name" v="Glingeråsen" />
		<tag k="place" v="neighbourhood" />
		<tag k="ssr:stedsnr" v="810032" />
	</node>
	<node id="-2579" lat="59.8997305539" lon="12.0962083303">
		<tag k="alt_name" v="Enga søndre" />
		<tag k="name" v="Enga" />
		<tag k="place" v="farm" />
		<tag k="ssr:stedsnr" v="795203" />
	</node>
	<node id="-2578" lat="59.903333334" lon="12.0647416727">
		<tag k="historic" v="shieling" />
		<tag k="name" v="Ingelsrudsætra" />
		<tag k="place" v="locality" />
		<tag k="ssr:stedsnr" v="795201" />
	</node>
	<node id="-2575" lat="60.0033944466" lon="12.0453472193">
		<tag k="alt_name" v="Melomlia" />
		<tag k="name" v="Lia" />
		<tag k="place" v="farm" />
		<tag k="ssr:stedsnr" v="794848" />
	</node>
	<node id="-770" lat="59.9406750003" lon="11.9998555555">
		<tag k="alt_name" v="Brustadholtet" />
		<tag k="name" v="Østre Brustad" />
		<tag k="place" v="farm" />
		<tag k="ssr:stedsnr" v="48700" />
	</node>
	<node id="-2569" lat="60.0466333289" lon="11.9382388931">
		<tag k="building" v="cabin" />
		<tag k="name" v="Skjølungen" />
		<tag k="place" v="isolated_dwelling" />
		<tag k="ssr:stedsnr" v="794675" />
	</node>
	<node id="-2567" lat="60.0544249973" lon="12.0899027753">
		<tag k="name" v="Sætermoen" />
		<tag k="place" v="farm" />
		<tag k="ssr:stedsnr" v="794668" />
	</node>
	<node id="-2564" lat="60.0276138933" lon="12.1006527718">
		<tag k="alt_name" v="Tomten" />
		<tag k="name" v="Kisatomta" />
		<tag k="place" v="farm" />
		<tag k="ssr:stedsnr" v="794654" />
	</node>
	<node id="-2562" lat="60.0257277813" lon="11.9134888906">
		<tag k="alt_name" v="Løvlien" />
		<tag k="name" v="Løvlia" />
		<tag k="place" v="farm" />
		<tag k="ssr:stedsnr" v="794644" />
	</node>
	<node id="-2745" lat="59.9040416624" lon="11.867299998">
		<tag k="name" v="Uglevika" />
		<tag k="place" v="farm" />
		<tag k="ssr:stedsnr" v="855159" />
	</node>
	<node id="-2557" lat="59.983408335" lon="11.9794750054">
		<tag k="name" v="Nordby" />
		<tag k="place" v="farm" />
		<tag k="ssr:stedsnr" v="794468" />
	</node>
	<node id="-504" lat="60.115883336" lon="12.2199777729">
		<tag k="name" v="Åsen" />
		<tag k="place" v="farm" />
		<tag k="ssr:stedsnr" v="897159" />
	</node>
	<node id="-498" lat="60.0025000006" lon="12.1016527845">
		<tag k="name" v="Sørpebøl" />
		<tag k="place" v="farm" />
		<tag k="ssr:stedsnr" v="897105" />
	</node>
	<node id="-2544" lat="59.9244888856" lon="12.212050005">
		<tag k="name" v="Bergerud" />
		<tag k="place" v="farm" />
		<tag k="ssr:stedsnr" v="794297" />
	</node>
	<node id="-2542" lat="59.9717277811" lon="12.1333388825">
		<tag k="alt_name" v="Repset;Refset" />
		<tag k="name" v="Refsette" />
		<tag k="place" v="hamlet" />
		<tag k="ssr:stedsnr" v="794283" />
	</node>
	<node id="-765" lat="59.9944361123" lon="12.2241611151">
		<tag k="name" v="Forkerud" />
		<tag k="place" v="farm" />
		<tag k="ssr:stedsnr" v="48519" />
	</node>
	<node id="-2538" lat="59.9527805545" lon="12.2157333246">
		<tag k="name" v="Skalby" />
		<tag k="place" v="farm" />
		<tag k="ssr:stedsnr" v="794251" />
	</node>
	<node id="-2537" lat="59.941599997" lon="11.8969638835">
		<tag k="alt_name" v="Nygård" />
		<tag k="name" v="Nygard" />
		<tag k="place" v="farm" />
		<tag k="ssr:stedsnr" v="794241" />
	</node>
	<node id="-764" lat="59.9290222261" lon="12.2151083286">
		<tag k="name" v="Enger" />
		<tag k="place" v="farm" />
		<tag k="ssr:stedsnr" v="48507" />
	</node>
	<node id="-486" lat="60.036450001" lon="12.135736118">
		<tag k="name" v="Nordre Kjærstad" />
		<tag k="old_name" v="Nordre Kjerstad" />
		<tag k="place" v="farm" />
		<tag k="ssr:stedsnr" v="892747" />
	</node>
	<node id="-2532" lat="59.9781527755" lon="12.2491111102">
		<tag k="name" v="Steinsrud" />
		<tag k="place" v="farm" />
		<tag k="ssr:stedsnr" v="794184" />
	</node>
	<node id="-2811" lat="60.0896916688" lon="12.0280861122">
		<tag k="building" v="cabin" />
		<tag k="name" v="Raudhella" />
		<tag k="place" v="isolated_dwelling" />
		<tag k="ssr:stedsnr" v="855746" />
	</node>
	<node id="-2524" lat="60.0113972222" lon="12.2709027819">
		<tag k="name" v="Vålvatnet" />
		<tag k="old_name" v="Austtun" />
		<tag k="place" v="farm" />
		<tag k="ssr:stedsnr" v="794047" />
	</node>
	<node id="-2523" lat="59.9996249999" lon="12.2259750004">
		<tag k="name" v="Sandbakken" />
		<tag k="place" v="farm" />
		<tag k="ssr:stedsnr" v="794045" />
	</node>
	<node id="-2522" lat="60.0022499965" lon="12.2234555464">
		<tag k="name" v="Engene" />
		<tag k="place" v="farm" />
		<tag k="ssr:stedsnr" v="794044" />
	</node>
	<node id="-2519" lat="59.988705555" lon="11.8140083402">
		<tag k="alt_name" v="Østre Dammen" />
		<tag k="name" v="Dammen" />
		<tag k="place" v="farm" />
		<tag k="ssr:stedsnr" v="793958" />
	</node>
	<node id="-462" lat="59.9853805531" lon="12.1341138882">
		<tag k="amenity" v="school" />
		<tag k="name" v="Skotterud skole" />
		<tag k="ssr:stedsnr" v="412652" />
	</node>
	<node id="-458" lat="59.9744555575" lon="12.0572083266">
		<tag k="name" v="Tobøl" />
		<tag k="place" v="farm" />
		<tag k="ssr:stedsnr" v="412578" />
	</node>
	<node id="-220" lat="60.081863885" lon="12.047791664">
		<tag k="name" v="Søndre Hornkjølen" />
		<tag k="place" v="farm" />
		<tag k="ssr:stedsnr" v="351063" />
	</node>
	<node id="-456" lat="59.9589499967" lon="12.1538416707">
		<tag k="name" v="Korsvoll" />
		<tag k="place" v="farm" />
		<tag k="ssr:stedsnr" v="412553" />
	</node>
	<node id="-455" lat="59.9642694477" lon="12.1284388825">
		<tag k="name" v="Holtet" />
		<tag k="place" v="farm" />
		<tag k="ssr:stedsnr" v="412551" />
	</node>
	<node id="-454" lat="59.9400861086" lon="12.1462194406">
		<tag k="fixme" v="consider place=farm" />
		<tag k="name" v="Nordre Stubberud" />
		<tag k="place" v="isolated_dwelling" />
		<tag k="ssr:stedsnr" v="412528" />
	</node>
	<node id="-697" lat="59.9691805526" lon="12.1392694367">
		<tag k="name" v="Gaustadåsen" />
		<tag k="place" v="farm" />
		<tag k="ssr:stedsnr" v="47224" />
	</node>
	<node id="-2493" lat="59.9854805562" lon="12.0978249996">
		<tag k="name" v="Reppshus" />
		<tag k="place" v="farm" />
		<tag k="ssr:stedsnr" v="776595" />
	</node>
	<node id="-2492" lat="59.9396305568" lon="11.9879194496">
		<tag k="name" v="Nordre Harstadhagen" />
		<tag k="place" v="farm" />
		<tag k="ssr:stedsnr" v="776580" />
	</node>
	<node id="-2489" lat="59.9361111115" lon="12.1829416686">
		<tag k="name" v="Bjørkeli" />
		<tag k="place" v="farm" />
		<tag k="ssr:stedsnr" v="776547" />
	</node>
	<node id="-2481" lat="60.0108888909" lon="12.0931249961">
		<tag k="name" v="Berger" />
		<tag k="place" v="neighbourhood" />
		<tag k="ssr:stedsnr" v="776489" />
	</node>
	<node id="-431" lat="59.9681027737" lon="11.9492888876">
		<tag k="name" v="Søndre Hea" />
		<tag k="place" v="farm" />
		<tag k="ssr:stedsnr" v="412329" />
	</node>
	<node id="-430" lat="59.9978916631" lon="12.3146527794">
		<tag k="name" v="Nordre Finnsrud" />
		<tag k="place" v="farm" />
		<tag k="ssr:stedsnr" v="412324" />
	</node>
	<node id="-429" lat="59.98982222" lon="11.8697527726">
		<tag k="building" v="cabin" />
		<tag k="loc_name" v="Tjennsmo" />
		<tag k="name" v="Søndre Kjensmo" />
		<tag k="place" v="isolated_dwelling" />
		<tag k="ssr:stedsnr" v="412315" />
	</node>
	<node id="-428" lat="60.1130416631" lon="12.10479444">
		<tag k="name" v="Åbogen" />
		<tag k="place" v="farm" />
		<tag k="ssr:stedsnr" v="412304" />
	</node>
	<node id="-754" lat="59.9630111086" lon="12.1390722299">
		<tag k="name" v="Nordre Rønningen" />
		<tag k="place" v="farm" />
		<tag k="ssr:stedsnr" v="48289" />
	</node>
	<node id="-425" lat="59.9402722231" lon="12.1342527825">
		<tag k="name" v="Køya" />
		<tag k="place" v="farm" />
		<tag k="ssr:stedsnr" v="412219" />
	</node>
	<node id="-423" lat="59.9870583329" lon="12.337691667">
		<tag k="name" v="Østre Bekkenga" />
		<tag k="place" v="farm" />
		<tag k="ssr:stedsnr" v="412214" />
	</node>
	<node id="-422" lat="59.9287888879" lon="12.2099305513">
		<tag k="name" v="Vålervangen" />
		<tag k="place" v="farm" />
		<tag k="ssr:stedsnr" v="412206" />
	</node>
	<node id="-420" lat="59.9701805552" lon="12.1338111079">
		<tag k="name" v="Østgården" />
		<tag k="place" v="farm" />
		<tag k="ssr:stedsnr" v="412180" />
	</node>
	<node id="-418" lat="60.0091972215" lon="12.1784138837">
		<tag k="name" v="Hesbølsætra" />
		<tag k="place" v="farm" />
		<tag k="ssr:stedsnr" v="412173" />
	</node>
	<node id="-416" lat="59.9595555589" lon="12.1902833291">
		<tag k="name" v="Nordgården" />
		<tag k="place" v="farm" />
		<tag k="ssr:stedsnr" v="412166" />
	</node>
	<node id="-2463" lat="59.9599499985" lon="12.1327666611">
		<tag k="name" v="Sørlia" />
		<tag k="place" v="farm" />
		<tag k="ssr:stedsnr" v="776228" />
	</node>
	<node id="-2462" lat="59.9572666687" lon="12.1207666665">
		<tag k="name" v="Tangen" />
		<tag k="place" v="farm" />
		<tag k="ssr:stedsnr" v="776227" />
	</node>
	<node id="-2460" lat="59.967375" lon="12.2075305517">
		<tag k="name" v="Nordre Jøvika" />
		<tag k="place" v="farm" />
		<tag k="ssr:stedsnr" v="776215" />
	</node>
	<node id="-2458" lat="59.9472083364" lon="12.2328138893">
		<tag k="name" v="Lundhaug" />
		<tag k="place" v="farm" />
		<tag k="ssr:stedsnr" v="776153" />
	</node>
	<node id="-2456" lat="59.9681249967" lon="12.1712138951">
		<tag k="name" v="Viker" />
		<tag k="place" v="farm" />
		<tag k="ssr:stedsnr" v="776148" />
	</node>
	<node id="-2455" lat="59.9711027819" lon="12.1716499927">
		<tag k="name" v="Ringstad" />
		<tag k="place" v="farm" />
		<tag k="ssr:stedsnr" v="776133" />
	</node>
	<node id="-2453" lat="60.0132750004" lon="12.2697361149">
		<tag k="name" v="Hellingssætra" />
		<tag k="place" v="locality" />
		<tag k="ssr:stedsnr" v="776129" />
	</node>
	<node id="-2452" lat="59.9506861138" lon="12.0117138898">
		<tag k="name" v="Nordre Rastad" />
		<tag k="place" v="farm" />
		<tag k="ssr:stedsnr" v="776124" />
	</node>
	<node id="-403" lat="60.0448055566" lon="12.2790388812">
		<tag k="name" v="Nordby" />
		<tag k="place" v="farm" />
		<tag k="ssr:stedsnr" v="412032" />
	</node>
	<node id="-2450" lat="59.9375333298" lon="12.0033083274">
		<tag k="name" v="Søndre Brustadhaugen" />
		<tag k="place" v="farm" />
		<tag k="ssr:stedsnr" v="776104" />
	</node>
	<node id="-408" lat="60.0009972182" lon="12.0732055591">
		<tag k="name" v="Bjørnstad" />
		<tag k="place" v="farm" />
		<tag k="ssr:stedsnr" v="412086" />
	</node>
	<node id="-2446" lat="60.0883027788" lon="12.1318083384">
		<tag k="name" v="Øvre Korskjølen" />
		<tag k="place" v="farm" />
		<tag k="ssr:stedsnr" v="776083" />
	</node>
	<node id="-2439" lat="59.9676194428" lon="11.973408339">
		<tag k="name" v="Solvang" />
		<tag k="place" v="farm" />
		<tag k="ssr:stedsnr" v="776017" />
	</node>
	<node id="-2438" lat="59.8915027794" lon="12.1748833296">
		<tag k="alt_name" v="Aurbakke" />
		<tag k="name" v="Aurbakken" />
		<tag k="place" v="farm" />
		<tag k="ssr:stedsnr" v="776013" />
	</node>
	<node id="-747" lat="60.0275916632" lon="12.2681388865">
		<tag k="name" v="Røskjølvangen" />
		<tag k="place" v="farm" />
		<tag k="ssr:stedsnr" v="48190" />
	</node>
	<node id="-384" lat="59.8934194443" lon="11.817349999">
		<tag k="alt_name" v="S. Vangen" />
		<tag k="name" v="Sør-Vangen" />
		<tag k="place" v="farm" />
		<tag k="ssr:stedsnr" v="411080" />
	</node>
	<node id="-383" lat="60.1337166684" lon="12.2279722206">
		<tag k="loc_name" v="Nordre Holsætra" />
		<tag k="name" v="Nordre Holsæter" />
		<tag k="place" v="farm" />
		<tag k="ssr:stedsnr" v="411079" />
	</node>
	<node id="-382" lat="59.8795500002" lon="11.8347694414">
		<tag k="name" v="Karlsbråtan" />
		<tag k="place" v="farm" />
		<tag k="ssr:stedsnr" v="411075" />
	</node>
	<node id="-381" lat="59.9935361084" lon="12.2294749911">
		<tag k="name" v="Nytomta" />
		<tag k="place" v="farm" />
		<tag k="ssr:stedsnr" v="411068" />
	</node>
	<node id="-763" lat="59.8691222225" lon="11.8657388964">
		<tag k="name" v="Olarud" />
		<tag k="place" v="locality" />
		<tag k="ssr:stedsnr" v="48503" />
	</node>
	<node id="-746" lat="59.9382055565" lon="12.188505552">
		<tag k="name" v="Austom" />
		<tag k="place" v="farm" />
		<tag k="ssr:stedsnr" v="48174" />
	</node>
	<node id="-2424" lat="59.9244361109" lon="11.982994437">
		<tag k="name" v="Nystuen Rambøl" />
		<tag k="place" v="farm" />
		<tag k="ssr:stedsnr" v="775146" />
	</node>
	<node id="-2423" lat="59.9731750028" lon="12.1144222175">
		<tag k="name" v="Auststuen" />
		<tag k="place" v="farm" />
		<tag k="ssr:stedsnr" v="775042" />
	</node>
	<node id="-2422" lat="59.8929388861" lon="11.8351111101">
		<tag k="name" v="Sandåsen" />
		<tag k="place" v="farm" />
		<tag k="ssr:stedsnr" v="776354" />
	</node>
	<node id="-372" lat="60.0280500009" lon="12.0895805555">
		<tag k="alt_name" v="Nordre Nordkisen;Kisen" />
		<tag k="name" v="Nordre Nordkisa" />
		<tag k="place" v="farm" />
		<tag k="ssr:stedsnr" v="406719" />
	</node>
	<node id="-369" lat="60.0051305597" lon="12.0805333382">
		<tag k="name" v="Nystuen" />
		<tag k="place" v="farm" />
		<tag k="ssr:stedsnr" v="404573" />
	</node>
	<node id="-298" lat="60.0419305568" lon="12.221074999">
		<tag k="historic" v="shieling" />
		<tag k="name" v="Torpsætra" />
		<tag k="place" v="locality" />
		<tag k="ssr:stedsnr" v="369006" />
	</node>
	<node id="-365" lat="59.9706305539" lon="12.0568611036">
		<tag k="name" v="Tobølhagan" />
		<tag k="place" v="farm" />
		<tag k="ssr:stedsnr" v="385032" />
	</node>
	<node id="-626" lat="59.9637388848" lon="12.0513027731">
		<tag k="fixme" v="consider place=hamlet" />
		<tag k="name" v="Stangnes" />
		<tag k="place" v="farm" />
		<tag k="ssr:stedsnr" v="5428" />
	</node>
	<node id="-2791" lat="60.1083499968" lon="12.1097499936">
		<tag k="name" v="Haugen" />
		<tag k="place" v="farm" />
		<tag k="ssr:stedsnr" v="855524" />
	</node>
	<node id="-360" lat="60.0157361101" lon="12.1378999944">
		<tag k="name" v="Snippen" />
		<tag k="place" v="farm" />
		<tag k="ssr:stedsnr" v="369860" />
	</node>
	<node id="-2407" lat="60.0081333305" lon="12.2611222206">
		<tag k="name" v="Vålvatnet" />
		<tag k="old_name" v="Bråtan;Bråten" />
		<tag k="place" v="farm" />
		<tag k="ssr:stedsnr" v="764166" />
	</node>
	<node id="-358" lat="60.0806944413" lon="12.0756111082">
		<tag k="name" v="Godtjernlia" />
		<tag k="place" v="farm" />
		<tag k="ssr:stedsnr" v="369726" />
	</node>
	<node id="-2405" lat="60.0349472255" lon="12.1342999926">
		<tag k="fixme" v="consider place=hamlet" />
		<tag k="name" v="Kjærstad" />
		<tag k="place" v="farm" />
		<tag k="ssr:stedsnr" v="764004" />
	</node>
	<node id="-2403" lat="60.133308334" lon="12.2363555524">
		<tag k="name" v="Teppa" />
		<tag k="place" v="farm" />
		<tag k="ssr:stedsnr" v="734966" />
	</node>
	<node id="-2402" lat="60.0982250009" lon="12.1487194472">
		<tag k="alt_name" v="Mellemgården" />
		<tag k="name" v="Mellomgarden" />
		<tag k="place" v="farm" />
		<tag k="ssr:stedsnr" v="734734" />
	</node>
	<node id="-353" lat="60.0755555547" lon="12.1646527694">
		<tag k="name" v="Gusterud" />
		<tag k="place" v="farm" />
		<tag k="ssr:stedsnr" v="369661" />
	</node>
	<node id="-2400" lat="60.0468722222" lon="12.2114472195">
		<tag k="building" v="cabin" />
		<tag k="name" v="Skjørbergsætra" />
		<tag k="place" v="isolated_dwelling" />
		<tag k="ssr:stedsnr" v="734704" />
	</node>
	<node id="-2397" lat="60.131080557" lon="12.1715249988">
		<tag k="alt_name" v="Øvre Langrekken" />
		<tag k="name" v="Langrekken" />
		<tag k="place" v="farm" />
		<tag k="ssr:stedsnr" v="734596" />
	</node>
	<node id="-2395" lat="59.9849222194" lon="12.1047888952">
		<tag k="alt_name" v="Nedre Tuhus" />
		<tag k="name" v="Nertuhus" />
		<tag k="place" v="farm" />
		<tag k="ssr:stedsnr" v="734551" />
	</node>
	<node id="-2394" lat="59.9841111086" lon="11.9420166752">
		<tag k="name" v="Kalvhaugen" />
		<tag k="place" v="farm" />
		<tag k="ssr:stedsnr" v="734537" />
	</node>
	<node id="-2393" lat="59.9724166701" lon="11.9240472283">
		<tag k="name" v="Askerud" />
		<tag k="place" v="farm" />
		<tag k="ssr:stedsnr" v="734526" />
	</node>
	<node id="-830" lat="59.9209916672" lon="11.9823583324">
		<tag k="name" v="Rambølsødegarden" />
		<tag k="place" v="hamlet" />
		<tag k="ssr:stedsnr" v="66326" />
	</node>
	<node id="-2391" lat="59.9713500035" lon="12.0064750075">
		<tag k="building" v="farm_auxiliary" />
		<tag k="name" v="Jonsrud" />
		<tag k="place" v="locality" />
		<tag k="ssr:stedsnr" v="734490" />
	</node>
	<node id="-2390" lat="59.9948805533" lon="12.1812250044">
		<tag k="name" v="Sørli" />
		<tag k="place" v="farm" />
		<tag k="ssr:stedsnr" v="734430" />
	</node>
	<node id="-2389" lat="59.9560027781" lon="12.1578499915">
		<tag k="name" v="Veiby" />
		<tag k="place" v="farm" />
		<tag k="ssr:stedsnr" v="734331" />
	</node>
	<node id="-340" lat="60.1114527818" lon="12.1160666612">
		<tag k="fixme" v="consider place=hamlet" />
		<tag k="name" v="Åbogen" />
		<tag k="place" v="village" />
		<tag k="ssr:stedsnr" v="369459" />
	</node>
	<node id="-339" lat="59.9742666678" lon="12.1441861025">
		<tag k="name" v="Valmann" />
		<tag k="place" v="farm" />
		<tag k="ssr:stedsnr" v="369410" />
	</node>
	<node id="-2386" lat="59.9367416637" lon="11.9907611054">
		<tag k="fixme" v="consider place=farm" />
		<tag k="name" v="Harstad" />
		<tag k="place" v="isolated_dwelling" />
		<tag k="ssr:stedsnr" v="734301" />
	</node>
	<node id="-2385" lat="59.9364611076" lon="12.0739222267">
		<tag k="name" v="Ingelsrud" />
		<tag k="place" v="farm" />
		<tag k="ssr:stedsnr" v="734283" />
	</node>
	<node id="-2384" lat="59.901719447" lon="12.1133083376">
		<tag k="fixme" v="consider place=farm" />
		<tag k="name" v="Vangen" />
		<tag k="old_name" v="Trandumsvangen" />
		<tag k="place" v="isolated_dwelling" />
		<tag k="ssr:stedsnr" v="734199" />
	</node>
	<node id="-335" lat="59.9826499987" lon="11.8626249951">
		<tag k="name" v="Smedrud" />
		<tag k="place" v="farm" />
		<tag k="ssr:stedsnr" v="369350" />
	</node>
	<node id="-2382" lat="59.9013138872" lon="11.9824277764">
		<tag k="name" v="Rudsenga" />
		<tag k="place" v="farm" />
		<tag k="ssr:stedsnr" v="734191" />
	</node>
	<node id="-333" lat="59.9926250045" lon="12.1038361066">
		<tag k="name" v="Godtland" />
		<tag k="place" v="farm" />
		<tag k="ssr:stedsnr" v="369347" />
	</node>
	<node id="-332" lat="59.9402833354" lon="12.1407138811">
		<tag k="name" v="Flatby" />
		<tag k="place" v="farm" />
		<tag k="ssr:stedsnr" v="369339" />
	</node>
	<node id="-2786" lat="59.9793166711" lon="11.9689777778">
		<tag k="fixme" v="consider place=hamlet" />
		<tag k="name" v="Mellom" />
		<tag k="place" v="farm" />
		<tag k="ssr:stedsnr" v="855469" />
	</node>
	<node id="-2378" lat="59.9267583335" lon="12.2209888873">
		<tag k="name" v="Vilsberg" />
		<tag k="place" v="farm" />
		<tag k="ssr:stedsnr" v="734044" />
	</node>
	<node id="-2376" lat="60.1168249962" lon="12.2662999959">
		<tag k="fixme" v="consider place=farm" />
		<tag k="name" v="Steffenstorpet" />
		<tag k="place" v="isolated_dwelling" />
		<tag k="ssr:stedsnr" v="733916" />
	</node>
	<node id="-2374" lat="60.0169499987" lon="12.1330972268">
		<tag k="name" v="Teppa" />
		<tag k="place" v="farm" />
		<tag k="ssr:stedsnr" v="733862" />
	</node>
	<node id="-2373" lat="60.002722223" lon="11.9583500018">
		<tag k="alt_name" v="Busjøjordet" />
		<tag k="building" v="cabin" />
		<tag k="name" v="Busjøen" />
		<tag k="place" v="isolated_dwelling" />
		<tag k="ssr:stedsnr" v="733854" />
	</node>
	<node id="-2372" lat="60.0010388902" lon="12.2081527811">
		<tag k="name" v="Tukun" />
		<tag k="place" v="farm" />
		<tag k="ssr:stedsnr" v="733847" />
	</node>
	<node id="-2371" lat="60.0067888928" lon="12.2177666655">
		<tag k="name" v="Vestby" />
		<tag k="place" v="farm" />
		<tag k="ssr:stedsnr" v="733845" />
	</node>
	<node id="-322" lat="59.9544472254" lon="11.9920666731">
		<tag k="alt_name" v="Jerpsetødegård" />
		<tag k="loc_name" v="Jerpsetødegarden" />
		<tag k="name" v="Øgarden" />
		<tag k="place" v="farm" />
		<tag k="ssr:stedsnr" v="369287" />
	</node>
	<node id="-2369" lat="60.095300004" lon="12.1295527719">
		<tag k="name" v="Fiskerud" />
		<tag k="place" v="farm" />
		<tag k="ssr:stedsnr" v="733707" />
	</node>
	<node id="-2367" lat="60.0824611101" lon="12.1384500017">
		<tag k="name" v="Kolstad" />
		<tag k="place" v="farm" />
		<tag k="ssr:stedsnr" v="733669" />
	</node>
	<node id="-2366" lat="60.0508277765" lon="12.0367250076">
		<tag k="name" v="Sandmoen" />
		<tag k="place" v="farm" />
		<tag k="ssr:stedsnr" v="733652" />
	</node>
	<node id="-317" lat="59.9880333331" lon="12.2392250075">
		<tag k="name" v="Solbakken" />
		<tag k="place" v="farm" />
		<tag k="ssr:stedsnr" v="369229" />
	</node>
	<node id="-2364" lat="60.0251222226" lon="12.0413750074">
		<tag k="fixme" v="consider place=hamlet" />
		<tag k="name" v="Vestfjell" />
		<tag k="place" v="farm" />
		<tag k="ssr:stedsnr" v="733616" />
	</node>
	<node id="-315" lat="59.966249996" lon="12.2299861171">
		<tag k="name" v="Nevjen" />
		<tag k="place" v="farm" />
		<tag k="ssr:stedsnr" v="369190" />
	</node>
	<node id="-2783" lat="59.9722722249" lon="12.0006777691">
		<tag k="name" v="Teigberget" />
		<tag k="place" v="farm" />
		<tag k="ssr:stedsnr" v="855463" />
	</node>
	<node id="-2360" lat="59.9278888892" lon="12.027533336">
		<tag k="name" v="Rosenlund" />
		<tag k="place" v="locality" />
		<tag k="ssr:stedsnr" v="733329" />
	</node>
	<node id="-2359" lat="59.9298972231" lon="12.171322217">
		<tag k="name" v="Grorud" />
		<tag k="place" v="farm" />
		<tag k="ssr:stedsnr" v="733325" />
	</node>
	<node id="-2358" lat="59.9216194426" lon="11.9656694378">
		<tag k="alt_name" v="Langpassbråtan" />
		<tag k="name" v="Langvassbråtan" />
		<tag k="place" v="farm" />
		<tag k="ssr:stedsnr" v="733320" />
	</node>
	<node id="-2357" lat="59.9243805548" lon="11.9855083317">
		<tag k="fixme" v="consider place=hamlet" />
		<tag k="name" v="Rambøl" />
		<tag k="place" v="farm" />
		<tag k="ssr:stedsnr" v="733319" />
	</node>
	<node id="-2356" lat="59.9281083337" lon="11.850477786">
		<tag k="name" v="Bolfoss" />
		<tag k="place" v="farm" />
		<tag k="ssr:stedsnr" v="733315" />
	</node>
	<node id="-2355" lat="59.9587388844" lon="11.9965583405">
		<tag k="name" v="Oppset" />
		<tag k="place" v="farm" />
		<tag k="ssr:stedsnr" v="733290" />
	</node>
	<node id="-2354" lat="59.956794443" lon="12.0658999941">
		<tag k="alt_name" v="Nordgard" />
		<tag k="name" v="Nordgarden" />
		<tag k="place" v="farm" />
		<tag k="ssr:stedsnr" v="733280" />
	</node>
	<node id="-2353" lat="59.9553805571" lon="12.1413444418">
		<tag k="alt_name" v="Bråten" />
		<tag k="name" v="Bråtan" />
		<tag k="place" v="farm" />
		<tag k="ssr:stedsnr" v="733273" />
	</node>
	<node id="-2352" lat="59.9951500031" lon="12.3190027748">
		<tag k="name" v="Haugen" />
		<tag k="place" v="farm" />
		<tag k="ssr:stedsnr" v="733233" />
	</node>
	<node id="-2351" lat="59.9972750009" lon="12.3076500003">
		<tag k="name" v="Granli" />
		<tag k="place" v="farm" />
		<tag k="ssr:stedsnr" v="733232" />
	</node>
	<node id="-302" lat="59.9307250011" lon="12.2217611166">
		<tag k="name" v="Furumo" />
		<tag k="place" v="farm" />
		<tag k="ssr:stedsnr" v="369027" />
	</node>
	<node id="-2349" lat="59.9575500039" lon="12.2521722156">
		<tag k="alt_name" v="Kulbern" />
		<tag k="building" v="cabin" />
		<tag k="name" v="Kullbern" />
		<tag k="place" v="isolated_dwelling" />
		<tag k="ssr:stedsnr" v="733206" />
	</node>
	<node id="-2348" lat="59.9715805572" lon="12.2421000053">
		<tag k="name" v="Lia" />
		<tag k="place" v="farm" />
		<tag k="ssr:stedsnr" v="733205" />
	</node>
	<node id="-2347" lat="59.9673638882" lon="12.2404000075">
		<tag k="name" v="Teppa" />
		<tag k="place" v="farm" />
		<tag k="ssr:stedsnr" v="733201" />
	</node>
	<node id="-2346" lat="59.9680249982" lon="12.2403527723">
		<tag k="name" v="Elvås" />
		<tag k="place" v="farm" />
		<tag k="ssr:stedsnr" v="733199" />
	</node>
	<node id="-2344" lat="59.978383331" lon="12.3421416713">
		<tag k="alt_name" v="Kletten" />
		<tag k="name" v="Kletta" />
		<tag k="place" v="farm" />
		<tag k="ssr:stedsnr" v="733196" />
	</node>
	<node id="-2343" lat="60.0485250045" lon="12.2457583265">
		<tag k="building" v="farm_auxiliary" />
		<tag k="name" v="Neversekken" />
		<tag k="place" v="locality" />
		<tag k="ssr:stedsnr" v="733137" />
	</node>
	<node id="-294" lat="59.9739249987" lon="12.1648999943">
		<tag k="alt_name" v="Ilagsmoen" />
		<tag k="name" v="Moa" />
		<tag k="place" v="farm" />
		<tag k="ssr:stedsnr" v="362486" />
	</node>
	<node id="-2341" lat="60.0505249959" lon="12.2922833323">
		<tag k="building" v="cabin" />
		<tag k="name" v="Vaslettbrakka" />
		<tag k="place" v="isolated_dwelling" />
		<tag k="ssr:stedsnr" v="733129" />
	</node>
	<node id="-731" lat="60.0675138878" lon="12.2261000053">
		<tag k="alt_name" v="Baksjøbråten" />
		<tag k="name" v="Baksjøbråtan" />
		<tag k="place" v="farm" />
		<tag k="ssr:stedsnr" v="48044" />
	</node>
	<node id="-2336" lat="60.0296750008" lon="12.253024992">
		<tag k="name" v="Gravlia" />
		<tag k="place" v="farm" />
		<tag k="ssr:stedsnr" v="733040" />
	</node>
	<node id="-2334" lat="60.0404250036" lon="12.2785638807">
		<tag k="fixme" v="consider place=hamlet" />
		<tag k="name" v="Klemmetsbråtan" />
		<tag k="place" v="farm" />
		<tag k="ssr:stedsnr" v="733005" />
	</node>
	<node id="-2333" lat="59.8944500011" lon="11.8339111064">
		<tag k="alt_name" v="Krogstad" />
		<tag k="name" v="Krokstad" />
		<tag k="place" v="farm" />
		<tag k="ssr:stedsnr" v="732264" />
	</node>
	<node id="-146" lat="60.1289833362" lon="12.2006583386">
		<tag k="name" v="Grasdalen" />
		<tag k="place" v="farm" />
		<tag k="ssr:stedsnr" v="309590" />
	</node>
	<node id="-347" lat="60.0488499984" lon="12.1470999935">
		<tag k="name" v="Kapstadenga" />
		<tag k="place" v="farm" />
		<tag k="ssr:stedsnr" v="369626" />
	</node>
	<node id="-2323" lat="59.9971777811" lon="12.1701916665">
		<tag k="name" v="Vesthølet" />
		<tag k="place" v="farm" />
		<tag k="ssr:stedsnr" v="715971" />
	</node>
	<node id="-268" lat="59.9770555521" lon="12.1460888919">
		<tag k="fixme" v="consider place=farm" />
		<tag k="name" v="Valmannsmoen" />
		<tag k="place" v="isolated_dwelling" />
		<tag k="ssr:stedsnr" v="351576" />
	</node>
	<node id="-267" lat="59.9709916668" lon="12.1302694402">
		<tag k="name" v="Jerpeliholtet" />
		<tag k="place" v="farm" />
		<tag k="ssr:stedsnr" v="351573" />
	</node>
	<node id="-2314" lat="59.9341611095" lon="12.167825006">
		<tag k="name" v="Norborg" />
		<tag k="place" v="farm" />
		<tag k="ssr:stedsnr" v="715792" />
	</node>
	<node id="-265" lat="59.9373472229" lon="12.1501805566">
		<tag k="name" v="Sør-Gjellaren" />
		<tag k="place" v="farm" />
		<tag k="ssr:stedsnr" v="351567" />
	</node>
	<node id="-264" lat="59.942744444" lon="12.1728861081">
		<tag k="name" v="Nesheim" />
		<tag k="place" v="farm" />
		<tag k="ssr:stedsnr" v="351551" />
	</node>
	<node id="-263" lat="60.0008694461" lon="12.3154611031">
		<tag k="name" v="Strandli" />
		<tag k="place" v="farm" />
		<tag k="ssr:stedsnr" v="351541" />
	</node>
	<node id="-385" lat="59.9185083359" lon="11.8547388944">
		<tag k="name" v="Åsen" />
		<tag k="place" v="farm" />
		<tag k="ssr:stedsnr" v="411081" />
	</node>
	<node id="-2306" lat="59.9843444442" lon="12.1321833244">
		<tag k="name" v="Skotterud hageby" />
		<tag k="place" v="neighbourhood" />
		<tag k="ssr:stedsnr" v="715717" />
	</node>
	<node id="-254" lat="59.9519444437" lon="12.2082416709">
		<tag k="name" v="Brennåsen" />
		<tag k="place" v="neighbourhood" />
		<tag k="ssr:stedsnr" v="351443" />
	</node>
	<node id="-2300" lat="59.9351305579" lon="11.990091665">
		<tag k="name" v="Søndre Harstadhagen" />
		<tag k="place" v="farm" />
		<tag k="ssr:stedsnr" v="715612" />
	</node>
	<node id="-249" lat="60.0460333295" lon="11.9004194421">
		<tag k="building" v="cabin" />
		<tag k="name" v="Hustuft" />
		<tag k="place" v="isolated_dwelling" />
		<tag k="ssr:stedsnr" v="351344" />
	</node>
	<node id="-247" lat="60.1328972254" lon="12.1719722289">
		<tag k="name" v="Nedre Langrekken" />
		<tag k="place" v="farm" />
		<tag k="ssr:stedsnr" v="351330" />
	</node>
	<node id="-2292" lat="59.8923694405" lon="11.8334666644">
		<tag k="name" v="Furumo" />
		<tag k="place" v="farm" />
		<tag k="ssr:stedsnr" v="715384" />
	</node>
	<node id="-2291" lat="59.9949805588" lon="11.895772221">
		<tag k="name" v="Ingerheimet" />
		<tag k="place" v="farm" />
		<tag k="ssr:stedsnr" v="715367" />
	</node>
	<node id="-240" lat="59.9868555555" lon="12.3343444382">
		<tag k="name" v="Nordre Bekkenga" />
		<tag k="place" v="farm" />
		<tag k="ssr:stedsnr" v="351252" />
	</node>
	<node id="-238" lat="59.9641638864" lon="12.1486777799">
		<tag k="name" v="Sørstua" />
		<tag k="place" v="farm" />
		<tag k="ssr:stedsnr" v="351243" />
	</node>
	<node id="-234" lat="59.9408333331" lon="12.1662444456">
		<tag k="name" v="Røysdalsmoen" />
		<tag k="place" v="farm" />
		<tag k="ssr:stedsnr" v="351213" />
	</node>
	<node id="-232" lat="60.0085861146" lon="12.1203916672">
		<tag k="name" v="Stansberg" />
		<tag k="place" v="farm" />
		<tag k="ssr:stedsnr" v="351194" />
	</node>
	<node id="-2279" lat="59.968263892" lon="12.337258335">
		<tag k="name" v="Billa" />
		<tag k="place" v="farm" />
		<tag k="ssr:stedsnr" v="715263" />
	</node>
	<node id="-721" lat="59.8452111121" lon="11.8490194412">
		<tag k="name" v="Borkerud" />
		<tag k="place" v="locality" />
		<tag k="ssr:stedsnr" v="47692" />
	</node>
	<node id="-228" lat="60.0722305566" lon="12.1177277817">
		<tag k="name" v="Malmer" />
		<tag k="place" v="hamlet" />
		<tag k="ssr:stedsnr" v="351159" />
	</node>
	<node id="-2274" lat="59.9112083312" lon="12.1107361078">
		<tag k="name" v="Vika" />
		<tag k="place" v="farm" />
		<tag k="ssr:stedsnr" v="715236" />
	</node>
	<node id="-221" lat="59.9602583306" lon="12.1247249943">
		<tag k="name" v="Søstuen" />
		<tag k="place" v="farm" />
		<tag k="ssr:stedsnr" v="351089" />
	</node>
	<node id="-2268" lat="59.9875305579" lon="12.1197694483">
		<tag k="amenity" v="nursing_home" />
		<tag k="name" v="Eidskog sykehjem" />
		<tag k="ssr:stedsnr" v="715207" />
	</node>
	<node id="-2266" lat="60.0045666624" lon="12.1225555596">
		<tag k="name" v="Hesbølbakken" />
		<tag k="place" v="farm" />
		<tag k="ssr:stedsnr" v="715189" />
	</node>
	<node id="-215" lat="60.0768999976" lon="12.2187333325">
		<tag k="name" v="Gusterudlia" />
		<tag k="place" v="farm" />
		<tag k="ssr:stedsnr" v="351031" />
	</node>
	<node id="-214" lat="59.922422219" lon="12.0216722225">
		<tag k="name" v="Svenbybråten" />
		<tag k="place" v="farm" />
		<tag k="ssr:stedsnr" v="351019" />
	</node>
	<node id="-2261" lat="59.9158500002" lon="12.1662416677">
		<tag k="name" v="Lindbo" />
		<tag k="place" v="farm" />
		<tag k="ssr:stedsnr" v="715128" />
	</node>
	<node id="-2260" lat="60.0030416705" lon="12.095697219">
		<tag k="name" v="Vestre Berger" />
		<tag k="place" v="farm" />
		<tag k="ssr:stedsnr" v="715122" />
	</node>
	<node id="-2256" lat="59.9508388869" lon="12.1232694431">
		<tag k="name" v="Søndre Korsåsen" />
		<tag k="place" v="farm" />
		<tag k="ssr:stedsnr" v="715102" />
	</node>
	<node id="-2254" lat="59.9263805526" lon="12.202752777">
		<tag k="name" v="Vålerheim" />
		<tag k="place" v="farm" />
		<tag k="ssr:stedsnr" v="715085" />
	</node>
	<node id="-2251" lat="59.920047224" lon="11.857491668">
		<tag k="alt_name" v="S. Godnes" />
		<tag k="name" v="Søndre Godnes" />
		<tag k="place" v="farm" />
		<tag k="ssr:stedsnr" v="715071" />
	</node>
	<node id="-2249" lat="59.9314083342" lon="11.9684361029">
		<tag k="name" v="Holtet" />
		<tag k="place" v="farm" />
		<tag k="ssr:stedsnr" v="715056" />
	</node>
	<node id="-757" lat="59.9265500035" lon="11.9891722291">
		<tag k="alt_name" v="Nordgarden Arstun" />
		<tag k="name" v="Nordgarden Arstuen" />
		<tag k="place" v="farm" />
		<tag k="ssr:stedsnr" v="48341" />
	</node>
	<node id="-194" lat="59.9154944407" lon="11.9862111061">
		<tag k="name" v="Almenninga" />
		<tag k="place" v="farm" />
		<tag k="ssr:stedsnr" v="350148" />
	</node>
	<node id="-2241" lat="59.9404611109" lon="12.1578194382">
		<tag k="name" v="Gillås" />
		<tag k="place" v="farm" />
		<tag k="ssr:stedsnr" v="715581" />
	</node>
	<node id="-2240" lat="59.918869442" lon="11.9847611175">
		<tag k="name" v="Søndre Rambølsødegarden" />
		<tag k="place" v="farm" />
		<tag k="ssr:stedsnr" v="715568" />
	</node>
	<node id="-2239" lat="59.9302944415" lon="12.230758332">
		<tag k="name" v="Steinby" />
		<tag k="place" v="farm" />
		<tag k="ssr:stedsnr" v="715564" />
	</node>
	<node id="-186" lat="59.9268055582" lon="11.9952277738">
		<tag k="alt_name" v="Nordre Rambølsbruket" />
		<tag k="fixme" v="multiple name tags, choose one and add the other to alt_name" />
		<tag k="loc_name" v="Nordre Bruket" />
		<tag k="name" v="Nordre Eidet;Rambølsbruket" />
		<tag k="place" v="farm" />
		<tag k="ssr:stedsnr" v="126354" />
	</node>
	<node id="-185" lat="59.9326194467" lon="12.1780111151">
		<tag k="name" v="Solheim" />
		<tag k="place" v="farm" />
		<tag k="ssr:stedsnr" v="126346" />
	</node>
	<node id="-183" lat="59.915236107" lon="11.8746888811">
		<tag k="name" v="Buvika" />
		<tag k="place" v="farm" />
		<tag k="ssr:stedsnr" v="126317" />
	</node>
	<node id="-2661" lat="59.9891361108" lon="11.8482833344">
		<tag k="building" v="cabin" />
		<tag k="name" v="Hundeengene" />
		<tag k="place" v="isolated_dwelling" />
		<tag k="ssr:stedsnr" v="837356" />
	</node>
	<node id="-181" lat="59.925894443" lon="12.2091500064">
		<tag k="name" v="Våler" />
		<tag k="place" v="farm" />
		<tag k="ssr:stedsnr" v="126313" />
	</node>
	<node id="-180" lat="60.0281500022" lon="12.143983325">
		<tag k="name" v="Nordre Berger" />
		<tag k="place" v="locality" />
		<tag k="ssr:stedsnr" v="339255" />
	</node>
	<node id="-178" lat="60.1283472255" lon="12.2318055581">
		<tag k="fixme" v="consider place=hamlet" />
		<tag k="name" v="Holsætra" />
		<tag k="place" v="farm" />
		<tag k="ssr:stedsnr" v="325985" />
	</node>
	<node id="-2224" lat="59.9515305522" lon="12.1998166613">
		<tag k="building" v="industrial" />
		<tag k="industrial" v="factory" />
		<tag k="name" v="Magnor Glassverk" />
		<tag k="ssr:stedsnr" v="694234" />
	</node>
	<node id="-2223" lat="59.9545083379" lon="12.0475388847">
		<tag k="name" v="Sørgarden" />
		<tag k="place" v="farm" />
		<tag k="ssr:stedsnr" v="688020" />
	</node>
	<node id="-2222" lat="59.9553083304" lon="12.0479416734">
		<tag k="name" v="Nord-Stranda" />
		<tag k="place" v="farm" />
		<tag k="ssr:stedsnr" v="688018" />
	</node>
	<node id="-2220" lat="60.1289111124" lon="12.2319333316">
		<tag k="alt_name" v="Holsætra, nordre" />
		<tag k="loc_name" v="Nordre Holsætra" />
		<tag k="name" v="Holsæter" />
		<tag k="place" v="farm" />
		<tag k="ssr:stedsnr" v="673961" />
	</node>
	<node id="-2218" lat="60.0706694429" lon="12.1164333296">
		<tag k="fixme" v="consider place=hamlet" />
		<tag k="name" v="Malmer" />
		<tag k="place" v="farm" />
		<tag k="ssr:stedsnr" v="673711" />
	</node>
	<node id="-2217" lat="60.0523305529" lon="12.1199805577">
		<tag k="name" v="Langbrumoen" />
		<tag k="place" v="farm" />
		<tag k="ssr:stedsnr" v="673681" />
	</node>
	<node id="-2216" lat="60.0497888866" lon="11.8507055615">
		<tag k="building" v="cabin" />
		<tag k="name" v="Fjellbubråtan" />
		<tag k="place" v="isolated_dwelling" />
		<tag k="ssr:stedsnr" v="673673" />
	</node>
	<node id="-167" lat="59.9983277776" lon="12.2051388878">
		<tag k="name" v="Ånerud" />
		<tag k="place" v="farm" />
		<tag k="ssr:stedsnr" v="309420" />
	</node>
	<node id="-2213" lat="60.1149444445" lon="12.1696361183">
		<tag k="name" v="Raudfjellet" />
		<tag k="place" v="farm" />
		<tag k="ssr:stedsnr" v="673540" />
	</node>
	<node id="-2212" lat="59.9870833368" lon="12.0444333317">
		<tag k="name" v="Nordgard" />
		<tag k="place" v="farm" />
		<tag k="ssr:stedsnr" v="673509" />
	</node>
	<node id="-2211" lat="59.9866666694" lon="12.0609277813">
		<tag k="name" v="Elvely" />
		<tag k="place" v="farm" />
		<tag k="ssr:stedsnr" v="673507" />
	</node>
	<node id="-162" lat="59.9578249996" lon="12.1484027807">
		<tag k="name" v="Lund" />
		<tag k="place" v="farm" />
		<tag k="ssr:stedsnr" v="309329" />
	</node>
	<node id="-2209" lat="59.9715888916" lon="11.9516611079">
		<tag k="name" v="Hedum" />
		<tag k="place" v="farm" />
		<tag k="ssr:stedsnr" v="673492" />
	</node>
	<node id="-2208" lat="59.9854083345" lon="12.1485500048">
		<tag k="name" v="Granerud" />
		<tag k="place" v="farm" />
		<tag k="ssr:stedsnr" v="673487" />
	</node>
	<node id="-2207" lat="59.9857040736" lon="12.1730440071">
		<tag k="fixme" v="multiple name tags, choose one and add the other to alt_name" />
		<tag k="name" v="Ilag;Nordgarden;Nordre Ilag" />
		<tag k="place" v="farm" />
		<tag k="ssr:stedsnr" v="673483" />
	</node>
	<node id="-2206" lat="59.9845305548" lon="12.1777999979">
		<tag k="name" v="Rønningen" />
		<tag k="place" v="farm" />
		<tag k="ssr:stedsnr" v="673482" />
	</node>
	<node id="-2205" lat="59.9706055598" lon="12.1072000026">
		<tag k="name" v="Vestgarden" />
		<tag k="place" v="farm" />
		<tag k="ssr:stedsnr" v="673459" />
	</node>
	<node id="-2204" lat="59.9705333347" lon="12.0645083315">
		<tag k="name" v="Austvang" />
		<tag k="place" v="farm" />
		<tag k="ssr:stedsnr" v="673456" />
	</node>
	<node id="-2203" lat="59.9939353633" lon="11.8698272974">
		<tag k="alt_name" v="Kjensmobråten" />
		<tag k="loc_name" v="Tjennsmobråtan" />
		<tag k="name" v="Tjernsmobråtan" />
		<tag k="place" v="farm" />
		<tag k="ssr:stedsnr" v="673414" />
	</node>
	<node id="-2202" lat="59.9988333356" lon="12.1742250079">
		<tag k="name" v="Ilerud" />
		<tag k="place" v="farm" />
		<tag k="ssr:stedsnr" v="673395" />
	</node>
	<node id="-2201" lat="59.9885861104" lon="11.988336108">
		<tag k="alt_name" v="Torkildsbråten" />
		<tag k="name" v="Torkildsbråtan" />
		<tag k="place" v="farm" />
		<tag k="ssr:stedsnr" v="673388" />
	</node>
	<node id="-2199" lat="59.9356500038" lon="12.1800666709">
		<tag k="name" v="Linnerud" />
		<tag k="place" v="farm" />
		<tag k="ssr:stedsnr" v="673366" />
	</node>
	<node id="-2198" lat="59.9137916663" lon="12.1682972289">
		<tag k="alt_name" v="Sør-Linkjølen" />
		<tag k="name" v="Linkjølen" />
		<tag k="place" v="farm" />
		<tag k="ssr:stedsnr" v="673345" />
	</node>
	<node id="-149" lat="59.9404416638" lon="12.2597222139">
		<tag k="name" v="Lindalen" />
		<tag k="place" v="farm" />
		<tag k="ssr:stedsnr" v="309042" />
	</node>
	<node id="-2196" lat="59.9645194429" lon="12.1428083402">
		<tag k="fixme" v="consider place=hamlet" />
		<tag k="name" v="Gaustad" />
		<tag k="place" v="farm" />
		<tag k="ssr:stedsnr" v="673338" />
	</node>
	<node id="-2195" lat="59.9562833367" lon="11.9972416619">
		<tag k="fixme" v="consider place=farm" />
		<tag k="name" v="Nyheim" />
		<tag k="place" v="isolated_dwelling" />
		<tag k="ssr:stedsnr" v="673324" />
	</node>
	<node id="-2194" lat="59.9608999971" lon="12.0405249952">
		<tag k="name" v="Stangnes" />
		<tag k="place" v="farm" />
		<tag k="ssr:stedsnr" v="673323" />
	</node>
	<node id="-2193" lat="59.9621250022" lon="12.1299777823">
		<tag k="alt_name" v="Jerpelia" />
		<tag k="name" v="Lia" />
		<tag k="place" v="farm" />
		<tag k="ssr:stedsnr" v="673315" />
	</node>
	<node id="-2191" lat="59.9519750004" lon="11.9464777701">
		<tag k="fixme" v="consider place=hamlet" />
		<tag k="name" v="Hornlia" />
		<tag k="place" v="farm" />
		<tag k="ssr:stedsnr" v="673304" />
	</node>
	<node id="-2190" lat="59.9519805512" lon="11.974877779">
		<tag k="alt_name" v="Nygård" />
		<tag k="name" v="Nygard" />
		<tag k="place" v="farm" />
		<tag k="ssr:stedsnr" v="673301" />
	</node>
	<node id="-2189" lat="59.937877776" lon="11.9940805579">
		<tag k="alt_name" v="Brustad" />
		<tag k="name" v="Søndre Brustad" />
		<tag k="place" v="farm" />
		<tag k="ssr:stedsnr" v="673277" />
	</node>
	<node id="-2188" lat="59.9380972191" lon="12.0860583282">
		<tag k="alt_name" v="Åstebøllien" />
		<tag k="loc_name" v="Åstebøllia" />
		<tag k="name" v="Lia" />
		<tag k="place" v="farm" />
		<tag k="ssr:stedsnr" v="673276" />
	</node>
	<node id="-2186" lat="59.9664250013" lon="12.2409666734">
		<tag k="name" v="Myrvoll" />
		<tag k="place" v="farm" />
		<tag k="ssr:stedsnr" v="673227" />
	</node>
	<node id="-2185" lat="59.9749527765" lon="12.3433166635">
		<tag k="alt_name" v="Kletten" />
		<tag k="name" v="Kletta" />
		<tag k="place" v="farm" />
		<tag k="ssr:stedsnr" v="673220" />
	</node>
	<node id="-136" lat="60.0811305546" lon="12.0653166749">
		<tag k="building" v="cabin" />
		<tag k="name" v="Linna" />
		<tag k="place" v="isolated_dwelling" />
		<tag k="ssr:stedsnr" v="308734" />
	</node>
	<node id="-135" lat="60.0684444456" lon="12.1064694422">
		<tag k="alt_name" v="Nord-Dal" />
		<tag k="name" v="Dal" />
		<tag k="place" v="farm" />
		<tag k="ssr:stedsnr" v="308678" />
	</node>
	<node id="-132" lat="60.1157638911" lon="12.1016277782">
		<tag k="name" v="Drøserud" />
		<tag k="place" v="farm" />
		<tag k="ssr:stedsnr" v="308474" />
	</node>
	<node id="-2179" lat="60.0230277764" lon="12.2951083292">
		<tag k="name" v="Sandby" />
		<tag k="place" v="farm" />
		<tag k="ssr:stedsnr" v="673053" />
	</node>
	<node id="-130" lat="59.965849998" lon="12.0038499959">
		<tag k="alt_name" v="Svendsrud" />
		<tag k="name" v="Svensrud" />
		<tag k="place" v="farm" />
		<tag k="ssr:stedsnr" v="308400" />
	</node>
	<node id="-2177" lat="59.9397361126" lon="12.255555562">
		<tag k="name" v="Linåsen" />
		<tag k="place" v="farm" />
		<tag k="ssr:stedsnr" v="673049" />
	</node>
	<node id="-127" lat="59.9308194432" lon="11.9857777834">
		<tag k="alt_name" v="Harstadåsen" />
		<tag k="name" v="Åsen" />
		<tag k="place" v="farm" />
		<tag k="ssr:stedsnr" v="308337" />
	</node>
	<node id="-126" lat="59.9418555589" lon="12.1988083356">
		<tag k="name" v="Elvely" />
		<tag k="place" v="farm" />
		<tag k="ssr:stedsnr" v="308332" />
	</node>
	<node id="-125" lat="59.9286444437" lon="12.1784388807">
		<tag k="name" v="Åsheim" />
		<tag k="place" v="locality" />
		<tag k="ssr:stedsnr" v="308320" />
	</node>
	<node id="-123" lat="59.9199027779" lon="12.0952166672">
		<tag k="alt_name" v="Sjøenden østre" />
		<tag k="name" v="Sjøenden" />
		<tag k="place" v="farm" />
		<tag k="ssr:stedsnr" v="308298" />
	</node>
	<node id="-2170" lat="60.0110166684" lon="11.9446500051">
		<tag k="building" v="farm_auxiliary" />
		<tag k="name" v="Busjøstua" />
		<tag k="place" v="locality" />
		<tag k="ssr:stedsnr" v="672873" />
	</node>
	<node id="-2169" lat="60.0243527817" lon="12.1341500044">
		<tag k="name" v="Lunderby" />
		<tag k="place" v="farm" />
		<tag k="ssr:stedsnr" v="672868" />
	</node>
	<node id="-120" lat="60.0613083359" lon="12.2593750023">
		<tag k="name" v="Kampen" />
		<tag k="place" v="farm" />
		<tag k="ssr:stedsnr" v="308087" />
	</node>
	<node id="-2167" lat="60.0873083298" lon="12.0732055527">
		<tag k="name" v="Dalsholet" />
		<tag k="place" v="farm" />
		<tag k="ssr:stedsnr" v="672744" />
	</node>
	<node id="-118" lat="60.0717972232" lon="12.2394805528">
		<tag k="name" v="Enderud" />
		<tag k="place" v="farm" />
		<tag k="ssr:stedsnr" v="308060" />
	</node>
	<node id="-2165" lat="60.0873083302" lon="12.1565638859">
		<tag k="name" v="Bråta" />
		<tag k="place" v="farm" />
		<tag k="ssr:stedsnr" v="672673" />
	</node>
	<node id="-2162" lat="59.9720166649" lon="12.0555027864">
		<tag k="name" v="Tobøl" />
		<tag k="place" v="hamlet" />
		<tag k="ssr:stedsnr" v="672429" />
	</node>
	<node id="-2161" lat="59.9388583318" lon="12.138974999">
		<tag k="name" v="Glader" />
		<tag k="place" v="farm" />
		<tag k="ssr:stedsnr" v="672334" />
	</node>
	<node id="-2160" lat="59.9286250005" lon="12.0949805642">
		<tag k="name" v="Østom" />
		<tag k="place" v="farm" />
		<tag k="ssr:stedsnr" v="672314" />
	</node>
	<node id="-2158" lat="59.9840416667" lon="12.3391416646">
		<tag k="name" v="Plassen" />
		<tag k="place" v="farm" />
		<tag k="ssr:stedsnr" v="672186" />
	</node>
	<node id="-2157" lat="59.9865083358" lon="12.3345638848">
		<tag k="fixme" v="consider place=hamlet" />
		<tag k="name" v="Bekkenga" />
		<tag k="place" v="farm" />
		<tag k="ssr:stedsnr" v="672180" />
	</node>
	<node id="-2156" lat="59.9003722254" lon="12.1143222144">
		<tag k="name" v="Braserudhaget" />
		<tag k="place" v="farm" />
		<tag k="ssr:stedsnr" v="672171" />
	</node>
	<node id="-2153" lat="59.9237361125" lon="11.9960944478">
		<tag k="alt_name" v="Rambøl;Rambøl av Klanderud" />
		<tag k="fixme" v="multiple name tags, choose one and add the other to alt_name" />
		<tag k="name" v="Søndre Eidet;Søndre Rambølsbruket" />
		<tag k="place" v="farm" />
		<tag k="ssr:stedsnr" v="666125" />
	</node>
	<node id="-2148" lat="60.0828027733" lon="12.0674222252">
		<tag k="name" v="Nordre Mila" />
		<tag k="place" v="farm" />
		<tag k="ssr:stedsnr" v="664184" />
	</node>
	<node id="-99" lat="59.8918611115" lon="11.8862749923">
		<tag k="name" v="Søndre Karlsenga" />
		<tag k="place" v="farm" />
		<tag k="ssr:stedsnr" v="291380" />
	</node>
	<node id="-98" lat="60.1296666628" lon="12.2161055505">
		<tag k="name" v="Bringberget" />
		<tag k="place" v="farm" />
		<tag k="ssr:stedsnr" v="291358" />
	</node>
	<node id="-97" lat="60.0567333335" lon="12.0833888913">
		<tag k="name" v="Holtet" />
		<tag k="place" v="farm" />
		<tag k="ssr:stedsnr" v="291349" />
	</node>
	<node id="-96" lat="59.9726333346" lon="12.1533249949">
		<tag k="name" v="Valmann" />
		<tag k="place" v="farm" />
		<tag k="ssr:stedsnr" v="291338" />
	</node>
	<node id="-95" lat="60.0371888918" lon="12.0892333326">
		<tag k="alt_name" v="Skindpungrud;Skinpungerud" />
		<tag k="name" v="Skinnpungrud" />
		<tag k="place" v="farm" />
		<tag k="ssr:stedsnr" v="291334" />
	</node>
	<node id="-92" lat="59.9333472224" lon="12.2193416695">
		<tag k="fixme" v="consider place=farm" />
		<tag k="name" v="Moheim" />
		<tag k="place" v="isolated_dwelling" />
		<tag k="ssr:stedsnr" v="291250" />
	</node>
	<node id="-91" lat="59.9645249993" lon="12.1177250044">
		<tag k="name" v="Sjursbråten" />
		<tag k="place" v="farm" />
		<tag k="ssr:stedsnr" v="291248" />
	</node>
	<node id="-90" lat="59.9686499988" lon="12.0989555622">
		<tag k="name" v="Brenna" />
		<tag k="place" v="farm" />
		<tag k="ssr:stedsnr" v="291241" />
	</node>
	<node id="-89" lat="59.9660277788" lon="12.2088694465">
		<tag k="name" v="Jøvika" />
		<tag k="place" v="farm" />
		<tag k="ssr:stedsnr" v="291242" />
	</node>
	<node id="-88" lat="59.9025694433" lon="12.0953166603">
		<tag k="name" v="Nordre Enga" />
		<tag k="place" v="farm" />
		<tag k="ssr:stedsnr" v="291221" />
	</node>
	<node id="-87" lat="59.9898138896" lon="12.1361444484">
		<tag k="name" v="Moseby" />
		<tag k="place" v="farm" />
		<tag k="ssr:stedsnr" v="291191" />
	</node>
	<node id="-86" lat="59.9816750006" lon="12.0727916708">
		<tag k="name" v="Øveråsen" />
		<tag k="place" v="farm" />
		<tag k="ssr:stedsnr" v="291123" />
	</node>
	<node id="-85" lat="59.9186138926" lon="11.992727771">
		<tag k="name" v="Klanderudbråtan" />
		<tag k="place" v="farm" />
		<tag k="ssr:stedsnr" v="291109" />
	</node>
	<node id="-84" lat="59.9318361144" lon="12.1721249937">
		<tag k="name" v="Nordal" />
		<tag k="place" v="farm" />
		<tag k="ssr:stedsnr" v="291093" />
	</node>
	<node id="-83" lat="59.9799666635" lon="12.228927777">
		<tag k="name" v="Gransæter" />
		<tag k="place" v="farm" />
		<tag k="ssr:stedsnr" v="291062" />
	</node>
	<node id="-82" lat="59.9585583349" lon="11.9738749968">
		<tag k="name" v="Sollia" />
		<tag k="place" v="farm" />
		<tag k="ssr:stedsnr" v="291052" />
	</node>
	<node id="-81" lat="60.0714361133" lon="12.1596472168">
		<tag k="name" v="Lisbetten" />
		<tag k="place" v="farm" />
		<tag k="ssr:stedsnr" v="291036" />
	</node>
	<node id="-80" lat="60.0391500008" lon="12.1551861138">
		<tag k="building" v="cabin" />
		<tag k="name" v="Hytta" />
		<tag k="place" v="isolated_dwelling" />
		<tag k="ssr:stedsnr" v="291017" />
	</node>
	<node id="-412" lat="60.0048555593" lon="12.0736166595">
		<tag k="name" v="Veststuen" />
		<tag k="place" v="farm" />
		<tag k="ssr:stedsnr" v="412114" />
	</node>
	<node id="-344" lat="60.0312361099" lon="12.0310555543">
		<tag k="name" v="Moen" />
		<tag k="place" v="farm" />
		<tag k="ssr:stedsnr" v="369585" />
	</node>
	<node id="-75" lat="60.0038083297" lon="12.1276194395">
		<tag k="name" v="Hesbøl" />
		<tag k="place" v="hamlet" />
		<tag k="ssr:stedsnr" v="290979" />
	</node>
	<node id="-328" lat="59.9215416665" lon="11.8566750086">
		<tag k="alt_name" v="Godnes" />
		<tag k="name" v="Nordre Godnes" />
		<tag k="place" v="farm" />
		<tag k="ssr:stedsnr" v="369312" />
	</node>
	<node id="-66" lat="59.9780638924" lon="12.0499638883">
		<tag k="name" v="Tollefstad" />
		<tag k="place" v="farm" />
		<tag k="ssr:stedsnr" v="290781" />
	</node>
	<node id="-2113" lat="59.9699083331" lon="12.0526499994">
		<tag k="name" v="Øststuen" />
		<tag k="place" v="farm" />
		<tag k="ssr:stedsnr" v="654603" />
	</node>
	<node id="-2110" lat="59.9431472251" lon="12.009966668">
		<tag k="name" v="Søndre Bakken" />
		<tag k="place" v="farm" />
		<tag k="ssr:stedsnr" v="654585" />
	</node>
	<node id="-2109" lat="60.0556361129" lon="12.1200194386">
		<tag k="name" v="Søndre Skrådal" />
		<tag k="place" v="farm" />
		<tag k="ssr:stedsnr" v="654579" />
	</node>
	<node id="-343" lat="60.0428388862" lon="12.083805563">
		<tag k="name" v="Øverby" />
		<tag k="place" v="farm" />
		<tag k="ssr:stedsnr" v="369581" />
	</node>
	<node id="-49" lat="60.0235527809" lon="12.0502916649">
		<tag k="name" v="Østfjell" />
		<tag k="place" v="farm" />
		<tag k="ssr:stedsnr" v="290467" />
	</node>
	<node id="-2184" lat="59.9669833313" lon="12.2265749956">
		<tag k="name" v="Framgarden" />
		<tag k="place" v="farm" />
		<tag k="ssr:stedsnr" v="673217" />
	</node>
	<node id="-45" lat="59.9811083368" lon="12.1045944454">
		<tag k="name" v="Tuhusporta" />
		<tag k="place" v="neighbourhood" />
		<tag k="ssr:stedsnr" v="290442" />
	</node>
	<node id="-138" lat="60.0139666682" lon="12.1307277833">
		<tag k="name" v="Grønnerud" />
		<tag k="place" v="farm" />
		<tag k="ssr:stedsnr" v="308860" />
	</node>
	<node id="-2088" lat="59.9351472234" lon="12.0151527824">
		<tag k="name" v="Søndre Stangnesbråten" />
		<tag k="place" v="farm" />
		<tag k="ssr:stedsnr" v="654420" />
	</node>
	<node id="-2084" lat="59.9254000013" lon="11.9864111183">
		<tag k="name" v="Oppgarden Rambøl" />
		<tag k="place" v="farm" />
		<tag k="ssr:stedsnr" v="654360" />
	</node>
	<node id="-2081" lat="60.027597226" lon="11.844477778">
		<tag k="building" v="cabin" />
		<tag k="name" v="Stor-Fløyta" />
		<tag k="place" v="isolated_dwelling" />
		<tag k="ssr:stedsnr" v="654314" />
	</node>
	<node id="-2070" lat="59.8964083294" lon="12.0177861041">
		<tag k="name" v="Nybakk" />
		<tag k="place" v="farm" />
		<tag k="ssr:stedsnr" v="654222" />
	</node>
	<node id="-345" lat="60.0176333355" lon="12.0461861198">
		<tag k="name" v="Rinda" />
		<tag k="place" v="farm" />
		<tag k="ssr:stedsnr" v="369602" />
	</node>
	<node id="-2064" lat="60.0007388867" lon="12.0951611157">
		<tag k="name" v="Sørpebøl" />
		<tag k="place" v="farm" />
		<tag k="ssr:stedsnr" v="654110" />
	</node>
	<node id="-2063" lat="59.9282027753" lon="12.189269451">
		<tag k="name" v="Skogtun" />
		<tag k="place" v="farm" />
		<tag k="ssr:stedsnr" v="654106" />
	</node>
	<node id="-819" lat="59.9583638885" lon="12.2533388921">
		<tag k="alt_name" v="Nessæter" />
		<tag k="name" v="Nessætra" />
		<tag k="place" v="farm" />
		<tag k="ssr:stedsnr" v="66199" />
	</node>
	<node id="-2" lat="60.0027750011" lon="12.0806194407">
		<tag k="name" v="Arstuen" />
		<tag k="old_name" v="Nystuen" />
		<tag k="place" v="farm" />
		<tag k="ssr:stedsnr" v="283084" />
	</node>
	<node id="-2057" lat="59.9670444406" lon="12.235591674">
		<tag k="name" v="Teppa" />
		<tag k="place" v="farm" />
		<tag k="ssr:stedsnr" v="654066" />
	</node>
	<node id="-2055" lat="59.9151277761" lon="11.9922611096">
		<tag k="name" v="Oppistuen Klanderud" />
		<tag k="place" v="farm" />
		<tag k="ssr:stedsnr" v="654046" />
	</node>
	<node id="-5" lat="59.959644448" lon="12.1526277697">
		<tag k="name" v="Nygård" />
		<tag k="place" v="farm" />
		<tag k="ssr:stedsnr" v="289176" />
	</node>
	<node id="-4" lat="60.0239805568" lon="12.0880166584">
		<tag k="alt_name" v="Sørkisen;Kisen" />
		<tag k="name" v="Sørkisa" />
		<tag k="place" v="farm" />
		<tag k="ssr:stedsnr" v="285706" />
	</node>
	<node id="-342" lat="60.0390277757" lon="12.1452555577">
		<tag k="alt_name" v="Søndre Torp" />
		<tag k="name" v="Torp" />
		<tag k="place" v="farm" />
		<tag k="ssr:stedsnr" v="369574" />
	</node>
	<node id="-2050" lat="60.0550444406" lon="12.2132750014">
		<tag k="historic" v="shieling" />
		<tag k="name" v="Langfossæter" />
		<tag k="place" v="locality" />
		<tag k="ssr:stedsnr" v="654014" />
	</node>
	<node id="-2049" lat="59.9209555578" lon="11.9827388889">
		<tag k="name" v="Nordre Rambølsødegarden" />
		<tag k="place" v="farm" />
		<tag k="ssr:stedsnr" v="654009" />
	</node>
</osm>
