<?xml version="1.0" encoding="UTF-8"?>
<osm generator="osmapis" version="0.6">
	<node id="-2973" lat="59.9340138887" lon="12.2373861146">
		<tag k="name" v="Morokulien" />
		<tag k="place" v="locality" />
		<tag k="ssr:stedsnr" v="958461" />
	</node>
	<node id="-1916" lat="59.9671833337" lon="12.1428833271">
		<tag k="amenity" v="community_centre" />
		<tag k="name" v="Gaustad bedehus" />
		<tag k="ssr:stedsnr" v="593844" />
	</node>
	<node id="-330" lat="59.9272638874" lon="11.9902416686">
		<tag k="amenity" v="place_of_worship" />
		<tag k="denomination" v="lutheran" />
		<tag k="name" v="Vestmarka kirke" />
		<tag k="religion" v="christian" />
		<tag k="ssr:stedsnr" v="369324" />
	</node>
	<node id="-23" lat="60.0881388906" lon="12.2311750028">
		<tag k="name" v="Oterstokka" />
		<tag k="place" v="locality" />
		<tag k="ssr:stedsnr" v="290179" />
	</node>
	<node id="-2708" lat="59.9318749959" lon="12.2414027769">
		<tag k="name" v="Fredsmonumentet" />
		<tag k="ssr:stedsnr" v="837786" />
		<tag k="tourism" v="attraction" />
	</node>
	<node id="-1101" lat="59.8598972203" lon="11.8663833245">
		<tag k="name" v="Tiurhullet" />
		<tag k="place" v="locality" />
		<tag k="ssr:stedsnr" v="169251" />
	</node>
	<node id="-1706" lat="59.9693166632" lon="12.2264916658">
		<tag k="amenity" v="community_centre" />
		<tag k="name" v="Nevjen grendehus" />
		<tag k="ssr:stedsnr" v="533202" />
	</node>
	<node id="-2857" lat="60.0300416686" lon="12.1251444406">
		<tag k="amenity" v="place_of_worship" />
		<tag k="denomination" v="lutheran" />
		<tag k="name" v="Eidskog kirke" />
		<tag k="religion" v="christian" />
		<tag k="ssr:stedsnr" v="915619" />
	</node>
	<node id="-188" lat="59.9451888918" lon="12.1929444471">
		<tag k="amenity" v="place_of_worship" />
		<tag k="denomination" v="lutheran" />
		<tag k="name" v="Magnor kirke" />
		<tag k="religion" v="christian" />
		<tag k="ssr:stedsnr" v="126363" />
	</node>
	<node id="-2054" lat="59.9903777808" lon="12.3436583273">
		<tag k="amenity" v="community_centre" />
		<tag k="name" v="Finnsrud samfunnshus" />
		<tag k="ssr:stedsnr" v="654044" />
	</node>
	<node id="-1284" lat="59.9443972222" lon="12.2631944405">
		<tag k="name" v="Kølabøtten" />
		<tag k="place" v="locality" />
		<tag k="ssr:stedsnr" v="229244" />
	</node>
	<node id="-1254" lat="59.9317333344" lon="12.2427194473">
		<tag k="name" v="Fredsmonumentet" />
		<tag k="ssr:stedsnr" v="209287" />
		<tag k="tourism" v="attraction" />
	</node>
</osm>
