<?xml version="1.0" encoding="UTF-8"?>
<osm generator="osmapis" version="0.6">
	<node id="-2048" lat="59.9308444454" lon="11.9096027751">
		<tag k="name" v="Jussienga" />
		<tag k="natural" v="cape" />
		<tag k="place" v="locality" />
		<tag k="ssr:stedsnr" v="654005" />
	</node>
	<node id="-2035" lat="60.0478777742" lon="12.089975002">
		<tag k="fixme" v="consider water=pond" />
		<tag k="name" v="Fardintjennet" />
		<tag k="natural" v="water" />
		<tag k="ssr:stedsnr" v="642664" />
		<tag k="water" v="lake" />
	</node>
	<node id="-2034" lat="60.0665833375" lon="11.957119451">
		<tag k="fixme" v="consider water=pond" />
		<tag k="name" v="Søndre Nysætertjennet" />
		<tag k="natural" v="water" />
		<tag k="ssr:stedsnr" v="642160" />
		<tag k="water" v="lake" />
	</node>
	<node id="-532" lat="59.8819944482" lon="11.9153972263">
		<tag k="name" v="Isakvika" />
		<tag k="natural" v="bay" />
		<tag k="ssr:stedsnr" v="897505" />
	</node>
	<node id="-2030" lat="60.0100138933" lon="11.9386333354">
		<tag k="fixme" v="consider water=pond" />
		<tag k="name" v="Svarttjennet" />
		<tag k="natural" v="water" />
		<tag k="ssr:stedsnr" v="612870" />
		<tag k="water" v="lake" />
	</node>
	<node id="-2026" lat="60.067625728" lon="11.9310660774">
		<tag k="alt_name" v="Skjølungen, vesle" />
		<tag k="fixme" v="multiple name tags, choose one and add the other to alt_name; consider water=pond" />
		<tag k="name" v="Gammelsætertjennet;Vesle Skjølungen" />
		<tag k="natural" v="water" />
		<tag k="ssr:stedsnr" v="612718" />
		<tag k="water" v="lake" />
	</node>
	<node id="-2025" lat="60.0731000014" lon="12.1347416656">
		<tag k="alt_name" v="Åklangen, s" />
		<tag k="name" v="Søndre Åklangen" />
		<tag k="natural" v="water" />
		<tag k="ssr:stedsnr" v="612712" />
		<tag k="water" v="lake" />
	</node>
	<node id="-2024" lat="60.0688777734" lon="11.997161111">
		<tag k="fixme" v="consider water=pond" />
		<tag k="name" v="Grimstjennet" />
		<tag k="natural" v="water" />
		<tag k="ssr:stedsnr" v="612706" />
		<tag k="water" v="lake" />
	</node>
	<node id="-2018" lat="60.0563472239" lon="11.999119438">
		<tag k="fixme" v="consider water=pond" />
		<tag k="name" v="Besseputten" />
		<tag k="natural" v="water" />
		<tag k="ssr:stedsnr" v="612664" />
		<tag k="water" v="lake" />
	</node>
	<node id="-2016" lat="60.0265499986" lon="11.9493027822">
		<tag k="fixme" v="consider water=pond" />
		<tag k="name" v="Knattjennet" />
		<tag k="natural" v="water" />
		<tag k="ssr:stedsnr" v="612641" />
		<tag k="water" v="lake" />
	</node>
	<node id="-1988" lat="59.905091668" lon="11.8443666641">
		<tag k="fixme" v="consider water=pond" />
		<tag k="name" v="Åbbortjenn" />
		<tag k="natural" v="water" />
		<tag k="ssr:stedsnr" v="612182" />
		<tag k="water" v="lake" />
	</node>
	<node id="-1987" lat="59.8514166676" lon="11.8431999957">
		<tag k="fixme" v="consider water=pond" />
		<tag k="name" v="Kutjenn" />
		<tag k="natural" v="water" />
		<tag k="ssr:stedsnr" v="612164" />
		<tag k="water" v="lake" />
	</node>
	<node id="-1983" lat="60.0173305566" lon="12.3115333423">
		<tag k="fixme" v="consider water=pond" />
		<tag k="name" v="Butjennet" />
		<tag k="natural" v="water" />
		<tag k="ssr:stedsnr" v="612069" />
		<tag k="water" v="lake" />
	</node>
	<node id="-1981" lat="60.0134555517" lon="12.2425111081">
		<tag k="fixme" v="consider water=pond" />
		<tag k="name" v="Igletjennet" />
		<tag k="natural" v="water" />
		<tag k="ssr:stedsnr" v="612063" />
		<tag k="water" v="lake" />
	</node>
	<node id="-1980" lat="59.8925333358" lon="12.1398527847">
		<tag k="name" v="Fløyta" />
		<tag k="ssr:stedsnr" v="612042" />
		<tag k="waterway" v="stream" />
	</node>
	<node id="-1975" lat="60.0836500017" lon="11.9745833288">
		<tag k="fixme" v="consider water=pond" />
		<tag k="name" v="Åbbortjennet" />
		<tag k="natural" v="water" />
		<tag k="ssr:stedsnr" v="611757" />
		<tag k="water" v="lake" />
	</node>
	<node id="-1974" lat="60.0815277754" lon="12.1424694506">
		<tag k="fixme" v="consider water=pond" />
		<tag k="name" v="Kolstadtjennet" />
		<tag k="natural" v="water" />
		<tag k="ssr:stedsnr" v="611690" />
		<tag k="water" v="lake" />
	</node>
	<node id="-1966" lat="59.925336113" lon="11.9025333407">
		<tag k="name" v="Killingøya" />
		<tag k="place" v="islet" />
		<tag k="ssr:stedsnr" v="611382" />
	</node>
	<node id="-1963" lat="59.9299027747" lon="11.885300004">
		<tag k="name" v="Kisvika" />
		<tag k="natural" v="bay" />
		<tag k="ssr:stedsnr" v="611365" />
	</node>
	<node id="-1941" lat="59.9346083294" lon="11.8352194523">
		<tag k="name" v="Vintervika" />
		<tag k="natural" v="bay" />
		<tag k="ssr:stedsnr" v="594493" />
	</node>
	<node id="-1921" lat="60.0561805561" lon="11.9721638948">
		<tag k="name" v="Høgputten" />
		<tag k="natural" v="water" />
		<tag k="ssr:stedsnr" v="593888" />
		<tag k="water" v="pond" />
	</node>
	<node id="-1913" lat="59.9474083331" lon="11.9102500004">
		<tag k="fixme" v="consider water=pond" />
		<tag k="name" v="Frautjennet" />
		<tag k="natural" v="water" />
		<tag k="ssr:stedsnr" v="593833" />
		<tag k="water" v="lake" />
	</node>
	<node id="-1911" lat="59.9505722233" lon="12.2958500017">
		<tag k="name" v="Svenskevika" />
		<tag k="natural" v="bay" />
		<tag k="ssr:stedsnr" v="593816" />
	</node>
	<node id="-1910" lat="59.9751194421" lon="12.3145472133">
		<tag k="name" v="Stråtjennbekken" />
		<tag k="ssr:stedsnr" v="593802" />
		<tag k="waterway" v="stream" />
	</node>
	<node id="-1903" lat="59.9625444413" lon="11.8242500064">
		<tag k="fixme" v="consider water=pond" />
		<tag k="name" v="Høglitjennet" />
		<tag k="natural" v="water" />
		<tag k="ssr:stedsnr" v="593686" />
		<tag k="water" v="lake" />
	</node>
	<node id="-1902" lat="59.9764833359" lon="11.8318583418">
		<tag k="name" v="Igleputten" />
		<tag k="natural" v="water" />
		<tag k="ssr:stedsnr" v="593687" />
		<tag k="water" v="pond" />
	</node>
	<node id="-1899" lat="59.8922111096" lon="11.8416611046">
		<tag k="fixme" v="consider water=pond" />
		<tag k="name" v="Mellemlangtjennet" />
		<tag k="natural" v="water" />
		<tag k="ssr:stedsnr" v="593644" />
		<tag k="water" v="lake" />
	</node>
	<node id="-1896" lat="59.8919027748" lon="11.8439916665">
		<tag k="fixme" v="consider water=pond" />
		<tag k="name" v="Veslelangtjennet" />
		<tag k="natural" v="water" />
		<tag k="ssr:stedsnr" v="593934" />
		<tag k="water" v="lake" />
	</node>
	<node id="-1895" lat="59.9475749978" lon="11.9814222169">
		<tag k="name" v="Atthaldsdammen" />
		<tag k="ssr:stedsnr" v="593929" />
		<tag k="waterway" v="dam" />
	</node>
	<node id="-655" lat="59.9023626664" lon="12.1813060554">
		<tag k="fixme" v="multiple name tags, choose one and add the other to alt_name; consider water=pond" />
		<tag k="name" v="Østre Åbbortjennet;Åbbortjenn" />
		<tag k="natural" v="water" />
		<tag k="ssr:stedsnr" v="6196" />
		<tag k="water" v="lake" />
	</node>
	<node id="-1870" lat="59.8881750018" lon="11.9347861141">
		<tag k="name" v="Rudsvika" />
		<tag k="natural" v="bay" />
		<tag k="ssr:stedsnr" v="593632" />
	</node>
	<node id="-1868" lat="59.9057750037" lon="12.0471333395">
		<tag k="name" v="Movika" />
		<tag k="natural" v="bay" />
		<tag k="ssr:stedsnr" v="593297" />
	</node>
	<node id="-1864" lat="59.9188388879" lon="11.8787805465">
		<tag k="name" v="Buåsvika" />
		<tag k="natural" v="bay" />
		<tag k="ssr:stedsnr" v="593243" />
	</node>
	<node id="-1863" lat="59.8913972225" lon="11.874736113">
		<tag k="name" v="Potetholmen" />
		<tag k="place" v="islet" />
		<tag k="ssr:stedsnr" v="593240" />
	</node>
	<node id="-1859" lat="59.9841583337" lon="12.2644916639">
		<tag k="name" v="Opptjennkjeften" />
		<tag k="natural" v="bay" />
		<tag k="ssr:stedsnr" v="593177" />
	</node>
	<node id="-1845" lat="59.9216666689" lon="11.9228833279">
		<tag k="name" v="Akkevika" />
		<tag k="natural" v="bay" />
		<tag k="ssr:stedsnr" v="593052" />
	</node>
	<node id="-1829" lat="60.091599998" lon="12.1215138943">
		<tag k="alt_name" v="Aklangen, nordre" />
		<tag k="name" v="Nordre Åklangen" />
		<tag k="natural" v="water" />
		<tag k="ssr:stedsnr" v="551740" />
		<tag k="water" v="lake" />
	</node>
	<node id="-1823" lat="60.0373861143" lon="11.9012499955">
		<tag k="alt_name" v="Steinøysjøen" />
		<tag k="name" v="Steineia" />
		<tag k="natural" v="water" />
		<tag k="ssr:stedsnr" v="551682" />
		<tag k="water" v="lake" />
	</node>
	<node id="-1822" lat="60.0398499974" lon="11.9969027735">
		<tag k="fixme" v="consider water=pond" />
		<tag k="name" v="Mikkelstjennet" />
		<tag k="natural" v="water" />
		<tag k="ssr:stedsnr" v="551676" />
		<tag k="water" v="lake" />
	</node>
	<node id="-1821" lat="60.0469833305" lon="11.8915138937">
		<tag k="fixme" v="consider water=pond" />
		<tag k="name" v="Struttjennet" />
		<tag k="natural" v="water" />
		<tag k="ssr:stedsnr" v="551661" />
		<tag k="water" v="lake" />
	</node>
	<node id="-1819" lat="60.0172777763" lon="11.9509138896">
		<tag k="fixme" v="consider water=pond" />
		<tag k="name" v="Sætertjennet" />
		<tag k="natural" v="water" />
		<tag k="ssr:stedsnr" v="551651" />
		<tag k="water" v="lake" />
	</node>
	<node id="-1815" lat="60.0351638908" lon="11.9880527867">
		<tag k="name" v="Nauttjennsbekken" />
		<tag k="ssr:stedsnr" v="551623" />
		<tag k="waterway" v="stream" />
	</node>
	<node id="-1811" lat="59.9790333352" lon="12.0142833346">
		<tag k="fixme" v="consider water=pond" />
		<tag k="name" v="Grunntjennet" />
		<tag k="natural" v="water" />
		<tag k="ssr:stedsnr" v="551480" />
		<tag k="water" v="lake" />
	</node>
	<node id="-1793" lat="59.9550388851" lon="11.9334083359">
		<tag k="fixme" v="multiple name tags, choose one and add the other to alt_name; consider water=pond" />
		<tag k="name" v="Holmtjennet;Høgdertjenna" />
		<tag k="natural" v="water" />
		<tag k="ssr:stedsnr" v="551309" />
		<tag k="water" v="lake" />
	</node>
	<node id="-1791" lat="59.9555749967" lon="12.0497638811">
		<tag k="name" v="Stangnesstranda" />
		<tag k="natural" v="beach" />
		<tag k="ssr:stedsnr" v="551303" />
	</node>
	<node id="-1790" lat="59.9500250006" lon="11.8928388843">
		<tag k="fixme" v="consider water=pond" />
		<tag k="name" v="Damtjenn" />
		<tag k="natural" v="water" />
		<tag k="ssr:stedsnr" v="551299" />
		<tag k="water" v="lake" />
	</node>
	<node id="-1786" lat="59.9343777814" lon="12.0340666659">
		<tag k="alt_name" v="Steringstjennet;Stæringen, store" />
		<tag k="fixme" v="consider water=pond" />
		<tag k="name" v="Store Stæringen" />
		<tag k="natural" v="water" />
		<tag k="ssr:stedsnr" v="551261" />
		<tag k="water" v="lake" />
	</node>
	<node id="-1781" lat="59.8933888885" lon="11.8237999914">
		<tag k="loc_name" v="Krokskjølungen" />
		<tag k="name" v="Kroksjølungen" />
		<tag k="natural" v="water" />
		<tag k="ssr:stedsnr" v="551204" />
		<tag k="water" v="lake" />
	</node>
	<node id="-1780" lat="60.0113416625" lon="12.3188833286">
		<tag k="fixme" v="consider water=pond" />
		<tag k="name" v="Butjenndolpa" />
		<tag k="natural" v="water" />
		<tag k="ssr:stedsnr" v="551201" />
		<tag k="water" v="lake" />
	</node>
	<node id="-1779" lat="59.9059138855" lon="11.9059944387">
		<tag k="fixme" v="consider water=pond" />
		<tag k="name" v="Vestre Emtjenn" />
		<tag k="natural" v="water" />
		<tag k="ssr:stedsnr" v="551172" />
		<tag k="water" v="lake" />
	</node>
	<node id="-1778" lat="59.9012861087" lon="11.8826416651">
		<tag k="name" v="Djupsundnabben" />
		<tag k="natural" v="cape" />
		<tag k="place" v="locality" />
		<tag k="ssr:stedsnr" v="551169" />
	</node>
	<node id="-1776" lat="59.8848222245" lon="11.8574333408">
		<tag k="fixme" v="consider water=pond" />
		<tag k="name" v="Steintjenn" />
		<tag k="natural" v="water" />
		<tag k="ssr:stedsnr" v="551138" />
		<tag k="water" v="lake" />
	</node>
	<node id="-1757" lat="60.0505361153" lon="11.8815333395">
		<tag k="fixme" v="consider water=pond" />
		<tag k="name" v="Slirtjennet" />
		<tag k="natural" v="water" />
		<tag k="ssr:stedsnr" v="533856" />
		<tag k="water" v="lake" />
	</node>
	<node id="-1752" lat="60.0356972265" lon="12.3114833351">
		<tag k="fixme" v="consider water=pond" />
		<tag k="name" v="Vestre Åstjenn" />
		<tag k="natural" v="water" />
		<tag k="ssr:stedsnr" v="533796" />
		<tag k="water" v="lake" />
	</node>
	<node id="-1750" lat="59.9181861082" lon="11.8823694515">
		<tag k="name" v="Vestre Kjelvika" />
		<tag k="natural" v="bay" />
		<tag k="ssr:stedsnr" v="533747" />
	</node>
	<node id="-1742" lat="60.03363611" lon="12.0436694455">
		<tag k="name" v="Sluffedammen" />
		<tag k="ssr:stedsnr" v="533534" />
		<tag k="waterway" v="dam" />
	</node>
	<node id="-1737" lat="59.9415555531" lon="11.826719443">
		<tag k="name" v="Langodden" />
		<tag k="natural" v="cape" />
		<tag k="place" v="locality" />
		<tag k="ssr:stedsnr" v="533485" />
	</node>
	<node id="-1735" lat="59.9327833337" lon="11.8259444372">
		<tag k="name" v="Sandvika" />
		<tag k="natural" v="bay" />
		<tag k="ssr:stedsnr" v="533466" />
	</node>
	<node id="-1727" lat="59.9803527793" lon="12.1954805475">
		<tag k="fixme" v="consider water=pond" />
		<tag k="name" v="Furufjelltjennet" />
		<tag k="natural" v="water" />
		<tag k="ssr:stedsnr" v="533376" />
		<tag k="water" v="lake" />
	</node>
	<node id="-1687" lat="59.961605553" lon="11.9267444432">
		<tag k="fixme" v="consider water=pond" />
		<tag k="name" v="Huldertjennet" />
		<tag k="natural" v="water" />
		<tag k="ssr:stedsnr" v="532823" />
		<tag k="water" v="lake" />
	</node>
	<node id="-1676" lat="59.8760555586" lon="11.9123416592">
		<tag k="name" v="Nabben" />
		<tag k="natural" v="cape" />
		<tag k="place" v="locality" />
		<tag k="ssr:stedsnr" v="506023" />
	</node>
	<node id="-1670" lat="60.0452000008" lon="12.0591500024">
		<tag k="alt_name" v="Hornåa" />
		<tag k="name" v="Hornkjølåa" />
		<tag k="ssr:stedsnr" v="491681" />
		<tag k="waterway" v="stream" />
	</node>
	<node id="-1668" lat="60.0562388872" lon="11.9468694384">
		<tag k="fixme" v="consider water=pond" />
		<tag k="name" v="Aurkyttjenna" />
		<tag k="natural" v="water" />
		<tag k="ssr:stedsnr" v="491665" />
		<tag k="water" v="lake" />
	</node>
	<node id="-1666" lat="59.9129055528" lon="11.8950416648">
		<tag k="alt_name" v="Skjærvangen" />
		<tag k="name" v="Skjervangen" />
		<tag k="natural" v="water" />
		<tag k="ssr:stedsnr" v="491348" />
		<tag k="water" v="lake" />
	</node>
	<node id="-1660" lat="59.9528388846" lon="12.0952194426">
		<tag k="fixme" v="consider water=pond" />
		<tag k="name" v="Svarttjenn" />
		<tag k="natural" v="water" />
		<tag k="ssr:stedsnr" v="491275" />
		<tag k="water" v="lake" />
	</node>
	<node id="-1656" lat="59.8958194421" lon="11.9562361128">
		<tag k="fixme" v="consider water=pond" />
		<tag k="name" v="Hekttjennet" />
		<tag k="natural" v="water" />
		<tag k="ssr:stedsnr" v="491185" />
		<tag k="water" v="lake" />
	</node>
	<node id="-1654" lat="59.8989083313" lon="12.038755558">
		<tag k="alt_name" v="Helgesjø" />
		<tag k="name" v="Helgesjøen" />
		<tag k="natural" v="water" />
		<tag k="ssr:stedsnr" v="491181" />
		<tag k="water" v="lake" />
	</node>
	<node id="-2442" lat="59.9047305576" lon="12.0478833334">
		<tag k="name" v="Aurneset" />
		<tag k="natural" v="cape" />
		<tag k="place" v="locality" />
		<tag k="ssr:stedsnr" v="776043" />
	</node>
	<node id="-2398" lat="60.028197221" lon="11.9283222294">
		<tag k="fixme" v="consider water=pond" />
		<tag k="name" v="Spjuttjenna" />
		<tag k="natural" v="water" />
		<tag k="ssr:stedsnr" v="734672" />
		<tag k="water" v="lake" />
	</node>
	<node id="-1641" lat="60.0714805536" lon="12.2129000057">
		<tag k="fixme" v="consider water=pond" />
		<tag k="name" v="Morttjenna" />
		<tag k="natural" v="water" />
		<tag k="ssr:stedsnr" v="490723" />
		<tag k="water" v="lake" />
	</node>
	<node id="-1637" lat="60.065063892" lon="11.8738361117">
		<tag k="name" v="Putten" />
		<tag k="natural" v="water" />
		<tag k="ssr:stedsnr" v="490709" />
		<tag k="water" v="pond" />
	</node>
	<node id="-1635" lat="60.0240777758" lon="11.9039111032">
		<tag k="fixme" v="consider water=pond" />
		<tag k="name" v="Åbbortjennet" />
		<tag k="natural" v="water" />
		<tag k="ssr:stedsnr" v="490640" />
		<tag k="water" v="lake" />
	</node>
	<node id="-1630" lat="59.9170750004" lon="11.9630861133">
		<tag k="name" v="Langvatnet" />
		<tag k="natural" v="water" />
		<tag k="ssr:stedsnr" v="490315" />
		<tag k="water" v="lake" />
	</node>
	<node id="-1627" lat="59.9563222248" lon="12.0579888944">
		<tag k="name" v="Stangnessjøen" />
		<tag k="natural" v="water" />
		<tag k="ssr:stedsnr" v="490281" />
		<tag k="water" v="lake" />
	</node>
	<node id="-1625" lat="59.9868472256" lon="12.2945916738">
		<tag k="fixme" v="consider water=pond" />
		<tag k="name" v="Vintertjennet" />
		<tag k="natural" v="water" />
		<tag k="ssr:stedsnr" v="490233" />
		<tag k="water" v="lake" />
	</node>
	<node id="-1622" lat="59.9772722192" lon="12.3004055482">
		<tag k="fixme" v="consider water=pond" />
		<tag k="name" v="Stråtjenna" />
		<tag k="natural" v="water" />
		<tag k="ssr:stedsnr" v="490191" />
		<tag k="water" v="lake" />
	</node>
	<node id="-1621" lat="59.8964555591" lon="12.0682166592">
		<tag k="fixme" v="consider water=pond" />
		<tag k="name" v="Possevatnet" />
		<tag k="natural" v="water" />
		<tag k="ssr:stedsnr" v="490181" />
		<tag k="water" v="lake" />
	</node>
	<node id="-1616" lat="60.0436194402" lon="12.2338805476">
		<tag k="fixme" v="consider water=pond" />
		<tag k="name" v="Svarttjenn" />
		<tag k="natural" v="water" />
		<tag k="ssr:stedsnr" v="490005" />
		<tag k="water" v="lake" />
	</node>
	<node id="-1597" lat="60.0046861121" lon="12.1787611185">
		<tag k="name" v="Langbrumyrbekken" />
		<tag k="ssr:stedsnr" v="472875" />
		<tag k="waterway" v="stream" />
	</node>
	<node id="-1589" lat="59.9096527817" lon="11.9525138897">
		<tag k="fixme" v="consider water=pond" />
		<tag k="name" v="Stutauget" />
		<tag k="natural" v="water" />
		<tag k="ssr:stedsnr" v="472757" />
		<tag k="water" v="lake" />
	</node>
	<node id="-1588" lat="59.9630222231" lon="12.0876805552">
		<tag k="fixme" v="consider water=pond" />
		<tag k="name" v="Dulpen" />
		<tag k="natural" v="water" />
		<tag k="ssr:stedsnr" v="472750" />
		<tag k="water" v="lake" />
	</node>
	<node id="-1587" lat="59.953366665" lon="11.8063527821">
		<tag k="name" v="Langvika" />
		<tag k="natural" v="bay" />
		<tag k="ssr:stedsnr" v="472737" />
	</node>
	<node id="-1586" lat="59.9441305544" lon="11.8437861117">
		<tag k="name" v="Holtebekken" />
		<tag k="ssr:stedsnr" v="472723" />
		<tag k="waterway" v="stream" />
	</node>
	<node id="-1581" lat="59.9681999959" lon="11.8013944476">
		<tag k="name" v="Sandvika" />
		<tag k="natural" v="bay" />
		<tag k="ssr:stedsnr" v="472588" />
	</node>
	<node id="-1580" lat="60.028572219" lon="11.9310416593">
		<tag k="fixme" v="consider water=pond" />
		<tag k="name" v="Østre Spjuttjennet" />
		<tag k="natural" v="water" />
		<tag k="ssr:stedsnr" v="472573" />
		<tag k="water" v="lake" />
	</node>
	<node id="-1571" lat="59.9259500011" lon="11.8152583342">
		<tag k="fixme" v="consider water=pond" />
		<tag k="name" v="Stutøyet" />
		<tag k="natural" v="water" />
		<tag k="ssr:stedsnr" v="472445" />
		<tag k="water" v="lake" />
	</node>
	<node id="-1564" lat="59.9907555564" lon="12.3397166612">
		<tag k="name" v="Sæterdulpa" />
		<tag k="natural" v="water" />
		<tag k="ssr:stedsnr" v="472382" />
		<tag k="water" v="pond" />
	</node>
	<node id="-1558" lat="59.9963527801" lon="11.8916611152">
		<tag k="fixme" v="consider water=pond" />
		<tag k="name" v="Blometjennet" />
		<tag k="natural" v="water" />
		<tag k="ssr:stedsnr" v="472291" />
		<tag k="water" v="lake" />
	</node>
	<node id="-601" lat="59.9036083304" lon="11.8727499985">
		<tag k="name" v="Uglevika" />
		<tag k="natural" v="bay" />
		<tag k="ssr:stedsnr" v="5166" />
	</node>
	<node id="-1555" lat="59.9442444421" lon="11.8786083334">
		<tag k="fixme" v="consider water=pond" />
		<tag k="name" v="Mortensontjennet" />
		<tag k="natural" v="water" />
		<tag k="ssr:stedsnr" v="472280" />
		<tag k="water" v="lake" />
	</node>
	<node id="-1554" lat="59.9272555561" lon="11.9164666673">
		<tag k="fixme" v="consider water=pond" />
		<tag k="name" v="Jussitjennet" />
		<tag k="natural" v="water" />
		<tag k="ssr:stedsnr" v="472260" />
		<tag k="water" v="lake" />
	</node>
	<node id="-1553" lat="59.8818666678" lon="11.8815305551">
		<tag k="name" v="Bråtavika" />
		<tag k="natural" v="bay" />
		<tag k="ssr:stedsnr" v="472253" />
	</node>
	<node id="-1549" lat="60.0726222207" lon="12.0542777747">
		<tag k="name" v="Kvernbekken" />
		<tag k="ssr:stedsnr" v="472219" />
		<tag k="waterway" v="stream" />
	</node>
	<node id="-1534" lat="59.8983638895" lon="12.1052694504">
		<tag k="name" v="Jensvika" />
		<tag k="natural" v="bay" />
		<tag k="ssr:stedsnr" v="472059" />
	</node>
	<node id="-1531" lat="59.9247972215" lon="11.9072222207">
		<tag k="name" v="Erterudneset" />
		<tag k="natural" v="cape" />
		<tag k="place" v="locality" />
		<tag k="ssr:stedsnr" v="472040" />
	</node>
	<node id="-1529" lat="59.9018666682" lon="12.0408027714">
		<tag k="name" v="Orreholmene" />
		<tag k="place" v="islet" />
		<tag k="ssr:stedsnr" v="472027" />
	</node>
	<node id="-1518" lat="60.0090499969" lon="12.3009305469">
		<tag k="name" v="Billingsøelva" />
		<tag k="ssr:stedsnr" v="461944" />
		<tag k="waterway" v="river" />
	</node>
	<node id="-1514" lat="60.0603500006" lon="12.2308249995">
		<tag k="alt_name" v="Store Baksjøen" />
		<tag k="name" v="Baksjøen" />
		<tag k="natural" v="water" />
		<tag k="ssr:stedsnr" v="431605" />
		<tag k="water" v="lake" />
	</node>
	<node id="-1508" lat="60.0073027767" lon="12.0521388947">
		<tag k="fixme" v="consider water=pond" />
		<tag k="name" v="Ålsjøen" />
		<tag k="natural" v="water" />
		<tag k="ssr:stedsnr" v="430855" />
		<tag k="water" v="lake" />
	</node>
	<node id="-1502" lat="60.0140027748" lon="12.050577771">
		<tag k="name" v="Børjåa" />
		<tag k="ssr:stedsnr" v="430689" />
		<tag k="waterway" v="river" />
	</node>
	<node id="-1499" lat="60.0515305545" lon="12.1023499966">
		<tag k="fixme" v="consider water=pond" />
		<tag k="name" v="Svarttjenn" />
		<tag k="natural" v="water" />
		<tag k="ssr:stedsnr" v="430664" />
		<tag k="water" v="lake" />
	</node>
	<node id="-1496" lat="59.9856444486" lon="11.8702333382">
		<tag k="fixme" v="consider water=pond" />
		<tag k="name" v="Kjelketjennet" />
		<tag k="natural" v="water" />
		<tag k="ssr:stedsnr" v="430463" />
		<tag k="water" v="lake" />
	</node>
	<node id="-1483" lat="59.9198750026" lon="11.8658333375">
		<tag k="name" v="Buvikelva" />
		<tag k="ssr:stedsnr" v="430335" />
		<tag k="waterway" v="stream" />
	</node>
	<node id="-246" lat="60.0267555543" lon="11.882780551">
		<tag k="name" v="Langelandsbekken" />
		<tag k="ssr:stedsnr" v="351327" />
		<tag k="waterway" v="stream" />
	</node>
	<node id="-1454" lat="60.038882251" lon="12.1981172219">
		<tag k="fixme" v="multiple name tags, choose one and add the other to alt_name; consider water=pond" />
		<tag k="name" v="Holmetjennet;Igletjennet" />
		<tag k="natural" v="water" />
		<tag k="ssr:stedsnr" v="430629" />
		<tag k="water" v="lake" />
	</node>
	<node id="-1444" lat="60.102386113" lon="12.2731777826">
		<tag k="name" v="Vestre Holvatnet" />
		<tag k="natural" v="water" />
		<tag k="ssr:stedsnr" v="248926" />
		<tag k="water" v="lake" />
	</node>
	<node id="-1443" lat="60.1024361099" lon="12.2261833329">
		<tag k="fixme" v="consider water=pond" />
		<tag k="name" v="Kafalltjennet" />
		<tag k="natural" v="water" />
		<tag k="ssr:stedsnr" v="248927" />
		<tag k="water" v="lake" />
	</node>
	<node id="-1438" lat="60.0807333305" lon="11.9313388941">
		<tag k="fixme" v="consider water=pond" />
		<tag k="name" v="Eggetjennet" />
		<tag k="natural" v="water" />
		<tag k="ssr:stedsnr" v="248750" />
		<tag k="water" v="lake" />
	</node>
	<node id="-1432" lat="60.0410694413" lon="11.9605305507">
		<tag k="fixme" v="consider water=pond" />
		<tag k="name" v="Holmtjennet" />
		<tag k="natural" v="water" />
		<tag k="ssr:stedsnr" v="248692" />
		<tag k="water" v="lake" />
	</node>
	<node id="-1431" lat="60.0337978857" lon="11.9635718141">
		<tag k="fixme" v="multiple name tags, choose one and add the other to alt_name; consider water=pond" />
		<tag k="name" v="Syltedalstjennet;Store Gjeddetjenn" />
		<tag k="natural" v="water" />
		<tag k="ssr:stedsnr" v="248689" />
		<tag k="water" v="lake" />
	</node>
	<node id="-1426" lat="60.0384555534" lon="12.1740666613">
		<tag k="fixme" v="consider water=pond" />
		<tag k="name" v="Humletjenn" />
		<tag k="natural" v="water" />
		<tag k="ssr:stedsnr" v="248644" />
		<tag k="water" v="lake" />
	</node>
	<node id="-1425" lat="60.0462749979" lon="11.9827999998">
		<tag k="name" v="Sandbekken" />
		<tag k="ssr:stedsnr" v="248632" />
		<tag k="waterway" v="stream" />
	</node>
	<node id="-1423" lat="60.0640527767" lon="11.8326444408">
		<tag k="fixme" v="consider water=pond" />
		<tag k="name" v="Svarttjenn" />
		<tag k="natural" v="water" />
		<tag k="ssr:stedsnr" v="248535" />
		<tag k="water" v="lake" />
	</node>
	<node id="-1407" lat="59.9953888884" lon="12.1155750042">
		<tag k="name" v="Hesbølsjøen" />
		<tag k="natural" v="water" />
		<tag k="ssr:stedsnr" v="248356" />
		<tag k="water" v="lake" />
	</node>
	<node id="-1406" lat="59.9216527735" lon="11.9204499965">
		<tag k="name" v="Akkevika" />
		<tag k="natural" v="bay" />
		<tag k="ssr:stedsnr" v="248322" />
	</node>
	<node id="-1405" lat="59.9211250027" lon="11.8817499946">
		<tag k="name" v="Buåsvika" />
		<tag k="natural" v="bay" />
		<tag k="ssr:stedsnr" v="248321" />
	</node>
	<node id="-1404" lat="59.921555556" lon="12.0839999976">
		<tag k="name" v="Fløyta" />
		<tag k="ssr:stedsnr" v="248313" />
		<tag k="waterway" v="stream" />
	</node>
	<node id="-1402" lat="59.9214638906" lon="11.9925388938">
		<tag k="fixme" v="consider water=pond" />
		<tag k="name" v="Klanderudtjennet" />
		<tag k="natural" v="water" />
		<tag k="ssr:stedsnr" v="248312" />
		<tag k="water" v="lake" />
	</node>
	<node id="-1367" lat="59.8647500043" lon="11.8438805503">
		<tag k="fixme" v="consider water=pond" />
		<tag k="loc_name" v="Skjølåsætertjennet" />
		<tag k="name" v="Sjelåsætertjennet" />
		<tag k="natural" v="water" />
		<tag k="ssr:stedsnr" v="230781" />
		<tag k="water" v="lake" />
	</node>
	<node id="-1361" lat="59.9120000032" lon="11.8683361175">
		<tag k="name" v="Buvika" />
		<tag k="natural" v="bay" />
		<tag k="ssr:stedsnr" v="230706" />
	</node>
	<node id="-1360" lat="59.9740166711" lon="11.8089777765">
		<tag k="fixme" v="consider water=pond" />
		<tag k="name" v="Asketjennet" />
		<tag k="natural" v="water" />
		<tag k="ssr:stedsnr" v="230700" />
		<tag k="water" v="lake" />
	</node>
	<node id="-250" lat="59.9852638876" lon="12.3328416576">
		<tag k="name" v="Billaelva" />
		<tag k="ssr:stedsnr" v="351362" />
		<tag k="waterway" v="river" />
	</node>
	<node id="-1347" lat="59.8729250017" lon="11.9018944464">
		<tag k="name" v="Karterudneset" />
		<tag k="natural" v="cape" />
		<tag k="place" v="locality" />
		<tag k="ssr:stedsnr" v="230517" />
	</node>
	<node id="-1346" lat="60.0177166674" lon="12.0224388916">
		<tag k="fixme" v="consider water=pond" />
		<tag k="name" v="Dulpen" />
		<tag k="natural" v="water" />
		<tag k="ssr:stedsnr" v="230509" />
		<tag k="water" v="lake" />
	</node>
	<node id="-224" lat="59.915922219" lon="12.1031944417">
		<tag k="name" v="Børresbekken" />
		<tag k="ssr:stedsnr" v="351119" />
		<tag k="waterway" v="stream" />
	</node>
	<node id="-222" lat="60.0863388896" lon="12.1060166579">
		<tag k="alt_name" v="Raggetjennet" />
		<tag k="fixme" v="consider water=pond" />
		<tag k="name" v="Kontetjennet" />
		<tag k="natural" v="water" />
		<tag k="ssr:stedsnr" v="351097" />
		<tag k="water" v="lake" />
	</node>
	<node id="-1318" lat="59.9116388845" lon="12.0967972232">
		<tag k="name" v="Tilbruvika" />
		<tag k="natural" v="bay" />
		<tag k="ssr:stedsnr" v="229914" />
	</node>
	<node id="-1311" lat="60.0124777771" lon="11.8364166679">
		<tag k="name" v="Skålåa" />
		<tag k="ssr:stedsnr" v="229709" />
		<tag k="waterway" v="river" />
	</node>
	<node id="-1310" lat="59.9907555552" lon="11.8647305481">
		<tag k="fixme" v="consider water=pond" />
		<tag k="loc_name" v="Tjennsmotjennet" />
		<tag k="name" v="Kjensmotjennet" />
		<tag k="natural" v="water" />
		<tag k="ssr:stedsnr" v="229704" />
		<tag k="water" v="lake" />
	</node>
	<node id="-1308" lat="60.0556679245" lon="11.9489495785">
		<tag k="fixme" v="consider water=pond" />
		<tag k="name" v="Søndre Aurkyttjennet" />
		<tag k="natural" v="water" />
		<tag k="ssr:stedsnr" v="229597" />
		<tag k="water" v="lake" />
	</node>
	<node id="-1305" lat="60.0412055548" lon="12.0993666616">
		<tag k="fixme" v="consider water=pond" />
		<tag k="name" v="Frosktjennet" />
		<tag k="natural" v="water" />
		<tag k="ssr:stedsnr" v="229494" />
		<tag k="water" v="lake" />
	</node>
	<node id="-1295" lat="59.9432055575" lon="11.9881777857">
		<tag k="name" v="Polfossen" />
		<tag k="ssr:stedsnr" v="229399" />
		<tag k="waterway" v="stream" />
	</node>
	<node id="-898" lat="60.0723916681" lon="12.1444722286">
		<tag k="name" v="Trunnebekken" />
		<tag k="ssr:stedsnr" v="108218" />
		<tag k="waterway" v="river" />
	</node>
	<node id="-556" lat="59.9632416627" lon="12.3117027806">
		<tag k="name" v="Svartdalsdulpa" />
		<tag k="natural" v="water" />
		<tag k="ssr:stedsnr" v="897827" />
		<tag k="water" v="pond" />
	</node>
	<node id="-1273" lat="59.9294055556" lon="12.013980553">
		<tag k="name" v="Øverbyvika" />
		<tag k="natural" v="bay" />
		<tag k="ssr:stedsnr" v="229055" />
	</node>
	<node id="-1271" lat="59.9499194468" lon="12.1221944511">
		<tag k="name" v="Sagdalsbekken" />
		<tag k="ssr:stedsnr" v="229047" />
		<tag k="waterway" v="stream" />
	</node>
	<node id="-1267" lat="59.909724997" lon="11.972922229">
		<tag k="fixme" v="consider water=pond" />
		<tag k="name" v="Damtjennet" />
		<tag k="natural" v="water" />
		<tag k="ssr:stedsnr" v="229025" />
		<tag k="water" v="lake" />
	</node>
	<node id="-1266" lat="59.9177138908" lon="11.88909167">
		<tag k="name" v="Kjelviknabben" />
		<tag k="natural" v="cape" />
		<tag k="place" v="locality" />
		<tag k="ssr:stedsnr" v="229015" />
	</node>
	<node id="-1249" lat="59.975816665" lon="11.9698583279">
		<tag k="alt_name" v="Breidfløyta" />
		<tag k="fixme" v="consider water=pond" />
		<tag k="name" v="Breifløyta" />
		<tag k="natural" v="water" />
		<tag k="ssr:stedsnr" v="188539" />
		<tag k="water" v="lake" />
	</node>
	<node id="-1247" lat="59.9728527763" lon="11.8864999989">
		<tag k="fixme" v="consider water=pond" />
		<tag k="name" v="Støtjenna" />
		<tag k="natural" v="water" />
		<tag k="ssr:stedsnr" v="188532" />
		<tag k="water" v="lake" />
	</node>
	<node id="-549" lat="59.957688885" lon="11.9569777742">
		<tag k="fixme" v="consider water=pond" />
		<tag k="name" v="Veslesjøen" />
		<tag k="natural" v="water" />
		<tag k="ssr:stedsnr" v="897735" />
		<tag k="water" v="lake" />
	</node>
	<node id="-1243" lat="59.8961555566" lon="12.0340499976">
		<tag k="alt_name" v="Løvøya" />
		<tag k="name" v="Lauvøya" />
		<tag k="place" v="islet" />
		<tag k="ssr:stedsnr" v="188217" />
	</node>
	<node id="-1241" lat="59.9371250005" lon="11.8478583269">
		<tag k="alt_name" v="Fløita" />
		<tag k="fixme" v="consider water=pond" />
		<tag k="name" v="Fløyta" />
		<tag k="natural" v="water" />
		<tag k="ssr:stedsnr" v="188292" />
		<tag k="water" v="lake" />
	</node>
	<node id="-1240" lat="59.8990499971" lon="12.0571916658">
		<tag k="alt_name" v="Veslesjøen;Helgesjøen, vesle" />
		<tag k="fixme" v="consider water=pond" />
		<tag k="name" v="Vesle Helgesjøen" />
		<tag k="natural" v="water" />
		<tag k="ssr:stedsnr" v="188200" />
		<tag k="water" v="lake" />
	</node>
	<node id="-1239" lat="59.8959611138" lon="11.8834138948">
		<tag k="alt_name" v="Østerøya;Øya, østre" />
		<tag k="name" v="Østre Øya" />
		<tag k="place" v="islet" />
		<tag k="ssr:stedsnr" v="188209" />
	</node>
	<node id="-1238" lat="59.9046111073" lon="12.0187194517">
		<tag k="fixme" v="consider water=pond" />
		<tag k="name" v="Østre Morttjenn" />
		<tag k="natural" v="water" />
		<tag k="ssr:stedsnr" v="188207" />
		<tag k="water" v="lake" />
	</node>
	<node id="-1235" lat="60.084788886" lon="12.0816833243">
		<tag k="alt_name" v="Søndre Halsjøen" />
		<tag k="fixme" v="consider water=pond" />
		<tag k="name" v="Halvsjøen" />
		<tag k="natural" v="water" />
		<tag k="ssr:stedsnr" v="187722" />
		<tag k="water" v="lake" />
	</node>
	<node id="-1233" lat="60.0952694434" lon="12.1350777828">
		<tag k="fixme" v="consider water=pond" />
		<tag k="name" v="Fiskerudtjennet" />
		<tag k="natural" v="water" />
		<tag k="ssr:stedsnr" v="187706" />
		<tag k="water" v="lake" />
	</node>
	<node id="-1200" lat="59.9651500016" lon="12.1630972208">
		<tag k="alt_name" v="Gaustadsjøen, l" />
		<tag k="fixme" v="consider water=pond" />
		<tag k="name" v="Lille Gaustadsjøen" />
		<tag k="natural" v="water" />
		<tag k="ssr:stedsnr" v="187300" />
		<tag k="water" v="lake" />
	</node>
	<node id="-1193" lat="59.8867749992" lon="12.0535888938">
		<tag k="fixme" v="consider water=pond" />
		<tag k="name" v="Blekeren" />
		<tag k="natural" v="water" />
		<tag k="ssr:stedsnr" v="187142" />
		<tag k="water" v="lake" />
	</node>
	<node id="-1192" lat="59.8669999992" lon="11.8813499951">
		<tag k="fixme" v="consider water=pond" />
		<tag k="name" v="Fisketjennet" />
		<tag k="natural" v="water" />
		<tag k="ssr:stedsnr" v="187139" />
		<tag k="water" v="lake" />
	</node>
	<node id="-540" lat="59.8477555515" lon="11.8535833321">
		<tag k="fixme" v="consider water=pond" />
		<tag k="name" v="Vesle Hynnetjennet" />
		<tag k="natural" v="water" />
		<tag k="ssr:stedsnr" v="897665" />
		<tag k="water" v="lake" />
	</node>
	<node id="-1189" lat="59.8890861133" lon="12.1737888978">
		<tag k="name" v="Leirsjøen" />
		<tag k="natural" v="water" />
		<tag k="ssr:stedsnr" v="187134" />
		<tag k="water" v="lake" />
	</node>
	<node id="-198" lat="60.0446722201" lon="12.1779749958">
		<tag k="name" v="Dammen" />
		<tag k="ssr:stedsnr" v="350483" />
		<tag k="waterway" v="dam" />
	</node>
	<node id="-197" lat="60.049969448" lon="12.1522333279">
		<tag k="name" v="Vesleåa" />
		<tag k="ssr:stedsnr" v="350479" />
		<tag k="waterway" v="stream" />
	</node>
	<node id="-1180" lat="59.9387111083" lon="11.8277694354">
		<tag k="name" v="Øysjøen" />
		<tag k="natural" v="water" />
		<tag k="ssr:stedsnr" v="187077" />
		<tag k="water" v="lake" />
	</node>
	<node id="-1178" lat="59.9528805554" lon="12.290652775">
		<tag k="fixme" v="consider water=pond" />
		<tag k="name" v="Breitjennet" />
		<tag k="natural" v="water" />
		<tag k="ssr:stedsnr" v="187034" />
		<tag k="water" v="lake" />
	</node>
	<node id="-1177" lat="59.9386666634" lon="12.2472750029">
		<tag k="fixme" v="consider water=pond" />
		<tag k="name" v="Linåsdolpene" />
		<tag k="natural" v="water" />
		<tag k="ssr:stedsnr" v="187032" />
		<tag k="water" v="lake" />
	</node>
	<node id="-1176" lat="59.9379527758" lon="12.2233944524">
		<tag k="fixme" v="consider water=pond" />
		<tag k="name" v="Vanga" />
		<tag k="natural" v="water" />
		<tag k="ssr:stedsnr" v="187029" />
		<tag k="water" v="lake" />
	</node>
	<node id="-196" lat="59.9288527816" lon="11.900608337">
		<tag k="name" v="Heseholmen" />
		<tag k="place" v="islet" />
		<tag k="ssr:stedsnr" v="350239" />
	</node>
	<node id="-195" lat="59.9208916691" lon="11.9173305613">
		<tag k="name" v="Akkevika" />
		<tag k="natural" v="bay" />
		<tag k="ssr:stedsnr" v="350237" />
	</node>
	<node id="-1155" lat="59.9568083317" lon="11.9571249961">
		<tag k="fixme" v="consider water=pond" />
		<tag k="name" v="Vestre Svarttjennet" />
		<tag k="natural" v="water" />
		<tag k="ssr:stedsnr" v="169776" />
		<tag k="water" v="lake" />
	</node>
	<node id="-1149" lat="59.9694138896" lon="12.0424555507">
		<tag k="fixme" v="consider water=pond" />
		<tag k="name" v="Søndre Tobøltjennet" />
		<tag k="natural" v="water" />
		<tag k="ssr:stedsnr" v="169717" />
		<tag k="water" v="lake" />
	</node>
	<node id="-1147" lat="60.0353611122" lon="11.8539277821">
		<tag k="name" v="Delebekken" />
		<tag k="ssr:stedsnr" v="169707" />
		<tag k="waterway" v="stream" />
	</node>
	<node id="-1146" lat="59.8982833327" lon="11.8835861059">
		<tag k="name" v="Salsundet" />
		<tag k="natural" v="strait" />
		<tag k="place" v="locality" />
		<tag k="ssr:stedsnr" v="169671" />
	</node>
	<node id="-652" lat="59.9949138917" lon="11.8351472268">
		<tag k="name" v="Havsjøen" />
		<tag k="natural" v="water" />
		<tag k="ssr:stedsnr" v="5953" />
		<tag k="water" v="lake" />
	</node>
	<node id="-1140" lat="59.9681555563" lon="12.0883305541">
		<tag k="name" v="Tollefsbølvika" />
		<tag k="natural" v="bay" />
		<tag k="ssr:stedsnr" v="169613" />
	</node>
	<node id="-1128" lat="59.9333805578" lon="11.8487166647">
		<tag k="name" v="Kullfoss" />
		<tag k="ssr:stedsnr" v="169499" />
		<tag k="waterway" v="rapids" />
	</node>
	<node id="-1125" lat="59.9411527781" lon="11.835044453">
		<tag k="alt_name" v="Holteøya" />
		<tag k="name" v="Holterøya" />
		<tag k="place" v="island" />
		<tag k="ssr:stedsnr" v="169482" />
	</node>
	<node id="-1117" lat="59.928794441" lon="11.851869447">
		<tag k="name" v="Bolfosselva" />
		<tag k="ssr:stedsnr" v="169392" />
		<tag k="waterway" v="river" />
	</node>
	<node id="-1113" lat="60.0362805566" lon="11.8835111049">
		<tag k="fixme" v="consider water=pond" />
		<tag k="name" v="Vestre Sundtjennet" />
		<tag k="natural" v="water" />
		<tag k="ssr:stedsnr" v="169315" />
		<tag k="water" v="lake" />
	</node>
	<node id="-1112" lat="60.0613666628" lon="11.9350638889">
		<tag k="name" v="Gammelsæterbekken" />
		<tag k="ssr:stedsnr" v="169311" />
		<tag k="waterway" v="stream" />
	</node>
	<node id="-1111" lat="59.9963111084" lon="11.9075388933">
		<tag k="name" v="Delbekken" />
		<tag k="ssr:stedsnr" v="169306" />
		<tag k="waterway" v="stream" />
	</node>
	<node id="-1109" lat="60.0119499995" lon="11.9193750018">
		<tag k="name" v="Bukkebråtebekken" />
		<tag k="ssr:stedsnr" v="169298" />
		<tag k="waterway" v="stream" />
	</node>
	<node id="-1107" lat="59.946069446" lon="11.9224055506">
		<tag k="fixme" v="consider water=pond" />
		<tag k="name" v="Pattjennet" />
		<tag k="natural" v="water" />
		<tag k="ssr:stedsnr" v="169286" />
		<tag k="water" v="lake" />
	</node>
	<node id="-1105" lat="59.9653555569" lon="11.9366194428">
		<tag k="name" v="Delebekken" />
		<tag k="ssr:stedsnr" v="169273" />
		<tag k="waterway" v="stream" />
	</node>
	<node id="-184" lat="59.921883336" lon="11.9034305582">
		<tag k="name" v="Bjørnøya" />
		<tag k="place" v="islet" />
		<tag k="ssr:stedsnr" v="126337" />
	</node>
	<node id="-1102" lat="59.9110805564" lon="11.875827782">
		<tag k="name" v="Gørrvika" />
		<tag k="natural" v="bay" />
		<tag k="ssr:stedsnr" v="169256" />
	</node>
	<node id="-1082" lat="59.9483555568" lon="12.2471361151">
		<tag k="fixme" v="consider water=pond" />
		<tag k="name" v="Lomtjennet" />
		<tag k="natural" v="water" />
		<tag k="ssr:stedsnr" v="169115" />
		<tag k="water" v="lake" />
	</node>
	<node id="-1077" lat="59.9021861113" lon="12.1683999971">
		<tag k="name" v="Morastsæterbekken" />
		<tag k="ssr:stedsnr" v="169078" />
		<tag k="waterway" v="stream" />
	</node>
	<node id="-1068" lat="59.9766694458" lon="12.0175222184">
		<tag k="name" v="Påssevika" />
		<tag k="natural" v="bay" />
		<tag k="ssr:stedsnr" v="168945" />
	</node>
	<node id="-1049" lat="60.0104388897" lon="12.3013916597">
		<tag k="name" v="Billingsødammen" />
		<tag k="place" v="locality" />
		<tag k="ssr:stedsnr" v="157935" />
	</node>
	<node id="-1048" lat="59.8996972228" lon="11.8830388886">
		<tag k="name" v="Djupsundet" />
		<tag k="natural" v="cape" />
		<tag k="place" v="locality" />
		<tag k="ssr:stedsnr" v="157758" />
	</node>
	<node id="-513" lat="60.0041333372" lon="11.9589777741">
		<tag k="name" v="Sætertjennbekken" />
		<tag k="ssr:stedsnr" v="897300" />
		<tag k="waterway" v="stream" />
	</node>
	<node id="-1028" lat="59.9939861095" lon="11.8352583322">
		<tag k="alt_name" v="Geitungøya" />
		<tag k="name" v="Kjellingøya" />
		<tag k="place" v="islet" />
		<tag k="ssr:stedsnr" v="126961" />
	</node>
	<node id="-171" lat="60.099597226" lon="12.1938388883">
		<tag k="alt_name" v="Øyungen;Øyungen, s" />
		<tag k="name" v="Søndre Øyungen" />
		<tag k="natural" v="water" />
		<tag k="ssr:stedsnr" v="309725" />
		<tag k="water" v="lake" />
	</node>
	<node id="-1023" lat="60.0782083345" lon="12.0722472159">
		<tag k="fixme" v="consider water=pond" />
		<tag k="name" v="Godtjennet" />
		<tag k="natural" v="water" />
		<tag k="ssr:stedsnr" v="126680" />
		<tag k="water" v="lake" />
	</node>
	<node id="-1021" lat="59.9841583337" lon="12.2644916639">
		<tag k="fixme" v="consider water=pond" />
		<tag k="name" v="Orretjenn" />
		<tag k="natural" v="water" />
		<tag k="ssr:stedsnr" v="126490" />
		<tag k="water" v="lake" />
	</node>
	<node id="-1011" lat="59.9732749997" lon="12.1404416646">
		<tag k="alt_name" v="Gaustadsjøen, store;Store Gaustadsjøen" />
		<tag k="fixme" v="consider water=pond" />
		<tag k="name" v="Gaustadsjøen" />
		<tag k="natural" v="water" />
		<tag k="ssr:stedsnr" v="126467" />
		<tag k="water" v="lake" />
	</node>
	<node id="-1006" lat="59.951405552" lon="11.9956527709">
		<tag k="fixme" v="consider water=pond" />
		<tag k="name" v="Jerpsettjenn" />
		<tag k="natural" v="water" />
		<tag k="ssr:stedsnr" v="126284" />
		<tag k="water" v="lake" />
	</node>
	<node id="-1000" lat="59.9187138911" lon="11.8326666724">
		<tag k="fixme" v="consider water=pond" />
		<tag k="name" v="Bertetjennet" />
		<tag k="natural" v="water" />
		<tag k="ssr:stedsnr" v="126057" />
		<tag k="water" v="lake" />
	</node>
	<node id="-997" lat="60.0175500019" lon="12.2290249967">
		<tag k="name" v="Veksaren" />
		<tag k="natural" v="water" />
		<tag k="ssr:stedsnr" v="126051" />
		<tag k="water" v="lake" />
	</node>
	<node id="-166" lat="59.9939416623" lon="11.9782916713">
		<tag k="fixme" v="consider water=pond" />
		<tag k="name" v="Trautjennet" />
		<tag k="natural" v="water" />
		<tag k="ssr:stedsnr" v="309414" />
		<tag k="water" v="lake" />
	</node>
	<node id="-977" lat="59.906377775" lon="11.882975008">
		<tag k="name" v="Anehellene" />
		<tag k="place" v="islet" />
		<tag k="ssr:stedsnr" v="109693" />
	</node>
	<node id="-976" lat="59.899461112" lon="11.8824666654">
		<tag k="alt_name" v="Dypsundet" />
		<tag k="name" v="Djupsundet" />
		<tag k="natural" v="strait" />
		<tag k="place" v="locality" />
		<tag k="ssr:stedsnr" v="109638" />
	</node>
	<node id="-973" lat="59.9081722241" lon="11.8350472224">
		<tag k="name" v="Smalongen" />
		<tag k="ssr:stedsnr" v="109571" />
		<tag k="waterway" v="stream" />
	</node>
	<node id="-3016" lat="60.0641027813" lon="11.9669500074">
		<tag k="fixme" v="consider water=pond" />
		<tag k="name" v="Slåttedalstjennet" />
		<tag k="natural" v="water" />
		<tag k="ssr:stedsnr" v="958970" />
		<tag k="water" v="lake" />
	</node>
	<node id="-3015" lat="59.942969448" lon="12.0310611162">
		<tag k="name" v="Djupbekken" />
		<tag k="ssr:stedsnr" v="958967" />
		<tag k="waterway" v="stream" />
	</node>
	<node id="-3010" lat="60.0915944421" lon="12.2475111022">
		<tag k="name" v="Gunnarsengbekken" />
		<tag k="ssr:stedsnr" v="958786" />
		<tag k="waterway" v="stream" />
	</node>
	<node id="-3009" lat="59.986152774" lon="11.8454388883">
		<tag k="name" v="Marimyrbekken" />
		<tag k="ssr:stedsnr" v="958777" />
		<tag k="waterway" v="stream" />
	</node>
	<node id="-3008" lat="59.9426805592" lon="11.8208722173">
		<tag k="name" v="Gørrvika" />
		<tag k="natural" v="bay" />
		<tag k="ssr:stedsnr" v="958753" />
	</node>
	<node id="-3007" lat="59.9404527744" lon="11.8370777808">
		<tag k="name" v="Fiskeodden" />
		<tag k="natural" v="cape" />
		<tag k="place" v="locality" />
		<tag k="ssr:stedsnr" v="958749" />
	</node>
	<node id="-3006" lat="59.9404583357" lon="11.8595833393">
		<tag k="fixme" v="consider water=pond" />
		<tag k="name" v="Martetjennet" />
		<tag k="natural" v="water" />
		<tag k="ssr:stedsnr" v="958741" />
		<tag k="water" v="lake" />
	</node>
	<node id="-3002" lat="60.0446888859" lon="11.8527749967">
		<tag k="name" v="Dam" />
		<tag k="ssr:stedsnr" v="958702" />
		<tag k="waterway" v="dam" />
	</node>
	<node id="-2999" lat="60.0243888929" lon="11.9332416717">
		<tag k="name" v="Spjuttjennbekken" />
		<tag k="ssr:stedsnr" v="958667" />
		<tag k="waterway" v="stream" />
	</node>
	<node id="-950" lat="60.0010333331" lon="12.1609361154">
		<tag k="name" v="Kvernbekken" />
		<tag k="ssr:stedsnr" v="108857" />
		<tag k="waterway" v="stream" />
	</node>
	<node id="-947" lat="60.049119446" lon="11.9273638914">
		<tag k="fixme" v="consider water=pond" />
		<tag k="name" v="Pengtjennet" />
		<tag k="natural" v="water" />
		<tag k="ssr:stedsnr" v="108821" />
		<tag k="water" v="lake" />
	</node>
	<node id="-499" lat="60.0417638922" lon="12.249930557">
		<tag k="name" v="Hundedølpa" />
		<tag k="natural" v="water" />
		<tag k="ssr:stedsnr" v="897108" />
		<tag k="water" v="pond" />
	</node>
	<node id="-2989" lat="59.8893138908" lon="12.0334222221">
		<tag k="name" v="Linneholmene" />
		<tag k="place" v="islet" />
		<tag k="ssr:stedsnr" v="958563" />
	</node>
	<node id="-2988" lat="59.9349583342" lon="12.0125527843">
		<tag k="name" v="Gørrvika" />
		<tag k="natural" v="bay" />
		<tag k="ssr:stedsnr" v="958556" />
	</node>
	<node id="-933" lat="59.9977555569" lon="12.1111472303">
		<tag k="name" v="Okseøyet" />
		<tag k="natural" v="water" />
		<tag k="ssr:stedsnr" v="108526" />
		<tag k="water" v="pond" />
	</node>
	<node id="-932" lat="60.0944555595" lon="12.0826666687">
		<tag k="fixme" v="consider water=pond" />
		<tag k="name" v="Mellemtjennet" />
		<tag k="natural" v="water" />
		<tag k="ssr:stedsnr" v="108511" />
		<tag k="water" v="lake" />
	</node>
	<node id="-930" lat="59.8916388933" lon="11.8308861068">
		<tag k="name" v="Kunabben" />
		<tag k="natural" v="cape" />
		<tag k="place" v="locality" />
		<tag k="ssr:stedsnr" v="108476" />
	</node>
	<node id="-929" lat="60.0675666649" lon="12.247913894">
		<tag k="name" v="Fugletangen" />
		<tag k="natural" v="cape" />
		<tag k="place" v="locality" />
		<tag k="ssr:stedsnr" v="108461" />
	</node>
	<node id="-926" lat="59.9861249991" lon="12.1433222162">
		<tag k="name" v="Granerudbekken" />
		<tag k="ssr:stedsnr" v="108426" />
		<tag k="waterway" v="stream" />
	</node>
	<node id="-2970" lat="59.9816472185" lon="12.0490083346">
		<tag k="name" v="Snesbølbekken" />
		<tag k="ssr:stedsnr" v="958422" />
		<tag k="waterway" v="stream" />
	</node>
	<node id="-920" lat="59.9340972236" lon="12.0787138807">
		<tag k="name" v="Tutaren" />
		<tag k="natural" v="cape" />
		<tag k="place" v="locality" />
		<tag k="ssr:stedsnr" v="108363" />
	</node>
	<node id="-916" lat="60.0393833359" lon="11.9701444502">
		<tag k="fixme" v="consider water=pond" />
		<tag k="name" v="Holmtjennet" />
		<tag k="natural" v="water" />
		<tag k="ssr:stedsnr" v="108350" />
		<tag k="water" v="lake" />
	</node>
	<node id="-2963" lat="59.9141166657" lon="12.0344861086">
		<tag k="name" v="Kulbliknesvika" />
		<tag k="natural" v="bay" />
		<tag k="ssr:stedsnr" v="958339" />
	</node>
	<node id="-914" lat="59.898769447" lon="12.0207027794">
		<tag k="fixme" v="consider water=pond" />
		<tag k="name" v="Kutjennet" />
		<tag k="natural" v="water" />
		<tag k="ssr:stedsnr" v="108340" />
		<tag k="water" v="lake" />
	</node>
	<node id="-2961" lat="60.0353638846" lon="11.8683000078">
		<tag k="fixme" v="consider water=pond" />
		<tag k="name" v="Deletjennet" />
		<tag k="natural" v="water" />
		<tag k="ssr:stedsnr" v="958328" />
		<tag k="water" v="lake" />
	</node>
	<node id="-912" lat="59.9218027769" lon="12.0426861118">
		<tag k="name" v="Svartvikbekken" />
		<tag k="ssr:stedsnr" v="108328" />
		<tag k="waterway" v="stream" />
	</node>
	<node id="-2959" lat="59.9169888922" lon="11.9012249931">
		<tag k="name" v="Orreholmen" />
		<tag k="place" v="islet" />
		<tag k="ssr:stedsnr" v="958285" />
	</node>
	<node id="-906" lat="59.9111638929" lon="11.8847166592">
		<tag k="name" v="Sundsodden" />
		<tag k="natural" v="cape" />
		<tag k="place" v="locality" />
		<tag k="ssr:stedsnr" v="108276" />
	</node>
	<node id="-2946" lat="60.1017972215" lon="12.1999444434">
		<tag k="name" v="Bufjelltangen" />
		<tag k="natural" v="cape" />
		<tag k="place" v="locality" />
		<tag k="ssr:stedsnr" v="958176" />
	</node>
	<node id="-2944" lat="60.0813277799" lon="12.1640527809">
		<tag k="name" v="Bråtaåa" />
		<tag k="ssr:stedsnr" v="958148" />
		<tag k="waterway" v="river" />
	</node>
	<node id="-2939" lat="59.9047444469" lon="12.1821500044">
		<tag k="name" v="Lystjennbekken" />
		<tag k="ssr:stedsnr" v="958081" />
		<tag k="waterway" v="stream" />
	</node>
	<node id="-2935" lat="59.9650472263" lon="12.1476472185">
		<tag k="name" v="Korsåsbekken" />
		<tag k="ssr:stedsnr" v="958035" />
		<tag k="waterway" v="stream" />
	</node>
	<node id="-2934" lat="59.8977083316" lon="12.0465249959">
		<tag k="name" v="Bjellneset" />
		<tag k="natural" v="cape" />
		<tag k="place" v="locality" />
		<tag k="ssr:stedsnr" v="958023" />
	</node>
	<node id="-2933" lat="59.9207888883" lon="11.9087777836">
		<tag k="name" v="Langneset" />
		<tag k="natural" v="cape" />
		<tag k="place" v="locality" />
		<tag k="ssr:stedsnr" v="958015" />
	</node>
	<node id="-883" lat="59.8948777784" lon="12.1092444415">
		<tag k="name" v="Ropartangen" />
		<tag k="natural" v="cape" />
		<tag k="place" v="locality" />
		<tag k="ssr:stedsnr" v="108063" />
	</node>
	<node id="-881" lat="59.9505083321" lon="12.2852277828">
		<tag k="name" v="Breitjennbekken" />
		<tag k="ssr:stedsnr" v="108019" />
		<tag k="waterway" v="stream" />
	</node>
	<node id="-879" lat="59.9111666651" lon="11.8936361185">
		<tag k="name" v="Måken" />
		<tag k="place" v="islet" />
		<tag k="ssr:stedsnr" v="108006" />
	</node>
	<node id="-865" lat="59.9535388897" lon="11.9234083344">
		<tag k="fixme" v="consider water=pond" />
		<tag k="name" v="Vestre Holmtjennet" />
		<tag k="natural" v="water" />
		<tag k="ssr:stedsnr" v="100598" />
		<tag k="water" v="lake" />
	</node>
	<node id="-2909" lat="59.9030611123" lon="11.8766944361">
		<tag k="name" v="Langviknabben" />
		<tag k="natural" v="cape" />
		<tag k="place" v="locality" />
		<tag k="ssr:stedsnr" v="946755" />
	</node>
	<node id="-2907" lat="59.9414694403" lon="11.9218277744">
		<tag k="alt_name" v="Stor-Åbbortjennet;Vesle Åbbortjennet" />
		<tag k="fixme" v="consider water=pond" />
		<tag k="name" v="Åbbortjenna" />
		<tag k="natural" v="water" />
		<tag k="ssr:stedsnr" v="933193" />
		<tag k="water" v="lake" />
	</node>
	<node id="-2903" lat="60.0569249996" lon="11.8954055615">
		<tag k="fixme" v="consider water=pond" />
		<tag k="name" v="Svarttjennet" />
		<tag k="natural" v="water" />
		<tag k="ssr:stedsnr" v="916745" />
		<tag k="water" v="lake" />
	</node>
	<node id="-853" lat="60.0463361097" lon="12.1386888852">
		<tag k="fixme" v="consider water=pond" />
		<tag k="name" v="Motjennet" />
		<tag k="natural" v="water" />
		<tag k="ssr:stedsnr" v="66661" />
		<tag k="water" v="lake" />
	</node>
	<node id="-851" lat="60.0538843918" lon="11.9728344868">
		<tag k="fixme" v="multiple name tags, choose one and add the other to alt_name; consider water=pond" />
		<tag k="name" v="Høgmyrtjennet;Nauttjennet" />
		<tag k="natural" v="water" />
		<tag k="ssr:stedsnr" v="66650" />
		<tag k="water" v="lake" />
	</node>
	<node id="-2898" lat="60.0571658729" lon="12.0457415946">
		<tag k="fixme" v="multiple name tags, choose one and add the other to alt_name; consider water=pond" />
		<tag k="name" v="Sandmotjennet;Hauketjennet" />
		<tag k="natural" v="water" />
		<tag k="ssr:stedsnr" v="916686" />
		<tag k="water" v="lake" />
	</node>
	<node id="-483" lat="59.900113886" lon="11.9098861089">
		<tag k="fixme" v="consider water=pond" />
		<tag k="name" v="Bekketjennet" />
		<tag k="natural" v="water" />
		<tag k="ssr:stedsnr" v="886661" />
		<tag k="water" v="lake" />
	</node>
	<node id="-848" lat="60.0347638875" lon="12.1851861112">
		<tag k="fixme" v="consider water=pond" />
		<tag k="name" v="Langtjennet" />
		<tag k="natural" v="water" />
		<tag k="ssr:stedsnr" v="66624" />
		<tag k="water" v="lake" />
	</node>
	<node id="-847" lat="60.0357277821" lon="11.8863249941">
		<tag k="fixme" v="consider water=pond" />
		<tag k="name" v="Sundtjenna" />
		<tag k="natural" v="water" />
		<tag k="ssr:stedsnr" v="66619" />
		<tag k="water" v="lake" />
	</node>
	<node id="-2892" lat="59.9125249992" lon="12.0395833271">
		<tag k="name" v="Kulblikneset" />
		<tag k="natural" v="cape" />
		<tag k="place" v="locality" />
		<tag k="ssr:stedsnr" v="916342" />
	</node>
	<node id="-2890" lat="59.945955556" lon="11.8581444413">
		<tag k="fixme" v="consider water=pond" />
		<tag k="name" v="Åbbortjenn" />
		<tag k="natural" v="water" />
		<tag k="ssr:stedsnr" v="916300" />
		<tag k="water" v="lake" />
	</node>
	<node id="-840" lat="59.9974805594" lon="11.9937777797">
		<tag k="name" v="Knattbekken" />
		<tag k="ssr:stedsnr" v="66382" />
		<tag k="waterway" v="stream" />
	</node>
	<node id="-839" lat="59.9930305551" lon="11.9170611189">
		<tag k="fixme" v="consider water=pond" />
		<tag k="name" v="Kampetjenn" />
		<tag k="natural" v="water" />
		<tag k="ssr:stedsnr" v="66380" />
		<tag k="water" v="lake" />
	</node>
	<node id="-2885" lat="59.9413027765" lon="12.0512138932">
		<tag k="fixme" v="multiple name tags, choose one and add the other to alt_name; consider water=pond" />
		<tag k="name" v="Aspuntjennet;Asbjørntjenn" />
		<tag k="natural" v="water" />
		<tag k="ssr:stedsnr" v="916261" />
		<tag k="water" v="lake" />
	</node>
	<node id="-834" lat="59.9258472261" lon="12.0585861121">
		<tag k="fixme" v="consider water=pond" />
		<tag k="name" v="Lomtjenn" />
		<tag k="natural" v="water" />
		<tag k="ssr:stedsnr" v="66350" />
		<tag k="water" v="lake" />
	</node>
	<node id="-833" lat="59.9309999958" lon="12.0785583289">
		<tag k="name" v="Ingelsrudsjøen" />
		<tag k="natural" v="water" />
		<tag k="ssr:stedsnr" v="66349" />
		<tag k="water" v="lake" />
	</node>
	<node id="-2879" lat="60.0151138915" lon="12.2789499969">
		<tag k="fixme" v="consider water=pond" />
		<tag k="name" v="Bjørntjenn" />
		<tag k="natural" v="water" />
		<tag k="ssr:stedsnr" v="916060" />
		<tag k="water" v="lake" />
	</node>
	<node id="-829" lat="59.9086416648" lon="11.9212083271">
		<tag k="fixme" v="consider water=pond" />
		<tag k="name" v="Store Emtjenn" />
		<tag k="natural" v="water" />
		<tag k="ssr:stedsnr" v="66321" />
		<tag k="water" v="lake" />
	</node>
	<node id="-2874" lat="60.0326000014" lon="12.2236833273">
		<tag k="name" v="Aursjøbekken" />
		<tag k="ssr:stedsnr" v="916021" />
		<tag k="waterway" v="stream" />
	</node>
	<node id="-2873" lat="59.9779305555" lon="11.8283972169">
		<tag k="fixme" v="consider water=pond" />
		<tag k="name" v="Nordre Hundetjennet" />
		<tag k="natural" v="water" />
		<tag k="ssr:stedsnr" v="915998" />
		<tag k="water" v="lake" />
	</node>
	<node id="-2869" lat="60.0136166642" lon="12.0047722208">
		<tag k="fixme" v="consider water=pond" />
		<tag k="name" v="Nordre Hissitjenn" />
		<tag k="natural" v="water" />
		<tag k="ssr:stedsnr" v="915858" />
		<tag k="water" v="lake" />
	</node>
	<node id="-2866" lat="60.0827277744" lon="11.992250007">
		<tag k="fixme" v="consider water=pond" />
		<tag k="name" v="Blandtjennet" />
		<tag k="natural" v="water" />
		<tag k="ssr:stedsnr" v="915733" />
		<tag k="water" v="lake" />
	</node>
	<node id="-817" lat="59.8935499973" lon="12.0391888842">
		<tag k="alt_name" v="Hansøya" />
		<tag k="name" v="Ingelsrudøya" />
		<tag k="place" v="islet" />
		<tag k="ssr:stedsnr" v="66183" />
	</node>
	<node id="-2864" lat="60.0912055548" lon="12.1814944355">
		<tag k="fixme" v="consider water=pond" />
		<tag k="name" v="Merstjennet" />
		<tag k="natural" v="water" />
		<tag k="ssr:stedsnr" v="915720" />
		<tag k="water" v="lake" />
	</node>
	<node id="-809" lat="60.0184027824" lon="12.2510027711">
		<tag k="fixme" v="consider water=pond" />
		<tag k="name" v="Ristjennet" />
		<tag k="natural" v="water" />
		<tag k="ssr:stedsnr" v="66054" />
		<tag k="water" v="lake" />
	</node>
	<node id="-807" lat="60.0237027812" lon="12.2216694446">
		<tag k="name" v="Eiketjennbekken" />
		<tag k="ssr:stedsnr" v="66033" />
		<tag k="waterway" v="stream" />
	</node>
	<node id="-2853" lat="59.9619861133" lon="11.957208341">
		<tag k="fixme" v="consider water=pond" />
		<tag k="name" v="Grusjøen" />
		<tag k="natural" v="water" />
		<tag k="ssr:stedsnr" v="915421" />
		<tag k="water" v="lake" />
	</node>
	<node id="-803" lat="60.0457749963" lon="12.2557416574">
		<tag k="fixme" v="consider water=pond" />
		<tag k="name" v="Gartanstjennet" />
		<tag k="natural" v="water" />
		<tag k="ssr:stedsnr" v="66003" />
		<tag k="water" v="lake" />
	</node>
	<node id="-800" lat="59.8807222254" lon="11.8319888923">
		<tag k="loc_name" v="Mortskjølungen" />
		<tag k="name" v="Mortsjølungen" />
		<tag k="natural" v="water" />
		<tag k="ssr:stedsnr" v="65207" />
		<tag k="water" v="lake" />
	</node>
	<node id="-2844" lat="59.9201999962" lon="11.9403999943">
		<tag k="fixme" v="consider water=pond" />
		<tag k="name" v="Trysjøen" />
		<tag k="natural" v="water" />
		<tag k="ssr:stedsnr" v="915322" />
		<tag k="water" v="lake" />
	</node>
	<node id="-2831" lat="59.8961527737" lon="12.1582750014">
		<tag k="fixme" v="consider water=pond" />
		<tag k="name" v="Åtjennet" />
		<tag k="natural" v="water" />
		<tag k="ssr:stedsnr" v="915126" />
		<tag k="water" v="lake" />
	</node>
	<node id="-777" lat="59.9538333291" lon="11.964155563">
		<tag k="fixme" v="consider water=pond" />
		<tag k="name" v="Søndre Svarttjennet" />
		<tag k="natural" v="water" />
		<tag k="ssr:stedsnr" v="48753" />
		<tag k="water" v="lake" />
	</node>
	<node id="-2821" lat="60.085177774" lon="12.2366250015">
		<tag k="fixme" v="consider water=pond" />
		<tag k="name" v="Fjølungen" />
		<tag k="natural" v="water" />
		<tag k="ssr:stedsnr" v="855902" />
		<tag k="water" v="lake" />
	</node>
	<node id="-2820" lat="60.0146805534" lon="11.8559361147">
		<tag k="fixme" v="consider water=pond" />
		<tag k="name" v="Aurtjennet" />
		<tag k="natural" v="water" />
		<tag k="ssr:stedsnr" v="855884" />
		<tag k="water" v="lake" />
	</node>
	<node id="-771" lat="59.9383055583" lon="11.8341444437">
		<tag k="name" v="Arnenabben" />
		<tag k="natural" v="cape" />
		<tag k="place" v="locality" />
		<tag k="ssr:stedsnr" v="48704" />
	</node>
	<node id="-2817" lat="60.0068305558" lon="11.9008888808">
		<tag k="fixme" v="consider water=pond" />
		<tag k="name" v="Vestre Kverntjennet" />
		<tag k="natural" v="water" />
		<tag k="ssr:stedsnr" v="855869" />
		<tag k="water" v="lake" />
	</node>
	<node id="-768" lat="60.0337194478" lon="11.8869361184">
		<tag k="fixme" v="consider water=pond" />
		<tag k="name" v="Søndre Sundtjennet" />
		<tag k="natural" v="water" />
		<tag k="ssr:stedsnr" v="48639" />
		<tag k="water" v="lake" />
	</node>
	<node id="-2810" lat="60.0542805585" lon="11.9392555594">
		<tag k="alt_name" v="Skjølungen, store;Store Skjølungen" />
		<tag k="fixme" v="consider water=pond" />
		<tag k="name" v="Skjølungen" />
		<tag k="natural" v="water" />
		<tag k="ssr:stedsnr" v="855739" />
		<tag k="water" v="lake" />
	</node>
	<node id="-2809" lat="60.0523083333" lon="11.9136499977">
		<tag k="fixme" v="consider water=pond" />
		<tag k="name" v="Blekktjennet" />
		<tag k="natural" v="water" />
		<tag k="ssr:stedsnr" v="855738" />
		<tag k="water" v="lake" />
	</node>
	<node id="-2808" lat="60.0610999995" lon="12.0627750011">
		<tag k="name" v="Hornsjøen" />
		<tag k="natural" v="water" />
		<tag k="ssr:stedsnr" v="855735" />
		<tag k="water" v="lake" />
	</node>
	<node id="-2806" lat="60.0630111133" lon="11.8528472231">
		<tag k="alt_name" v="Possetjennet" />
		<tag k="fixme" v="consider water=pond" />
		<tag k="name" v="Lomtjennet" />
		<tag k="natural" v="water" />
		<tag k="ssr:stedsnr" v="855729" />
		<tag k="water" v="lake" />
	</node>
	<node id="-2804" lat="60.0847361137" lon="12.2078166626">
		<tag k="fixme" v="consider water=pond" />
		<tag k="name" v="Gørtjennet" />
		<tag k="natural" v="water" />
		<tag k="ssr:stedsnr" v="855712" />
		<tag k="water" v="lake" />
	</node>
	<node id="-752" lat="59.9737388866" lon="11.8829500086">
		<tag k="fixme" v="consider water=pond" />
		<tag k="name" v="Vestre Støtjennet" />
		<tag k="natural" v="water" />
		<tag k="ssr:stedsnr" v="48258" />
		<tag k="water" v="lake" />
	</node>
	<node id="-2799" lat="60.0208472256" lon="12.0241555508">
		<tag k="fixme" v="consider water=pond" />
		<tag k="name" v="Åbbortjennet" />
		<tag k="natural" v="water" />
		<tag k="ssr:stedsnr" v="855668" />
		<tag k="water" v="lake" />
	</node>
	<node id="-2798" lat="60.0302611109" lon="12.2012277832">
		<tag k="fixme" v="consider water=pond" />
		<tag k="name" v="Eiketjennet" />
		<tag k="natural" v="water" />
		<tag k="ssr:stedsnr" v="855660" />
		<tag k="water" v="lake" />
	</node>
	<node id="-2797" lat="60.026450004" lon="11.9159722141">
		<tag k="fixme" v="consider water=pond" />
		<tag k="name" v="Løvlitjennet" />
		<tag k="natural" v="water" />
		<tag k="ssr:stedsnr" v="855655" />
		<tag k="water" v="lake" />
	</node>
	<node id="-2793" lat="60.0433500025" lon="12.1331222272">
		<tag k="fixme" v="consider water=pond" />
		<tag k="name" v="Jerntjennet" />
		<tag k="natural" v="water" />
		<tag k="ssr:stedsnr" v="855633" />
		<tag k="water" v="lake" />
	</node>
	<node id="-2789" lat="60.1170694418" lon="12.1152999916">
		<tag k="fixme" v="consider water=pond" />
		<tag k="name" v="Ringtjennet" />
		<tag k="natural" v="water" />
		<tag k="ssr:stedsnr" v="855488" />
		<tag k="water" v="lake" />
	</node>
	<node id="-2782" lat="59.9690750025" lon="12.0431361073">
		<tag k="fixme" v="consider water=pond" />
		<tag k="name" v="Tobøltjenna" />
		<tag k="natural" v="water" />
		<tag k="ssr:stedsnr" v="855439" />
		<tag k="water" v="lake" />
	</node>
	<node id="-733" lat="59.8939555551" lon="12.1244972196">
		<tag k="fixme" v="consider water=pond" />
		<tag k="name" v="Linnatjennet" />
		<tag k="natural" v="water" />
		<tag k="ssr:stedsnr" v="48059" />
		<tag k="water" v="lake" />
	</node>
	<node id="-2780" lat="59.9698027759" lon="12.0911749969">
		<tag k="name" v="Kroksjøen" />
		<tag k="natural" v="water" />
		<tag k="ssr:stedsnr" v="855431" />
		<tag k="water" v="lake" />
	</node>
	<node id="-2777" lat="59.964716666" lon="11.906069442">
		<tag k="fixme" v="consider water=pond" />
		<tag k="name" v="Vestre Mortkjøltjennet" />
		<tag k="natural" v="water" />
		<tag k="ssr:stedsnr" v="855419" />
		<tag k="water" v="lake" />
	</node>
	<node id="-2776" lat="59.9982916702" lon="11.9013250013">
		<tag k="fixme" v="consider water=pond" />
		<tag k="name" v="Blekktjennet" />
		<tag k="natural" v="water" />
		<tag k="ssr:stedsnr" v="855390" />
		<tag k="water" v="lake" />
	</node>
	<node id="-2775" lat="59.9983555558" lon="11.9276833278">
		<tag k="fixme" v="consider water=pond" />
		<tag k="name" v="Kverntjenn" />
		<tag k="natural" v="water" />
		<tag k="ssr:stedsnr" v="855391" />
		<tag k="water" v="lake" />
	</node>
	<node id="-2771" lat="59.9305027794" lon="11.9049888802">
		<tag k="name" v="Ljønervika" />
		<tag k="natural" v="bay" />
		<tag k="ssr:stedsnr" v="855359" />
	</node>
	<node id="-2770" lat="59.9246611108" lon="11.9574305542">
		<tag k="fixme" v="consider water=pond" />
		<tag k="name" v="Lomtjenn" />
		<tag k="natural" v="water" />
		<tag k="ssr:stedsnr" v="855356" />
		<tag k="water" v="lake" />
	</node>
	<node id="-715" lat="60.0984722217" lon="12.1725555569">
		<tag k="fixme" v="consider water=pond" />
		<tag k="name" v="Klopptjennet" />
		<tag k="natural" v="water" />
		<tag k="ssr:stedsnr" v="47483" />
		<tag k="water" v="lake" />
	</node>
	<node id="-714" lat="60.0984611118" lon="12.1600166626">
		<tag k="fixme" v="consider water=pond" />
		<tag k="name" v="Vesle Baksjøen" />
		<tag k="natural" v="water" />
		<tag k="ssr:stedsnr" v="47482" />
		<tag k="water" v="lake" />
	</node>
	<node id="-2761" lat="59.9199222212" lon="12.1089666729">
		<tag k="alt_name" v="Holmsjøen, vesle" />
		<tag k="fixme" v="consider water=pond" />
		<tag k="name" v="Vesle Holmsjøen" />
		<tag k="natural" v="water" />
		<tag k="ssr:stedsnr" v="855322" />
		<tag k="water" v="lake" />
	</node>
	<node id="-712" lat="59.9654083332" lon="11.7979722135">
		<tag k="name" v="Brennabben" />
		<tag k="natural" v="cape" />
		<tag k="place" v="locality" />
		<tag k="ssr:stedsnr" v="47473" />
	</node>
	<node id="-2759" lat="59.9586444482" lon="12.0835194513">
		<tag k="fixme" v="consider water=pond" />
		<tag k="name" v="Langtjenn" />
		<tag k="natural" v="water" />
		<tag k="ssr:stedsnr" v="855297" />
		<tag k="water" v="lake" />
	</node>
	<node id="-707" lat="60.0431638924" lon="12.0373722255">
		<tag k="name" v="Fjellåa" />
		<tag k="old_name" v="Fjeldåa" />
		<tag k="ssr:stedsnr" v="47351" />
		<tag k="waterway" v="river" />
	</node>
	<node id="-701" lat="59.9341472251" lon="11.8639833274">
		<tag k="fixme" v="consider water=pond" />
		<tag k="name" v="Nordre Kisviktjennet" />
		<tag k="natural" v="water" />
		<tag k="ssr:stedsnr" v="47281" />
		<tag k="water" v="lake" />
	</node>
	<node id="-700" lat="59.9256444456" lon="11.8805555626">
		<tag k="name" v="Vintervika" />
		<tag k="natural" v="bay" />
		<tag k="ssr:stedsnr" v="47275" />
	</node>
	<node id="-2746" lat="59.9013111125" lon="12.0108888922">
		<tag k="fixme" v="consider water=pond" />
		<tag k="name" v="Vestre Morttjenn" />
		<tag k="natural" v="water" />
		<tag k="ssr:stedsnr" v="855165" />
		<tag k="water" v="lake" />
	</node>
	<node id="-696" lat="59.9868527806" lon="12.2640277796">
		<tag k="name" v="Kauservåka" />
		<tag k="natural" v="cape" />
		<tag k="place" v="locality" />
		<tag k="ssr:stedsnr" v="47196" />
	</node>
	<node id="-2743" lat="59.8409586131" lon="11.8376523397">
		<tag k="name" v="Lembruvatnet" />
		<tag k="natural" v="water" />
		<tag k="ssr:stedsnr" v="855145" />
		<tag k="water" v="lake" />
	</node>
	<node id="-693" lat="59.972397226" lon="12.3260638887">
		<tag k="name" v="Nottjennbekken" />
		<tag k="ssr:stedsnr" v="47163" />
		<tag k="waterway" v="stream" />
	</node>
	<node id="-2740" lat="60.0610472219" lon="12.2429722192">
		<tag k="fixme" v="consider water=pond" />
		<tag k="name" v="Gorrtjenn" />
		<tag k="natural" v="water" />
		<tag k="ssr:stedsnr" v="855102" />
		<tag k="water" v="lake" />
	</node>
	<node id="-2738" lat="59.8923055534" lon="11.8436861037">
		<tag k="fixme" v="consider water=pond" />
		<tag k="name" v="Langtjenna" />
		<tag k="natural" v="water" />
		<tag k="ssr:stedsnr" v="854230" />
		<tag k="water" v="lake" />
	</node>
	<node id="-2736" lat="59.9042555545" lon="11.8174944524">
		<tag k="fixme" v="consider water=pond" />
		<tag k="name" v="Høgåstjenn" />
		<tag k="natural" v="water" />
		<tag k="ssr:stedsnr" v="854214" />
		<tag k="water" v="lake" />
	</node>
	<node id="-683" lat="60.0067472181" lon="12.2920611122">
		<tag k="name" v="Kvernbekken" />
		<tag k="ssr:stedsnr" v="47131" />
		<tag k="waterway" v="stream" />
	</node>
	<node id="-673" lat="59.9298749957" lon="11.8843499955">
		<tag k="name" v="Kisvika" />
		<tag k="natural" v="bay" />
		<tag k="ssr:stedsnr" v="47004" />
	</node>
	<node id="-2718" lat="59.9719777799" lon="11.8910722235">
		<tag k="fixme" v="consider water=pond" />
		<tag k="name" v="Østre Støtjennet" />
		<tag k="natural" v="water" />
		<tag k="ssr:stedsnr" v="837854" />
		<tag k="water" v="lake" />
	</node>
	<node id="-2715" lat="59.9726888891" lon="12.0467361052">
		<tag k="fixme" v="consider water=pond" />
		<tag k="name" v="Nordre Tobøltjennet" />
		<tag k="natural" v="water" />
		<tag k="ssr:stedsnr" v="837812" />
		<tag k="water" v="lake" />
	</node>
	<node id="-2712" lat="59.8920277792" lon="11.8149527833">
		<tag k="name" v="Vangelva" />
		<tag k="ssr:stedsnr" v="837811" />
		<tag k="waterway" v="river" />
	</node>
	<node id="-662" lat="60.0490603949" lon="11.8261960258">
		<tag k="fixme" v="multiple name tags, choose one and add the other to alt_name; consider water=pond" />
		<tag k="name" v="Frosketjennet;Possetjennet" />
		<tag k="natural" v="water" />
		<tag k="ssr:stedsnr" v="6566" />
		<tag k="water" v="lake" />
	</node>
	<node id="-661" lat="59.9709416652" lon="12.0017555497">
		<tag k="fixme" v="consider water=pond" />
		<tag k="name" v="Teigbergtjennet" />
		<tag k="natural" v="water" />
		<tag k="ssr:stedsnr" v="6491" />
		<tag k="water" v="lake" />
	</node>
	<node id="-2703" lat="59.8782722226" lon="11.8778166647">
		<tag k="name" v="Langvika" />
		<tag k="natural" v="bay" />
		<tag k="ssr:stedsnr" v="837719" />
	</node>
	<node id="-2700" lat="59.902849998" lon="11.894199996">
		<tag k="name" v="Sandvika" />
		<tag k="natural" v="bay" />
		<tag k="ssr:stedsnr" v="837683" />
	</node>
	<node id="-647" lat="60.0067749987" lon="11.8472694397">
		<tag k="fixme" v="consider water=pond" />
		<tag k="name" v="Lomtjennet" />
		<tag k="natural" v="water" />
		<tag k="ssr:stedsnr" v="5827" />
		<tag k="water" v="lake" />
	</node>
	<node id="-643" lat="60.1019361137" lon="12.0909055511">
		<tag k="fixme" v="consider water=pond" />
		<tag k="name" v="Damtjennet" />
		<tag k="natural" v="water" />
		<tag k="ssr:stedsnr" v="5694" />
		<tag k="water" v="lake" />
	</node>
	<node id="-642" lat="60.0749333295" lon="11.9748305505">
		<tag k="fixme" v="consider water=pond" />
		<tag k="name" v="Helledammen" />
		<tag k="natural" v="water" />
		<tag k="ssr:stedsnr" v="5677" />
		<tag k="water" v="lake" />
	</node>
	<node id="-640" lat="60.0387000019" lon="11.8487805495">
		<tag k="alt_name" v="Børen, vesle" />
		<tag k="fixme" v="consider water=pond" />
		<tag k="name" v="Vesle Børen" />
		<tag k="natural" v="water" />
		<tag k="ssr:stedsnr" v="5662" />
		<tag k="water" v="lake" />
	</node>
	<node id="-634" lat="60.0408333331" lon="12.1895166675">
		<tag k="fixme" v="consider water=pond" />
		<tag k="name" v="Kroksjøen" />
		<tag k="natural" v="water" />
		<tag k="ssr:stedsnr" v="5609" />
		<tag k="water" v="lake" />
	</node>
	<node id="-632" lat="59.9832777806" lon="11.8709583369">
		<tag k="fixme" v="consider water=pond" />
		<tag k="name" v="Smedrudtjenn" />
		<tag k="natural" v="water" />
		<tag k="ssr:stedsnr" v="5465" />
		<tag k="water" v="lake" />
	</node>
	<node id="-2677" lat="59.8833916634" lon="11.8176999924">
		<tag k="name" v="Gamleelva" />
		<tag k="ssr:stedsnr" v="837465" />
		<tag k="waterway" v="river" />
	</node>
	<node id="-2676" lat="60.0122888929" lon="12.2015277795">
		<tag k="name" v="Delebekken" />
		<tag k="ssr:stedsnr" v="837438" />
		<tag k="waterway" v="stream" />
	</node>
	<node id="-2673" lat="59.9420416709" lon="12.0405361097">
		<tag k="name" v="Stæringsbekken" />
		<tag k="ssr:stedsnr" v="837411" />
		<tag k="waterway" v="stream" />
	</node>
	<node id="-620" lat="59.9395361152" lon="12.1826611171">
		<tag k="name" v="Leirbekken" />
		<tag k="ssr:stedsnr" v="5358" />
		<tag k="waterway" v="stream" />
	</node>
	<node id="-614" lat="59.9580527767" lon="11.9144777808">
		<tag k="fixme" v="consider water=pond" />
		<tag k="name" v="Østre Mortkjøltjennet" />
		<tag k="natural" v="water" />
		<tag k="ssr:stedsnr" v="5300" />
		<tag k="water" v="lake" />
	</node>
	<node id="-608" lat="59.995180559" lon="12.2716527764">
		<tag k="fixme" v="consider water=pond" />
		<tag k="name" v="Tremannsdolpa" />
		<tag k="natural" v="water" />
		<tag k="ssr:stedsnr" v="5241" />
		<tag k="water" v="lake" />
	</node>
	<node id="-607" lat="59.9542666697" lon="12.2434333287">
		<tag k="name" v="Veksa" />
		<tag k="ssr:stedsnr" v="5226" />
		<tag k="waterway" v="river" />
	</node>
	<node id="-606" lat="59.9553805592" lon="12.2654999917">
		<tag k="fixme" v="multiple name tags, choose one and add the other to alt_name; consider water=pond" />
		<tag k="name" v="Meittjennet;Melltjenn" />
		<tag k="natural" v="water" />
		<tag k="ssr:stedsnr" v="5224" />
		<tag k="water" v="lake" />
	</node>
	<node id="-2649" lat="59.9080416644" lon="11.901944446">
		<tag k="name" v="Søndre Bekken" />
		<tag k="ssr:stedsnr" v="837278" />
		<tag k="waterway" v="stream" />
	</node>
	<node id="-600" lat="59.9037777775" lon="11.9119416744">
		<tag k="fixme" v="consider water=pond" />
		<tag k="name" v="Søndre Emtjenn" />
		<tag k="natural" v="water" />
		<tag k="ssr:stedsnr" v="5157" />
		<tag k="water" v="lake" />
	</node>
	<node id="-599" lat="59.8309222184" lon="11.8526722282">
		<tag k="fixme" v="consider water=pond" />
		<tag k="name" v="Holmtjenn" />
		<tag k="natural" v="water" />
		<tag k="ssr:stedsnr" v="5144" />
		<tag k="water" v="lake" />
	</node>
	<node id="-598" lat="59.883972218" lon="11.9200222201">
		<tag k="name" v="Tannsjøen" />
		<tag k="natural" v="water" />
		<tag k="ssr:stedsnr" v="5139" />
		<tag k="water" v="lake" />
	</node>
	<node id="-2641" lat="60.025886109" lon="12.2881694529">
		<tag k="name" v="Skjeret" />
		<tag k="natural" v="cape" />
		<tag k="place" v="locality" />
		<tag k="ssr:stedsnr" v="837154" />
	</node>
	<node id="-2639" lat="60.1001861148" lon="12.1878777859">
		<tag k="name" v="Øya" />
		<tag k="place" v="island" />
		<tag k="ssr:stedsnr" v="837148" />
	</node>
	<node id="-590" lat="60.0317750042" lon="12.2292749948">
		<tag k="name" v="Svartbekken" />
		<tag k="ssr:stedsnr" v="5019" />
		<tag k="waterway" v="stream" />
	</node>
	<node id="-589" lat="59.9152416676" lon="11.8313166649">
		<tag k="fixme" v="consider water=pond" />
		<tag k="name" v="Lauvhøgdtjennet" />
		<tag k="natural" v="water" />
		<tag k="ssr:stedsnr" v="5014" />
		<tag k="water" v="lake" />
	</node>
	<node id="-587" lat="59.9048764437" lon="11.8437819471">
		<tag k="fixme" v="consider water=pond" />
		<tag k="name" v="Stor-Åbbortjennet" />
		<tag k="natural" v="water" />
		<tag k="ssr:stedsnr" v="4220" />
		<tag k="water" v="lake" />
	</node>
	<node id="-586" lat="59.8421715859" lon="11.8348453296">
		<tag k="alt_name" v="Lembruvann" />
		<tag k="name" v="Lembruvanna" />
		<tag k="natural" v="water" />
		<tag k="ssr:stedsnr" v="672315" />
		<tag k="water" v="lake" />
	</node>
	<node id="-584" lat="59.9460833291" lon="11.8684555641">
		<tag k="fixme" v="consider water=pond" />
		<tag k="name" v="Korpetjennet" />
		<tag k="natural" v="water" />
		<tag k="ssr:stedsnr" v="898674" />
		<tag k="water" v="lake" />
	</node>
	<node id="-578" lat="59.9036611147" lon="11.8314666597">
		<tag k="fixme" v="consider water=pond" />
		<tag k="name" v="Vesle-Åbbortjennet" />
		<tag k="natural" v="water" />
		<tag k="ssr:stedsnr" v="898480" />
		<tag k="water" v="lake" />
	</node>
	<node id="-2623" lat="59.895108334" lon="12.0173666618">
		<tag k="fixme" v="consider water=pond" />
		<tag k="name" v="Nybakktjennet" />
		<tag k="natural" v="water" />
		<tag k="ssr:stedsnr" v="837070" />
		<tag k="water" v="lake" />
	</node>
	<node id="-2617" lat="59.9214750008" lon="11.9132555548">
		<tag k="name" v="Knappertneset" />
		<tag k="natural" v="cape" />
		<tag k="place" v="locality" />
		<tag k="ssr:stedsnr" v="837051" />
	</node>
	<node id="-2616" lat="59.9069000022" lon="12.0353861152">
		<tag k="name" v="Djupsundøyene" />
		<tag k="place" v="island" />
		<tag k="ssr:stedsnr" v="837029" />
	</node>
	<node id="-2615" lat="59.8981972183" lon="12.0509194503">
		<tag k="alt_name" v="Hestnes" />
		<tag k="name" v="Hesteneset" />
		<tag k="natural" v="cape" />
		<tag k="place" v="locality" />
		<tag k="ssr:stedsnr" v="837025" />
	</node>
	<node id="-2613" lat="59.9277750015" lon="11.8976527852">
		<tag k="name" v="Smedøya" />
		<tag k="place" v="island" />
		<tag k="ssr:stedsnr" v="837005" />
	</node>
	<node id="-562" lat="59.9243805544" lon="12.0774277716">
		<tag k="name" v="Gørrvika" />
		<tag k="natural" v="bay" />
		<tag k="ssr:stedsnr" v="897898" />
	</node>
	<node id="-2604" lat="60.0565854935" lon="11.9454189467">
		<tag k="fixme" v="consider water=pond" />
		<tag k="name" v="Nordre Aurkyttjennet" />
		<tag k="natural" v="water" />
		<tag k="ssr:stedsnr" v="836547" />
		<tag k="water" v="lake" />
	</node>
	<node id="-555" lat="60.0311444487" lon="12.0937083266">
		<tag k="name" v="Kisabekken" />
		<tag k="ssr:stedsnr" v="897825" />
		<tag k="waterway" v="stream" />
	</node>
	<node id="-2602" lat="60.0866472255" lon="12.0197527709">
		<tag k="fixme" v="consider water=pond" />
		<tag k="name" v="Ottjennet" />
		<tag k="natural" v="water" />
		<tag k="ssr:stedsnr" v="836477" />
		<tag k="water" v="lake" />
	</node>
	<node id="-2601" lat="60.1094361145" lon="12.0828166592">
		<tag k="fixme" v="consider water=pond" />
		<tag k="name" v="Eitjennet" />
		<tag k="natural" v="water" />
		<tag k="ssr:stedsnr" v="836476" />
		<tag k="water" v="lake" />
	</node>
	<node id="-2600" lat="59.9209500044" lon="11.8608305553">
		<tag k="name" v="Gørrvika" />
		<tag k="natural" v="bay" />
		<tag k="ssr:stedsnr" v="836424" />
	</node>
	<node id="-2599" lat="59.9625527793" lon="11.8242499998">
		<tag k="fixme" v="consider water=pond" />
		<tag k="name" v="Hyttetjennet" />
		<tag k="natural" v="water" />
		<tag k="ssr:stedsnr" v="836421" />
		<tag k="water" v="lake" />
	</node>
	<node id="-2597" lat="60.1404305526" lon="12.1411027858">
		<tag k="fixme" v="consider water=pond" />
		<tag k="name" v="Oksaugetjennet" />
		<tag k="natural" v="water" />
		<tag k="ssr:stedsnr" v="836411" />
		<tag k="water" v="lake" />
	</node>
	<node id="-547" lat="59.9854111079" lon="11.8087777781">
		<tag k="name" v="Damfløyta" />
		<tag k="natural" v="water" />
		<tag k="ssr:stedsnr" v="897713" />
		<tag k="water" v="lake" />
	</node>
	<node id="-543" lat="59.9961666677" lon="11.8500972296">
		<tag k="name" v="Vintervika" />
		<tag k="natural" v="bay" />
		<tag k="ssr:stedsnr" v="897686" />
	</node>
	<node id="-2589" lat="59.9217499958" lon="11.9116027785">
		<tag k="name" v="Østre Gørrvika" />
		<tag k="natural" v="bay" />
		<tag k="ssr:stedsnr" v="836219" />
	</node>
	<node id="-2588" lat="59.8901916689" lon="11.8944138856">
		<tag k="fixme" v="consider water=pond" />
		<tag k="name" v="Svervestoltjennet" />
		<tag k="natural" v="water" />
		<tag k="ssr:stedsnr" v="836212" />
		<tag k="water" v="lake" />
	</node>
	<node id="-539" lat="59.8912611092" lon="11.8479000027">
		<tag k="fixme" v="consider water=pond" />
		<tag k="name" v="Storelangtjennet" />
		<tag k="natural" v="water" />
		<tag k="ssr:stedsnr" v="897666" />
		<tag k="water" v="lake" />
	</node>
	<node id="-537" lat="60.0507916674" lon="11.9602194457">
		<tag k="name" v="Jonstruphullet" />
		<tag k="natural" v="water" />
		<tag k="ssr:stedsnr" v="897650" />
		<tag k="water" v="pond" />
	</node>
	<node id="-2580" lat="59.8945583356" lon="11.875311103">
		<tag k="name" v="Øya" />
		<tag k="place" v="islet" />
		<tag k="ssr:stedsnr" v="795212" />
	</node>
	<node id="-530" lat="59.8838555591" lon="11.9150527781">
		<tag k="name" v="Juliavika" />
		<tag k="natural" v="bay" />
		<tag k="ssr:stedsnr" v="897504" />
	</node>
	<node id="-2577" lat="60.1280416659" lon="12.2391083404">
		<tag k="fixme" v="consider water=pond" />
		<tag k="name" v="Holsætertjennet" />
		<tag k="natural" v="water" />
		<tag k="ssr:stedsnr" v="794948" />
		<tag k="water" v="lake" />
	</node>
	<node id="-2565" lat="60.0192777767" lon="11.9871805624">
		<tag k="name" v="Tryggbekken" />
		<tag k="ssr:stedsnr" v="794660" />
		<tag k="waterway" v="stream" />
	</node>
	<node id="-2561" lat="60.030044447" lon="11.9733694404">
		<tag k="name" v="Hulderpytten" />
		<tag k="natural" v="water" />
		<tag k="ssr:stedsnr" v="794639" />
		<tag k="water" v="pond" />
	</node>
	<node id="-512" lat="60.0151388872" lon="11.9667388845">
		<tag k="fixme" v="consider water=pond" />
		<tag k="name" v="Blokktjennet" />
		<tag k="natural" v="water" />
		<tag k="ssr:stedsnr" v="897299" />
		<tag k="water" v="lake" />
	</node>
	<node id="-510" lat="59.9294555562" lon="11.9023277865">
		<tag k="name" v="Ljønervika" />
		<tag k="natural" v="bay" />
		<tag k="ssr:stedsnr" v="897260" />
	</node>
	<node id="-509" lat="59.8782388923" lon="11.9118861087">
		<tag k="name" v="Måsavika" />
		<tag k="natural" v="bay" />
		<tag k="ssr:stedsnr" v="897248" />
	</node>
	<node id="-2554" lat="59.9987833303" lon="12.0295777806">
		<tag k="name" v="Sandbekken" />
		<tag k="ssr:stedsnr" v="794378" />
		<tag k="waterway" v="stream" />
	</node>
	<node id="-2553" lat="59.9979888852" lon="11.9709888828">
		<tag k="fixme" v="consider water=pond" />
		<tag k="name" v="Sætertjennet" />
		<tag k="natural" v="water" />
		<tag k="ssr:stedsnr" v="794377" />
		<tag k="water" v="lake" />
	</node>
	<node id="-2552" lat="59.9914249972" lon="12.0103750028">
		<tag k="name" v="Djupdalsbekken" />
		<tag k="ssr:stedsnr" v="794357" />
		<tag k="waterway" v="stream" />
	</node>
	<node id="-2550" lat="59.9309333326" lon="11.8471333265">
		<tag k="fixme" v="consider water=pond" />
		<tag k="name" v="Korstjenn" />
		<tag k="natural" v="water" />
		<tag k="ssr:stedsnr" v="794340" />
		<tag k="water" v="lake" />
	</node>
	<node id="-2549" lat="59.9298805581" lon="12.1044111038">
		<tag k="fixme" v="consider water=pond" />
		<tag k="name" v="Purketjenn" />
		<tag k="natural" v="water" />
		<tag k="ssr:stedsnr" v="794333" />
		<tag k="water" v="lake" />
	</node>
	<node id="-2547" lat="59.9236944466" lon="11.8603694374">
		<tag k="fixme" v="consider water=pond" />
		<tag k="name" v="Godtjenn" />
		<tag k="natural" v="water" />
		<tag k="ssr:stedsnr" v="794313" />
		<tag k="water" v="lake" />
	</node>
	<node id="-2546" lat="59.9251305554" lon="12.0450027758">
		<tag k="alt_name" v="Vesle Steringstjennet;Stæringen, vesle" />
		<tag k="fixme" v="consider water=pond" />
		<tag k="loc_name" v="Veslestæringen" />
		<tag k="name" v="Vesle Stæringen" />
		<tag k="natural" v="water" />
		<tag k="ssr:stedsnr" v="794305" />
		<tag k="water" v="lake" />
	</node>
	<node id="-2545" lat="59.9155611093" lon="11.8820138921">
		<tag k="alt_name" v="Buvikneset" />
		<tag k="name" v="Buviknesa" />
		<tag k="natural" v="cape" />
		<tag k="place" v="locality" />
		<tag k="ssr:stedsnr" v="794299" />
	</node>
	<node id="-2541" lat="59.9620805559" lon="12.1710305562">
		<tag k="name" v="Vrangselva" />
		<tag k="ssr:stedsnr" v="794271" />
		<tag k="waterway" v="stream" />
	</node>
	<node id="-2534" lat="59.9871333308" lon="12.2669916668">
		<tag k="fixme" v="consider water=pond" />
		<tag k="name" v="Opptjennet" />
		<tag k="natural" v="water" />
		<tag k="ssr:stedsnr" v="794225" />
		<tag k="water" v="lake" />
	</node>
	<node id="-2533" lat="60.0037916635" lon="12.2861555573">
		<tag k="fixme" v="consider water=pond" />
		<tag k="name" v="Damtjenn" />
		<tag k="natural" v="water" />
		<tag k="ssr:stedsnr" v="794186" />
		<tag k="water" v="lake" />
	</node>
	<node id="-2531" lat="60.0002583366" lon="12.306369436">
		<tag k="fixme" v="consider water=pond" />
		<tag k="name" v="Finnsrudtjennet" />
		<tag k="natural" v="water" />
		<tag k="ssr:stedsnr" v="794174" />
		<tag k="water" v="lake" />
	</node>
	<node id="-475" lat="59.9934638858" lon="11.8514944355">
		<tag k="name" v="Gudmundsvika" />
		<tag k="natural" v="bay" />
		<tag k="ssr:stedsnr" v="473268" />
	</node>
	<node id="-2520" lat="59.9737916662" lon="11.8090166583">
		<tag k="fixme" v="consider water=pond" />
		<tag k="name" v="Asketjennet" />
		<tag k="natural" v="water" />
		<tag k="ssr:stedsnr" v="793995" />
		<tag k="water" v="lake" />
	</node>
	<node id="-2518" lat="59.877397226" lon="11.836538881">
		<tag k="fixme" v="consider water=pond" />
		<tag k="name" v="Høgåstjenn" />
		<tag k="natural" v="water" />
		<tag k="ssr:stedsnr" v="793220" />
		<tag k="water" v="lake" />
	</node>
	<node id="-761" lat="60.0108805535" lon="12.051941671">
		<tag k="fixme" v="consider water=pond" />
		<tag k="name" v="Rødbergstjennet" />
		<tag k="natural" v="water" />
		<tag k="ssr:stedsnr" v="48491" />
		<tag k="water" v="lake" />
	</node>
	<node id="-465" lat="59.9884388929" lon="12.297341661">
		<tag k="name" v="Vintertjennholmen" />
		<tag k="place" v="islet" />
		<tag k="ssr:stedsnr" v="412815" />
	</node>
	<node id="-464" lat="59.9016833297" lon="11.8758249989">
		<tag k="name" v="Store Langvika" />
		<tag k="natural" v="bay" />
		<tag k="ssr:stedsnr" v="412804" />
	</node>
	<node id="-463" lat="59.9034638921" lon="11.8713111165">
		<tag k="name" v="Uglevika" />
		<tag k="natural" v="bay" />
		<tag k="ssr:stedsnr" v="412698" />
	</node>
	<node id="-2508" lat="59.992494442" lon="12.1670777864">
		<tag k="name" v="Nordlibekken" />
		<tag k="ssr:stedsnr" v="776983" />
		<tag k="waterway" v="stream" />
	</node>
	<node id="-2507" lat="59.9908250005" lon="12.3454805633">
		<tag k="name" v="Sandvika" />
		<tag k="natural" v="bay" />
		<tag k="ssr:stedsnr" v="776960" />
	</node>
	<node id="-2501" lat="59.9608277792" lon="11.85312222">
		<tag k="name" v="Akrilbekken" />
		<tag k="ssr:stedsnr" v="776707" />
		<tag k="waterway" v="stream" />
	</node>
	<node id="-2499" lat="60.0405111095" lon="11.8363916603">
		<tag k="fixme" v="consider water=pond" />
		<tag k="name" v="Morttjennet" />
		<tag k="natural" v="water" />
		<tag k="ssr:stedsnr" v="776689" />
		<tag k="water" v="lake" />
	</node>
	<node id="-448" lat="60.0809722192" lon="11.9397388976">
		<tag k="fixme" v="consider water=pond" />
		<tag k="name" v="Østre Pulltjennet" />
		<tag k="natural" v="water" />
		<tag k="ssr:stedsnr" v="412455" />
		<tag k="water" v="lake" />
	</node>
	<node id="-2494" lat="59.9542083308" lon="11.8034277723">
		<tag k="name" v="Langvika" />
		<tag k="natural" v="bay" />
		<tag k="ssr:stedsnr" v="776598" />
	</node>
	<node id="-443" lat="60.113086113" lon="12.1176777697">
		<tag k="fixme" v="consider water=pond" />
		<tag k="name" v="Tangetjennet" />
		<tag k="natural" v="water" />
		<tag k="ssr:stedsnr" v="412366" />
		<tag k="water" v="lake" />
	</node>
	<node id="-2480" lat="60.0112222221" lon="12.1546749969">
		<tag k="name" v="Okseøyet" />
		<tag k="natural" v="water" />
		<tag k="ssr:stedsnr" v="776487" />
		<tag k="water" v="pond" />
	</node>
	<node id="-2476" lat="59.9661861111" lon="11.7974972198">
		<tag k="name" v="Vesle Sandvika" />
		<tag k="natural" v="bay" />
		<tag k="ssr:stedsnr" v="776464" />
	</node>
	<node id="-2475" lat="59.9448166702" lon="11.8285833355">
		<tag k="name" v="Leirbekken" />
		<tag k="ssr:stedsnr" v="776460" />
		<tag k="waterway" v="stream" />
	</node>
	<node id="-2469" lat="59.8491833297" lon="11.8668555484">
		<tag k="name" v="Vestbekken" />
		<tag k="ssr:stedsnr" v="776609" />
		<tag k="waterway" v="stream" />
	</node>
	<node id="-411" lat="60.0546416672" lon="12.23960555">
		<tag k="name" v="Vesle Baksjøbekken" />
		<tag k="ssr:stedsnr" v="412105" />
		<tag k="waterway" v="stream" />
	</node>
	<node id="-2457" lat="60.0701861118" lon="12.1110249931">
		<tag k="name" v="Malmerbekken" />
		<tag k="ssr:stedsnr" v="776150" />
		<tag k="waterway" v="stream" />
	</node>
	<node id="-405" lat="59.9185555565" lon="11.8883166736">
		<tag k="name" v="Østre Kjelvika" />
		<tag k="natural" v="bay" />
		<tag k="ssr:stedsnr" v="412049" />
	</node>
	<node id="-404" lat="59.9074722202" lon="12.0332916582">
		<tag k="name" v="Djupsundet" />
		<tag k="natural" v="strait" />
		<tag k="place" v="locality" />
		<tag k="ssr:stedsnr" v="412033" />
	</node>
	<node id="-402" lat="59.903727781" lon="12.0460777802">
		<tag k="name" v="Mortholmen" />
		<tag k="place" v="islet" />
		<tag k="ssr:stedsnr" v="412026" />
	</node>
	<node id="-394" lat="60.0965750023" lon="12.1780000078">
		<tag k="name" v="Øyungselva" />
		<tag k="ssr:stedsnr" v="411501" />
		<tag k="waterway" v="river" />
	</node>
	<node id="-393" lat="59.9584888875" lon="11.8325277781">
		<tag k="name" v="Høglihøla" />
		<tag k="ssr:stedsnr" v="411448" />
		<tag k="waterway" v="stream" />
	</node>
	<node id="-392" lat="60.064127781" lon="11.9557083314">
		<tag k="fixme" v="consider water=pond" />
		<tag k="name" v="Hundetjennet" />
		<tag k="natural" v="water" />
		<tag k="ssr:stedsnr" v="411437" />
		<tag k="water" v="lake" />
	</node>
	<node id="-389" lat="60.0973611079" lon="12.1789777826">
		<tag k="name" v="Øyungdammen" />
		<tag k="ssr:stedsnr" v="411224" />
		<tag k="waterway" v="dam" />
	</node>
	<node id="-2436" lat="60.0211916633" lon="12.2166583292">
		<tag k="name" v="Raufjelldølpa" />
		<tag k="natural" v="water" />
		<tag k="ssr:stedsnr" v="775881" />
		<tag k="water" v="pond" />
	</node>
	<node id="-2431" lat="59.8775111099" lon="11.8817194364">
		<tag k="name" v="Svartvika" />
		<tag k="natural" v="bay" />
		<tag k="ssr:stedsnr" v="775516" />
	</node>
	<node id="-379" lat="59.98095" lon="12.0607333309">
		<tag k="name" v="Tollefsbølelva" />
		<tag k="ssr:stedsnr" v="412783" />
		<tag k="waterway" v="river" />
	</node>
	<node id="-376" lat="59.9543666666" lon="11.9657305532">
		<tag k="name" v="Svarttjennbekken" />
		<tag k="ssr:stedsnr" v="412728" />
		<tag k="waterway" v="stream" />
	</node>
	<node id="-2418" lat="59.9006277763" lon="12.0527638821">
		<tag k="name" v="Fantevika" />
		<tag k="natural" v="bay" />
		<tag k="ssr:stedsnr" v="776317" />
	</node>
	<node id="-364" lat="59.9031533232" lon="12.143624589">
		<tag k="fixme" v="multiple name tags, choose one and add the other to alt_name; consider water=pond" />
		<tag k="name" v="Vestre Åbbortjennet;Åbbortjenn" />
		<tag k="natural" v="water" />
		<tag k="ssr:stedsnr" v="370211" />
		<tag k="water" v="lake" />
	</node>
	<node id="-362" lat="60.09631389" lon="12.2339916599">
		<tag k="name" v="Geittjennbekken" />
		<tag k="ssr:stedsnr" v="369893" />
		<tag k="waterway" v="stream" />
	</node>
	<node id="-2409" lat="60.0462944444" lon="12.2780027695">
		<tag k="name" v="Klemmetsbråtadammen" />
		<tag k="ssr:stedsnr" v="764948" />
		<tag k="waterway" v="dam" />
	</node>
	<node id="-2408" lat="60.0064194478" lon="12.0031500061">
		<tag k="fixme" v="consider water=pond" />
		<tag k="name" v="Søndre Hissitjenn" />
		<tag k="natural" v="water" />
		<tag k="ssr:stedsnr" v="764333" />
		<tag k="water" v="lake" />
	</node>
	<node id="-355" lat="60.0898305589" lon="11.959330561">
		<tag k="fixme" v="consider water=pond" />
		<tag k="name" v="Slabørja" />
		<tag k="natural" v="water" />
		<tag k="ssr:stedsnr" v="369693" />
		<tag k="water" v="lake" />
	</node>
	<node id="-2401" lat="60.1052472244" lon="12.1296444402">
		<tag k="fixme" v="consider water=pond" />
		<tag k="name" v="Lomtjennet" />
		<tag k="natural" v="water" />
		<tag k="ssr:stedsnr" v="734728" />
		<tag k="water" v="lake" />
	</node>
	<node id="-352" lat="60.0712249986" lon="11.9377249915">
		<tag k="fixme" v="consider water=pond" />
		<tag k="name" v="Krulltopptjennet" />
		<tag k="natural" v="water" />
		<tag k="ssr:stedsnr" v="369648" />
		<tag k="water" v="lake" />
	</node>
	<node id="-2399" lat="60.0364388883" lon="11.8757472259">
		<tag k="fixme" v="consider water=pond" />
		<tag k="name" v="Fisketjennet" />
		<tag k="natural" v="water" />
		<tag k="ssr:stedsnr" v="734701" />
		<tag k="water" v="lake" />
	</node>
	<node id="-762" lat="59.9419027737" lon="12.0291555613">
		<tag k="fixme" v="consider water=pond" />
		<tag k="name" v="Krabbetjennet" />
		<tag k="natural" v="water" />
		<tag k="ssr:stedsnr" v="48495" />
		<tag k="water" v="lake" />
	</node>
	<node id="-58" lat="59.9321666658" lon="11.8665805519">
		<tag k="fixme" v="consider water=pond" />
		<tag k="name" v="Søndre Kisviktjennet" />
		<tag k="natural" v="water" />
		<tag k="ssr:stedsnr" v="290682" />
		<tag k="water" v="lake" />
	</node>
	<node id="-346" lat="60.0491805591" lon="11.9768361104">
		<tag k="fixme" v="consider water=pond" />
		<tag k="name" v="Sandtjennet" />
		<tag k="natural" v="water" />
		<tag k="ssr:stedsnr" v="369616" />
		<tag k="water" v="lake" />
	</node>
	<node id="-2392" lat="59.9850805522" lon="12.2117361068">
		<tag k="name" v="Nessjøen" />
		<tag k="natural" v="water" />
		<tag k="ssr:stedsnr" v="734517" />
		<tag k="water" v="lake" />
	</node>
	<node id="-2383" lat="59.9026388865" lon="12.1075916605">
		<tag k="name" v="Holmsjøen" />
		<tag k="natural" v="water" />
		<tag k="ssr:stedsnr" v="734198" />
		<tag k="water" v="lake" />
	</node>
	<node id="-2381" lat="59.8982999962" lon="11.9429388942">
		<tag k="fixme" v="consider water=pond" />
		<tag k="name" v="Store Åbbortjenn" />
		<tag k="natural" v="water" />
		<tag k="ssr:stedsnr" v="734172" />
		<tag k="water" v="lake" />
	</node>
	<node id="-2380" lat="59.854227774" lon="11.8801138805">
		<tag k="name" v="Langebekken" />
		<tag k="ssr:stedsnr" v="734161" />
		<tag k="waterway" v="stream" />
	</node>
	<node id="-2379" lat="59.8701361123" lon="11.859772227">
		<tag k="alt_name" v="Knøltjennet" />
		<tag k="fixme" v="consider water=pond" />
		<tag k="name" v="Knolltjenn" />
		<tag k="natural" v="water" />
		<tag k="ssr:stedsnr" v="734146" />
		<tag k="water" v="lake" />
	</node>
	<node id="-329" lat="59.921074999" lon="11.8866999984">
		<tag k="name" v="Skålneset" />
		<tag k="natural" v="cape" />
		<tag k="place" v="locality" />
		<tag k="ssr:stedsnr" v="369314" />
	</node>
	<node id="-323" lat="59.9554833332" lon="11.9614777863">
		<tag k="fixme" v="consider water=pond" />
		<tag k="name" v="Svarttjenna" />
		<tag k="natural" v="water" />
		<tag k="ssr:stedsnr" v="369291" />
		<tag k="water" v="lake" />
	</node>
	<node id="-2368" lat="60.0669861071" lon="11.9555722303">
		<tag k="fixme" v="consider water=pond" />
		<tag k="name" v="Nysætertjenna" />
		<tag k="natural" v="water" />
		<tag k="ssr:stedsnr" v="733678" />
		<tag k="water" v="lake" />
	</node>
	<node id="-2363" lat="60.0250670164" lon="11.8447663571">
		<tag k="fixme" v="multiple name tags, choose one and add the other to alt_name; consider water=pond" />
		<tag k="name" v="Breidfløyta;Stor-Fløyta" />
		<tag k="natural" v="water" />
		<tag k="ssr:stedsnr" v="733607" />
		<tag k="water" v="lake" />
	</node>
	<node id="-2361" lat="60.0582222247" lon="11.8255361036">
		<tag k="fixme" v="consider water=pond" />
		<tag k="name" v="Langtjenn" />
		<tag k="natural" v="water" />
		<tag k="ssr:stedsnr" v="733487" />
		<tag k="water" v="lake" />
	</node>
	<node id="-312" lat="60.0088416706" lon="12.2706305485">
		<tag k="name" v="Vålvatnet" />
		<tag k="natural" v="water" />
		<tag k="ssr:stedsnr" v="369179" />
		<tag k="water" v="lake" />
	</node>
	<node id="-52" lat="59.8743111092" lon="11.8843388875">
		<tag k="name" v="Krokfossdammen" />
		<tag k="ssr:stedsnr" v="290491" />
		<tag k="waterway" v="dam" />
	</node>
	<node id="-310" lat="59.8995333297" lon="12.0046388954">
		<tag k="fixme" v="consider water=pond" />
		<tag k="name" v="Svarttjenn" />
		<tag k="natural" v="water" />
		<tag k="ssr:stedsnr" v="369156" />
		<tag k="water" v="lake" />
	</node>
	<node id="-309" lat="59.9002249978" lon="12.0936194371">
		<tag k="fixme" v="consider water=pond" />
		<tag k="name" v="Perkerudtjennet" />
		<tag k="natural" v="water" />
		<tag k="ssr:stedsnr" v="369154" />
		<tag k="water" v="lake" />
	</node>
	<node id="-306" lat="60.0185944474" lon="12.3222944384">
		<tag k="fixme" v="consider water=pond" />
		<tag k="name" v="Flatjennet" />
		<tag k="natural" v="water" />
		<tag k="ssr:stedsnr" v="369041" />
		<tag k="water" v="lake" />
	</node>
	<node id="-305" lat="60.0283694425" lon="12.2443500007">
		<tag k="fixme" v="consider water=pond" />
		<tag k="name" v="Gravlitjennet" />
		<tag k="natural" v="water" />
		<tag k="ssr:stedsnr" v="369030" />
		<tag k="water" v="lake" />
	</node>
	<node id="-2350" lat="59.9629888865" lon="12.2912388927">
		<tag k="fixme" v="consider water=pond" />
		<tag k="name" v="Svarttjennet" />
		<tag k="natural" v="water" />
		<tag k="ssr:stedsnr" v="733208" />
		<tag k="water" v="lake" />
	</node>
	<node id="-300" lat="59.9113638875" lon="11.8302944413">
		<tag k="fixme" v="consider water=pond" />
		<tag k="name" v="Kalvåstjennet" />
		<tag k="natural" v="water" />
		<tag k="ssr:stedsnr" v="369011" />
		<tag k="water" v="lake" />
	</node>
	<node id="-299" lat="60.0304444402" lon="12.3242027765">
		<tag k="name" v="Deilebekken" />
		<tag k="ssr:stedsnr" v="369010" />
		<tag k="waterway" v="stream" />
	</node>
	<node id="-2340" lat="60.0615361103" lon="12.2689472166">
		<tag k="name" v="Nordre Billingen" />
		<tag k="natural" v="water" />
		<tag k="ssr:stedsnr" v="733114" />
		<tag k="water" v="lake" />
	</node>
	<node id="-2339" lat="59.9721138906" lon="11.82963611">
		<tag k="fixme" v="consider water=pond" />
		<tag k="name" v="Midtre Hundetjenn" />
		<tag k="natural" v="water" />
		<tag k="ssr:stedsnr" v="733106" />
		<tag k="water" v="lake" />
	</node>
	<node id="-2338" lat="59.967369448" lon="11.8354750017">
		<tag k="fixme" v="consider water=pond" />
		<tag k="name" v="Putten" />
		<tag k="natural" v="water" />
		<tag k="ssr:stedsnr" v="733104" />
		<tag k="water" v="lake" />
	</node>
	<node id="-2335" lat="60.0340746105" lon="12.3183153089">
		<tag k="fixme" v="multiple name tags, choose one and add the other to alt_name; consider water=pond" />
		<tag k="name" v="Østre Åstjenn;Åstjenn" />
		<tag k="natural" v="water" />
		<tag k="ssr:stedsnr" v="733026" />
		<tag k="water" v="lake" />
	</node>
	<node id="-281" lat="60.0762555583" lon="11.9849694474">
		<tag k="name" v="Åbortjennbekken" />
		<tag k="ssr:stedsnr" v="351945" />
		<tag k="waterway" v="stream" />
	</node>
	<node id="-278" lat="59.9716388929" lon="11.9140166738">
		<tag k="fixme" v="consider water=pond" />
		<tag k="name" v="Raseruddulpa" />
		<tag k="natural" v="water" />
		<tag k="ssr:stedsnr" v="351862" />
		<tag k="water" v="lake" />
	</node>
	<node id="-276" lat="59.9593166706" lon="11.9566611188">
		<tag k="name" v="Kontraskjæret" />
		<tag k="natural" v="cape" />
		<tag k="place" v="locality" />
		<tag k="ssr:stedsnr" v="351777" />
	</node>
	<node id="-272" lat="59.9100333316" lon="11.8786888952">
		<tag k="name" v="Store Gørrviknabben" />
		<tag k="natural" v="cape" />
		<tag k="place" v="locality" />
		<tag k="ssr:stedsnr" v="351725" />
	</node>
	<node id="-269" lat="60.0373972255" lon="11.8883222177">
		<tag k="fixme" v="consider water=pond" />
		<tag k="name" v="Østre Sundtjennet" />
		<tag k="natural" v="water" />
		<tag k="ssr:stedsnr" v="351659" />
		<tag k="water" v="lake" />
	</node>
	<node id="-2308" lat="59.9416083325" lon="11.8394611116">
		<tag k="name" v="Perodden" />
		<tag k="natural" v="cape" />
		<tag k="place" v="locality" />
		<tag k="ssr:stedsnr" v="715737" />
	</node>
	<node id="-257" lat="59.9407555514" lon="11.8161916669">
		<tag k="name" v="Vesleodden" />
		<tag k="natural" v="cape" />
		<tag k="place" v="locality" />
		<tag k="ssr:stedsnr" v="351480" />
	</node>
	<node id="-2303" lat="60.0560583302" lon="11.9594833273">
		<tag k="fixme" v="consider water=pond" />
		<tag k="name" v="Ulvetjennet" />
		<tag k="natural" v="water" />
		<tag k="ssr:stedsnr" v="715663" />
		<tag k="water" v="lake" />
	</node>
	<node id="-2299" lat="59.9009888896" lon="11.8459055547">
		<tag k="fixme" v="consider water=pond" />
		<tag k="name" v="Fløyttjennet" />
		<tag k="natural" v="water" />
		<tag k="ssr:stedsnr" v="715501" />
		<tag k="water" v="lake" />
	</node>
	<node id="-2298" lat="60.0853611084" lon="11.9964250085">
		<tag k="name" v="Okseøyet" />
		<tag k="natural" v="water" />
		<tag k="ssr:stedsnr" v="715475" />
		<tag k="water" v="pond" />
	</node>
	<node id="-2294" lat="59.915863889" lon="11.8050027739">
		<tag k="name" v="Dalfoss" />
		<tag k="ssr:stedsnr" v="715412" />
		<tag k="waterway" v="rapids" />
	</node>
	<node id="-244" lat="60.0547111108" lon="11.8732611178">
		<tag k="name" v="Grevlingtjennbekken" />
		<tag k="ssr:stedsnr" v="351319" />
		<tag k="waterway" v="stream" />
	</node>
	<node id="-243" lat="59.9566944486" lon="11.9606805615">
		<tag k="fixme" v="consider water=pond" />
		<tag k="name" v="Midtre Svarttjennet" />
		<tag k="natural" v="water" />
		<tag k="ssr:stedsnr" v="351297" />
		<tag k="water" v="lake" />
	</node>
	<node id="-236" lat="59.9765194469" lon="12.3395083354">
		<tag k="name" v="Finnsrudelva" />
		<tag k="ssr:stedsnr" v="351230" />
		<tag k="waterway" v="river" />
	</node>
	<node id="-2282" lat="60.0582444419" lon="11.8453583338">
		<tag k="name" v="Nesleråa" />
		<tag k="ssr:stedsnr" v="715276" />
		<tag k="waterway" v="river" />
	</node>
	<node id="-2277" lat="60.0573444452" lon="12.2753055498">
		<tag k="name" v="Brannesodden" />
		<tag k="natural" v="cape" />
		<tag k="place" v="locality" />
		<tag k="ssr:stedsnr" v="715246" />
	</node>
	<node id="-2272" lat="59.9772305541" lon="12.2467722308">
		<tag k="name" v="Steinsrudbekken" />
		<tag k="ssr:stedsnr" v="715232" />
		<tag k="waterway" v="stream" />
	</node>
	<node id="-2271" lat="60.0859944486" lon="12.1738583396">
		<tag k="name" v="Grønnebekkenåa" />
		<tag k="ssr:stedsnr" v="715227" />
		<tag k="waterway" v="river" />
	</node>
	<node id="-2270" lat="60.0032166705" lon="12.1605694441">
		<tag k="name" v="Dammen" />
		<tag k="ssr:stedsnr" v="715222" />
		<tag k="waterway" v="dam" />
	</node>
	<node id="-2269" lat="60.0582222247" lon="11.8255361036">
		<tag k="fixme" v="consider water=pond" />
		<tag k="name" v="Langtjennet" />
		<tag k="natural" v="water" />
		<tag k="ssr:stedsnr" v="715214" />
		<tag k="water" v="lake" />
	</node>
	<node id="-219" lat="59.9226444452" lon="11.9072166667">
		<tag k="name" v="Vestre Gørrvika" />
		<tag k="natural" v="bay" />
		<tag k="ssr:stedsnr" v="351057" />
	</node>
	<node id="-217" lat="59.9841194434" lon="12.2164000028">
		<tag k="name" v="Lauvnestangen" />
		<tag k="natural" v="cape" />
		<tag k="place" v="locality" />
		<tag k="ssr:stedsnr" v="351043" />
	</node>
	<node id="-216" lat="59.902575001" lon="12.0508916587">
		<tag k="name" v="Aurnesvika" />
		<tag k="natural" v="bay" />
		<tag k="ssr:stedsnr" v="351034" />
	</node>
	<node id="-2246" lat="59.9286027816" lon="11.9093805536">
		<tag k="name" v="Båtvika" />
		<tag k="natural" v="bay" />
		<tag k="ssr:stedsnr" v="715014" />
	</node>
	<node id="-2245" lat="59.9278583365" lon="11.8902527796">
		<tag k="name" v="Kisviknabba" />
		<tag k="natural" v="cape" />
		<tag k="place" v="locality" />
		<tag k="ssr:stedsnr" v="715005" />
	</node>
	<node id="-2244" lat="59.8916583365" lon="12.143027786">
		<tag k="name" v="Dammen" />
		<tag k="ssr:stedsnr" v="715006" />
		<tag k="waterway" v="dam" />
	</node>
	<node id="-2243" lat="60.0659555575" lon="11.995036106">
		<tag k="name" v="Grimtjenndammen" />
		<tag k="ssr:stedsnr" v="714931" />
		<tag k="waterway" v="dam" />
	</node>
	<node id="-189" lat="59.9297000003" lon="11.9424527769">
		<tag k="fixme" v="consider water=pond" />
		<tag k="name" v="Merasttjenn" />
		<tag k="natural" v="water" />
		<tag k="ssr:stedsnr" v="126367" />
		<tag k="water" v="lake" />
	</node>
	<node id="-187" lat="59.9360388846" lon="12.1069388886">
		<tag k="fixme" v="consider water=pond" />
		<tag k="name" v="Kroktjenn" />
		<tag k="natural" v="water" />
		<tag k="ssr:stedsnr" v="126358" />
		<tag k="water" v="lake" />
	</node>
	<node id="-2232" lat="59.9572694473" lon="11.8010388816">
		<tag k="name" v="Grønnvika" />
		<tag k="natural" v="bay" />
		<tag k="ssr:stedsnr" v="715520" />
	</node>
	<node id="-179" lat="60.0675000026" lon="11.9538944441">
		<tag k="fixme" v="consider water=pond" />
		<tag k="name" v="Nordre Nysætertjennet" />
		<tag k="natural" v="water" />
		<tag k="ssr:stedsnr" v="339178" />
		<tag k="water" v="lake" />
	</node>
	<node id="-176" lat="60.0521027776" lon="11.8665638814">
		<tag k="alt_name" v="Børen, store" />
		<tag k="name" v="Store Børen" />
		<tag k="natural" v="water" />
		<tag k="ssr:stedsnr" v="309678" />
		<tag k="water" v="lake" />
	</node>
	<node id="-2219" lat="60.101938888" lon="12.1580638864">
		<tag k="name" v="Baksjøen" />
		<tag k="natural" v="water" />
		<tag k="ssr:stedsnr" v="673725" />
		<tag k="water" v="lake" />
	</node>
	<node id="-711" lat="59.8768666692" lon="11.8238611159">
		<tag k="name" v="Skjærtjennvika" />
		<tag k="natural" v="bay" />
		<tag k="ssr:stedsnr" v="47456" />
	</node>
	<node id="-2215" lat="60.037899998" lon="12.2166527837">
		<tag k="fixme" v="consider water=pond" />
		<tag k="name" v="Aursjøen" />
		<tag k="natural" v="water" />
		<tag k="ssr:stedsnr" v="673642" />
		<tag k="water" v="lake" />
	</node>
	<node id="-2214" lat="60.0466027772" lon="11.823766666">
		<tag k="fixme" v="consider water=pond" />
		<tag k="name" v="Sevtjennet" />
		<tag k="natural" v="water" />
		<tag k="ssr:stedsnr" v="673546" />
		<tag k="water" v="lake" />
	</node>
	<node id="-165" lat="59.9379888845" lon="12.0972333416">
		<tag k="fixme" v="consider water=pond" />
		<tag k="name" v="Igletjenn" />
		<tag k="natural" v="water" />
		<tag k="ssr:stedsnr" v="309400" />
		<tag k="water" v="lake" />
	</node>
	<node id="-2210" lat="59.987977782" lon="11.9470472201">
		<tag k="name" v="Buåa" />
		<tag k="ssr:stedsnr" v="673505" />
		<tag k="waterway" v="river" />
	</node>
	<node id="-157" lat="59.9770000017" lon="12.3228722281">
		<tag k="fixme" v="consider water=pond" />
		<tag k="name" v="Nottjennet" />
		<tag k="natural" v="water" />
		<tag k="ssr:stedsnr" v="309241" />
		<tag k="water" v="lake" />
	</node>
	<node id="-26" lat="59.8721333335" lon="11.8829416641">
		<tag k="name" v="Hesteøya" />
		<tag k="place" v="island" />
		<tag k="ssr:stedsnr" v="290250" />
	</node>
	<node id="-154" lat="60.0031980066" lon="12.334070646">
		<tag k="fixme" v="multiple name tags, choose one and add the other to alt_name; consider water=pond" />
		<tag k="name" v="Stranddølpa;Dolpetjenn" />
		<tag k="natural" v="water" />
		<tag k="ssr:stedsnr" v="309213" />
		<tag k="water" v="lake" />
	</node>
	<node id="-151" lat="59.8721055516" lon="11.9026111101">
		<tag k="fixme" v="consider water=pond" />
		<tag k="name" v="Veslesjøen" />
		<tag k="natural" v="water" />
		<tag k="ssr:stedsnr" v="309156" />
		<tag k="water" v="lake" />
	</node>
	<node id="-2197" lat="59.9101611123" lon="12.0713583309">
		<tag k="fixme" v="consider water=pond" />
		<tag k="name" v="Furuvatnet" />
		<tag k="natural" v="water" />
		<tag k="ssr:stedsnr" v="673341" />
		<tag k="water" v="lake" />
	</node>
	<node id="-2192" lat="59.951366671" lon="11.8799472218">
		<tag k="fixme" v="consider water=pond" />
		<tag k="name" v="Gravlitjenn" />
		<tag k="natural" v="water" />
		<tag k="ssr:stedsnr" v="673308" />
		<tag k="water" v="lake" />
	</node>
	<node id="-2187" lat="59.9582166639" lon="12.2834250004">
		<tag k="fixme" v="consider water=pond" />
		<tag k="name" v="Kroktjennet" />
		<tag k="natural" v="water" />
		<tag k="ssr:stedsnr" v="673234" />
		<tag k="water" v="lake" />
	</node>
	<node id="-2183" lat="59.9055777791" lon="12.168511103">
		<tag k="fixme" v="consider water=pond" />
		<tag k="name" v="Gauptjennet" />
		<tag k="natural" v="water" />
		<tag k="ssr:stedsnr" v="673194" />
		<tag k="water" v="lake" />
	</node>
	<node id="-134" lat="60.059399996" lon="12.0328861029">
		<tag k="name" v="Haukåa" />
		<tag k="ssr:stedsnr" v="308676" />
		<tag k="waterway" v="river" />
	</node>
	<node id="-2181" lat="59.9087805531" lon="12.1819555588">
		<tag k="fixme" v="consider water=pond" />
		<tag k="name" v="Lystjennet" />
		<tag k="natural" v="water" />
		<tag k="ssr:stedsnr" v="673181" />
		<tag k="water" v="lake" />
	</node>
	<node id="-2180" lat="60.0534416644" lon="12.2448527856">
		<tag k="alt_name" v="Baksjøen, vesle" />
		<tag k="fixme" v="consider water=pond" />
		<tag k="name" v="Vesle Baksjøen" />
		<tag k="natural" v="water" />
		<tag k="ssr:stedsnr" v="673134" />
		<tag k="water" v="lake" />
	</node>
	<node id="-2178" lat="60.0264222257" lon="12.2813999933">
		<tag k="name" v="Søndre Billingen" />
		<tag k="natural" v="water" />
		<tag k="ssr:stedsnr" v="673051" />
		<tag k="water" v="lake" />
	</node>
	<node id="-2175" lat="60.0384472248" lon="12.2910305486">
		<tag k="fixme" v="consider water=pond" />
		<tag k="name" v="Svintjenn" />
		<tag k="natural" v="water" />
		<tag k="ssr:stedsnr" v="673019" />
		<tag k="water" v="lake" />
	</node>
	<node id="-2173" lat="60.1099888885" lon="12.2375138813">
		<tag k="alt_name" v="Geittjennet" />
		<tag k="fixme" v="consider water=pond" />
		<tag k="name" v="Geittjenna" />
		<tag k="natural" v="water" />
		<tag k="ssr:stedsnr" v="672928" />
		<tag k="water" v="lake" />
	</node>
	<node id="-2172" lat="60.0905138908" lon="12.2728722249">
		<tag k="fixme" v="consider water=pond" />
		<tag k="name" v="Rauddolpa" />
		<tag k="natural" v="water" />
		<tag k="ssr:stedsnr" v="672883" />
		<tag k="water" v="lake" />
	</node>
	<node id="-121" lat="59.9192611094" lon="12.0249055483">
		<tag k="fixme" v="consider water=pond" />
		<tag k="name" v="Svenbytjennet" />
		<tag k="natural" v="water" />
		<tag k="ssr:stedsnr" v="308289" />
		<tag k="water" v="lake" />
	</node>
	<node id="-2168" lat="60.0078583307" lon="11.9529749938">
		<tag k="name" v="Busjøen" />
		<tag k="natural" v="water" />
		<tag k="ssr:stedsnr" v="672864" />
		<tag k="water" v="lake" />
	</node>
	<node id="-119" lat="59.9688722247" lon="11.8263583344">
		<tag k="fixme" v="consider water=pond" />
		<tag k="name" v="Søndre Hundetjenn" />
		<tag k="natural" v="water" />
		<tag k="ssr:stedsnr" v="308078" />
		<tag k="water" v="lake" />
	</node>
	<node id="-2159" lat="59.9323944477" lon="12.0004972179">
		<tag k="name" v="Harstadsjøen" />
		<tag k="natural" v="water" />
		<tag k="ssr:stedsnr" v="672313" />
		<tag k="water" v="lake" />
	</node>
	<node id="-109" lat="59.9538666698" lon="11.8897361199">
		<tag k="name" v="Mærrabekken" />
		<tag k="ssr:stedsnr" v="291680" />
		<tag k="waterway" v="stream" />
	</node>
	<node id="-108" lat="59.8993166678" lon="11.883550008">
		<tag k="name" v="Persøya" />
		<tag k="place" v="island" />
		<tag k="ssr:stedsnr" v="291677" />
	</node>
	<node id="-107" lat="59.9470805559" lon="11.8937388868">
		<tag k="name" v="Damtjennbekken" />
		<tag k="ssr:stedsnr" v="291672" />
		<tag k="waterway" v="stream" />
	</node>
	<node id="-2154" lat="60.079011109" lon="12.2239305492">
		<tag k="alt_name" v="Kommern" />
		<tag k="fixme" v="consider water=pond" />
		<tag k="name" v="Kommeren" />
		<tag k="natural" v="water" />
		<tag k="ssr:stedsnr" v="672075" />
		<tag k="water" v="lake" />
	</node>
	<node id="-102" lat="59.9048111077" lon="11.809702777">
		<tag k="name" v="Høgåsbekken" />
		<tag k="ssr:stedsnr" v="291520" />
		<tag k="waterway" v="stream" />
	</node>
	<node id="-94" lat="59.9941944453" lon="11.8285444525">
		<tag k="name" v="Jutulbrua" />
		<tag k="place" v="island" />
		<tag k="ssr:stedsnr" v="291269" />
	</node>
	<node id="-93" lat="59.9924055577" lon="11.8257444446">
		<tag k="name" v="Ferjevika" />
		<tag k="natural" v="bay" />
		<tag k="ssr:stedsnr" v="291264" />
	</node>
	<node id="-79" lat="59.8748944404" lon="11.8555055503">
		<tag k="name" v="Domsjørka" />
		<tag k="ssr:stedsnr" v="290998" />
		<tag k="waterway" v="stream" />
	</node>
	<node id="-78" lat="59.8489361136" lon="11.8572999979">
		<tag k="fixme" v="consider water=pond" />
		<tag k="name" v="Svarttjennet" />
		<tag k="natural" v="water" />
		<tag k="ssr:stedsnr" v="290994" />
		<tag k="water" v="lake" />
	</node>
	<node id="-77" lat="59.9348416647" lon="11.97452222">
		<tag k="name" v="Delbekk" />
		<tag k="ssr:stedsnr" v="290992" />
		<tag k="waterway" v="stream" />
	</node>
	<node id="-821" lat="59.9427138878" lon="11.87503055">
		<tag k="fixme" v="consider water=pond" />
		<tag k="name" v="Vintertjenn" />
		<tag k="natural" v="water" />
		<tag k="ssr:stedsnr" v="66250" />
		<tag k="water" v="lake" />
	</node>
	<node id="-69" lat="59.9381777744" lon="12.2035083298">
		<tag k="name" v="Gamleelva" />
		<tag k="ssr:stedsnr" v="290862" />
		<tag k="waterway" v="river" />
	</node>
	<node id="-2115" lat="59.952672226" lon="11.8011583369">
		<tag k="name" v="Øysjøfossnabben" />
		<tag k="natural" v="cape" />
		<tag k="place" v="locality" />
		<tag k="ssr:stedsnr" v="654618" />
	</node>
	<node id="-2114" lat="59.9199861126" lon="11.8361777794">
		<tag k="fixme" v="consider water=pond" />
		<tag k="name" v="Ljønertjennet" />
		<tag k="natural" v="water" />
		<tag k="ssr:stedsnr" v="654614" />
		<tag k="water" v="lake" />
	</node>
	<node id="-60" lat="59.9181472238" lon="11.8633972184">
		<tag k="name" v="Steinbekken" />
		<tag k="ssr:stedsnr" v="290691" />
		<tag k="waterway" v="stream" />
	</node>
	<node id="-2106" lat="59.8889361123" lon="12.0533527819">
		<tag k="name" v="Bjuråbekken" />
		<tag k="ssr:stedsnr" v="654552" />
		<tag k="waterway" v="stream" />
	</node>
	<node id="-57" lat="59.9223333365" lon="11.8620222219">
		<tag k="name" v="Stornesnabben" />
		<tag k="natural" v="cape" />
		<tag k="place" v="locality" />
		<tag k="ssr:stedsnr" v="290631" />
	</node>
	<node id="-2104" lat="59.9355944447" lon="11.9967833362">
		<tag k="name" v="Brustadvika" />
		<tag k="natural" v="bay" />
		<tag k="ssr:stedsnr" v="654542" />
	</node>
	<node id="-53" lat="60.0267690528" lon="11.9270401233">
		<tag k="fixme" v="consider water=pond" />
		<tag k="name" v="Vestre Spjuttjennet" />
		<tag k="natural" v="water" />
		<tag k="ssr:stedsnr" v="290522" />
		<tag k="water" v="lake" />
	</node>
	<node id="-2100" lat="59.9499222209" lon="12.1099694394">
		<tag k="name" v="Okseauget" />
		<tag k="natural" v="water" />
		<tag k="ssr:stedsnr" v="654526" />
		<tag k="water" v="pond" />
	</node>
	<node id="-350" lat="60.0867361117" lon="12.1696416578">
		<tag k="fixme" v="consider water=pond" />
		<tag k="name" v="Plassetjennet" />
		<tag k="natural" v="water" />
		<tag k="ssr:stedsnr" v="369642" />
		<tag k="water" v="lake" />
	</node>
	<node id="-2093" lat="59.9340972195" lon="11.8466305547">
		<tag k="name" v="Bråtaelva" />
		<tag k="ssr:stedsnr" v="654498" />
		<tag k="waterway" v="river" />
	</node>
	<node id="-2092" lat="60.1042666639" lon="12.0827055594">
		<tag k="fixme" v="consider water=pond" />
		<tag k="name" v="Dulpa" />
		<tag k="natural" v="water" />
		<tag k="ssr:stedsnr" v="654496" />
		<tag k="water" v="lake" />
	</node>
	<node id="-2089" lat="59.9914888879" lon="12.0845055578">
		<tag k="name" v="Bjørnstadbekken" />
		<tag k="ssr:stedsnr" v="654427" />
		<tag k="waterway" v="stream" />
	</node>
	<node id="-39" lat="60.0580416707" lon="12.1322472177">
		<tag k="name" v="Sandnesbekken" />
		<tag k="ssr:stedsnr" v="290386" />
		<tag k="waterway" v="stream" />
	</node>
	<node id="-34" lat="59.8996138855" lon="12.1077805509">
		<tag k="name" v="Langodden" />
		<tag k="natural" v="cape" />
		<tag k="place" v="locality" />
		<tag k="ssr:stedsnr" v="290340" />
	</node>
	<node id="-2079" lat="59.9054722267" lon="11.9501777728">
		<tag k="fixme" v="consider water=pond" />
		<tag k="name" v="Vesle Abbortjennet" />
		<tag k="natural" v="water" />
		<tag k="ssr:stedsnr" v="654291" />
		<tag k="water" v="lake" />
	</node>
	<node id="-2077" lat="59.9098277783" lon="11.9079944499">
		<tag k="name" v="Putten" />
		<tag k="natural" v="water" />
		<tag k="ssr:stedsnr" v="654279" />
		<tag k="water" v="pond" />
	</node>
	<node id="-2074" lat="60.0305666654" lon="11.8424972246">
		<tag k="fixme" v="consider water=pond" />
		<tag k="name" v="Rudbergstjennet" />
		<tag k="natural" v="water" />
		<tag k="ssr:stedsnr" v="654259" />
		<tag k="water" v="lake" />
	</node>
	<node id="-11" lat="59.8932055579" lon="12.1122666717">
		<tag k="name" v="Jensøya" />
		<tag k="place" v="island" />
		<tag k="ssr:stedsnr" v="290068" />
	</node>
	<node id="-10" lat="59.9135000003" lon="12.0437666599">
		<tag k="name" v="Svartvika" />
		<tag k="natural" v="bay" />
		<tag k="ssr:stedsnr" v="290050" />
	</node>
	<node id="-2056" lat="59.9029916645" lon="12.1737888954">
		<tag k="name" v="Abbortjennbekken" />
		<tag k="ssr:stedsnr" v="654065" />
		<tag k="waterway" v="stream" />
	</node>
	<node id="-6" lat="59.9244611153" lon="11.8987888969">
		<tag k="name" v="Haukøya" />
		<tag k="place" v="island" />
		<tag k="ssr:stedsnr" v="290003" />
	</node>
</osm>
