<?xml version="1.0" encoding="UTF-8"?>
<osm generator="osmapis" version="0.6">
	<node id="-23036" lat="58.4526138853" lon="8.44425276953">
		<tag k="name" v="Tellefsplass" />
		<tag k="place" v="locality" />
		<tag k="ssr:date" v="2016-05-10" />
		<tag k="ssr:stedsnr" v="667174" />
	</node>
	<node id="-24570" lat="58.4461444455" lon="8.42927778442">
		<tag k="name" v="Kvennvannsstoet" />
		<tag k="place" v="locality" />
		<tag k="ssr:date" v="2016-05-11" />
		<tag k="ssr:stedsnr" v="910945" />
	</node>
	<node id="-23033" lat="58.421980552" lon="8.38168334102">
		<tag k="name" v="Teinelavet" />
		<tag k="place" v="locality" />
		<tag k="ssr:date" v="2016-05-10" />
		<tag k="ssr:stedsnr" v="667146" />
	</node>
	<node id="-23032" lat="58.4261499961" lon="8.38628333069">
		<tag k="name" v="Stoet" />
		<tag k="place" v="locality" />
		<tag k="ssr:date" v="2016-05-10" />
		<tag k="ssr:stedsnr" v="667138" />
	</node>
	<node id="-20983" lat="58.4399388858" lon="8.47968611596">
		<tag k="name" v="Svartfjellskoddet" />
		<tag k="place" v="locality" />
		<tag k="ssr:date" v="2016-05-10" />
		<tag k="ssr:stedsnr" v="121010" />
	</node>
	<node id="-22509" lat="58.3432083353" lon="8.59516388287">
		<tag k="amenity" v="place_of_worship" />
		<tag k="denomination" v="lutheran" />
		<tag k="name" v="Grimstad" />
		<tag k="religion" v="christian" />
		<tag k="ssr:date" v="2016-05-10" />
		<tag k="ssr:stedsnr" v="566617" />
	</node>
	<node id="-22012" lat="58.3575555536" lon="8.66441666771">
		<tag k="name" v="Hvilefjell" />
		<tag k="place" v="locality" />
		<tag k="ssr:date" v="2016-05-10" />
		<tag k="ssr:stedsnr" v="455421" />
	</node>
	<node id="-20986" lat="58.4444166706" lon="8.5201861181">
		<tag k="name" v="Storenesodden" />
		<tag k="place" v="locality" />
		<tag k="ssr:date" v="2016-05-10" />
		<tag k="ssr:stedsnr" v="121076" />
	</node>
	<node id="-24527" lat="58.3419333339" lon="8.52298611962">
		<tag k="ssr:gml_id" v="GEOMETRY_7593446f-79ac-4812-8410-7316b18d95e6" />
		<tag k="ssr:gml_nr" v="2" />
	</node>
	<node id="-24526" lat="58.3416027798" lon="8.52233332896">
		<tag k="ssr:gml_id" v="GEOMETRY_c01eb05c-8a21-4bfc-9f25-75e278b1fef0" />
		<tag k="ssr:gml_nr" v="1" />
	</node>
	<node id="-24525" lat="58.3412416657" lon="8.52191111152">
		<tag k="ssr:gml_id" v="GEOMETRY_e1962efd-675f-466a-86ba-83e05db16bb3" />
		<tag k="ssr:gml_nr" v="0" />
	</node>
	<node id="-24001" lat="58.33733333" lon="8.67958333515">
		<tag k="name" v="Kallen" />
		<tag k="place" v="locality" />
		<tag k="ssr:date" v="2016-05-11" />
		<tag k="ssr:stedsnr" v="819495" />
	</node>
	<node id="-23456" lat="58.4081750004" lon="8.41803333061">
		<tag k="name" v="Grasmyrløa" />
		<tag k="place" v="locality" />
		<tag k="ssr:date" v="2016-05-11" />
		<tag k="ssr:stedsnr" v="728529" />
	</node>
	<node id="-23997" lat="58.3616111118" lon="8.6108611127">
		<tag k="name" v="Fidja" />
		<tag k="place" v="locality" />
		<tag k="ssr:date" v="2016-05-11" />
		<tag k="ssr:stedsnr" v="819476" />
	</node>
	<node id="-23482" lat="58.3997472221" lon="8.35052222519">
		<tag k="name" v="Smia" />
		<tag k="place" v="locality" />
		<tag k="ssr:date" v="2016-05-11" />
		<tag k="ssr:stedsnr" v="728802" />
	</node>
	<node id="-24819" lat="58.4529222196" lon="8.46182778548">
		<tag k="name" v="Øktebiddeskåra" />
		<tag k="place" v="locality" />
		<tag k="ssr:date" v="2016-05-11" />
		<tag k="ssr:stedsnr" v="970217" />
	</node>
	<node id="-24496" lat="58.4162888926" lon="8.37486666378">
		<tag k="name" v="Teinelavet" />
		<tag k="place" v="locality" />
		<tag k="ssr:date" v="2016-05-11" />
		<tag k="ssr:stedsnr" v="910404" />
	</node>
	<node id="-22436" lat="58.4457694417" lon="8.43987221606">
		<tag k="name" v="Varden" />
		<tag k="place" v="locality" />
		<tag k="ssr:date" v="2016-05-10" />
		<tag k="ssr:stedsnr" v="545929" />
	</node>
	<node id="-22433" lat="58.4015333336" lon="8.35341389646">
		<tag k="name" v="Sava" />
		<tag k="place" v="locality" />
		<tag k="ssr:date" v="2016-05-10" />
		<tag k="ssr:stedsnr" v="545799" />
	</node>
	<node id="-22432" lat="58.40313611" lon="8.35791943681">
		<tag k="name" v="Grasåsskoddet" />
		<tag k="place" v="locality" />
		<tag k="ssr:date" v="2016-05-10" />
		<tag k="ssr:stedsnr" v="545797" />
	</node>
	<node id="-20720" lat="58.4349083303" lon="8.40151111641">
		<tag k="name" v="Lunden" />
		<tag k="place" v="locality" />
		<tag k="ssr:date" v="2016-05-10" />
		<tag k="ssr:stedsnr" v="60816" />
	</node>
	<node id="-24464" lat="58.4373333344" lon="8.51625833191">
		<tag k="name" v="Kastet" />
		<tag k="place" v="locality" />
		<tag k="ssr:date" v="2016-05-11" />
		<tag k="ssr:stedsnr" v="910088" />
	</node>
	<node id="-22415" lat="58.4306138849" lon="8.46449721619">
		<tag k="name" v="Grunnevannsstoet" />
		<tag k="place" v="locality" />
		<tag k="ssr:date" v="2016-05-10" />
		<tag k="ssr:stedsnr" v="545617" />
	</node>
	<node id="-23434" lat="58.4250749962" lon="8.45019999696">
		<tag k="name" v="Midtvannstemmen" />
		<tag k="place" v="locality" />
		<tag k="ssr:date" v="2016-05-11" />
		<tag k="ssr:stedsnr" v="728504" />
	</node>
	<node id="-22405" lat="58.4081305591" lon="8.43442778566">
		<tag k="name" v="Hunsmyrløa" />
		<tag k="place" v="locality" />
		<tag k="ssr:date" v="2016-05-10" />
		<tag k="ssr:stedsnr" v="545501" />
	</node>
	<node id="-19843" lat="58.4224805563" lon="8.50565834003">
		<tag k="name" v="Koveklemma" />
		<tag k="place" v="locality" />
		<tag k="ssr:date" v="2016-05-10" />
		<tag k="ssr:stedsnr" v="304000" />
	</node>
	<node id="-23360" lat="58.4245722265" lon="8.42134167">
		<tag k="name" v="Kolbonnen" />
		<tag k="place" v="locality" />
		<tag k="ssr:date" v="2016-05-11" />
		<tag k="ssr:stedsnr" v="728227" />
	</node>
	<node id="-20858" lat="58.3867972238" lon="8.65303332689">
		<tag k="name" v="Hauene" />
		<tag k="place" v="locality" />
		<tag k="ssr:date" v="2016-05-10" />
		<tag k="ssr:stedsnr" v="90692" />
	</node>
	<node id="-21877" lat="58.447658335" lon="8.40292221507">
		<tag k="name" v="Hestemyr" />
		<tag k="place" v="locality" />
		<tag k="ssr:date" v="2016-05-10" />
		<tag k="ssr:stedsnr" v="424761" />
	</node>
	<node id="-21872" lat="58.4316055545" lon="8.39612223008">
		<tag k="name" v="Grova" />
		<tag k="place" v="locality" />
		<tag k="ssr:date" v="2016-05-10" />
		<tag k="ssr:stedsnr" v="424614" />
	</node>
	<node id="-22375" lat="58.4640388856" lon="8.48034166289">
		<tag k="name" v="Stemmen" />
		<tag k="place" v="locality" />
		<tag k="ssr:date" v="2016-05-10" />
		<tag k="ssr:stedsnr" v="545256" />
	</node>
	<node id="-21858" lat="58.4181361127" lon="8.44902500109">
		<tag k="name" v="Øvre Knabevannstemmen" />
		<tag k="place" v="locality" />
		<tag k="ssr:date" v="2016-05-10" />
		<tag k="ssr:stedsnr" v="424511" />
	</node>
	<node id="-22369" lat="58.4483916705" lon="8.4783972296">
		<tag k="name" v="Kolbonnen" />
		<tag k="place" v="locality" />
		<tag k="ssr:date" v="2016-05-10" />
		<tag k="ssr:stedsnr" v="545172" />
	</node>
	<node id="-19807" lat="58.454016663" lon="8.44241389226">
		<tag k="name" v="Skuggedalsto" />
		<tag k="place" v="locality" />
		<tag k="ssr:date" v="2016-05-10" />
		<tag k="ssr:stedsnr" v="303697" />
	</node>
	<node id="-23390" lat="58.4621805515" lon="8.45664722693">
		<tag k="name" v="Kolbonnen" />
		<tag k="place" v="locality" />
		<tag k="ssr:date" v="2016-05-11" />
		<tag k="ssr:stedsnr" v="728262" />
	</node>
	<node id="-21840" lat="58.4717222228" lon="8.48400000551">
		<tag k="name" v="Snøløsrenna" />
		<tag k="place" v="locality" />
		<tag k="ssr:date" v="2016-05-10" />
		<tag k="ssr:stedsnr" v="424356" />
	</node>
	<node id="-21326" lat="58.392594447" lon="8.37289167327">
		<tag k="name" v="Holmevannsstemmen" />
		<tag k="place" v="locality" />
		<tag k="ssr:date" v="2016-05-10" />
		<tag k="ssr:stedsnr" v="181829" />
	</node>
	<node id="-22853" lat="58.4062499971" lon="8.60311111274">
		<tag k="name" v="Bjørka" />
		<tag k="place" v="locality" />
		<tag k="ssr:date" v="2016-05-10" />
		<tag k="ssr:stedsnr" v="636289" />
	</node>
	<node id="-21315" lat="58.4578388879" lon="8.48415277571">
		<tag k="name" v="Knaben" />
		<tag k="place" v="locality" />
		<tag k="ssr:date" v="2016-05-10" />
		<tag k="ssr:stedsnr" v="181689" />
	</node>
	<node id="-21824" lat="58.4472249971" lon="8.48476943976">
		<tag k="name" v="Bjelkekastet" />
		<tag k="place" v="locality" />
		<tag k="ssr:date" v="2016-05-10" />
		<tag k="ssr:stedsnr" v="424186" />
	</node>
	<node id="-20725" lat="58.3893194449" lon="8.33831388914">
		<tag k="name" v="Lasteskodd" />
		<tag k="place" v="locality" />
		<tag k="ssr:date" v="2016-05-10" />
		<tag k="ssr:stedsnr" v="60841" />
	</node>
	<node id="-21814" lat="58.4740833325" lon="8.4246416634">
		<tag k="name" v="Sillevollstemmen" />
		<tag k="place" v="locality" />
		<tag k="ssr:date" v="2016-05-10" />
		<tag k="ssr:stedsnr" v="424025" />
	</node>
	<node id="-23860" lat="58.446977781" lon="8.40488611888">
		<tag k="name" v="Oppmed stampa" />
		<tag k="place" v="locality" />
		<tag k="ssr:date" v="2016-05-11" />
		<tag k="ssr:stedsnr" v="788999" />
	</node>
	<node id="-23859" lat="58.4154527783" lon="8.53526667487">
		<tag k="name" v="Løetomta" />
		<tag k="place" v="locality" />
		<tag k="ssr:date" v="2016-05-11" />
		<tag k="ssr:stedsnr" v="788995" />
	</node>
	<node id="-19762" lat="58.4114527812" lon="8.36856944385">
		<tag k="name" v="Vollene" />
		<tag k="place" v="locality" />
		<tag k="ssr:date" v="2016-05-10" />
		<tag k="ssr:stedsnr" v="303406" />
	</node>
	<node id="-19754" lat="58.413280556" lon="8.43910555841">
		<tag k="name" v="Knabestemmen" />
		<tag k="place" v="locality" />
		<tag k="ssr:date" v="2016-05-10" />
		<tag k="ssr:stedsnr" v="303352" />
	</node>
	<node id="-24873" lat="58.446774997" lon="8.40377499262">
		<tag k="name" v="Hetsemyrstemmen" />
		<tag k="place" v="locality" />
		<tag k="ssr:date" v="2016-05-11" />
		<tag k="ssr:stedsnr" v="970762" />
	</node>
	<node id="-19752" lat="58.4127888923" lon="8.40965554927">
		<tag k="name" v="Kolbonnen" />
		<tag k="place" v="locality" />
		<tag k="ssr:date" v="2016-05-10" />
		<tag k="ssr:stedsnr" v="303348" />
	</node>
	<node id="-24871" lat="58.4103138854" lon="8.49501388112">
		<tag k="name" v="Myråsskoddet" />
		<tag k="place" v="locality" />
		<tag k="ssr:date" v="2016-05-11" />
		<tag k="ssr:stedsnr" v="970752" />
	</node>
	<node id="-23844" lat="58.3942638886" lon="8.33228332596">
		<tag k="name" v="Tolleholm sav" />
		<tag k="place" v="locality" />
		<tag k="ssr:date" v="2016-05-11" />
		<tag k="ssr:stedsnr" v="788810" />
	</node>
	<node id="-23838" lat="58.4337638868" lon="8.42055555732">
		<tag k="name" v="Langedalsstemmen" />
		<tag k="place" v="locality" />
		<tag k="ssr:date" v="2016-05-11" />
		<tag k="ssr:stedsnr" v="788772" />
	</node>
	<node id="-24860" lat="58.4707416668" lon="8.47890556205">
		<tag k="name" v="Hørtestøa" />
		<tag k="place" v="locality" />
		<tag k="ssr:date" v="2016-05-11" />
		<tag k="ssr:stedsnr" v="970562" />
	</node>
	<node id="-22810" lat="58.2701138931" lon="8.4780166595">
		<tag k="ssr:gml_id" v="GEOMETRY_e822e430-314f-4bea-8714-b93c3c5851a5" />
		<tag k="ssr:gml_nr" v="2" />
	</node>
	<node id="-21273" lat="58.4406888849" lon="8.51052499727">
		<tag k="name" v="Høydalsskoddet" />
		<tag k="place" v="locality" />
		<tag k="ssr:date" v="2016-05-10" />
		<tag k="ssr:stedsnr" v="181077" />
	</node>
	<node id="-22808" lat="58.2699500028" lon="8.47810278578">
		<tag k="ssr:gml_id" v="GEOMETRY_dc97ad03-44f2-475b-aba8-598d24360788" />
		<tag k="ssr:gml_nr" v="0" />
	</node>
	<node id="-20246" lat="58.3937972181" lon="8.70670554722">
		<tag k="name" v="Gokast" />
		<tag k="place" v="locality" />
		<tag k="ssr:date" v="2016-05-10" />
		<tag k="ssr:stedsnr" v="394751" />
	</node>
	<node id="-24339" lat="58.2923055579" lon="8.55188888858">
		<tag k="name" v="Kryssen" />
		<tag k="place" v="locality" />
		<tag k="ssr:date" v="2016-05-11" />
		<tag k="ssr:stedsnr" v="879359" />
	</node>
	<node id="-19729" lat="58.4331305568" lon="8.49568055419">
		<tag k="name" v="Synninga" />
		<tag k="place" v="locality" />
		<tag k="ssr:date" v="2016-05-10" />
		<tag k="ssr:stedsnr" v="303103" />
	</node>
	<node id="-22792" lat="58.4331361092" lon="8.39309721852">
		<tag k="name" v="Kvennnekrogen" />
		<tag k="place" v="locality" />
		<tag k="ssr:date" v="2016-05-10" />
		<tag k="ssr:stedsnr" v="606918" />
	</node>
	<node id="-24278" lat="58.3661527809" lon="8.59471111923">
		<tag k="ssr:gml_id" v="GEOMETRY_ca236094-3ac3-43df-8d84-c1d3b6cd79a4" />
		<tag k="ssr:gml_nr" v="1" />
	</node>
	<node id="-22782" lat="58.4571166631" lon="8.48145555255">
		<tag k="name" v="Gravningen" />
		<tag k="place" v="locality" />
		<tag k="ssr:date" v="2016-05-10" />
		<tag k="ssr:stedsnr" v="606663" />
	</node>
	<node id="-24277" lat="58.3661555561" lon="8.59471389066">
		<tag k="ssr:gml_id" v="GEOMETRY_6d00aa6e-e57a-4727-b4c6-e1debddc3e4c" />
		<tag k="ssr:gml_nr" v="0" />
	</node>
	<node id="-23802" lat="58.4105527766" lon="8.45020278143">
		<tag k="name" v="Nedre Knabavnnstemmen" />
		<tag k="place" v="locality" />
		<tag k="ssr:date" v="2016-05-11" />
		<tag k="ssr:stedsnr" v="788524" />
	</node>
	<node id="-20728" lat="58.4406388911" lon="8.40963610411">
		<tag k="name" v="Vestertjennstemmen" />
		<tag k="place" v="locality" />
		<tag k="ssr:date" v="2016-05-10" />
		<tag k="ssr:stedsnr" v="60871" />
	</node>
	<node id="-22773" lat="58.4030166628" lon="8.42953055395">
		<tag k="name" v="Kvenna" />
		<tag k="place" v="locality" />
		<tag k="ssr:date" v="2016-05-10" />
		<tag k="ssr:stedsnr" v="606549" />
	</node>
	<node id="-22771" lat="58.4009861114" lon="8.42725555722">
		<tag k="name" v="Sandgrova" />
		<tag k="place" v="locality" />
		<tag k="ssr:date" v="2016-05-10" />
		<tag k="ssr:stedsnr" v="606541" />
	</node>
	<node id="-22770" lat="58.4007972215" lon="8.41351944646">
		<tag k="name" v="Slåttene" />
		<tag k="place" v="locality" />
		<tag k="ssr:date" v="2016-05-10" />
		<tag k="ssr:stedsnr" v="606536" />
	</node>
	<node id="-22768" lat="58.4158194402" lon="8.46799166323">
		<tag k="name" v="Borkehytta" />
		<tag k="place" v="locality" />
		<tag k="ssr:date" v="2016-05-10" />
		<tag k="ssr:stedsnr" v="606520" />
	</node>
	<node id="-24815" lat="58.4221194418" lon="8.38085833167">
		<tag k="name" v="Teinelavsbruna" />
		<tag k="place" v="locality" />
		<tag k="ssr:date" v="2016-05-11" />
		<tag k="ssr:stedsnr" v="970185" />
	</node>
	<node id="-24808" lat="58.4480666692" lon="8.38456666222">
		<tag k="name" v="Heivannsstoet" />
		<tag k="place" v="locality" />
		<tag k="ssr:date" v="2016-05-11" />
		<tag k="ssr:stedsnr" v="970130" />
	</node>
	<node id="-22140" lat="58.451750002" lon="8.39409721992">
		<tag k="name" v="Kjerrbærstjennstemmen" />
		<tag k="place" v="locality" />
		<tag k="ssr:date" v="2016-05-10" />
		<tag k="ssr:stedsnr" v="485482" />
	</node>
	<node id="-24796" lat="58.4005222203" lon="8.427877781">
		<tag k="name" v="Grisehaven" />
		<tag k="place" v="locality" />
		<tag k="ssr:date" v="2016-05-11" />
		<tag k="ssr:stedsnr" v="970080" />
	</node>
	<node id="-20697" lat="58.4526805587" lon="8.41460833997">
		<tag k="name" v="Teinelavsbakken" />
		<tag k="place" v="locality" />
		<tag k="ssr:date" v="2016-05-10" />
		<tag k="ssr:stedsnr" v="60531" />
	</node>
	<node id="-24279" lat="58.3662055577" lon="8.59508611337">
		<tag k="ssr:gml_id" v="GEOMETRY_0b4be25b-a44d-4973-ad68-24e0558c1c64" />
		<tag k="ssr:gml_nr" v="2" />
	</node>
	<node id="-20694" lat="58.400713886" lon="8.42903889325">
		<tag k="name" v="Buvegen" />
		<tag k="place" v="locality" />
		<tag k="ssr:date" v="2016-05-10" />
		<tag k="ssr:stedsnr" v="60522" />
	</node>
	<node id="-20693" lat="58.4074472185" lon="8.43253889579">
		<tag k="name" v="Hunsmyrstemmen" />
		<tag k="place" v="locality" />
		<tag k="ssr:date" v="2016-05-10" />
		<tag k="ssr:stedsnr" v="60516" />
	</node>
	<node id="-23750" lat="58.4388472186" lon="8.50351110498">
		<tag k="name" v="Lillesti" />
		<tag k="place" v="locality" />
		<tag k="ssr:date" v="2016-05-11" />
		<tag k="ssr:stedsnr" v="788064" />
	</node>
	<node id="-23749" lat="58.436874997" lon="8.50218611456">
		<tag k="name" v="Kolbonnen" />
		<tag k="place" v="locality" />
		<tag k="ssr:date" v="2016-05-11" />
		<tag k="ssr:stedsnr" v="788049" />
	</node>
	<node id="-23748" lat="58.4454833318" lon="8.4482027823">
		<tag k="name" v="Kjerringdalen" />
		<tag k="place" v="locality" />
		<tag k="ssr:date" v="2016-05-11" />
		<tag k="ssr:stedsnr" v="788043" />
	</node>
	<node id="-22721" lat="58.4511722195" lon="8.49256111187">
		<tag k="name" v="Badstautomta" />
		<tag k="place" v="locality" />
		<tag k="ssr:date" v="2016-05-10" />
		<tag k="ssr:stedsnr" v="606161" />
	</node>
	<node id="-22710" lat="58.4382361072" lon="8.51040556393">
		<tag k="name" v="Haveskoddet" />
		<tag k="place" v="locality" />
		<tag k="ssr:date" v="2016-05-10" />
		<tag k="ssr:stedsnr" v="606074" />
	</node>
	<node id="-23731" lat="58.4672111146" lon="8.40423610501">
		<tag k="name" v="Stoet" />
		<tag k="place" v="locality" />
		<tag k="ssr:date" v="2016-05-11" />
		<tag k="ssr:stedsnr" v="787024" />
	</node>
	<node id="-24241" lat="58.443877778" lon="8.41451389023">
		<tag k="name" v="Godfarsrunnen" />
		<tag k="place" v="locality" />
		<tag k="ssr:date" v="2016-05-11" />
		<tag k="ssr:stedsnr" v="849935" />
	</node>
	<node id="-24234" lat="58.3920083335" lon="8.33537221417">
		<tag k="name" v="Stoet" />
		<tag k="place" v="locality" />
		<tag k="ssr:date" v="2016-05-11" />
		<tag k="ssr:stedsnr" v="849840" />
	</node>
	<node id="-22184" lat="58.4498361148" lon="8.41304444201">
		<tag k="name" v="Jonstein" />
		<tag k="place" v="locality" />
		<tag k="ssr:date" v="2016-05-10" />
		<tag k="ssr:stedsnr" v="485730" />
	</node>
	<node id="-22169" lat="58.4289916664" lon="8.52178333101">
		<tag k="name" v="Bustoa" />
		<tag k="place" v="locality" />
		<tag k="ssr:date" v="2016-05-10" />
		<tag k="ssr:stedsnr" v="485570" />
	</node>
	<node id="-22809" lat="58.2699527806" lon="8.47810555763">
		<tag k="ssr:gml_id" v="GEOMETRY_4810feff-c6a3-4005-9691-82fd6a5c4705" />
		<tag k="ssr:gml_nr" v="1" />
	</node>
	<node id="-23186" lat="58.2671388876" lon="8.51491667256">
		<tag k="name" v="Rykne" />
		<tag k="place" v="locality" />
		<tag k="ssr:date" v="2016-05-11" />
		<tag k="ssr:stedsnr" v="697108" />
	</node>
	<node id="-21628" lat="58.4112388888" lon="8.48817221966">
		<tag k="name" v="Kolbonnen" />
		<tag k="place" v="locality" />
		<tag k="ssr:date" v="2016-05-10" />
		<tag k="ssr:stedsnr" v="242599" />
	</node>
	<node id="-24178" lat="58.4230555524" lon="8.50554721798">
		<tag k="name" v="Eigedalsskoddet" />
		<tag k="place" v="locality" />
		<tag k="ssr:date" v="2016-05-11" />
		<tag k="ssr:stedsnr" v="849603" />
	</node>
	<node id="-24176" lat="58.4023444474" lon="8.43005555276">
		<tag k="name" v="Sava" />
		<tag k="place" v="locality" />
		<tag k="ssr:date" v="2016-05-11" />
		<tag k="ssr:stedsnr" v="849597" />
	</node>
	<node id="-20077" lat="58.4215027817" lon="8.42014166195">
		<tag k="name" v="Kvenna" />
		<tag k="place" v="locality" />
		<tag k="ssr:date" v="2016-05-10" />
		<tag k="ssr:stedsnr" v="363627" />
	</node>
	<node id="-21092" lat="58.3930194416" lon="8.36846944621">
		<tag k="name" v="Persslåttene" />
		<tag k="place" v="locality" />
		<tag k="ssr:date" v="2016-05-10" />
		<tag k="ssr:stedsnr" v="121819" />
	</node>
	<node id="-24160" lat="58.4592111115" lon="8.46833055323">
		<tag k="name" v="Kolbonnen" />
		<tag k="place" v="locality" />
		<tag k="ssr:date" v="2016-05-11" />
		<tag k="ssr:stedsnr" v="849316" />
	</node>
	<node id="-23134" lat="58.3942861152" lon="8.37727500535">
		<tag k="name" v="Stampa" />
		<tag k="place" v="locality" />
		<tag k="ssr:date" v="2016-05-10" />
		<tag k="ssr:stedsnr" v="667795" />
	</node>
	<node id="-22103" lat="58.4136305579" lon="8.43894444572">
		<tag k="name" v="Knabestoa" />
		<tag k="place" v="locality" />
		<tag k="ssr:date" v="2016-05-10" />
		<tag k="ssr:stedsnr" v="485285" />
	</node>
	<node id="-20053" lat="58.4463555576" lon="8.4281444472">
		<tag k="name" v="Borkedalsstoet" />
		<tag k="place" v="locality" />
		<tag k="ssr:date" v="2016-05-10" />
		<tag k="ssr:stedsnr" v="363918" />
	</node>
	<node id="-23112" lat="58.458233335" lon="8.48397500724">
		<tag k="name" v="Einarsbakken" />
		<tag k="place" v="locality" />
		<tag k="ssr:date" v="2016-05-10" />
		<tag k="ssr:stedsnr" v="667625" />
	</node>
	<node id="-21575" lat="58.4373944456" lon="8.44736944">
		<tag k="name" v="Kolbonnen" />
		<tag k="place" v="locality" />
		<tag k="ssr:date" v="2016-05-10" />
		<tag k="ssr:stedsnr" v="242227" />
	</node>
	<node id="-22586" lat="58.3570527745" lon="8.45460000541">
		<tag k="name" v="Lundesag" />
		<tag k="place" v="locality" />
		<tag k="ssr:date" v="2016-05-10" />
		<tag k="ssr:stedsnr" v="594262" />
	</node>
	<node id="-22072" lat="58.4452833356" lon="8.43126389352">
		<tag k="name" v="Kvennvannsstemmen" />
		<tag k="place" v="locality" />
		<tag k="ssr:date" v="2016-05-10" />
		<tag k="ssr:stedsnr" v="485949" />
	</node>
	<node id="-21854" lat="58.4288638865" lon="8.42306944929">
		<tag k="name" v="Kvenndalskoddet" />
		<tag k="place" v="locality" />
		<tag k="ssr:date" v="2016-05-10" />
		<tag k="ssr:stedsnr" v="424457" />
	</node>
	<node id="-22066" lat="58.4388472186" lon="8.50351110498">
		<tag k="name" v="Stien" />
		<tag k="place" v="locality" />
		<tag k="ssr:date" v="2016-05-10" />
		<tag k="ssr:stedsnr" v="485062" />
	</node>
	<node id="-22056" lat="58.4529972208" lon="8.46916111681">
		<tag k="name" v="Søllbusteinen" />
		<tag k="place" v="locality" />
		<tag k="ssr:date" v="2016-05-10" />
		<tag k="ssr:stedsnr" v="485123" />
	</node>
	<node id="-23589" lat="58.2609722198" lon="8.44952777376">
		<tag k="name" v="Båsen" />
		<tag k="place" v="locality" />
		<tag k="ssr:date" v="2016-05-11" />
		<tag k="ssr:stedsnr" v="758451" />
	</node>
	<node id="-21312" lat="58.4250916693" lon="8.46454722804">
		<tag k="name" v="Storemyrløa" />
		<tag k="place" v="locality" />
		<tag k="ssr:date" v="2016-05-10" />
		<tag k="ssr:stedsnr" v="181643" />
	</node>
	<node id="-23051" lat="58.4251194401" lon="8.42129721815">
		<tag k="name" v="Kilandssava" />
		<tag k="place" v="locality" />
		<tag k="ssr:date" v="2016-05-10" />
		<tag k="ssr:stedsnr" v="667269" />
	</node>
	<node id="-24584" lat="58.4454805545" lon="8.40948611463">
		<tag k="name" v="Velteplassen" />
		<tag k="place" v="locality" />
		<tag k="ssr:date" v="2016-05-11" />
		<tag k="ssr:stedsnr" v="910975" />
	</node>
	<way id="-5864">
		<tag k="amenity" v="place_of_worship" />
		<tag k="denomination" v="lutheran" />
		<tag k="name" v="Landvik" />
		<tag k="religion" v="christian" />
		<tag k="ssr:date" v="2016-05-11" />
		<tag k="ssr:stedsnr" v="910530" />
		<nd ref="-24525" />
		<nd ref="-24526" />
		<nd ref="-24527" />
	</way>
	<way id="-5844">
		<tag k="alt_name" v="Fjære Kirke" />
		<tag k="amenity" v="place_of_worship" />
		<tag k="denomination" v="lutheran" />
		<tag k="name" v="Fjære" />
		<tag k="religion" v="christian" />
		<tag k="ssr:date" v="2016-05-11" />
		<tag k="ssr:stedsnr" v="850533" />
		<nd ref="-24277" />
		<nd ref="-24278" />
		<nd ref="-24279" />
	</way>
	<way id="-5691">
		<tag k="amenity" v="place_of_worship" />
		<tag k="denomination" v="lutheran" />
		<tag k="name" v="Eide" />
		<tag k="religion" v="christian" />
		<tag k="ssr:date" v="2016-05-10" />
		<tag k="ssr:stedsnr" v="606964" />
		<nd ref="-22808" />
		<nd ref="-22809" />
		<nd ref="-22810" />
	</way>
</osm>
