<?xml version="1.0" encoding="UTF-8"?>
<osm generator="osmapis" version="0.6">
	<node id="-24569" lat="58.4060194446" lon="8.40434445131">
		<tag k="bridge" v="yes" />
		<tag k="layer" v="1" />
		<tag k="name" v="Øyebruna, lille" />
		<tag k="ssr:date" v="2016-05-11" />
		<tag k="ssr:stedsnr" v="910937" />
	</node>
	<node id="-22520" lat="58.3921194416" lon="8.69836666953">
		<tag k="name" v="Østre Vessøya" />
		<tag k="ssr:date" v="2016-05-10" />
		<tag k="ssr:stedsnr" v="572809" />
	</node>
	<node id="-24564" lat="58.3991083326" lon="8.34848055705">
		<tag k="bridge" v="yes" />
		<tag k="layer" v="1" />
		<tag k="name" v="Kvennekrogbruna" />
		<tag k="ssr:date" v="2016-05-11" />
		<tag k="ssr:stedsnr" v="910814" />
	</node>
	<node id="-24560" lat="58.4508972259" lon="8.41746388074">
		<tag k="name" v="Eighaugkleiva" />
		<tag k="place" v="locality" />
		<tag k="ssr:date" v="2016-05-11" />
		<tag k="ssr:stedsnr" v="910779" />
	</node>
	<node id="-22508" lat="58.3284638289" lon="8.57293374549">
		<tag k="name" v="Åsveien" />
		<tag k="ssr:date" v="2018-01-24" />
		<tag k="ssr:stedsnr" v="562569" />
	</node>
	<node id="-24502" lat="58.4171638901" lon="8.34898611477">
		<tag k="bridge" v="yes" />
		<tag k="layer" v="1" />
		<tag k="name" v="Steinbruna" />
		<tag k="ssr:date" v="2016-05-11" />
		<tag k="ssr:stedsnr" v="910413" />
	</node>
	<node id="-24501" lat="58.4156722224" lon="8.36299721603">
		<tag k="highway" v="path" />
		<tag k="name" v="Stien" />
		<tag k="ssr:date" v="2016-05-11" />
		<tag k="ssr:stedsnr" v="910410" />
	</node>
	<node id="-24497" lat="58.4125694489" lon="8.36952500495">
		<tag k="bridge" v="yes" />
		<tag k="layer" v="1" />
		<tag k="name" v="Steebruna" />
		<tag k="ssr:date" v="2016-05-11" />
		<tag k="ssr:stedsnr" v="910407" />
	</node>
	<node id="-22435" lat="58.4436027803" lon="8.41328611585">
		<tag k="name" v="Lillehaug" />
		<tag k="place" v="locality" />
		<tag k="ssr:date" v="2016-05-10" />
		<tag k="ssr:stedsnr" v="545922" />
	</node>
	<node id="-20378" lat="58.3181888871" lon="8.53792778069">
		<tag k="ssr:gml_id" v="GEOMETRY_24ad5eee-1877-4f47-bdfe-4371e12b082c" />
		<tag k="ssr:gml_nr" v="1" />
	</node>
	<node id="-20377" lat="58.3182500007" lon="8.53980000118">
		<tag k="ssr:gml_id" v="GEOMETRY_6b7422f6-1465-4a9e-a209-41c7718ee6f4" />
		<tag k="ssr:gml_nr" v="0" />
	</node>
	<node id="-20376" lat="58.3184361078" lon="8.5353305475">
		<tag k="bridge" v="yes" />
		<tag k="layer" v="1" />
		<tag k="name" v="Tjore" />
		<tag k="ssr:date" v="2016-05-11" />
		<tag k="ssr:stedsnr" v="896075" />
	</node>
	<node id="-20375" lat="58.3889666704" lon="8.64631943919">
		<tag k="bridge" v="yes" />
		<tag k="layer" v="1" />
		<tag k="name" v="Lia" />
		<tag k="ssr:date" v="2016-05-11" />
		<tag k="ssr:stedsnr" v="895083" />
	</node>
	<node id="-24470" lat="58.46501111" lon="8.48555555981">
		<tag k="name" v="Lislevannskleiva" />
		<tag k="ssr:date" v="2016-05-11" />
		<tag k="ssr:stedsnr" v="910263" />
	</node>
	<node id="-20373" lat="58.3894138931" lon="8.47656111239">
		<tag k="bridge" v="yes" />
		<tag k="layer" v="1" />
		<tag k="name" v="Grøsle" />
		<tag k="ssr:date" v="2016-05-11" />
		<tag k="ssr:stedsnr" v="895077" />
	</node>
	<node id="-20371" lat="58.3763472244" lon="8.66235555781">
		<tag k="name" v="Skibberheia" />
		<tag k="ssr:date" v="2016-05-10" />
		<tag k="ssr:stedsnr" v="479255" />
	</node>
	<node id="-20370" lat="58.3377833314" lon="8.53924166982">
		<tag k="name" v="Sauehaven" />
		<tag k="ssr:date" v="2016-05-10" />
		<tag k="ssr:stedsnr" v="478867" />
	</node>
	<node id="-20369" lat="58.3455083366" lon="8.57537500162">
		<tag k="name" v="Klingremoheia" />
		<tag k="ssr:date" v="2016-05-10" />
		<tag k="ssr:stedsnr" v="478768" />
	</node>
	<node id="-20368" lat="58.2701083298" lon="8.47907500085">
		<tag k="name" v="KNA-veien" />
		<tag k="ssr:date" v="2016-05-10" />
		<tag k="ssr:stedsnr" v="478759" />
	</node>
	<node id="-20363" lat="58.3407777801" lon="8.58496111601">
		<tag k="name" v="Ebbelsgate" />
		<tag k="ssr:date" v="2016-05-10" />
		<tag k="ssr:stedsnr" v="478483" />
	</node>
	<node id="-20362" lat="58.3492361152" lon="8.59832500088">
		<tag k="name" v="Biestøa" />
		<tag k="ssr:date" v="2016-05-10" />
		<tag k="ssr:stedsnr" v="478260" />
	</node>
	<node id="-20361" lat="58.3389861085" lon="8.55642499967">
		<tag k="name" v="Bergeveien" />
		<tag k="ssr:date" v="2016-05-10" />
		<tag k="ssr:stedsnr" v="478258" />
	</node>
	<node id="-20360" lat="58.3800583356" lon="8.68348889523">
		<tag k="name" v="Hammeneveien" />
		<tag k="ssr:date" v="2016-05-10" />
		<tag k="ssr:stedsnr" v="478180" />
	</node>
	<node id="-20359" lat="58.3732388913" lon="8.65845277261">
		<tag k="name" v="Hauslandveien" />
		<tag k="ssr:date" v="2016-05-10" />
		<tag k="ssr:stedsnr" v="478177" />
	</node>
	<node id="-20358" lat="58.3221888907" lon="8.56981389643">
		<tag k="name" v="Holvigatunet" />
		<tag k="ssr:date" v="2016-05-10" />
		<tag k="ssr:stedsnr" v="478065" />
	</node>
	<node id="-20357" lat="58.3441833291" lon="8.5935305484">
		<tag k="name" v="Solberggaten" />
		<tag k="ssr:date" v="2016-05-10" />
		<tag k="ssr:stedsnr" v="479358" />
	</node>
	<node id="-24436" lat="58.3672749993" lon="8.61646111819">
		<tag k="name" v="Vestre Vik" />
		<tag k="ssr:date" v="2016-05-11" />
		<tag k="ssr:stedsnr" v="906128" />
	</node>
	<node id="-24435" lat="58.3670020931" lon="8.63066386323">
		<tag k="name" v="Vikjordet" />
		<tag k="ssr:date" v="2018-01-24" />
		<tag k="ssr:stedsnr" v="906110" />
	</node>
	<node id="-24434" lat="58.2773916671" lon="8.50555000494">
		<tag k="name" v="Høifjell" />
		<tag k="ssr:date" v="2016-05-11" />
		<tag k="ssr:stedsnr" v="904894" />
	</node>
	<node id="-24433" lat="58.3417277758" lon="8.58952777106">
		<tag k="name" v="Markveien" />
		<tag k="ssr:date" v="2016-05-11" />
		<tag k="ssr:stedsnr" v="904618" />
	</node>
	<node id="-24432" lat="58.3411777812" lon="8.58924444188">
		<tag k="name" v="Staales bakke" />
		<tag k="ssr:date" v="2016-05-11" />
		<tag k="ssr:stedsnr" v="904588" />
	</node>
	<node id="-24431" lat="58.3278666687" lon="8.57561944158">
		<tag k="name" v="Speiderveien" />
		<tag k="ssr:date" v="2016-05-11" />
		<tag k="ssr:stedsnr" v="904587" />
	</node>
	<node id="-24430" lat="58.3845277764" lon="8.67553056335">
		<tag k="name" v="Trålum heia" />
		<tag k="ssr:date" v="2016-05-11" />
		<tag k="ssr:stedsnr" v="904549" />
	</node>
	<node id="-24429" lat="58.3229166664" lon="8.56695555028">
		<tag k="name" v="Trollsvingen" />
		<tag k="ssr:date" v="2016-05-11" />
		<tag k="ssr:stedsnr" v="904545" />
	</node>
	<node id="-24428" lat="58.3221581062" lon="8.55901276189">
		<tag k="name" v="Østerhusmonen" />
		<tag k="ssr:date" v="2018-01-24" />
		<tag k="ssr:stedsnr" v="904529" />
	</node>
	<node id="-24427" lat="58.3538493057" lon="8.59691206128">
		<tag k="name" v="Øvre Bie" />
		<tag k="ssr:date" v="2018-02-20" />
		<tag k="ssr:stedsnr" v="904525" />
	</node>
	<node id="-24426" lat="58.3192638909" lon="8.56251111822">
		<tag k="name" v="Vegårveien" />
		<tag k="ssr:date" v="2016-05-11" />
		<tag k="ssr:stedsnr" v="904466" />
	</node>
	<node id="-24425" lat="58.3750805574" lon="8.67912222757">
		<tag k="name" v="Ole Pedersens vei" />
		<tag k="ssr:date" v="2016-05-11" />
		<tag k="ssr:stedsnr" v="904390" />
	</node>
	<node id="-24418" lat="58.34443333" lon="8.59344166732">
		<tag k="name" v="Furuheia" />
		<tag k="ssr:date" v="2016-05-11" />
		<tag k="ssr:stedsnr" v="903912" />
	</node>
	<node id="-24414" lat="58.344600004" lon="8.54912777048">
		<tag k="name" v="Gleden" />
		<tag k="ssr:date" v="2016-05-11" />
		<tag k="ssr:stedsnr" v="903404" />
	</node>
	<node id="-22365" lat="58.4447333318" lon="8.49971111115">
		<tag k="highway" v="path" />
		<tag k="name" v="Prestevegen" />
		<tag k="ssr:date" v="2016-05-10" />
		<tag k="ssr:stedsnr" v="545092" />
	</node>
	<node id="-24409" lat="58.3811000007" lon="8.70259721927">
		<tag k="name" v="Barlinda" />
		<tag k="ssr:date" v="2016-05-11" />
		<tag k="ssr:stedsnr" v="903174" />
	</node>
	<node id="-22358" lat="58.3955638925" lon="8.38185277939">
		<tag k="bridge" v="yes" />
		<tag k="layer" v="1" />
		<tag k="name" v="Sollibruna" />
		<tag k="ssr:date" v="2016-05-10" />
		<tag k="ssr:stedsnr" v="545810" />
	</node>
	<node id="-20309" lat="58.3417555522" lon="8.59538610484">
		<tag k="name" v="Henrik Ibsens gate" />
		<tag k="ssr:date" v="2016-05-10" />
		<tag k="ssr:stedsnr" v="477024" />
	</node>
	<node id="-22349" lat="58.3205999967" lon="8.54596944378">
		<tag k="name" v="Mollandsveien" />
		<tag k="ssr:date" v="2016-05-10" />
		<tag k="ssr:stedsnr" v="540559" />
	</node>
	<node id="-22348" lat="58.3405916622" lon="8.58288055051">
		<tag k="name" v="Tønnevoldsgate" />
		<tag k="ssr:date" v="2016-05-10" />
		<tag k="ssr:stedsnr" v="540482" />
	</node>
	<node id="-22347" lat="58.340722224" lon="8.59271665935">
		<tag k="name" v="Nedre Tverrstredet" />
		<tag k="ssr:date" v="2016-05-10" />
		<tag k="ssr:stedsnr" v="540459" />
	</node>
	<node id="-22345" lat="58.2703861134" lon="8.51983055788">
		<tag k="name" v="Skjørågerveien" />
		<tag k="ssr:date" v="2016-05-10" />
		<tag k="ssr:stedsnr" v="540254" />
	</node>
	<node id="-22344" lat="58.3405888872" lon="8.57128333064">
		<tag k="name" v="Gartnerimyra" />
		<tag k="ssr:date" v="2016-05-10" />
		<tag k="ssr:stedsnr" v="539708" />
	</node>
	<node id="-22343" lat="58.3690749967" lon="8.62451110319">
		<tag k="name" v="Temseveien" />
		<tag k="ssr:date" v="2016-05-10" />
		<tag k="ssr:stedsnr" v="539671" />
	</node>
	<node id="-22342" lat="58.3429999963" lon="8.59152778327">
		<tag k="name" v="Juskestredet" />
		<tag k="ssr:date" v="2016-05-10" />
		<tag k="ssr:stedsnr" v="539649" />
	</node>
	<node id="-22341" lat="58.377202779" lon="8.6768138805">
		<tag k="name" v="Judehavskleiva" />
		<tag k="ssr:date" v="2016-05-10" />
		<tag k="ssr:stedsnr" v="539645" />
	</node>
	<node id="-22340" lat="58.3158055548" lon="8.56787777249">
		<tag k="name" v="Langestrand" />
		<tag k="ssr:date" v="2016-05-10" />
		<tag k="ssr:stedsnr" v="539607" />
	</node>
	<node id="-22339" lat="58.2659194437" lon="8.50968054827">
		<tag k="name" v="Kistevigveien" />
		<tag k="ssr:date" v="2016-05-10" />
		<tag k="ssr:stedsnr" v="539525" />
	</node>
	<node id="-22335" lat="58.3348555523" lon="8.58089721552">
		<tag k="name" v="Ekornveien" />
		<tag k="ssr:date" v="2016-05-10" />
		<tag k="ssr:stedsnr" v="539375" />
	</node>
	<node id="-22334" lat="58.347444445" lon="8.55319167307">
		<tag k="name" v="Frivold terrasse" />
		<tag k="ssr:date" v="2016-05-10" />
		<tag k="ssr:stedsnr" v="539263" />
	</node>
	<node id="-22333" lat="58.2711833315" lon="8.50776666485">
		<tag k="name" v="Espevigveien" />
		<tag k="ssr:date" v="2016-05-10" />
		<tag k="ssr:stedsnr" v="539259" />
	</node>
	<node id="-22332" lat="58.3419472205" lon="8.59666667519">
		<tag k="name" v="Bioddgaten" />
		<tag k="ssr:date" v="2016-05-10" />
		<tag k="ssr:stedsnr" v="539251" />
	</node>
	<node id="-20266" lat="58.3275777809" lon="8.43486388352">
		<tag k="highway" v="path" />
		<tag k="name" v="Udjus kleiver" />
		<tag k="ssr:date" v="2016-05-10" />
		<tag k="ssr:stedsnr" v="412754" />
	</node>
	<node id="-20262" lat="58.3412194437" lon="8.56599445036">
		<tag k="bridge" v="yes" />
		<tag k="layer" v="1" />
		<tag k="name" v="Øygardsdalen" />
		<tag k="ssr:date" v="2016-05-10" />
		<tag k="ssr:stedsnr" v="410089" />
	</node>
	<node id="-20261" lat="58.3635416684" lon="8.61499722534">
		<tag k="bridge" v="yes" />
		<tag k="layer" v="1" />
		<tag k="name" v="Vikkilen" />
		<tag k="ssr:date" v="2016-05-10" />
		<tag k="ssr:stedsnr" v="410087" />
	</node>
	<node id="-20260" lat="58.3872777788" lon="8.41149721428">
		<tag k="bridge" v="yes" />
		<tag k="layer" v="1" />
		<tag k="name" v="Valborgland" />
		<tag k="ssr:date" v="2016-05-10" />
		<tag k="ssr:stedsnr" v="410086" />
	</node>
	<node id="-20258" lat="58.3980833371" lon="8.51477499704">
		<tag k="bridge" v="yes" />
		<tag k="layer" v="1" />
		<tag k="name" v="Helleland" />
		<tag k="ssr:date" v="2016-05-10" />
		<tag k="ssr:stedsnr" v="410071" />
	</node>
	<node id="-20257" lat="58.2780305526" lon="8.49874721707">
		<tag k="bridge" v="yes" />
		<tag k="layer" v="1" />
		<tag k="name" v="Enge" />
		<tag k="ssr:date" v="2016-05-10" />
		<tag k="ssr:stedsnr" v="410063" />
	</node>
	<node id="-20256" lat="58.3551611106" lon="8.59891944194">
		<tag k="ssr:gml_id" v="GEOMETRY_728eefc4-cc23-4d28-9f41-75c7074cce25" />
		<tag k="ssr:gml_nr" v="1" />
	</node>
	<node id="-20255" lat="58.3552888918" lon="8.59819445266">
		<tag k="ssr:gml_id" v="GEOMETRY_02c73ec4-d05d-47df-8de7-c2bf65c5a9cd" />
		<tag k="ssr:gml_nr" v="0" />
	</node>
	<node id="-20254" lat="58.3742138894" lon="8.63043055881">
		<tag k="ssr:gml_id" v="GEOMETRY_6d8642f8-54e1-4b6f-931f-9b1871e8a3a6" />
		<tag k="ssr:gml_nr" v="2" />
	</node>
	<node id="-20253" lat="58.374211115" lon="8.63042778395">
		<tag k="ssr:gml_id" v="GEOMETRY_71b8aeb6-dae1-40ee-bb67-f7cc57189451" />
		<tag k="ssr:gml_nr" v="1" />
	</node>
	<node id="-20252" lat="58.3748666702" lon="8.63975833975">
		<tag k="ssr:gml_id" v="GEOMETRY_ba98e24e-06f5-4e57-87cf-8fa3e6df6005" />
		<tag k="ssr:gml_nr" v="0" />
	</node>
	<node id="-20251" lat="58.3582222255" lon="8.56404445218">
		<tag k="name" v="Rosholtveien" />
		<tag k="ssr:date" v="2016-05-10" />
		<tag k="ssr:stedsnr" v="405961" />
	</node>
	<node id="-22156" lat="58.4252138853" lon="8.50132221862">
		<tag k="name" v="Sandvigkleiva" />
		<tag k="place" v="locality" />
		<tag k="ssr:date" v="2016-05-10" />
		<tag k="ssr:stedsnr" v="485510" />
	</node>
	<node id="-24336" lat="58.3379722184" lon="8.55805555704">
		<tag k="junction" v="yes" />
		<tag k="name" v="Risdal" />
		<tag k="place" v="locality" />
		<tag k="ssr:date" v="2016-05-11" />
		<tag k="ssr:stedsnr" v="879324" />
	</node>
	<node id="-24314" lat="58.3361166694" lon="8.64139166375">
		<tag k="name" v="Hesnessund, Vestre" />
		<tag k="ssr:date" v="2016-05-11" />
		<tag k="ssr:stedsnr" v="874106" />
	</node>
	<node id="-24310" lat="58.3282499989" lon="8.57689445087">
		<tag k="name" v="Turveien" />
		<tag k="ssr:date" v="2016-05-11" />
		<tag k="ssr:stedsnr" v="861554" />
	</node>
	<node id="-22250" lat="58.3628777771" lon="8.60152778626">
		<tag k="bridge" v="yes" />
		<tag k="layer" v="1" />
		<tag k="name" v="Nygård" />
		<tag k="ssr:date" v="2016-05-10" />
		<tag k="ssr:stedsnr" v="531074" />
	</node>
	<node id="-22249" lat="58.4020166645" lon="8.64363333191">
		<tag k="bridge" v="yes" />
		<tag k="layer" v="1" />
		<tag k="name" v="Lunde" />
		<tag k="ssr:date" v="2016-05-10" />
		<tag k="ssr:stedsnr" v="531071" />
	</node>
	<node id="-22248" lat="58.3777750015" lon="8.38365832939">
		<tag k="bridge" v="yes" />
		<tag k="layer" v="1" />
		<tag k="name" v="Granmyr" />
		<tag k="ssr:date" v="2016-05-10" />
		<tag k="ssr:stedsnr" v="531062" />
	</node>
	<node id="-22247" lat="58.3699305574" lon="8.61829721876">
		<tag k="bridge" v="yes" />
		<tag k="layer" v="1" />
		<tag k="name" v="Bringsværmyra syd" />
		<tag k="ssr:date" v="2016-05-10" />
		<tag k="ssr:stedsnr" v="531056" />
	</node>
	<node id="-22223" lat="58.349944445" lon="8.56741666575">
		<tag k="junction" v="yes" />
		<tag k="name" v="Kryssen" />
		<tag k="place" v="locality" />
		<tag k="ssr:date" v="2016-05-10" />
		<tag k="ssr:stedsnr" v="515301" />
	</node>
	<node id="-20174" lat="58.3400222202" lon="8.61026665947">
		<tag k="name" v="Trollholtheia" />
		<tag k="ssr:date" v="2016-05-10" />
		<tag k="ssr:stedsnr" v="374554" />
	</node>
	<node id="-20173" lat="58.3771305527" lon="8.67703611517">
		<tag k="name" v="Skudeveien" />
		<tag k="ssr:date" v="2016-05-10" />
		<tag k="ssr:stedsnr" v="367296" />
	</node>
	<node id="-22207" lat="58.323988891" lon="8.5627416751">
		<tag k="name" v="Langemyrjordet" />
		<tag k="ssr:date" v="2016-05-10" />
		<tag k="ssr:stedsnr" v="511775" />
	</node>
	<node id="-22206" lat="58.3436611134" lon="8.66442777559">
		<tag k="name" v="Hesnes, Nedre" />
		<tag k="ssr:date" v="2016-05-10" />
		<tag k="ssr:stedsnr" v="510061" />
	</node>
	<node id="-24248" lat="58.4128222232" lon="8.52368055701">
		<tag k="bridge" v="yes" />
		<tag k="layer" v="1" />
		<tag k="name" v="Tranlebruna" />
		<tag k="ssr:date" v="2016-05-11" />
		<tag k="ssr:stedsnr" v="849994" />
	</node>
	<node id="-22195" lat="58.4426611149" lon="8.41355832892">
		<tag k="name" v="Hålandsdølkleiva" />
		<tag k="place" v="locality" />
		<tag k="ssr:date" v="2016-05-10" />
		<tag k="ssr:stedsnr" v="485849" />
	</node>
	<node id="-24229" lat="58.4585805587" lon="8.48761944973">
		<tag k="name" v="Sletta" />
		<tag k="ssr:date" v="2016-05-11" />
		<tag k="ssr:stedsnr" v="849764" />
	</node>
	<node id="-22173" lat="58.4669555541" lon="8.48880000444">
		<tag k="fixme" v="verify maritime location" />
		<tag k="mooring" v="yes" />
		<tag k="name" v="Vinterstøa" />
		<tag k="place" v="locality" />
		<tag k="ssr:date" v="2016-05-10" />
		<tag k="ssr:stedsnr" v="485604" />
	</node>
	<node id="-24216" lat="58.4570000004" lon="8.506305552">
		<tag k="fixme" v="verify maritime location" />
		<tag k="mooring" v="yes" />
		<tag k="name" v="Havestøa" />
		<tag k="place" v="locality" />
		<tag k="ssr:date" v="2016-05-11" />
		<tag k="ssr:stedsnr" v="849637" />
	</node>
	<node id="-22167" lat="58.4568944414" lon="8.50015554937">
		<tag k="highway" v="path" />
		<tag k="name" v="Havestien" />
		<tag k="ssr:date" v="2016-05-10" />
		<tag k="ssr:stedsnr" v="485561" />
	</node>
	<node id="-19597" lat="58.401605552" lon="8.64713888284">
		<tag k="bridge" v="yes" />
		<tag k="layer" v="1" />
		<tag k="name" v="Kvikshaug" />
		<tag k="ssr:date" v="2016-05-10" />
		<tag k="ssr:stedsnr" v="288089" />
	</node>
	<node id="-24184" lat="58.4669305569" lon="8.44817499993">
		<tag k="fixme" v="consider highway=path" />
		<tag k="highway" v="track" />
		<tag k="name" v="Øygardskleiva" />
		<tag k="ssr:date" v="2016-05-11" />
		<tag k="ssr:stedsnr" v="849362" />
	</node>
	<node id="-20080" lat="58.4541499997" lon="8.47397499593">
		<tag k="name" v="Øygards kleiver" />
		<tag k="place" v="locality" />
		<tag k="ssr:date" v="2016-05-10" />
		<tag k="ssr:stedsnr" v="363677" />
	</node>
	<node id="-22106" lat="58.4181805525" lon="8.41252777062">
		<tag k="name" v="Løekleiva" />
		<tag k="place" v="locality" />
		<tag k="ssr:date" v="2016-05-10" />
		<tag k="ssr:stedsnr" v="485300" />
	</node>
	<node id="-24151" lat="58.4524694449" lon="8.49410000462">
		<tag k="name" v="Eisekleiva" />
		<tag k="place" v="locality" />
		<tag k="ssr:date" v="2016-05-11" />
		<tag k="ssr:stedsnr" v="849186" />
	</node>
	<node id="-24149" lat="58.4496944448" lon="8.4913638908">
		<tag k="highway" v="path" />
		<tag k="name" v="Gamleveg" />
		<tag k="ssr:date" v="2016-05-11" />
		<tag k="ssr:stedsnr" v="849180" />
	</node>
	<node id="-20040" lat="58.4636805601" lon="8.46960000357">
		<tag k="name" v="Hunsdalsletta" />
		<tag k="ssr:date" v="2016-05-10" />
		<tag k="ssr:stedsnr" v="363249" />
	</node>
	<node id="-24129" lat="58.3421611067" lon="8.6614527854">
		<tag k="name" v="Hesnes, Øvre" />
		<tag k="ssr:date" v="2016-05-11" />
		<tag k="ssr:stedsnr" v="846457" />
	</node>
	<node id="-20032" lat="58.4204111119" lon="8.37890278394">
		<tag k="bridge" v="yes" />
		<tag k="layer" v="1" />
		<tag k="name" v="Krosshølbruna" />
		<tag k="ssr:date" v="2016-05-10" />
		<tag k="ssr:stedsnr" v="363107" />
	</node>
	<node id="-24126" lat="58.3311666649" lon="8.58215277815">
		<tag k="name" v="Terneveien" />
		<tag k="ssr:date" v="2016-05-11" />
		<tag k="ssr:stedsnr" v="844698" />
	</node>
	<node id="-24124" lat="58.3846472262" lon="8.67660832947">
		<tag k="name" v="Trålumbakken" />
		<tag k="ssr:date" v="2016-05-11" />
		<tag k="ssr:stedsnr" v="844591" />
	</node>
	<node id="-20027" lat="58.3240166637" lon="8.55722778507">
		<tag k="name" v="Morholtlien" />
		<tag k="ssr:date" v="2016-05-10" />
		<tag k="ssr:stedsnr" v="362965" />
	</node>
	<node id="-24122" lat="58.3421888894" lon="8.59316111343">
		<tag k="name" v="Torvet" />
		<tag k="ssr:date" v="2016-05-11" />
		<tag k="ssr:stedsnr" v="844571" />
	</node>
	<node id="-22073" lat="58.2965749969" lon="8.58960832597">
		<tag k="name" v="Stangholmen" />
		<tag k="old_name" v="Stongholmen" />
		<tag k="ssr:date" v="2016-05-10" />
		<tag k="ssr:stedsnr" v="485950" />
	</node>
	<node id="-24119" lat="58.3467277773" lon="8.58063889468">
		<tag k="name" v="Opplandsveien" />
		<tag k="ssr:date" v="2016-05-11" />
		<tag k="ssr:stedsnr" v="844326" />
	</node>
	<node id="-24118" lat="58.322458333" lon="8.56912776938">
		<tag k="name" v="Skjærgårdsveien" />
		<tag k="ssr:date" v="2016-05-11" />
		<tag k="ssr:stedsnr" v="844242" />
	</node>
	<node id="-24117" lat="58.3406222213" lon="8.58388611459">
		<tag k="name" v="Føreidsgate" />
		<tag k="ssr:date" v="2016-05-11" />
		<tag k="ssr:stedsnr" v="843898" />
	</node>
	<node id="-24116" lat="58.3769333337" lon="8.67977222962">
		<tag k="name" v="Jordenebakken" />
		<tag k="ssr:date" v="2016-05-11" />
		<tag k="ssr:stedsnr" v="843648" />
	</node>
	<node id="-24115" lat="58.3403666691" lon="8.59364444187">
		<tag k="name" v="Storgaten" />
		<tag k="ssr:date" v="2016-05-11" />
		<tag k="ssr:stedsnr" v="843631" />
	</node>
	<node id="-24114" lat="58.3409000032" lon="8.59244166466">
		<tag k="name" v="Øvre Tverrstredet" />
		<tag k="ssr:date" v="2016-05-11" />
		<tag k="ssr:stedsnr" v="843568" />
	</node>
	<node id="-24113" lat="58.3755472226" lon="8.66894721456">
		<tag k="name" v="Ormåsen" />
		<tag k="ssr:date" v="2016-05-11" />
		<tag k="ssr:stedsnr" v="843505" />
	</node>
	<node id="-24112" lat="58.3682638858" lon="8.62351111139">
		<tag k="name" v="Bringsværveien" />
		<tag k="ssr:date" v="2016-05-11" />
		<tag k="ssr:stedsnr" v="843497" />
	</node>
	<node id="-24111" lat="58.3845000013" lon="8.70073888094">
		<tag k="name" v="Bregneveien" />
		<tag k="ssr:date" v="2016-05-11" />
		<tag k="ssr:stedsnr" v="843496" />
	</node>
	<node id="-24110" lat="58.3934611138" lon="8.69221388891">
		<tag k="name" v="Vessøyveien" />
		<tag k="ssr:date" v="2016-05-11" />
		<tag k="ssr:stedsnr" v="843394" />
	</node>
	<node id="-24109" lat="58.3852527811" lon="8.67819166817">
		<tag k="name" v="Birketveit" />
		<tag k="ssr:date" v="2016-05-11" />
		<tag k="ssr:stedsnr" v="843290" />
	</node>
	<node id="-24108" lat="58.3225638849" lon="8.56878610696">
		<tag k="name" v="Myrsvingen" />
		<tag k="ssr:date" v="2016-05-11" />
		<tag k="ssr:stedsnr" v="843099" />
	</node>
	<node id="-24107" lat="58.3409444488" lon="8.59235556157">
		<tag k="name" v="Lillerore" />
		<tag k="ssr:date" v="2016-05-11" />
		<tag k="ssr:stedsnr" v="843049" />
	</node>
	<node id="-20010" lat="58.3182305525" lon="8.53898332795">
		<tag k="name" v="Tjore" />
		<tag k="ssr:date" v="2016-05-10" />
		<tag k="ssr:stedsnr" v="358652" />
	</node>
	<node id="-20008" lat="58.3841555547" lon="8.67733056202">
		<tag k="name" v="Trålum gården" />
		<tag k="ssr:date" v="2016-05-10" />
		<tag k="ssr:stedsnr" v="358593" />
	</node>
	<node id="-20007" lat="58.3419499972" lon="8.58325554774">
		<tag k="name" v="Torsgate" />
		<tag k="ssr:date" v="2016-05-10" />
		<tag k="ssr:stedsnr" v="358577" />
	</node>
	<node id="-20006" lat="58.3388555581" lon="8.58713610435">
		<tag k="name" v="Merset" />
		<tag k="ssr:date" v="2016-05-10" />
		<tag k="ssr:stedsnr" v="358576" />
	</node>
	<node id="-20005" lat="58.3821444409" lon="8.68100833463">
		<tag k="name" v="Skoleveien" />
		<tag k="ssr:date" v="2016-05-10" />
		<tag k="ssr:stedsnr" v="358239" />
	</node>
	<node id="-20004" lat="58.36892353" lon="8.62814024853">
		<tag k="name" v="Vindveien" />
		<tag k="ssr:date" v="2018-01-24" />
		<tag k="ssr:stedsnr" v="358220" />
	</node>
	<node id="-20003" lat="58.3220999976" lon="8.55935000132">
		<tag k="name" v="Furuknatten" />
		<tag k="ssr:date" v="2016-05-10" />
		<tag k="ssr:stedsnr" v="357890" />
	</node>
	<node id="-20002" lat="58.329372218" lon="8.57985277861">
		<tag k="name" v="Rådyrveien" />
		<tag k="ssr:date" v="2016-05-10" />
		<tag k="ssr:stedsnr" v="357864" />
	</node>
	<node id="-20001" lat="58.3329138916" lon="8.57234722208">
		<tag k="name" v="Peter Dahls vei" />
		<tag k="ssr:date" v="2016-05-10" />
		<tag k="ssr:stedsnr" v="357785" />
	</node>
	<node id="-22048" lat="58.339033336" lon="8.59218889026">
		<tag k="name" v="Vesterled" />
		<tag k="ssr:date" v="2016-05-10" />
		<tag k="ssr:stedsnr" v="481808" />
	</node>
	<node id="-19999" lat="58.3742718636" lon="8.65745007032">
		<tag k="name" v="Østre Moåsen" />
		<tag k="ssr:date" v="2018-01-24" />
		<tag k="ssr:stedsnr" v="357515" />
	</node>
	<node id="-19998" lat="58.2653055556" lon="8.50692777195">
		<tag k="name" v="Homborhave" />
		<tag k="ssr:date" v="2016-05-10" />
		<tag k="ssr:stedsnr" v="357079" />
	</node>
	<node id="-23307" lat="58.335450002" lon="8.59262499538">
		<tag k="name" v="Guldmand brygge" />
		<tag k="ssr:date" v="2016-05-11" />
		<tag k="ssr:stedsnr" v="721221" />
	</node>
	<node id="-22044" lat="58.3380333356" lon="8.58355832619">
		<tag k="name" v="Vesøygaten" />
		<tag k="ssr:date" v="2016-05-10" />
		<tag k="ssr:stedsnr" v="481149" />
	</node>
	<node id="-24154" lat="58.4532194447" lon="8.49260000189">
		<tag k="bridge" v="yes" />
		<tag k="layer" v="1" />
		<tag k="name" v="Nummerbruna" />
		<tag k="ssr:date" v="2016-05-11" />
		<tag k="ssr:stedsnr" v="849194" />
	</node>
	<node id="-24088" lat="58.2741694478" lon="8.49260554791">
		<tag k="name" v="Engeveien" />
		<tag k="ssr:date" v="2016-05-11" />
		<tag k="ssr:stedsnr" v="842429" />
	</node>
	<node id="-19990" lat="58.3928472237" lon="8.38235554794">
		<tag k="man_made" v="cairn" />
		<tag k="name" v="Gluggvarden" />
		<tag k="place" v="locality" />
		<tag k="ssr:date" v="2016-05-10" />
		<tag k="ssr:stedsnr" v="356950" />
	</node>
	<node id="-22033" lat="58.3668638873" lon="8.61497776969">
		<tag k="bridge" v="yes" />
		<tag k="layer" v="1" />
		<tag k="name" v="Sevelid" />
		<tag k="ssr:date" v="2016-05-10" />
		<tag k="ssr:stedsnr" v="470071" />
	</node>
	<node id="-22032" lat="58.3836500008" lon="8.65986388261">
		<tag k="bridge" v="yes" />
		<tag k="layer" v="1" />
		<tag k="name" v="Rosenlunde" />
		<tag k="ssr:date" v="2016-05-10" />
		<tag k="ssr:stedsnr" v="470068" />
	</node>
	<node id="-22031" lat="58.3371611131" lon="8.59182500566">
		<tag k="layer" v="-1" />
		<tag k="name" v="Vesterled" />
		<tag k="ssr:date" v="2016-05-10" />
		<tag k="ssr:stedsnr" v="469663" />
		<tag k="tunnel" v="yes" />
	</node>
	<node id="-20055" lat="58.4446194448" lon="8.41198333395">
		<tag k="bridge" v="yes" />
		<tag k="layer" v="1" />
		<tag k="name" v="Rundbruna" />
		<tag k="ssr:date" v="2016-05-10" />
		<tag k="ssr:stedsnr" v="363933" />
	</node>
	<node id="-24060" lat="58.3493027804" lon="8.56133610409">
		<tag k="name" v="Holbekkveien" />
		<tag k="ssr:date" v="2016-05-11" />
		<tag k="ssr:stedsnr" v="842022" />
	</node>
	<node id="-19960" lat="58.3330055517" lon="8.58119444461">
		<tag k="name" v="Alvildes vei" />
		<tag k="ssr:date" v="2016-05-10" />
		<tag k="ssr:stedsnr" v="356195" />
	</node>
	<node id="-21997" lat="58.3420555545" lon="8.58758333741">
		<tag k="name" v="Markveien" />
		<tag k="ssr:date" v="2016-05-10" />
		<tag k="ssr:stedsnr" v="455297" />
	</node>
	<node id="-21985" lat="58.2568611118" lon="8.51050000164">
		<tag k="man_made" v="quay" />
		<tag k="name" v="Smibrygga" />
		<tag k="place" v="locality" />
		<tag k="ssr:date" v="2016-05-10" />
		<tag k="ssr:stedsnr" v="454422" />
	</node>
	<node id="-24020" lat="58.3701777734" lon="8.61314443774">
		<tag k="ssr:gml_id" v="GEOMETRY_d903de53-016d-4494-90e3-66e9e06d0b05" />
		<tag k="ssr:gml_nr" v="1" />
	</node>
	<node id="-21971" lat="58.3382250008" lon="8.55701667161">
		<tag k="name" v="Reddalsveien" />
		<tag k="ssr:date" v="2016-05-10" />
		<tag k="ssr:stedsnr" v="432800" />
	</node>
	<node id="-24018" lat="58.346677777" lon="8.58065556275">
		<tag k="bridge" v="yes" />
		<tag k="layer" v="1" />
		<tag k="name" v="Frivoll" />
		<tag k="ssr:date" v="2016-05-11" />
		<tag k="ssr:stedsnr" v="835067" />
	</node>
	<node id="-20387" lat="58.3362805551" lon="8.42210554844">
		<tag k="highway" v="path" />
		<tag k="name" v="Stigsveien" />
		<tag k="ssr:date" v="2016-05-11" />
		<tag k="ssr:stedsnr" v="897752" />
	</node>
	<node id="-24016" lat="58.3027638878" lon="8.5291805542">
		<tag k="highway" v="path" />
		<tag k="name" v="Krappsti" />
		<tag k="ssr:date" v="2016-05-11" />
		<tag k="ssr:stedsnr" v="836210" />
	</node>
	<node id="-19910" lat="58.3923583325" lon="8.66856944412">
		<tag k="bridge" v="yes" />
		<tag k="layer" v="1" />
		<tag k="name" v="Skotta" />
		<tag k="ssr:date" v="2016-05-10" />
		<tag k="ssr:stedsnr" v="349098" />
	</node>
	<node id="-19909" lat="58.3387972206" lon="8.44687499835">
		<tag k="bridge" v="yes" />
		<tag k="layer" v="1" />
		<tag k="name" v="Fjørbruna" />
		<tag k="ssr:date" v="2016-05-10" />
		<tag k="ssr:stedsnr" v="349085" />
	</node>
	<node id="-19908" lat="58.3710249963" lon="8.61694999426">
		<tag k="ssr:gml_id" v="GEOMETRY_226363ff-98de-4e02-8ce2-05a1f0c84fef" />
		<tag k="ssr:gml_nr" v="1" />
	</node>
	<node id="-19907" lat="58.3713861086" lon="8.61624999236">
		<tag k="ssr:gml_id" v="GEOMETRY_a79058f7-faec-4d21-a617-a9244b995425" />
		<tag k="ssr:gml_nr" v="0" />
	</node>
	<node id="-19905" lat="58.3376444484" lon="8.54779999166">
		<tag k="name" v="Morholtveien" />
		<tag k="ssr:date" v="2016-05-10" />
		<tag k="ssr:stedsnr" v="340773" />
	</node>
	<node id="-21943" lat="58.443494445" lon="8.41883888597">
		<tag k="highway" v="path" />
		<tag k="name" v="Klomra" />
		<tag k="ssr:date" v="2016-05-10" />
		<tag k="ssr:stedsnr" v="425925" />
	</node>
	<node id="-23990" lat="58.2585833331" lon="8.4693333286">
		<tag k="fixme" v="verify maritime location" />
		<tag k="mooring" v="yes" />
		<tag k="name" v="Østerlødstøa" />
		<tag k="place" v="locality" />
		<tag k="ssr:date" v="2016-05-11" />
		<tag k="ssr:stedsnr" v="819440" />
	</node>
	<node id="-19888" lat="58.2734166701" lon="8.48813888653">
		<tag k="man_made" v="quay" />
		<tag k="name" v="Prestebrygga" />
		<tag k="place" v="locality" />
		<tag k="ssr:date" v="2016-05-10" />
		<tag k="ssr:stedsnr" v="333453" />
	</node>
	<node id="-19694" lat="58.3763472244" lon="8.66235555781">
		<tag k="name" v="Skippergada" />
		<tag k="ssr:date" v="2016-05-10" />
		<tag k="ssr:stedsnr" v="297262" />
	</node>
	<node id="-19853" lat="58.3919166702" lon="8.59144443634">
		<tag k="fixme" v="verify maritime location" />
		<tag k="mooring" v="yes" />
		<tag k="name" v="Stoa" />
		<tag k="place" v="locality" />
		<tag k="ssr:date" v="2016-05-10" />
		<tag k="ssr:stedsnr" v="90246" />
	</node>
	<node id="-23948" lat="58.3427388893" lon="8.65247778233">
		<tag k="ssr:gml_id" v="GEOMETRY_76517998-0034-43f2-bae1-d26f5bd175eb" />
		<tag k="ssr:gml_nr" v="1" />
	</node>
	<node id="-19851" lat="58.3326222184" lon="8.58454443719">
		<tag k="name" v="Sonaåsen" />
		<tag k="ssr:date" v="2016-05-10" />
		<tag k="ssr:stedsnr" v="307471" />
	</node>
	<node id="-23944" lat="58.3294638899" lon="8.57172500554">
		<tag k="name" v="Solveien" />
		<tag k="ssr:date" v="2016-05-11" />
		<tag k="ssr:stedsnr" v="792440" />
	</node>
	<node id="-20374" lat="58.3781499989" lon="8.65067222974">
		<tag k="bridge" v="yes" />
		<tag k="layer" v="1" />
		<tag k="name" v="Hausland" />
		<tag k="ssr:date" v="2016-05-11" />
		<tag k="ssr:stedsnr" v="895078" />
	</node>
	<node id="-21888" lat="58.4446138845" lon="8.41044166168">
		<tag k="name" v="Vestsideveien" />
		<tag k="ssr:date" v="2016-05-10" />
		<tag k="ssr:stedsnr" v="424935" />
	</node>
	<node id="-21874" lat="58.4540916659" lon="8.48180833737">
		<tag k="name" v="Staudals kleiver" />
		<tag k="place" v="locality" />
		<tag k="ssr:date" v="2016-05-10" />
		<tag k="ssr:stedsnr" v="424660" />
	</node>
	<node id="-19806" lat="58.4571250031" lon="8.48983611756">
		<tag k="bridge" v="yes" />
		<tag k="layer" v="1" />
		<tag k="name" v="Tobakksbruna" />
		<tag k="ssr:date" v="2016-05-10" />
		<tag k="ssr:stedsnr" v="303684" />
	</node>
	<node id="-19805" lat="58.4581555551" lon="8.48925555214">
		<tag k="name" v="Trinesfall" />
		<tag k="ssr:date" v="2016-05-10" />
		<tag k="ssr:stedsnr" v="303682" />
	</node>
	<node id="-24121" lat="58.3733722261" lon="8.66086389104">
		<tag k="name" v="Nedre Hausland" />
		<tag k="ssr:date" v="2016-05-11" />
		<tag k="ssr:stedsnr" v="844440" />
	</node>
	<node id="-23890" lat="58.3690194421" lon="8.66914444231">
		<tag k="name" v="Fevik" />
		<tag k="ssr:date" v="2016-05-11" />
		<tag k="ssr:stedsnr" v="789519" />
	</node>
	<node id="-21838" lat="58.4160611114" lon="8.38580833512">
		<tag k="fixme" v="consider highway=path" />
		<tag k="highway" v="track" />
		<tag k="name" v="Volloppkjørsla" />
		<tag k="ssr:date" v="2016-05-10" />
		<tag k="ssr:stedsnr" v="424353" />
	</node>
	<node id="-21833" lat="58.4606888917" lon="8.46724721931">
		<tag k="highway" v="path" />
		<tag k="name" v="Sauevegen" />
		<tag k="ssr:date" v="2016-05-10" />
		<tag k="ssr:stedsnr" v="424302" />
	</node>
	<node id="-21828" lat="58.4673777816" lon="8.4581111071">
		<tag k="name" v="Klomra" />
		<tag k="ssr:date" v="2016-05-10" />
		<tag k="ssr:stedsnr" v="424276" />
	</node>
	<node id="-19678" lat="58.3817277806" lon="8.67299166842">
		<tag k="name" v="Kaféheia" />
		<tag k="ssr:date" v="2016-05-10" />
		<tag k="ssr:stedsnr" v="296635" />
	</node>
	<node id="-21808" lat="58.3702953589" lon="8.64936827384">
		<tag k="name" v="Vollekjær" />
		<tag k="ssr:date" v="2018-01-24" />
		<tag k="ssr:stedsnr" v="420234" />
	</node>
	<node id="-21807" lat="58.3261194432" lon="8.57609999859">
		<tag k="name" v="Tiurveien" />
		<tag k="ssr:date" v="2016-05-10" />
		<tag k="ssr:stedsnr" v="419694" />
	</node>
	<node id="-21806" lat="58.3446249983" lon="8.59168055261">
		<tag k="name" v="Møllerheia" />
		<tag k="ssr:date" v="2016-05-10" />
		<tag k="ssr:stedsnr" v="419438" />
	</node>
	<node id="-21805" lat="58.3844805556" lon="8.70373333686">
		<tag k="name" v="Omveien" />
		<tag k="ssr:date" v="2016-05-10" />
		<tag k="ssr:stedsnr" v="419386" />
	</node>
	<node id="-21804" lat="58.3415722248" lon="8.54399165836">
		<tag k="name" v="Sandvadheia" />
		<tag k="ssr:date" v="2016-05-10" />
		<tag k="ssr:stedsnr" v="418857" />
	</node>
	<node id="-21803" lat="58.3320472242" lon="8.57406666304">
		<tag k="name" v="Gjert Sørensens vei" />
		<tag k="ssr:date" v="2016-05-10" />
		<tag k="ssr:stedsnr" v="418723" />
	</node>
	<node id="-21802" lat="58.318024999" lon="8.54226389481">
		<tag k="name" v="Støleveien" />
		<tag k="ssr:date" v="2016-05-10" />
		<tag k="ssr:stedsnr" v="418637" />
	</node>
	<node id="-21801" lat="58.3809638869" lon="8.68319165904">
		<tag k="name" v="Storesandveien" />
		<tag k="ssr:date" v="2016-05-10" />
		<tag k="ssr:stedsnr" v="418602" />
	</node>
	<node id="-21800" lat="58.3365666707" lon="8.53047777308">
		<tag k="name" v="Tuftene" />
		<tag k="ssr:date" v="2016-05-10" />
		<tag k="ssr:stedsnr" v="418452" />
	</node>
	<node id="-21799" lat="58.3499638934" lon="8.56793888925">
		<tag k="name" v="Fjæreveien" />
		<tag k="ssr:date" v="2016-05-10" />
		<tag k="ssr:stedsnr" v="418296" />
	</node>
	<node id="-21798" lat="58.3804305571" lon="8.67426944266">
		<tag k="name" v="Liaveien" />
		<tag k="ssr:date" v="2016-05-10" />
		<tag k="ssr:stedsnr" v="418208" />
	</node>
	<node id="-21797" lat="58.3432972257" lon="8.58624723041">
		<tag k="name" v="Lillegate" />
		<tag k="ssr:date" v="2016-05-10" />
		<tag k="ssr:stedsnr" v="418191" />
	</node>
	<node id="-21791" lat="58.4090805581" lon="8.51337223047">
		<tag k="man_made" v="cairn" />
		<tag k="name" v="Voreheivarden" />
		<tag k="place" v="locality" />
		<tag k="ssr:date" v="2016-05-10" />
		<tag k="ssr:stedsnr" v="417842" />
	</node>
	<node id="-21781" lat="58.3371277778" lon="8.53386944321">
		<tag k="name" v="Karenveien" />
		<tag k="ssr:date" v="2016-05-10" />
		<tag k="ssr:stedsnr" v="417566" />
	</node>
	<node id="-23826" lat="58.4544444448" lon="8.48230000175">
		<tag k="highway" v="path" />
		<tag k="name" v="Staudalshov" />
		<tag k="ssr:date" v="2016-05-11" />
		<tag k="ssr:stedsnr" v="788660" />
	</node>
	<node id="-21777" lat="58.3397305511" lon="8.5665277744">
		<tag k="name" v="Grøm næringspark" />
		<tag k="ssr:date" v="2016-05-10" />
		<tag k="ssr:stedsnr" v="417439" />
	</node>
	<node id="-19710" lat="58.4546583302" lon="8.41889445279">
		<tag k="highway" v="path" />
		<tag k="name" v="Buvegen" />
		<tag k="ssr:date" v="2016-05-10" />
		<tag k="ssr:stedsnr" v="302430" />
	</node>
	<node id="-23805" lat="58.4044305592" lon="8.41876110413">
		<tag k="name" v="Snømyrkleiva" />
		<tag k="place" v="locality" />
		<tag k="ssr:date" v="2016-05-11" />
		<tag k="ssr:stedsnr" v="788536" />
	</node>
	<node id="-19705" lat="58.3329444481" lon="8.54234444663">
		<tag k="name" v="Morholtåsen" />
		<tag k="ssr:date" v="2016-05-10" />
		<tag k="ssr:stedsnr" v="301976" />
	</node>
	<node id="-19699" lat="58.3004333349" lon="8.58253333413">
		<tag k="name" v="Rivingdybet" />
		<tag k="ssr:date" v="2016-05-10" />
		<tag k="ssr:stedsnr" v="298615" />
	</node>
	<node id="-19698" lat="58.3052777771" lon="8.57788610896">
		<tag k="name" v="Risholmen" />
		<tag k="ssr:date" v="2016-05-10" />
		<tag k="ssr:stedsnr" v="298613" />
	</node>
	<node id="-19697" lat="58.3402750006" lon="8.59320000424">
		<tag k="name" v="Ramshaugveien" />
		<tag k="ssr:date" v="2016-05-10" />
		<tag k="ssr:stedsnr" v="297800" />
	</node>
	<node id="-19696" lat="58.3753750023" lon="8.68209444127">
		<tag k="name" v="Movigveien" />
		<tag k="ssr:date" v="2016-05-10" />
		<tag k="ssr:stedsnr" v="297770" />
	</node>
	<node id="-19695" lat="58.3682638858" lon="8.62351111139">
		<tag k="name" v="Bringsværmoen" />
		<tag k="ssr:date" v="2016-05-10" />
		<tag k="ssr:stedsnr" v="297475" />
	</node>
	<node id="-21742" lat="58.3634277745" lon="8.61870833394">
		<tag k="name" v="Holveien" />
		<tag k="ssr:date" v="2016-05-10" />
		<tag k="ssr:stedsnr" v="417026" />
	</node>
	<node id="-21736" lat="58.3402750006" lon="8.59320000424">
		<tag k="name" v="Pharos vei" />
		<tag k="ssr:date" v="2016-05-10" />
		<tag k="ssr:stedsnr" v="479804" />
	</node>
	<node id="-19681" lat="58.2686638855" lon="8.5109916734">
		<tag k="name" v="Kjekstadveien" />
		<tag k="ssr:date" v="2016-05-10" />
		<tag k="ssr:stedsnr" v="296742" />
	</node>
	<node id="-19680" lat="58.383688885" lon="8.70271388223">
		<tag k="name" v="Krokveien" />
		<tag k="ssr:date" v="2016-05-10" />
		<tag k="ssr:stedsnr" v="296737" />
	</node>
	<node id="-21727" lat="58.3289805566" lon="8.57278888234">
		<tag k="name" v="Dalveien" />
		<tag k="ssr:date" v="2016-05-10" />
		<tag k="ssr:stedsnr" v="479475" />
	</node>
	<node id="-21726" lat="58.3452583351" lon="8.58988056223">
		<tag k="name" v="Vardåsen" />
		<tag k="ssr:date" v="2016-05-10" />
		<tag k="ssr:stedsnr" v="479469" />
	</node>
	<node id="-19673" lat="58.3407777801" lon="8.58496111601">
		<tag k="name" v="Egeliveien" />
		<tag k="ssr:date" v="2016-05-10" />
		<tag k="ssr:stedsnr" v="296451" />
	</node>
	<node id="-19672" lat="58.3804944428" lon="8.67443889352">
		<tag k="name" v="Bjønnmyra" />
		<tag k="ssr:date" v="2016-05-10" />
		<tag k="ssr:stedsnr" v="296263" />
	</node>
	<node id="-21716" lat="58.3375249964" lon="8.53263610617">
		<tag k="name" v="Myråsen" />
		<tag k="ssr:date" v="2016-05-10" />
		<tag k="ssr:stedsnr" v="479437" />
	</node>
	<node id="-23756" lat="58.4519222183" lon="8.46734444088">
		<tag k="name" v="Trolldals kleiver" />
		<tag k="place" v="locality" />
		<tag k="ssr:date" v="2016-05-11" />
		<tag k="ssr:stedsnr" v="788154" />
	</node>
	<node id="-19656" lat="58.3735833362" lon="8.66578333589">
		<tag k="name" v="Lillevei" />
		<tag k="ssr:date" v="2016-05-10" />
		<tag k="ssr:stedsnr" v="297631" />
	</node>
	<node id="-21703" lat="58.2538916628" lon="8.52957500408">
		<tag k="ssr:gml_id" v="GEOMETRY_b04e9558-df22-4dac-ba8b-faf98e7ea3c8" />
		<tag k="ssr:gml_nr" v="1" />
	</node>
	<node id="-21702" lat="58.2538944484" lon="8.5295777786">
		<tag k="ssr:gml_id" v="GEOMETRY_ccdb052d-91e3-4805-98d9-deeb055865df" />
		<tag k="ssr:gml_nr" v="0" />
	</node>
	<node id="-20000" lat="58.3820944482" lon="8.70465833319">
		<tag k="name" v="Svartedabbe" />
		<tag k="ssr:date" v="2016-05-10" />
		<tag k="ssr:stedsnr" v="357654" />
	</node>
	<node id="-23728" lat="58.3422472258" lon="8.54152222015">
		<tag k="name" v="Torjus Hansens vei" />
		<tag k="ssr:date" v="2016-05-11" />
		<tag k="ssr:stedsnr" v="783574" />
	</node>
	<node id="-21704" lat="58.2538638922" lon="8.52989999608">
		<tag k="ssr:gml_id" v="GEOMETRY_4d249f6d-e56c-494b-b1be-05a1c3803fd6" />
		<tag k="ssr:gml_nr" v="2" />
	</node>
	<node id="-23726" lat="58.3162499969" lon="8.56603055951">
		<tag k="name" v="Industriveien" />
		<tag k="ssr:date" v="2016-05-11" />
		<tag k="ssr:stedsnr" v="782926" />
	</node>
	<node id="-23725" lat="58.2720555588" lon="8.50565832542">
		<tag k="name" v="Johan Markussens vei" />
		<tag k="ssr:date" v="2016-05-11" />
		<tag k="ssr:stedsnr" v="782922" />
	</node>
	<node id="-23724" lat="58.3529555553" lon="8.54504166562">
		<tag k="name" v="Roresanden" />
		<tag k="ssr:date" v="2016-05-11" />
		<tag k="ssr:stedsnr" v="782843" />
	</node>
	<node id="-23723" lat="58.3527833367" lon="8.59249166981">
		<tag k="name" v="Rypeveien" />
		<tag k="ssr:date" v="2016-05-11" />
		<tag k="ssr:stedsnr" v="782841" />
	</node>
	<node id="-23722" lat="58.3417583339" lon="8.53295554846">
		<tag k="name" v="Ronnengåsen" />
		<tag k="ssr:date" v="2016-05-11" />
		<tag k="ssr:stedsnr" v="782785" />
	</node>
	<node id="-23721" lat="58.3451027772" lon="8.55455555342">
		<tag k="name" v="Rore hageby" />
		<tag k="ssr:date" v="2016-05-11" />
		<tag k="ssr:stedsnr" v="782783" />
	</node>
	<node id="-23720" lat="58.3779916634" lon="8.68634722573">
		<tag k="name" v="Ranvigåsen" />
		<tag k="ssr:date" v="2016-05-11" />
		<tag k="ssr:stedsnr" v="782781" />
	</node>
	<node id="-23719" lat="58.3736000012" lon="8.67303333246">
		<tag k="name" v="Randulf Hansens vei" />
		<tag k="ssr:date" v="2016-05-11" />
		<tag k="ssr:stedsnr" v="782773" />
	</node>
	<node id="-23718" lat="58.3810638873" lon="8.68361667217">
		<tag k="name" v="Ranvigveien" />
		<tag k="ssr:date" v="2016-05-11" />
		<tag k="ssr:stedsnr" v="782772" />
	</node>
	<node id="-23717" lat="58.3689027752" lon="8.63276944474">
		<tag k="name" v="Moy moner" />
		<tag k="ssr:date" v="2016-05-11" />
		<tag k="ssr:stedsnr" v="782736" />
	</node>
	<node id="-23716" lat="58.3220916639" lon="8.57265000666">
		<tag k="name" v="Krågevigstien" />
		<tag k="ssr:date" v="2016-05-11" />
		<tag k="ssr:stedsnr" v="782719" />
	</node>
	<node id="-23715" lat="58.3376194407" lon="8.5887388933">
		<tag k="name" v="Gamlegrensen" />
		<tag k="ssr:date" v="2016-05-11" />
		<tag k="ssr:stedsnr" v="782692" />
	</node>
	<node id="-23714" lat="58.3365944407" lon="8.5332277846">
		<tag k="name" v="Toraldåsen" />
		<tag k="ssr:date" v="2016-05-11" />
		<tag k="ssr:stedsnr" v="782544" />
	</node>
	<node id="-23713" lat="58.3395277771" lon="8.59015000721">
		<tag k="name" v="Vardegaten" />
		<tag k="ssr:date" v="2016-05-11" />
		<tag k="ssr:stedsnr" v="782445" />
	</node>
	<node id="-23712" lat="58.3543888909" lon="8.55411388973">
		<tag k="name" v="Nordås" />
		<tag k="ssr:date" v="2016-05-11" />
		<tag k="ssr:stedsnr" v="782425" />
	</node>
	<node id="-23711" lat="58.3536861094" lon="8.59687222885">
		<tag k="name" v="Bieheia" />
		<tag k="ssr:date" v="2016-05-11" />
		<tag k="ssr:stedsnr" v="782245" />
	</node>
	<node id="-23710" lat="58.3738055587" lon="8.67944167466">
		<tag k="name" v="Lille Bergen" />
		<tag k="ssr:date" v="2016-05-11" />
		<tag k="ssr:stedsnr" v="782193" />
	</node>
	<node id="-23709" lat="58.3413666653" lon="8.60043055588">
		<tag k="name" v="Hasseldalen" />
		<tag k="ssr:date" v="2016-05-11" />
		<tag k="ssr:stedsnr" v="782177" />
	</node>
	<node id="-23708" lat="58.3854249991" lon="8.70066388672">
		<tag k="name" v="Haugenesveien" />
		<tag k="ssr:date" v="2016-05-11" />
		<tag k="ssr:stedsnr" v="782174" />
	</node>
	<node id="-23707" lat="58.2682361149" lon="8.50975278223">
		<tag k="name" v="Homborsundhøyda" />
		<tag k="ssr:date" v="2016-05-11" />
		<tag k="ssr:stedsnr" v="782060" />
	</node>
	<node id="-21651" lat="58.4076249979" lon="8.40022777718">
		<tag k="bridge" v="yes" />
		<tag k="layer" v="1" />
		<tag k="name" v="Øyebruna,store" />
		<tag k="ssr:date" v="2016-05-10" />
		<tag k="ssr:stedsnr" v="242934" />
	</node>
	<node id="-19598" lat="58.420408332" lon="8.37891111866">
		<tag k="bridge" v="yes" />
		<tag k="layer" v="1" />
		<tag k="name" v="Metveit" />
		<tag k="ssr:date" v="2016-05-10" />
		<tag k="ssr:stedsnr" v="288090" />
	</node>
	<node id="-21645" lat="58.3986555526" lon="8.34788888449">
		<tag k="name" v="Havekleiva" />
		<tag k="place" v="locality" />
		<tag k="ssr:date" v="2016-05-10" />
		<tag k="ssr:stedsnr" v="242800" />
	</node>
	<node id="-19596" lat="58.3913583378" lon="8.66727499841">
		<tag k="bridge" v="yes" />
		<tag k="layer" v="1" />
		<tag k="name" v="Esketveit" />
		<tag k="ssr:date" v="2016-05-10" />
		<tag k="ssr:stedsnr" v="288085" />
	</node>
	<node id="-19595" lat="58.3055305588" lon="8.53676111454">
		<tag k="name" v="Strandfjorden" />
		<tag k="ssr:date" v="2016-05-10" />
		<tag k="ssr:stedsnr" v="284960" />
	</node>
	<node id="-23685" lat="58.3390305546" lon="8.59152221375">
		<tag k="name" v="Jørgen Bangs gate" />
		<tag k="ssr:date" v="2016-05-11" />
		<tag k="ssr:stedsnr" v="781664" />
	</node>
	<node id="-19584" lat="58.3335833324" lon="8.58161110625">
		<tag k="name" v="Grooseveien" />
		<tag k="ssr:date" v="2016-05-10" />
		<tag k="ssr:stedsnr" v="273318" />
	</node>
	<node id="-23675" lat="58.3343222266" lon="8.58840000432">
		<tag k="name" v="Grømbukta" />
		<tag k="ssr:date" v="2016-05-11" />
		<tag k="ssr:stedsnr" v="781396" />
	</node>
	<node id="-23672" lat="58.3861166707" lon="8.67876666837">
		<tag k="name" v="Esketveitveien" />
		<tag k="ssr:date" v="2016-05-11" />
		<tag k="ssr:stedsnr" v="781328" />
	</node>
	<node id="-23665" lat="58.3411333354" lon="8.60046666824">
		<tag k="name" v="Batteriveien" />
		<tag k="ssr:date" v="2016-05-11" />
		<tag k="ssr:stedsnr" v="781201" />
	</node>
	<node id="-23664" lat="58.3350527797" lon="8.589572222">
		<tag k="name" v="Bark Silas' vei" />
		<tag k="ssr:date" v="2016-05-11" />
		<tag k="ssr:stedsnr" v="781199" />
	</node>
	<node id="-19566" lat="58.4071444404" lon="8.60477777607">
		<tag k="fixme" v="verify maritime location" />
		<tag k="mooring" v="yes" />
		<tag k="name" v="Lillestø" />
		<tag k="place" v="locality" />
		<tag k="ssr:date" v="2016-05-10" />
		<tag k="ssr:stedsnr" v="272368" />
	</node>
	<node id="-21610" lat="58.4165527745" lon="8.46490000558">
		<tag k="name" v="Lille Øykekleiv" />
		<tag k="place" v="locality" />
		<tag k="ssr:date" v="2016-05-10" />
		<tag k="ssr:stedsnr" v="242489" />
	</node>
	<node id="-24762" lat="58.3944166683" lon="8.70879722578">
		<tag k="name" v="Sagoddveien" />
		<tag k="ssr:date" v="2016-05-11" />
		<tag k="ssr:stedsnr" v="964840" />
	</node>
	<node id="-23617" lat="58.4076305595" lon="8.40021666182">
		<tag k="bridge" v="yes" />
		<tag k="layer" v="1" />
		<tag k="name" v="Øye" />
		<tag k="ssr:date" v="2016-05-11" />
		<tag k="ssr:stedsnr" v="774098" />
	</node>
	<node id="-23616" lat="58.3990388879" lon="8.50879999414">
		<tag k="bridge" v="yes" />
		<tag k="layer" v="1" />
		<tag k="name" v="Rønning" />
		<tag k="ssr:date" v="2016-05-11" />
		<tag k="ssr:stedsnr" v="774085" />
	</node>
	<node id="-23615" lat="58.3862861117" lon="8.67940277847">
		<tag k="bridge" v="yes" />
		<tag k="layer" v="1" />
		<tag k="name" v="Birketveit" />
		<tag k="ssr:date" v="2016-05-11" />
		<tag k="ssr:stedsnr" v="774072" />
	</node>
	<node id="-23611" lat="58.3520194478" lon="8.5953777732">
		<tag k="ssr:gml_id" v="GEOMETRY_2c0fc4fb-90c9-45b9-afc1-c31551461173" />
		<tag k="ssr:gml_nr" v="1" />
	</node>
	<node id="-23610" lat="58.3531277781" lon="8.59682222238">
		<tag k="ssr:gml_id" v="GEOMETRY_41b5abe4-6ea7-4e9b-8bc7-eb58554e5ed8" />
		<tag k="ssr:gml_nr" v="0" />
	</node>
	<node id="-23604" lat="58.3356499997" lon="8.55291389222">
		<tag k="name" v="Morholt" />
		<tag k="ssr:date" v="2016-05-11" />
		<tag k="ssr:stedsnr" v="764797" />
	</node>
	<node id="-21554" lat="58.3683027808" lon="8.63036388591">
		<tag k="name" v="Vikheia" />
		<tag k="ssr:date" v="2016-05-10" />
		<tag k="ssr:stedsnr" v="239127" />
	</node>
	<node id="-21553" lat="58.3299105505" lon="8.57041203871">
		<tag k="name" v="Volleveien" />
		<tag k="ssr:date" v="2018-01-24" />
		<tag k="ssr:stedsnr" v="238240" />
	</node>
	<node id="-21552" lat="58.3470472212" lon="8.55027777233">
		<tag k="name" v="Hommedalsskogen" />
		<tag k="ssr:date" v="2016-05-10" />
		<tag k="ssr:stedsnr" v="236887" />
	</node>
	<node id="-21551" lat="58.2877722199" lon="8.49125000483">
		<tag k="name" v="Homborsundveien" />
		<tag k="ssr:date" v="2016-05-10" />
		<tag k="ssr:stedsnr" v="236886" />
	</node>
	<node id="-21550" lat="58.2737472182" lon="8.50193610541">
		<tag k="name" v="Ospelia s." />
		<tag k="ssr:date" v="2016-05-10" />
		<tag k="ssr:stedsnr" v="236734" />
	</node>
	<node id="-21549" lat="58.3730888857" lon="8.65951389301">
		<tag k="name" v="Strandtoppen" />
		<tag k="ssr:date" v="2016-05-10" />
		<tag k="ssr:stedsnr" v="236583" />
	</node>
	<node id="-21548" lat="58.385252777" lon="8.69231944329">
		<tag k="name" v="Trolldalslia" />
		<tag k="ssr:date" v="2016-05-10" />
		<tag k="ssr:stedsnr" v="236535" />
	</node>
	<node id="-21547" lat="58.3489277759" lon="8.55901667049">
		<tag k="name" v="Gullsmedgada" />
		<tag k="ssr:date" v="2016-05-10" />
		<tag k="ssr:stedsnr" v="236256" />
	</node>
	<node id="-21546" lat="58.3805194488" lon="8.67810000776">
		<tag k="name" v="Sømsveien" />
		<tag k="ssr:date" v="2016-05-10" />
		<tag k="ssr:stedsnr" v="236644" />
	</node>
	<node id="-21534" lat="58.3471083365" lon="8.57892499233">
		<tag k="name" v="Klingremoveien" />
		<tag k="ssr:date" v="2016-05-10" />
		<tag k="ssr:stedsnr" v="235776" />
	</node>
	<node id="-23569" lat="58.3734722248" lon="8.59363889623">
		<tag k="highway" v="path" />
		<tag k="name" v="Bjørnestien" />
		<tag k="ssr:date" v="2016-05-11" />
		<tag k="ssr:stedsnr" v="758331" />
	</node>
	<node id="-21499" lat="58.3217222247" lon="8.56725833592">
		<tag k="name" v="Havgløttveien" />
		<tag k="ssr:date" v="2016-05-10" />
		<tag k="ssr:stedsnr" v="235032" />
	</node>
	<node id="-23545" lat="58.2889444485" lon="8.4389555489">
		<tag k="ssr:gml_id" v="GEOMETRY_740e34c9-4a45-49d7-92af-568691b7f0cf" />
		<tag k="ssr:gml_nr" v="1" />
	</node>
	<node id="-23544" lat="58.2890222267" lon="8.43854722959">
		<tag k="ssr:gml_id" v="GEOMETRY_637c5e1a-c72d-4c6d-89a8-4c82934917bf" />
		<tag k="ssr:gml_nr" v="0" />
	</node>
	<node id="-23543" lat="58.3501749957" lon="8.56909999914">
		<tag k="name" v="Solbergåsen" />
		<tag k="ssr:date" v="2016-05-11" />
		<tag k="ssr:stedsnr" v="732495" />
	</node>
	<node id="-23542" lat="58.3347749964" lon="8.58948889246">
		<tag k="name" v="Soloddveien" />
		<tag k="ssr:date" v="2016-05-11" />
		<tag k="ssr:stedsnr" v="732493" />
	</node>
	<node id="-23541" lat="58.3354277816" lon="8.58888333599">
		<tag k="name" v="Skonnertveien" />
		<tag k="ssr:date" v="2016-05-11" />
		<tag k="ssr:stedsnr" v="732361" />
	</node>
	<node id="-23537" lat="58.3162833377" lon="8.58142499188">
		<tag k="name" v="Østre Tvillingholmen" />
		<tag k="old_name" v="Tvillingholmen" />
		<tag k="ssr:date" v="2016-05-11" />
		<tag k="ssr:stedsnr" v="728991" />
	</node>
	<node id="-23536" lat="58.319263892" lon="8.61080000237">
		<tag k="ssr:gml_id" v="GEOMETRY_bf02a6ae-ee62-4b81-8938-96aa1946b821" />
		<tag k="ssr:gml_nr" v="1" />
	</node>
	<node id="-23535" lat="58.3192666668" lon="8.6108027714">
		<tag k="ssr:gml_id" v="GEOMETRY_b68079ad-9fd2-4f71-816d-55e972b64d34" />
		<tag k="ssr:gml_nr" v="0" />
	</node>
	<node id="-23534" lat="58.3134749997" lon="8.59669999385">
		<tag k="name" v="Galten" />
		<tag k="ssr:date" v="2016-05-11" />
		<tag k="ssr:stedsnr" v="728987" />
	</node>
	<node id="-21475" lat="58.3005083359" lon="8.53087777099">
		<tag k="man_made" v="cairn" />
		<tag k="name" v="Stølevarde" />
		<tag k="place" v="locality" />
		<tag k="ssr:date" v="2016-05-10" />
		<tag k="ssr:stedsnr" v="230463" />
	</node>
	<node id="-22693" lat="58.3353777756" lon="8.54453332535">
		<tag k="name" v="Væråsheia" />
		<tag k="ssr:date" v="2016-05-10" />
		<tag k="ssr:stedsnr" v="604984" />
	</node>
	<node id="-23495" lat="58.2917500014" lon="8.55742223048">
		<tag k="ssr:gml_id" v="GEOMETRY_67012f9e-8e40-47b8-975f-19593a1b07d1" />
		<tag k="ssr:gml_nr" v="1" />
	</node>
	<node id="-23494" lat="58.2917111134" lon="8.55585555256">
		<tag k="ssr:gml_id" v="GEOMETRY_7b4fe444-856d-455f-804d-543048741ecf" />
		<tag k="ssr:gml_nr" v="0" />
	</node>
	<node id="-23476" lat="58.4594861127" lon="8.48515556332">
		<tag k="name" v="Monsvingen" />
		<tag k="place" v="locality" />
		<tag k="ssr:date" v="2016-05-11" />
		<tag k="ssr:stedsnr" v="728693" />
	</node>
	<node id="-23469" lat="58.4113222244" lon="8.4642444411">
		<tag k="name" v="Gilet" />
		<tag k="ssr:date" v="2016-05-11" />
		<tag k="ssr:stedsnr" v="728578" />
	</node>
	<node id="-24389" lat="58.4258472195" lon="8.52575555871">
		<tag k="highway" v="path" />
		<tag k="name" v="Stien" />
		<tag k="ssr:date" v="2016-05-11" />
		<tag k="ssr:stedsnr" v="902556" />
	</node>
	<node id="-21400" lat="58.3160166701" lon="8.60262778547">
		<tag k="name" v="Vestre Leiholmsund" />
		<tag k="old_name" v="Leiholmsund, Vestre" />
		<tag k="ssr:date" v="2016-05-10" />
		<tag k="ssr:stedsnr" v="206096" />
	</node>
	<node id="-21398" lat="58.3401805572" lon="8.58585556122">
		<tag k="name" v="Solhøgda" />
		<tag k="ssr:date" v="2016-05-10" />
		<tag k="ssr:stedsnr" v="185425" />
	</node>
	<node id="-24729" lat="58.4434861133" lon="8.50073889047">
		<tag k="highway" v="path" />
		<tag k="name" v="Presteveien" />
		<tag k="ssr:date" v="2016-05-11" />
		<tag k="ssr:stedsnr" v="963398" />
	</node>
	<node id="-21396" lat="58.3320944463" lon="8.59404443619">
		<tag k="name" v="Vessøyhauet" />
		<tag k="old_name" v="Vessøyhue;Vessøyhodet" />
		<tag k="ssr:date" v="2016-05-10" />
		<tag k="ssr:stedsnr" v="182997" />
	</node>
	<node id="-21391" lat="58.307802779" lon="8.65841388722">
		<tag k="ssr:gml_id" v="GEOMETRY_4bab6f14-134f-4a69-982a-25dda229ad66" />
		<tag k="ssr:gml_nr" v="1" />
	</node>
	<node id="-21390" lat="58.3076277811" lon="8.65802778152">
		<tag k="ssr:gml_id" v="GEOMETRY_7f20a9cb-48bf-49bb-a746-40ea85fa8f4a" />
		<tag k="ssr:gml_nr" v="0" />
	</node>
	<node id="-23425" lat="58.4291277768" lon="8.39439999564">
		<tag k="ford" v="yes" />
		<tag k="name" v="Dølevad" />
		<tag k="place" v="locality" />
		<tag k="ssr:date" v="2016-05-11" />
		<tag k="ssr:stedsnr" v="728440" />
	</node>
	<node id="-22674" lat="58.385252777" lon="8.69231944329">
		<tag k="ssr:gml_id" v="GEOMETRY_04a5a231-de74-42e8-9794-59dcddccc041" />
		<tag k="ssr:gml_nr" v="1" />
	</node>
	<node id="-22673" lat="58.3826083345" lon="8.68661389196">
		<tag k="ssr:gml_id" v="GEOMETRY_f13aaf7f-fa17-44b0-a50b-177416a2f0a5" />
		<tag k="ssr:gml_nr" v="0" />
	</node>
	<node id="-21325" lat="58.3997000041" lon="8.35000834031">
		<tag k="bridge" v="yes" />
		<tag k="layer" v="1" />
		<tag k="name" v="Stibruna" />
		<tag k="ssr:date" v="2016-05-10" />
		<tag k="ssr:stedsnr" v="181826" />
	</node>
	<node id="-23359" lat="58.4655250037" lon="8.4905194399">
		<tag k="bridge" v="yes" />
		<tag k="layer" v="1" />
		<tag k="name" v="Teinelavsbruna" />
		<tag k="ssr:date" v="2016-05-11" />
		<tag k="ssr:stedsnr" v="728223" />
	</node>
	<node id="-23350" lat="58.4517861156" lon="8.49381943601">
		<tag k="name" v="Kvennekleiva" />
		<tag k="place" v="locality" />
		<tag k="ssr:date" v="2016-05-11" />
		<tag k="ssr:stedsnr" v="728137" />
	</node>
	<node id="-23328" lat="58.3704111087" lon="8.6488222269">
		<tag k="name" v="Vestre Moåsen" />
		<tag k="ssr:date" v="2016-05-11" />
		<tag k="ssr:stedsnr" v="724123" />
	</node>
	<node id="-23323" lat="58.3817583319" lon="8.68492777895">
		<tag k="name" v="Trolldalsveien" />
		<tag k="ssr:date" v="2016-05-11" />
		<tag k="ssr:stedsnr" v="722612" />
	</node>
	<node id="-23322" lat="58.3690722178" lon="8.63251111742">
		<tag k="name" v="Moen" />
		<tag k="ssr:date" v="2016-05-11" />
		<tag k="ssr:stedsnr" v="722575" />
	</node>
	<node id="-23321" lat="58.3388555581" lon="8.58713610435">
		<tag k="name" v="Merset" />
		<tag k="ssr:date" v="2016-05-11" />
		<tag k="ssr:stedsnr" v="722507" />
	</node>
	<node id="-23320" lat="58.375402774" lon="8.67920555823">
		<tag k="name" v="Verkstedveien" />
		<tag k="ssr:date" v="2016-05-11" />
		<tag k="ssr:stedsnr" v="722480" />
	</node>
	<node id="-23319" lat="58.3487555511" lon="8.59940556356">
		<tag k="name" v="Naxbie" />
		<tag k="ssr:date" v="2016-05-11" />
		<tag k="ssr:stedsnr" v="722437" />
	</node>
	<node id="-23316" lat="58.3757452486" lon="8.66081800768">
		<tag k="name" v="Vinterly" />
		<tag k="ssr:date" v="2018-01-24" />
		<tag k="ssr:stedsnr" v="722250" />
	</node>
	<node id="-23315" lat="58.3464194489" lon="8.59384721395">
		<tag k="name" v="Furuli terrasse" />
		<tag k="ssr:date" v="2016-05-11" />
		<tag k="ssr:stedsnr" v="721898" />
	</node>
	<node id="-21266" lat="58.3368277816" lon="8.55581944774">
		<tag k="name" v="Vestre Grøm" />
		<tag k="ssr:date" v="2016-05-10" />
		<tag k="ssr:stedsnr" v="178148" />
	</node>
	<node id="-21265" lat="58.3415638864" lon="8.54166944531">
		<tag k="name" v="Viggo Ullmanns vei" />
		<tag k="ssr:date" v="2016-05-10" />
		<tag k="ssr:stedsnr" v="178146" />
	</node>
	<node id="-23312" lat="58.3361194442" lon="8.57476944247">
		<tag k="name" v="Televeien" />
		<tag k="ssr:date" v="2016-05-11" />
		<tag k="ssr:stedsnr" v="721658" />
	</node>
	<node id="-23311" lat="58.2777472212" lon="8.46718332731">
		<tag k="name" v="Eideveien" />
		<tag k="ssr:date" v="2016-05-11" />
		<tag k="ssr:stedsnr" v="721466" />
	</node>
	<node id="-23310" lat="58.3695777745" lon="8.64310277993">
		<tag k="name" v="Kleppekjærveien" />
		<tag k="ssr:date" v="2016-05-11" />
		<tag k="ssr:stedsnr" v="721730" />
	</node>
	<node id="-23308" lat="58.3487527741" lon="8.59549445171">
		<tag k="name" v="Fladefjell" />
		<tag k="ssr:date" v="2016-05-11" />
		<tag k="ssr:stedsnr" v="721294" />
	</node>
	<node id="-21259" lat="58.3413305518" lon="8.58919166547">
		<tag k="name" v="Høyvardeveien" />
		<tag k="ssr:date" v="2016-05-10" />
		<tag k="ssr:stedsnr" v="175885" />
	</node>
	<node id="-23306" lat="58.3448249961" lon="8.54642778292">
		<tag k="name" v="Hansplassveien" />
		<tag k="ssr:date" v="2016-05-11" />
		<tag k="ssr:stedsnr" v="721177" />
	</node>
	<node id="-23305" lat="58.3443861122" lon="8.55217221985">
		<tag k="name" v="Bergeli" />
		<tag k="ssr:date" v="2016-05-11" />
		<tag k="ssr:stedsnr" v="721170" />
	</node>
	<node id="-21256" lat="58.3688527748" lon="8.61930000698">
		<tag k="name" v="Spedalen" />
		<tag k="ssr:date" v="2016-05-10" />
		<tag k="ssr:stedsnr" v="175626" />
	</node>
	<node id="-21254" lat="58.3398722251" lon="8.57948889424">
		<tag k="name" v="Grømheia" />
		<tag k="ssr:date" v="2016-05-10" />
		<tag k="ssr:stedsnr" v="175387" />
	</node>
	<node id="-21253" lat="58.3423527785" lon="8.58858055193">
		<tag k="name" v="Knibeheia" />
		<tag k="ssr:date" v="2016-05-10" />
		<tag k="ssr:stedsnr" v="175759" />
	</node>
	<node id="-21252" lat="58.3862166676" lon="8.67874722013">
		<tag k="name" v="Gamle Birketveitveien" />
		<tag k="ssr:date" v="2016-05-10" />
		<tag k="ssr:stedsnr" v="175724" />
	</node>
	<node id="-21251" lat="58.358213885" lon="8.60270000081">
		<tag k="name" v="Laugevoldveien" />
		<tag k="ssr:date" v="2016-05-10" />
		<tag k="ssr:stedsnr" v="175347" />
	</node>
	<node id="-21244" lat="58.4076333329" lon="8.40022777248">
		<tag k="bridge" v="yes" />
		<tag k="layer" v="1" />
		<tag k="name" v="Øyebrua" />
		<tag k="ssr:date" v="2016-05-10" />
		<tag k="ssr:stedsnr" v="174905" />
	</node>
	<node id="-24019" lat="58.3700027777" lon="8.61416943636">
		<tag k="ssr:gml_id" v="GEOMETRY_c73b7866-25c4-416d-a268-a9b86b5368e7" />
		<tag k="ssr:gml_nr" v="0" />
	</node>
	<node id="-21222" lat="58.4228333324" lon="8.3760694379">
		<tag k="name" v="Rosevasskleiva" />
		<tag k="ssr:date" v="2016-05-10" />
		<tag k="ssr:stedsnr" v="174306" />
	</node>
	<node id="-24017" lat="58.3597722178" lon="8.5985444476">
		<tag k="bridge" v="yes" />
		<tag k="layer" v="1" />
		<tag k="name" v="Gjømle" />
		<tag k="ssr:date" v="2016-05-11" />
		<tag k="ssr:stedsnr" v="835065" />
	</node>
	<node id="-21219" lat="58.3424249964" lon="8.59426944196">
		<tag k="name" v="Arendalsveien" />
		<tag k="ssr:date" v="2016-05-10" />
		<tag k="ssr:stedsnr" v="174235" />
	</node>
	<node id="-20943" lat="58.3771166628" lon="8.67841944342">
		<tag k="name" v="Jordene" />
		<tag k="ssr:date" v="2016-05-10" />
		<tag k="ssr:stedsnr" v="114664" />
	</node>
	<node id="-21202" lat="58.3741611129" lon="8.67819165935">
		<tag k="name" v="Heiabakken" />
		<tag k="ssr:date" v="2016-05-10" />
		<tag k="ssr:stedsnr" v="174020" />
	</node>
	<node id="-23240" lat="58.3402305589" lon="8.58210554902">
		<tag k="bridge" v="yes" />
		<tag k="layer" v="1" />
		<tag k="name" v="Vassbekk vestre" />
		<tag k="ssr:date" v="2016-05-11" />
		<tag k="ssr:stedsnr" v="714083" />
	</node>
	<node id="-23239" lat="58.3823861151" lon="8.39860555533">
		<tag k="bridge" v="yes" />
		<tag k="layer" v="1" />
		<tag k="name" v="Gusdal" />
		<tag k="ssr:date" v="2016-05-11" />
		<tag k="ssr:stedsnr" v="713073" />
	</node>
	<node id="-23238" lat="58.3358611086" lon="8.58194166916">
		<tag k="bridge" v="yes" />
		<tag k="layer" v="1" />
		<tag k="name" v="Grooseveien" />
		<tag k="ssr:date" v="2016-05-11" />
		<tag k="ssr:stedsnr" v="713071" />
	</node>
	<node id="-21169" lat="58.3329916628" lon="8.58111110306">
		<tag k="bridge" v="yes" />
		<tag k="layer" v="1" />
		<tag k="name" v="Groos" />
		<tag k="ssr:date" v="2016-05-10" />
		<tag k="ssr:stedsnr" v="167068" />
	</node>
	<node id="-21168" lat="58.3360638894" lon="8.58145833135">
		<tag k="bridge" v="yes" />
		<tag k="layer" v="1" />
		<tag k="name" v="Groosebekken" />
		<tag k="ssr:date" v="2016-05-10" />
		<tag k="ssr:stedsnr" v="167067" />
	</node>
	<node id="-23203" lat="58.3355833334" lon="8.57463888125">
		<tag k="name" v="Terje Løvåsvei" />
		<tag k="ssr:date" v="2016-05-11" />
		<tag k="ssr:stedsnr" v="697338" />
	</node>
	<node id="-23202" lat="58.3458027735" lon="8.55316111748">
		<tag k="ssr:gml_id" v="GEOMETRY_437688f6-91a2-40e4-834d-e7a80e314102" />
		<tag k="ssr:gml_nr" v="1" />
	</node>
	<node id="-23201" lat="58.3460194445" lon="8.55428611028">
		<tag k="ssr:gml_id" v="GEOMETRY_8100d4db-d607-401a-b01d-6dcde96e990b" />
		<tag k="ssr:gml_nr" v="0" />
	</node>
	<node id="-23191" lat="58.2519166682" lon="8.45036111381">
		<tag k="man_made" v="cairn" />
		<tag k="name" v="Varden" />
		<tag k="place" v="locality" />
		<tag k="ssr:date" v="2016-05-11" />
		<tag k="ssr:stedsnr" v="697284" />
	</node>
	<node id="-21956" lat="58.2598944483" lon="8.5105305614">
		<tag k="name" v="Sundholmen" />
		<tag k="ssr:date" v="2016-05-10" />
		<tag k="ssr:stedsnr" v="425954" />
	</node>
	<node id="-23314" lat="58.3870694422" lon="8.70480556332">
		<tag k="name" v="Ruagerveien" />
		<tag k="ssr:date" v="2016-05-11" />
		<tag k="ssr:stedsnr" v="721858" />
	</node>
	<node id="-21097" lat="58.3036138897" lon="8.5838750036">
		<tag k="ssr:gml_id" v="GEOMETRY_d7cd1aa2-d83e-4891-825c-c17711efe81d" />
		<tag k="ssr:gml_nr" v="1" />
	</node>
	<node id="-21096" lat="58.3035333355" lon="8.58319723062">
		<tag k="ssr:gml_id" v="GEOMETRY_ce7df487-379d-4006-83e5-078593627062" />
		<tag k="ssr:gml_nr" v="0" />
	</node>
	<node id="-21263" lat="58.3421027743" lon="8.59434166569">
		<tag k="name" v="Løkkestredet" />
		<tag k="ssr:date" v="2016-05-10" />
		<tag k="ssr:stedsnr" v="176628" />
	</node>
	<node id="-21262" lat="58.3822444474" lon="8.70378611422">
		<tag k="name" v="Snarveien" />
		<tag k="ssr:date" v="2016-05-10" />
		<tag k="ssr:stedsnr" v="176349" />
	</node>
	<node id="-24093" lat="58.3482861108" lon="8.57655277048">
		<tag k="name" v="Dybedalsveien" />
		<tag k="ssr:date" v="2016-05-11" />
		<tag k="ssr:stedsnr" v="842480" />
	</node>
	<node id="-23115" lat="58.4539305565" lon="8.49288055244">
		<tag k="bridge" v="yes" />
		<tag k="layer" v="1" />
		<tag k="name" v="Hørtestokken" />
		<tag k="ssr:date" v="2016-05-10" />
		<tag k="ssr:stedsnr" v="667640" />
	</node>
	<node id="-21260" lat="58.3678804485" lon="8.6302087488">
		<tag k="name" v="Vindheim" />
		<tag k="ssr:date" v="2018-01-24" />
		<tag k="ssr:stedsnr" v="176208" />
	</node>
	<node id="-21057" lat="58.4053999994" lon="8.4127055606">
		<tag k="name" v="Vassbottkleiva" />
		<tag k="place" v="locality" />
		<tag k="ssr:date" v="2016-05-10" />
		<tag k="ssr:stedsnr" v="121533" />
	</node>
	<node id="-21258" lat="58.3656333345" lon="8.59420832849">
		<tag k="name" v="Tauleveien" />
		<tag k="ssr:date" v="2016-05-10" />
		<tag k="ssr:stedsnr" v="175692" />
	</node>
	<node id="-23092" lat="58.3833055582" lon="8.74239167157">
		<tag k="name" v="Spærholmen" />
		<tag k="ssr:date" v="2016-05-10" />
		<tag k="ssr:stedsnr" v="667487" />
	</node>
	<node id="-23057" lat="58.4623944469" lon="8.47829166289">
		<tag k="highway" v="path" />
		<tag k="name" v="Presteskoddet" />
		<tag k="ssr:date" v="2016-05-10" />
		<tag k="ssr:stedsnr" v="667293" />
	</node>
	<node id="-23011" lat="58.4754111076" lon="8.45049445248">
		<tag k="highway" v="path" />
		<tag k="name" v="Stien" />
		<tag k="ssr:date" v="2016-05-10" />
		<tag k="ssr:stedsnr" v="666415" />
	</node>
	<node id="-20961" lat="58.336347219" lon="8.53172777505">
		<tag k="name" v="Torvåsen" />
		<tag k="ssr:date" v="2016-05-10" />
		<tag k="ssr:stedsnr" v="115542" />
	</node>
	<node id="-20960" lat="58.3374166661" lon="8.5871194454">
		<tag k="name" v="Midtskips" />
		<tag k="ssr:date" v="2016-05-10" />
		<tag k="ssr:stedsnr" v="115535" />
	</node>
	<node id="-20959" lat="58.3785750019" lon="8.67637222125">
		<tag k="name" v="Dr. Crawfurds vei" />
		<tag k="ssr:date" v="2016-05-10" />
		<tag k="ssr:stedsnr" v="115473" />
	</node>
	<node id="-20958" lat="58.3591333362" lon="8.6062972233">
		<tag k="name" v="Båtstøveien" />
		<tag k="ssr:date" v="2016-05-10" />
		<tag k="ssr:stedsnr" v="115472" />
	</node>
	<node id="-20955" lat="58.335374997" lon="8.58924166479">
		<tag k="name" v="Guldmandsveien" />
		<tag k="ssr:date" v="2016-05-10" />
		<tag k="ssr:stedsnr" v="115257" />
	</node>
	<node id="-20954" lat="58.3501444445" lon="8.52741111668">
		<tag k="name" v="Lille Imås" />
		<tag k="ssr:date" v="2016-05-10" />
		<tag k="ssr:stedsnr" v="115058" />
	</node>
	<node id="-22997" lat="58.3535638898" lon="8.58904999588">
		<tag k="name" v="Jerpeveien" />
		<tag k="ssr:date" v="2016-05-10" />
		<tag k="ssr:stedsnr" v="661940" />
	</node>
	<node id="-22996" lat="58.3721055575" lon="8.65128332943">
		<tag k="name" v="Moåsbakken" />
		<tag k="ssr:date" v="2016-05-10" />
		<tag k="ssr:stedsnr" v="661749" />
	</node>
	<node id="-22995" lat="58.3801461012" lon="8.68648648124">
		<tag k="name" v="Øvre Ranviga" />
		<tag k="ssr:date" v="2018-01-24" />
		<tag k="ssr:stedsnr" v="661529" />
	</node>
	<node id="-22994" lat="58.3152428012" lon="8.55592542464">
		<tag k="name" v="Østerskogen" />
		<tag k="ssr:date" v="2018-01-24" />
		<tag k="ssr:stedsnr" v="661520" />
	</node>
	<node id="-22993" lat="58.353544444" lon="8.59169721894">
		<tag k="name" v="Orrebakken" />
		<tag k="ssr:date" v="2016-05-10" />
		<tag k="ssr:stedsnr" v="661464" />
	</node>
	<node id="-22992" lat="58.3301083318" lon="8.56900277331">
		<tag k="name" v="Dr. Erichsens vei" />
		<tag k="ssr:date" v="2016-05-10" />
		<tag k="ssr:stedsnr" v="661445" />
	</node>
	<node id="-22991" lat="58.347925004" lon="8.59230832491">
		<tag k="name" v="Tyribakken" />
		<tag k="ssr:date" v="2016-05-10" />
		<tag k="ssr:stedsnr" v="661442" />
	</node>
	<node id="-22990" lat="58.32845556" lon="8.57378611081">
		<tag k="name" v="Mølleveien" />
		<tag k="ssr:date" v="2016-05-10" />
		<tag k="ssr:stedsnr" v="661414" />
	</node>
	<node id="-22988" lat="58.3934611138" lon="8.69221388891">
		<tag k="name" v="Vessøyheia" />
		<tag k="ssr:date" v="2016-05-10" />
		<tag k="ssr:stedsnr" v="661345" />
	</node>
	<node id="-22987" lat="58.3451277768" lon="8.58326944325">
		<tag k="name" v="Frivoldveien" />
		<tag k="ssr:date" v="2016-05-10" />
		<tag k="ssr:stedsnr" v="660890" />
	</node>
	<node id="-22986" lat="58.3455722183" lon="8.59568334066">
		<tag k="name" v="Furuliveien" />
		<tag k="ssr:date" v="2016-05-10" />
		<tag k="ssr:stedsnr" v="660881" />
	</node>
	<node id="-22985" lat="58.268211111" lon="8.51053610742">
		<tag k="name" v="Jorvardeveien" />
		<tag k="ssr:date" v="2016-05-10" />
		<tag k="ssr:stedsnr" v="660659" />
	</node>
	<node id="-22984" lat="58.3399805514" lon="8.58298888405">
		<tag k="name" v="Grooseveien" />
		<tag k="ssr:date" v="2016-05-10" />
		<tag k="ssr:stedsnr" v="660391" />
	</node>
	<node id="-22983" lat="58.3161583355" lon="8.56285556107">
		<tag k="name" v="Bjønneveien" />
		<tag k="ssr:date" v="2016-05-10" />
		<tag k="ssr:stedsnr" v="660310" />
	</node>
	<node id="-22982" lat="58.3535999979" lon="8.59812222037">
		<tag k="name" v="Bieveien" />
		<tag k="ssr:date" v="2016-05-10" />
		<tag k="ssr:stedsnr" v="660269" />
	</node>
	<node id="-22981" lat="58.3158499992" lon="8.56704167072">
		<tag k="name" v="Gunder Danielsens vei" />
		<tag k="ssr:date" v="2016-05-10" />
		<tag k="ssr:stedsnr" v="660248" />
	</node>
	<node id="-22980" lat="58.3391972195" lon="8.59001945036">
		<tag k="name" v="Lauvstøveien" />
		<tag k="ssr:date" v="2016-05-10" />
		<tag k="ssr:stedsnr" v="660026" />
	</node>
	<node id="-20930" lat="58.3754861122" lon="8.68012778257">
		<tag k="name" v="Boes bakke" />
		<tag k="ssr:date" v="2016-05-10" />
		<tag k="ssr:stedsnr" v="114299" />
	</node>
	<node id="-22969" lat="58.3580805584" lon="8.5974222251">
		<tag k="name" v="Killegårdveien" />
		<tag k="ssr:date" v="2016-05-10" />
		<tag k="ssr:stedsnr" v="659515" />
	</node>
	<node id="-19996" lat="58.3223138918" lon="8.57225556365">
		<tag k="name" v="Holvigasvingen" />
		<tag k="ssr:date" v="2016-05-10" />
		<tag k="ssr:stedsnr" v="357020" />
	</node>
	<node id="-20909" lat="58.3422861137" lon="8.59269999555">
		<tag k="name" v="Kirkegaten" />
		<tag k="ssr:date" v="2016-05-10" />
		<tag k="ssr:stedsnr" v="113515" />
	</node>
	<node id="-20905" lat="58.4556305596" lon="8.39125277061">
		<tag k="man_made" v="cairn" />
		<tag k="name" v="Gluggvarden" />
		<tag k="place" v="locality" />
		<tag k="ssr:date" v="2016-05-10" />
		<tag k="ssr:stedsnr" v="113233" />
	</node>
	<node id="-19995" lat="58.380552781" lon="8.6726777823">
		<tag k="name" v="Lauvåsen terrasse" />
		<tag k="ssr:date" v="2016-05-10" />
		<tag k="ssr:stedsnr" v="357003" />
	</node>
	<node id="-22932" lat="58.3364583312" lon="8.53316111121">
		<tag k="name" v="Helvigåsen" />
		<tag k="ssr:date" v="2016-05-10" />
		<tag k="ssr:stedsnr" v="659028" />
	</node>
	<node id="-20875" lat="58.3168333317" lon="8.42425556231">
		<tag k="highway" v="path" />
		<tag k="name" v="Olstadvegen" />
		<tag k="ssr:date" v="2016-05-10" />
		<tag k="ssr:stedsnr" v="108644" />
	</node>
	<node id="-20870" lat="58.3847666694" lon="8.52891111349">
		<tag k="bridge" v="yes" />
		<tag k="layer" v="1" />
		<tag k="name" v="Skiftenes" />
		<tag k="ssr:date" v="2016-05-10" />
		<tag k="ssr:stedsnr" v="107064" />
	</node>
	<node id="-20869" lat="58.348975004" lon="8.58529167439">
		<tag k="bridge" v="yes" />
		<tag k="layer" v="1" />
		<tag k="name" v="Frivolldalen øvre" />
		<tag k="ssr:date" v="2016-05-10" />
		<tag k="ssr:stedsnr" v="106085" />
	</node>
	<node id="-20868" lat="58.3297000043" lon="8.49471944432">
		<tag k="bridge" v="yes" />
		<tag k="layer" v="1" />
		<tag k="name" v="Dalholt" />
		<tag k="ssr:date" v="2016-05-10" />
		<tag k="ssr:stedsnr" v="106084" />
	</node>
	<node id="-22933" lat="58.3501972265" lon="8.5297861113">
		<tag k="name" v="Holteveien" />
		<tag k="ssr:date" v="2016-05-10" />
		<tag k="ssr:stedsnr" v="659033" />
	</node>
	<node id="-22900" lat="58.3682305521" lon="8.62318333302">
		<tag k="bridge" v="yes" />
		<tag k="layer" v="1" />
		<tag k="name" v="Vikkrysset" />
		<tag k="ssr:date" v="2016-05-10" />
		<tag k="ssr:stedsnr" v="653079" />
	</node>
	<node id="-22899" lat="58.3918944477" lon="8.6979333311">
		<tag k="bridge" v="yes" />
		<tag k="layer" v="1" />
		<tag k="name" v="Vessøy vegkryss" />
		<tag k="ssr:date" v="2016-05-10" />
		<tag k="ssr:stedsnr" v="653077" />
	</node>
	<node id="-22898" lat="58.3905777777" lon="8.64614722952">
		<tag k="bridge" v="yes" />
		<tag k="layer" v="1" />
		<tag k="name" v="Lia" />
		<tag k="ssr:date" v="2016-05-10" />
		<tag k="ssr:stedsnr" v="652069" />
	</node>
	<node id="-20847" lat="58.2706666666" lon="8.46991666937">
		<tag k="name" v="Kanalen" />
		<tag k="ssr:date" v="2016-05-10" />
		<tag k="ssr:stedsnr" v="90397" />
		<tag k="waterway" v="canal" />
	</node>
	<node id="-20844" lat="58.4037861072" lon="8.64284722194">
		<tag k="ssr:gml_id" v="GEOMETRY_17ccccf6-54b0-4ffb-9029-11af90310a7b" />
		<tag k="ssr:gml_nr" v="1" />
	</node>
	<node id="-20843" lat="58.4039027763" lon="8.64260833455">
		<tag k="ssr:gml_id" v="GEOMETRY_e0ab1edc-92a2-4afa-a98f-01cd0d4a19fc" />
		<tag k="ssr:gml_nr" v="0" />
	</node>
	<node id="-24931" lat="58.3708885394" lon="8.65445066144">
		<tag k="name" v="Salverødheia" />
		<tag k="ssr:date" v="2017-01-17" />
		<tag k="ssr:stedsnr" v="973924" />
	</node>
	<node id="-24930" lat="58.254072125" lon="8.53016817615">
		<tag k="name" v="Homborsund" />
		<tag k="ssr:date" v="2017-01-17" />
		<tag k="ssr:stedsnr" v="973923" />
	</node>
	<node id="-24929" lat="58.2760738572" lon="8.51701547578">
		<tag k="name" v="Veddeskogen" />
		<tag k="ssr:date" v="2017-01-17" />
		<tag k="ssr:stedsnr" v="973918" />
	</node>
	<node id="-24928" lat="58.2786645166" lon="8.52404376478">
		<tag k="name" v="Havnevågveien" />
		<tag k="ssr:date" v="2017-01-17" />
		<tag k="ssr:stedsnr" v="973917" />
	</node>
	<node id="-24927" lat="58.302490748" lon="8.59374038936">
		<tag k="name" v="Håøya" />
		<tag k="ssr:date" v="2017-01-17" />
		<tag k="ssr:stedsnr" v="973914" />
	</node>
	<node id="-24926" lat="58.2565406494" lon="8.4488139996">
		<tag k="name" v="Auesøya" />
		<tag k="ssr:date" v="2017-01-17" />
		<tag k="ssr:stedsnr" v="973913" />
	</node>
	<node id="-24925" lat="58.2524136933" lon="8.50359823602">
		<tag k="name" v="Homborøya" />
		<tag k="ssr:date" v="2017-01-17" />
		<tag k="ssr:stedsnr" v="973912" />
	</node>
	<node id="-24924" lat="58.2719886298" lon="8.52609654471">
		<tag k="name" v="Hoveneset" />
		<tag k="ssr:date" v="2017-01-17" />
		<tag k="ssr:stedsnr" v="973911" />
	</node>
	<node id="-24923" lat="58.2725123236" lon="8.52420072287">
		<tag k="name" v="Hove hyttefelt" />
		<tag k="ssr:date" v="2017-01-17" />
		<tag k="ssr:stedsnr" v="973910" />
	</node>
	<node id="-24922" lat="58.3500690721" lon="8.64668858802">
		<tag k="name" v="Furuvigveien" />
		<tag k="ssr:date" v="2017-01-13" />
		<tag k="ssr:stedsnr" v="973875" />
	</node>
	<node id="-24921" lat="58.3655999004" lon="8.6653614194">
		<tag k="name" v="Stangholmveien" />
		<tag k="ssr:date" v="2017-01-13" />
		<tag k="ssr:stedsnr" v="973859" />
	</node>
	<node id="-24920" lat="58.3776079122" lon="8.70651091195">
		<tag k="name" v="Strandveien" />
		<tag k="ssr:date" v="2017-01-13" />
		<tag k="ssr:stedsnr" v="973860" />
	</node>
	<node id="-24919" lat="58.3637705566" lon="8.6691406356">
		<tag k="name" v="Skraviga" />
		<tag k="ssr:date" v="2017-01-13" />
		<tag k="ssr:stedsnr" v="973858" />
	</node>
	<node id="-24918" lat="58.3453988317" lon="8.58461717979">
		<tag k="name" v="Juliane Fuhrs gate" />
		<tag k="ssr:date" v="2017-01-11" />
		<tag k="ssr:stedsnr" v="973826" />
	</node>
	<node id="-23947" lat="58.3424527787" lon="8.65285832885">
		<tag k="ssr:gml_id" v="GEOMETRY_87bbb28b-f363-44c5-a6e8-e08650e08c40" />
		<tag k="ssr:gml_nr" v="0" />
	</node>
	<node id="-22848" lat="58.4192500029" lon="8.59136111585">
		<tag k="fixme" v="verify maritime location" />
		<tag k="mooring" v="yes" />
		<tag k="name" v="Timmerstø" />
		<tag k="place" v="locality" />
		<tag k="ssr:date" v="2016-05-10" />
		<tag k="ssr:stedsnr" v="636270" />
	</node>
	<node id="-20797" lat="58.2590000006" lon="8.51577500622">
		<tag k="name" v="Havnespynten" />
		<tag k="ssr:date" v="2016-05-10" />
		<tag k="ssr:stedsnr" v="61950" />
	</node>
	<node id="-19997" lat="58.3442972205" lon="8.54513611755">
		<tag k="name" v="Lauråslia" />
		<tag k="ssr:date" v="2016-05-10" />
		<tag k="ssr:stedsnr" v="357030" />
	</node>
	<node id="-24866" lat="58.4292833329" lon="8.40657222105">
		<tag k="name" v="Klamre" />
		<tag k="place" v="locality" />
		<tag k="ssr:date" v="2016-05-11" />
		<tag k="ssr:stedsnr" v="970689" />
	</node>
	<node id="-24854" lat="58.4668583316" lon="8.44831388363">
		<tag k="fixme" v="consider highway=path" />
		<tag k="highway" v="track" />
		<tag k="name" v="Under Øygardskleiva" />
		<tag k="ssr:date" v="2016-05-11" />
		<tag k="ssr:stedsnr" v="970537" />
	</node>
	<node id="-24852" lat="58.4742138885" lon="8.4458138941">
		<tag k="bridge" v="yes" />
		<tag k="layer" v="1" />
		<tag k="name" v="Storebruna" />
		<tag k="ssr:date" v="2016-05-11" />
		<tag k="ssr:stedsnr" v="970512" />
	</node>
	<node id="-23598" lat="58.3410277761" lon="8.63252777821">
		<tag k="fixme" v="verify maritime location" />
		<tag k="mooring" v="yes" />
		<tag k="name" v="Kivestø" />
		<tag k="place" v="locality" />
		<tag k="ssr:date" v="2016-05-11" />
		<tag k="ssr:stedsnr" v="758532" />
	</node>
	<node id="-24837" lat="58.4627777775" lon="8.42073056104">
		<tag k="name" v="Klomrekleiva" />
		<tag k="place" v="locality" />
		<tag k="ssr:date" v="2016-05-11" />
		<tag k="ssr:stedsnr" v="970450" />
	</node>
	<node id="-24836" lat="58.4603472198" lon="8.41950277435">
		<tag k="ford" v="yes" />
		<tag k="name" v="Vadet" />
		<tag k="place" v="locality" />
		<tag k="ssr:date" v="2016-05-11" />
		<tag k="ssr:stedsnr" v="970449" />
	</node>
	<node id="-22781" lat="58.4538499988" lon="8.49332778276">
		<tag k="name" v="Hestefluet" />
		<tag k="ssr:date" v="2016-05-10" />
		<tag k="ssr:stedsnr" v="606635" />
	</node>
	<node id="-22778" lat="58.4336805528" lon="8.37025832497">
		<tag k="name" v="Spikkekleiva" />
		<tag k="place" v="locality" />
		<tag k="ssr:date" v="2016-05-10" />
		<tag k="ssr:stedsnr" v="606574" />
	</node>
	<node id="-22767" lat="58.4186694452" lon="8.4625222203">
		<tag k="name" v="Øykekleiv" />
		<tag k="place" v="locality" />
		<tag k="ssr:date" v="2016-05-10" />
		<tag k="ssr:stedsnr" v="606518" />
	</node>
	<node id="-20712" lat="58.4591333316" lon="8.48024166425">
		<tag k="bridge" v="yes" />
		<tag k="layer" v="1" />
		<tag k="name" v="Risbruna" />
		<tag k="ssr:date" v="2016-05-10" />
		<tag k="ssr:stedsnr" v="60732" />
	</node>
	<node id="-20701" lat="58.4107361078" lon="8.46378888158">
		<tag k="name" v="Austegardskleiva" />
		<tag k="place" v="locality" />
		<tag k="ssr:date" v="2016-05-10" />
		<tag k="ssr:stedsnr" v="60580" />
	</node>
	<node id="-22743" lat="58.4668027744" lon="8.44759443639">
		<tag k="fixme" v="consider highway=path" />
		<tag k="highway" v="track" />
		<tag k="name" v="Oppå Øygardskleiva" />
		<tag k="ssr:date" v="2016-05-10" />
		<tag k="ssr:stedsnr" v="606325" />
	</node>
	<node id="-24790" lat="58.4062500023" lon="8.42360834003">
		<tag k="highway" v="path" />
		<tag k="name" v="Grasmyrstien" />
		<tag k="ssr:date" v="2016-05-11" />
		<tag k="ssr:stedsnr" v="970049" />
	</node>
	<node id="-24784" lat="58.4753888903" lon="8.44742499222">
		<tag k="highway" v="path" />
		<tag k="name" v="Buvegen" />
		<tag k="ssr:date" v="2016-05-11" />
		<tag k="ssr:stedsnr" v="969443" />
	</node>
	<node id="-20681" lat="58.4191249957" lon="8.42269722166">
		<tag k="fixme" v="consider highway=path" />
		<tag k="highway" v="track" />
		<tag k="name" v="Kjørkevegen" />
		<tag k="ssr:date" v="2016-05-10" />
		<tag k="ssr:stedsnr" v="60359" />
	</node>
	<node id="-24774" lat="58.3405888919" lon="8.59287222563">
		<tag k="name" v="Vestregate" />
		<tag k="ssr:date" v="2016-05-11" />
		<tag k="ssr:stedsnr" v="967126" />
	</node>
	<node id="-24768" lat="58.3846305584" lon="8.69836111631">
		<tag k="name" v="Trolldalen øst" />
		<tag k="ssr:date" v="2016-05-11" />
		<tag k="ssr:stedsnr" v="965577" />
	</node>
	<node id="-22719" lat="58.4509527759" lon="8.49439722382">
		<tag k="name" v="Prestekleiva" />
		<tag k="place" v="locality" />
		<tag k="ssr:date" v="2016-05-10" />
		<tag k="ssr:stedsnr" v="606159" />
	</node>
	<node id="-24765" lat="58.3431861123" lon="8.58551389352">
		<tag k="name" v="Skaregrømsveien" />
		<tag k="ssr:date" v="2016-05-11" />
		<tag k="ssr:stedsnr" v="965280" />
	</node>
	<node id="-24764" lat="58.3415361104" lon="8.59449999307">
		<tag k="name" v="Skolegaten" />
		<tag k="ssr:date" v="2016-05-11" />
		<tag k="ssr:stedsnr" v="965272" />
	</node>
	<node id="-24763" lat="58.3570861074" lon="8.60108888718">
		<tag k="name" v="J.M.Uglands vei" />
		<tag k="ssr:date" v="2016-05-11" />
		<tag k="ssr:stedsnr" v="964911" />
	</node>
	<node id="-22714" lat="58.4200611098" lon="8.38045000042">
		<tag k="bridge" v="yes" />
		<tag k="layer" v="1" />
		<tag k="name" v="Hålandsbruna" />
		<tag k="ssr:date" v="2016-05-10" />
		<tag k="ssr:stedsnr" v="606121" />
	</node>
	<node id="-24761" lat="58.3188583334" lon="8.54918332485">
		<tag k="name" v="Morviga" />
		<tag k="ssr:date" v="2016-05-11" />
		<tag k="ssr:stedsnr" v="964745" />
	</node>
	<node id="-24760" lat="58.3534749973" lon="8.58976667234">
		<tag k="name" v="Svaneveien" />
		<tag k="ssr:date" v="2016-05-11" />
		<tag k="ssr:stedsnr" v="964636" />
	</node>
	<node id="-24759" lat="58.3839666681" lon="8.70283055374">
		<tag k="name" v="Mellomveien" />
		<tag k="ssr:date" v="2016-05-11" />
		<tag k="ssr:stedsnr" v="964614" />
	</node>
	<node id="-24758" lat="58.337477778" lon="8.59225833804">
		<tag k="name" v="Odden" />
		<tag k="ssr:date" v="2016-05-11" />
		<tag k="ssr:stedsnr" v="964408" />
	</node>
	<node id="-24757" lat="58.3426944468" lon="8.59136110929">
		<tag k="name" v="Nygaten" />
		<tag k="ssr:date" v="2016-05-11" />
		<tag k="ssr:stedsnr" v="964407" />
	</node>
	<node id="-24756" lat="58.356997218" lon="8.60107222018">
		<tag k="name" v="Fjæresvingen" />
		<tag k="ssr:date" v="2016-05-11" />
		<tag k="ssr:stedsnr" v="964321" />
	</node>
	<node id="-24755" lat="58.3212361068" lon="8.56659999987">
		<tag k="name" v="Fjellknattveien" />
		<tag k="ssr:date" v="2016-05-11" />
		<tag k="ssr:stedsnr" v="964320" />
	</node>
	<node id="-24754" lat="58.3737083378" lon="8.66591943856">
		<tag k="name" v="Fevikveien" />
		<tag k="ssr:date" v="2016-05-11" />
		<tag k="ssr:stedsnr" v="964318" />
	</node>
	<node id="-24753" lat="58.373761109" lon="8.66586944554">
		<tag k="name" v="Brattemoen" />
		<tag k="ssr:date" v="2016-05-11" />
		<tag k="ssr:stedsnr" v="964308" />
	</node>
	<node id="-22694" lat="58.4665833315" lon="8.41672500376">
		<tag k="name" v="Langekleiv" />
		<tag k="place" v="locality" />
		<tag k="ssr:date" v="2016-05-10" />
		<tag k="ssr:stedsnr" v="605029" />
	</node>
	<node id="-20645" lat="58.3698222226" lon="8.61843333324">
		<tag k="name" v="Vik" />
		<tag k="ssr:date" v="2016-05-10" />
		<tag k="ssr:stedsnr" v="57110" />
	</node>
	<node id="-22692" lat="58.443591671" lon="8.41469166111">
		<tag k="name" v="Rennehaven" />
		<tag k="ssr:date" v="2016-05-10" />
		<tag k="ssr:stedsnr" v="606865" />
	</node>
	<node id="-22690" lat="58.4064972206" lon="8.36037500074">
		<tag k="bridge" v="yes" />
		<tag k="layer" v="1" />
		<tag k="name" v="Risdalbruna" />
		<tag k="ssr:date" v="2016-05-10" />
		<tag k="ssr:stedsnr" v="606837" />
	</node>
	<node id="-20641" lat="58.3474611131" lon="8.53021389609">
		<tag k="name" v="Sandkleiva" />
		<tag k="ssr:date" v="2016-05-10" />
		<tag k="ssr:stedsnr" v="54891" />
	</node>
	<node id="-20640" lat="58.3687750026" lon="8.63177777598">
		<tag k="name" v="Gamle Kirkevei" />
		<tag k="ssr:date" v="2016-05-10" />
		<tag k="ssr:stedsnr" v="54745" />
	</node>
	<node id="-20639" lat="58.3499611148" lon="8.56729167265">
		<tag k="name" v="Gjærbrøndveien" />
		<tag k="ssr:date" v="2016-05-10" />
		<tag k="ssr:stedsnr" v="54742" />
	</node>
	<node id="-20638" lat="58.2760472215" lon="8.49994166048">
		<tag k="name" v="Ospelia n." />
		<tag k="ssr:date" v="2016-05-10" />
		<tag k="ssr:stedsnr" v="54764" />
	</node>
	<node id="-20637" lat="58.3317583348" lon="8.57313055044">
		<tag k="name" v="Landgraffs vei" />
		<tag k="ssr:date" v="2016-05-10" />
		<tag k="ssr:stedsnr" v="54751" />
	</node>
	<node id="-20636" lat="58.3401638883" lon="8.58133054802">
		<tag k="name" v="Grømjordet" />
		<tag k="ssr:date" v="2016-05-10" />
		<tag k="ssr:stedsnr" v="54322" />
	</node>
	<node id="-20635" lat="58.3743888903" lon="8.68299444459">
		<tag k="name" v="Fløddaveien" />
		<tag k="ssr:date" v="2016-05-10" />
		<tag k="ssr:stedsnr" v="54318" />
	</node>
	<node id="-20634" lat="58.3410861095" lon="8.59956111891">
		<tag k="name" v="Binabbgaten" />
		<tag k="ssr:date" v="2016-05-10" />
		<tag k="ssr:stedsnr" v="54302" />
	</node>
	<node id="-20633" lat="58.3437777817" lon="8.55556111267">
		<tag k="name" v="Bergemoveien" />
		<tag k="ssr:date" v="2016-05-10" />
		<tag k="ssr:stedsnr" v="54203" />
	</node>
	<node id="-24728" lat="58.326047218" lon="8.54779445129">
		<tag k="name" v="Molland" />
		<tag k="ssr:date" v="2016-05-11" />
		<tag k="ssr:stedsnr" v="964541" />
	</node>
	<node id="-22677" lat="58.3420555584" lon="8.59654443726">
		<tag k="name" v="Voss gate" />
		<tag k="ssr:date" v="2016-05-10" />
		<tag k="ssr:stedsnr" v="602248" />
	</node>
	<node id="-22676" lat="58.3390694421" lon="8.59273610332">
		<tag k="name" v="Jernbanebrygga" />
		<tag k="ssr:date" v="2016-05-10" />
		<tag k="ssr:stedsnr" v="600943" />
	</node>
	<node id="-22675" lat="58.3414861079" lon="8.59007777903">
		<tag k="name" v="Lillesandsveien" />
		<tag k="ssr:date" v="2016-05-10" />
		<tag k="ssr:stedsnr" v="600707" />
	</node>
	<node id="-24722" lat="58.3498749992" lon="8.52503888345">
		<tag k="name" v="Bakken" />
		<tag k="ssr:date" v="2016-05-11" />
		<tag k="ssr:stedsnr" v="963212" />
	</node>
	<node id="-24721" lat="58.3443861122" lon="8.55217221985">
		<tag k="name" v="Bergekleiva" />
		<tag k="ssr:date" v="2016-05-11" />
		<tag k="ssr:stedsnr" v="963210" />
	</node>
	<node id="-22672" lat="58.3164083362" lon="8.56022499453">
		<tag k="name" v="Molkebakken" />
		<tag k="ssr:date" v="2016-05-10" />
		<tag k="ssr:stedsnr" v="600514" />
	</node>
	<node id="-22671" lat="58.3376583375" lon="8.5896083314">
		<tag k="name" v="Utkikken" />
		<tag k="ssr:date" v="2016-05-10" />
		<tag k="ssr:stedsnr" v="600453" />
	</node>
	<node id="-22670" lat="58.375244443" lon="8.67000833222">
		<tag k="name" v="Tykkåsen" />
		<tag k="ssr:date" v="2016-05-10" />
		<tag k="ssr:stedsnr" v="600433" />
	</node>
	<node id="-22669" lat="58.3578111136" lon="8.6030972259">
		<tag k="name" v="Skjeviga" />
		<tag k="ssr:date" v="2016-05-10" />
		<tag k="ssr:stedsnr" v="600269" />
	</node>
	<node id="-22668" lat="58.3227111079" lon="8.5596666629">
		<tag k="name" v="Lillemyr" />
		<tag k="ssr:date" v="2016-05-10" />
		<tag k="ssr:stedsnr" v="600047" />
	</node>
	<node id="-22666" lat="58.3460055515" lon="8.59632777059">
		<tag k="name" v="Langhaven" />
		<tag k="ssr:date" v="2016-05-10" />
		<tag k="ssr:stedsnr" v="599950" />
	</node>
	<node id="-22664" lat="58.3755861087" lon="8.66913333123">
		<tag k="name" v="Furufjell" />
		<tag k="ssr:date" v="2016-05-10" />
		<tag k="ssr:stedsnr" v="599919" />
	</node>
	<node id="-22657" lat="58.3730944471" lon="8.67156666256">
		<tag k="name" v="Klomra" />
		<tag k="ssr:date" v="2016-05-10" />
		<tag k="ssr:stedsnr" v="599762" />
	</node>
	<node id="-22651" lat="58.3439249984" lon="8.59454166811">
		<tag k="name" v="Levermyrveien" />
		<tag k="ssr:date" v="2016-05-10" />
		<tag k="ssr:stedsnr" v="599520" />
	</node>
	<node id="-22650" lat="58.3797750045" lon="8.67502777188">
		<tag k="name" v="Feviktoppen" />
		<tag k="ssr:date" v="2016-05-10" />
		<tag k="ssr:stedsnr" v="599291" />
	</node>
	<node id="-22645" lat="58.3355444428" lon="8.58852499805">
		<tag k="name" v="Ankerveien" />
		<tag k="ssr:date" v="2016-05-10" />
		<tag k="ssr:stedsnr" v="599154" />
	</node>
	<node id="-20585" lat="58.3410499958" lon="8.58282221594">
		<tag k="name" v="Helmersgate" />
		<tag k="ssr:date" v="2016-05-10" />
		<tag k="ssr:stedsnr" v="53019" />
	</node>
	<node id="-24669" lat="58.3879166687" lon="8.6636416724">
		<tag k="bridge" v="yes" />
		<tag k="layer" v="1" />
		<tag k="name" v="Skarsdalsbekken" />
		<tag k="ssr:date" v="2016-05-11" />
		<tag k="ssr:stedsnr" v="956094" />
	</node>
	<node id="-24659" lat="58.3841861146" lon="8.62072222093">
		<tag k="name" v="Kongeveien" />
		<tag k="ssr:date" v="2016-05-11" />
		<tag k="ssr:stedsnr" v="940699" />
	</node>
	<node id="-22604" lat="58.3416194486" lon="8.54201111573">
		<tag k="name" v="Prestegårdskogen" />
		<tag k="ssr:date" v="2016-05-10" />
		<tag k="ssr:stedsnr" v="594920" />
	</node>
	<node id="-20550" lat="58.3593499991" lon="8.45711389065">
		<tag k="highway" v="path" />
		<tag k="name" v="Dårestien" />
		<tag k="ssr:date" v="2016-05-10" />
		<tag k="ssr:stedsnr" v="48229" />
	</node>
	<node id="-20544" lat="58.384988887" lon="8.67793889416">
		<tag k="bridge" v="yes" />
		<tag k="layer" v="1" />
		<tag k="name" v="Trålum" />
		<tag k="ssr:date" v="2016-05-10" />
		<tag k="ssr:stedsnr" v="46080" />
	</node>
	<node id="-20543" lat="58.3035888901" lon="8.51346111178">
		<tag k="bridge" v="yes" />
		<tag k="layer" v="1" />
		<tag k="name" v="Nørholmen" />
		<tag k="ssr:date" v="2016-05-10" />
		<tag k="ssr:stedsnr" v="45090" />
	</node>
	<node id="-20542" lat="58.3973611104" lon="8.45322499598">
		<tag k="bridge" v="yes" />
		<tag k="layer" v="1" />
		<tag k="name" v="Krosshøl" />
		<tag k="ssr:date" v="2016-05-10" />
		<tag k="ssr:stedsnr" v="45085" />
	</node>
	<node id="-20541" lat="58.3953472181" lon="8.45747777097">
		<tag k="bridge" v="yes" />
		<tag k="layer" v="1" />
		<tag k="name" v="Granold" />
		<tag k="ssr:date" v="2016-05-10" />
		<tag k="ssr:stedsnr" v="45082" />
	</node>
	<node id="-22570" lat="58.3677111118" lon="8.60685556366">
		<tag k="bridge" v="yes" />
		<tag k="layer" v="1" />
		<tag k="name" v="Sævelidalen" />
		<tag k="ssr:date" v="2016-05-10" />
		<tag k="ssr:stedsnr" v="592077" />
	</node>
	<node id="-22569" lat="58.3977416649" lon="8.69705554734">
		<tag k="bridge" v="yes" />
		<tag k="layer" v="1" />
		<tag k="name" v="Kanneholmen" />
		<tag k="ssr:date" v="2016-05-10" />
		<tag k="ssr:stedsnr" v="591077" />
	</node>
	<node id="-24614" lat="58.3497027812" lon="8.59797778292">
		<tag k="name" v="Langhaveheia" />
		<tag k="ssr:date" v="2016-05-11" />
		<tag k="ssr:stedsnr" v="936931" />
	</node>
	<node id="-24613" lat="58.2610722211" lon="8.49231388914">
		<tag k="name" v="Homborsundsleia" />
		<tag k="old_name" v="Homborsundsleia, Nedre" />
		<tag k="ssr:date" v="2016-05-11" />
		<tag k="ssr:stedsnr" v="935007" />
	</node>
	<node id="-24610" lat="58.3175944481" lon="8.56555277166">
		<tag k="name" v="Moneveien" />
		<tag k="ssr:date" v="2016-05-11" />
		<tag k="ssr:stedsnr" v="919748" />
	</node>
	<node id="-24609" lat="58.351569447" lon="8.53391945193">
		<tag k="name" v="Resvigveien" />
		<tag k="ssr:date" v="2016-05-11" />
		<tag k="ssr:stedsnr" v="917802" />
	</node>
	<node id="-24608" lat="58.3405194436" lon="8.59355556043">
		<tag k="name" v="Smith Petersens gate" />
		<tag k="ssr:date" v="2016-05-11" />
		<tag k="ssr:stedsnr" v="914365" />
	</node>
	<node id="-24596" lat="58.4151916632" lon="8.52549723062">
		<tag k="name" v="Dalevegen" />
		<tag k="ssr:date" v="2016-05-11" />
		<tag k="ssr:stedsnr" v="910996" />
	</node>
	<node id="-24595" lat="58.4464138868" lon="8.40528888702">
		<tag k="name" v="Skarekleiva" />
		<tag k="place" v="locality" />
		<tag k="ssr:date" v="2016-05-11" />
		<tag k="ssr:stedsnr" v="910994" />
	</node>
	<node id="-24594" lat="58.4460444433" lon="8.40353056112">
		<tag k="name" v="Gjelekleiv" />
		<tag k="place" v="locality" />
		<tag k="ssr:date" v="2016-05-11" />
		<tag k="ssr:stedsnr" v="910995" />
	</node>
	<way id="-5759">
		<tag k="name" v="Bjorøya" />
		<tag k="ssr:date" v="2016-05-11" />
		<tag k="ssr:stedsnr" v="728932" />
		<nd ref="-23494" />
		<nd ref="-23495" />
	</way>
	<way id="-5434">
		<tag k="bridge" v="yes" />
		<tag k="layer" v="1" />
		<tag k="name" v="Bie" />
		<tag k="ssr:date" v="2016-05-10" />
		<tag k="ssr:stedsnr" v="410058" />
		<nd ref="-20255" />
		<nd ref="-20256" />
	</way>
	<way id="-5401">
		<tag k="bridge" v="yes" />
		<tag k="layer" v="1" />
		<tag k="name" v="Bringsværmyra" />
		<tag k="ssr:date" v="2016-05-10" />
		<tag k="ssr:stedsnr" v="349084" />
		<nd ref="-19907" />
		<nd ref="-19908" />
	</way>
	<way id="-5528">
		<tag k="name" v="Rivingen" />
		<tag k="ssr:date" v="2016-05-10" />
		<tag k="ssr:stedsnr" v="121942" />
		<nd ref="-21096" />
		<nd ref="-21097" />
	</way>
	<way id="-5815">
		<tag k="name" v="Hesnessund, Østre" />
		<tag k="ssr:date" v="2016-05-11" />
		<tag k="ssr:stedsnr" v="813073" />
		<nd ref="-23947" />
		<nd ref="-23948" />
	</way>
	<way id="-5433">
		<tag k="layer" v="-1" />
		<tag k="name" v="Grimstadporten" />
		<tag k="ssr:date" v="2016-05-10" />
		<tag k="ssr:stedsnr" v="408483" />
		<tag k="tunnel" v="yes" />
		<nd ref="-20252" />
		<nd ref="-20253" />
		<nd ref="-20254" />
	</way>
	<way id="-5778">
		<tag k="layer" v="-1" />
		<tag k="name" v="Bieheia" />
		<tag k="ssr:date" v="2016-05-11" />
		<tag k="ssr:stedsnr" v="772125" />
		<tag k="tunnel" v="yes" />
		<nd ref="-23610" />
		<nd ref="-23611" />
	</way>
	<way id="-5681">
		<tag k="fixme" v="multiple name tags, choose one and add the other to alt_name" />
		<tag k="name" v="Trolldalslia;Trolldalstunet" />
		<tag k="ssr:date" v="2016-05-10" />
		<tag k="ssr:stedsnr" v="600535" />
		<nd ref="-22673" />
		<nd ref="-22674" />
	</way>
	<way id="-5582">
		<tag k="alt_name" v="Homborsund" />
		<tag k="name" v="Homborsund fyr" />
		<tag k="ssr:date" v="2016-05-10" />
		<tag k="ssr:stedsnr" v="243912" />
		<nd ref="-21702" />
		<nd ref="-21703" />
		<nd ref="-21704" />
	</way>
	<way id="-5770">
		<tag k="alt_name" v="Svennevik" />
		<tag k="bridge" v="yes" />
		<tag k="layer" v="1" />
		<tag k="name" v="Svennevig" />
		<tag k="old_name" v="Svennevig bru" />
		<tag k="ssr:date" v="2016-05-11" />
		<tag k="ssr:stedsnr" v="749830" />
		<nd ref="-23544" />
		<nd ref="-23545" />
	</way>
	<way id="-5768">
		<tag k="name" v="Leiholmsund, Østre" />
		<tag k="old_name" v="Leiholmsund;Østre Leiholmsund" />
		<tag k="ssr:date" v="2016-05-11" />
		<tag k="ssr:stedsnr" v="728988" />
		<nd ref="-23535" />
		<nd ref="-23536" />
	</way>
	<way id="-5439">
		<tag k="bridge" v="yes" />
		<tag k="layer" v="1" />
		<tag k="name" v="Ågre" />
		<tag k="ssr:date" v="2016-05-11" />
		<tag k="ssr:stedsnr" v="896080" />
		<nd ref="-20377" />
		<nd ref="-20378" />
	</way>
	<way id="-5553">
		<tag k="name" v="Hesnesbregen" />
		<tag k="ssr:date" v="2016-05-10" />
		<tag k="ssr:stedsnr" v="182980" />
		<nd ref="-21390" />
		<nd ref="-21391" />
	</way>
	<way id="-5734">
		<tag k="name" v="Rore hageby" />
		<tag k="ssr:date" v="2016-05-11" />
		<tag k="ssr:stedsnr" v="697314" />
		<nd ref="-23201" />
		<nd ref="-23202" />
	</way>
	<way id="-5506">
		<tag k="alt_name" v="Stru" />
		<tag k="bridge" v="yes" />
		<tag k="layer" v="1" />
		<tag k="name" v="Strubru" />
		<tag k="ssr:date" v="2016-05-10" />
		<tag k="ssr:stedsnr" v="90371" />
		<nd ref="-20843" />
		<nd ref="-20844" />
	</way>
	<way id="-5825">
		<tag k="bridge" v="yes" />
		<tag k="layer" v="1" />
		<tag k="name" v="Spedalen" />
		<tag k="ssr:date" v="2016-05-11" />
		<tag k="ssr:stedsnr" v="835077" />
		<nd ref="-24019" />
		<nd ref="-24020" />
	</way>
</osm>
