<?xml version="1.0" encoding="UTF-8"?>
<osm generator="osmapis" version="0.6">
	<node id="-22528" lat="58.2598333301" lon="8.51230555074">
		<tag k="name" v="Dypesund" />
		<tag k="natural" v="strait" />
		<tag k="place" v="locality" />
		<tag k="ssr:date" v="2016-05-10" />
		<tag k="ssr:stedsnr" v="575094" />
	</node>
	<node id="-22527" lat="58.2535277786" lon="8.51533332667">
		<tag k="name" v="Ramsvika" />
		<tag k="natural" v="bay" />
		<tag k="ssr:date" v="2016-05-10" />
		<tag k="ssr:stedsnr" v="575092" />
	</node>
	<node id="-22525" lat="58.2672777749" lon="8.52719444574">
		<tag k="name" v="Ulykkesodden" />
		<tag k="natural" v="cape" />
		<tag k="place" v="locality" />
		<tag k="ssr:date" v="2016-05-10" />
		<tag k="ssr:stedsnr" v="575089" />
	</node>
	<node id="-22524" lat="58.3291694461" lon="8.6700638945">
		<tag k="name" v="Langholmgrunnen" />
		<tag k="natural" v="shoal" />
		<tag k="place" v="locality" />
		<tag k="ssr:date" v="2016-05-10" />
		<tag k="ssr:stedsnr" v="572829" />
	</node>
	<node id="-22523" lat="58.3199749975" lon="8.59010554789">
		<tag k="name" v="Fjordbåen" />
		<tag k="place" v="locality" />
		<tag k="seamark:type" v="rock" />
		<tag k="ssr:date" v="2016-05-10" />
		<tag k="ssr:stedsnr" v="572820" />
	</node>
	<node id="-22522" lat="58.2965833356" lon="8.59486111535">
		<tag k="ssr:gml_id" v="GEOMETRY_278090df-0c67-4871-8568-4a18b34395c4" />
		<tag k="ssr:gml_nr" v="1" />
	</node>
	<node id="-22521" lat="58.2965555555" lon="8.59414444766">
		<tag k="ssr:gml_id" v="GEOMETRY_aac49eb7-ef58-4176-a5ae-ea126ce6199b" />
		<tag k="ssr:gml_nr" v="0" />
	</node>
	<node id="-20472" lat="58.2836694448" lon="8.54983332726">
		<tag k="ssr:gml_id" v="GEOMETRY_f42c37a3-d346-499e-90ce-29facf364cb6" />
		<tag k="ssr:gml_nr" v="0" />
	</node>
	<node id="-20470" lat="58.2730499996" lon="8.53683889553">
		<tag k="ssr:gml_id" v="GEOMETRY_070ef327-d107-4d6f-a0b1-9e05f2820853" />
		<tag k="ssr:gml_nr" v="3" />
	</node>
	<node id="-20469" lat="58.2730500007" lon="8.53684167435">
		<tag k="ssr:gml_id" v="GEOMETRY_5c1dcbd7-0708-4685-9f82-33d26fdfbe9c" />
		<tag k="ssr:gml_nr" v="2" />
	</node>
	<node id="-22516" lat="58.2940083324" lon="8.59857499297">
		<tag k="name" v="Håkallbåen" />
		<tag k="place" v="locality" />
		<tag k="seamark:type" v="rock" />
		<tag k="ssr:date" v="2016-05-10" />
		<tag k="ssr:stedsnr" v="572699" />
	</node>
	<node id="-22515" lat="58.3087555527" lon="8.59535277134">
		<tag k="name" v="Persbåen" />
		<tag k="place" v="locality" />
		<tag k="seamark:type" v="rock" />
		<tag k="ssr:date" v="2016-05-10" />
		<tag k="ssr:stedsnr" v="572694" />
	</node>
	<node id="-22514" lat="58.368611109" lon="8.75025832739">
		<tag k="name" v="Huggebåene" />
		<tag k="place" v="locality" />
		<tag k="seamark:type" v="rock" />
		<tag k="ssr:date" v="2016-05-10" />
		<tag k="ssr:stedsnr" v="572660" />
	</node>
	<node id="-22513" lat="58.3183888892" lon="8.60805555772">
		<tag k="ssr:gml_id" v="GEOMETRY_4caf575a-9436-439b-bacb-bda97cca05ba" />
		<tag k="ssr:gml_nr" v="1" />
	</node>
	<node id="-22512" lat="58.318397225" lon="8.6078916637">
		<tag k="ssr:gml_id" v="GEOMETRY_b7c40ecd-6698-4a7c-a942-b3204a862d55" />
		<tag k="ssr:gml_nr" v="0" />
	</node>
	<node id="-22511" lat="58.2814916637" lon="8.56099722042">
		<tag k="name" v="Steinene" />
		<tag k="natural" v="shoal" />
		<tag k="place" v="locality" />
		<tag k="ssr:date" v="2016-05-10" />
		<tag k="ssr:stedsnr" v="572646" />
	</node>
	<node id="-22510" lat="58.3163295708" lon="8.57926010105">
		<tag k="name" v="Tvillingholmen" />
		<tag k="place" v="islet" />
		<tag k="ssr:date" v="2018-02-21" />
		<tag k="ssr:stedsnr" v="571400" />
	</node>
	<node id="-20461" lat="58.2848611117" lon="8.52121943964">
		<tag k="ssr:gml_id" v="GEOMETRY_516b8f1d-1904-4da7-92e1-29d2bc88cf19" />
		<tag k="ssr:gml_nr" v="4" />
	</node>
	<node id="-20460" lat="58.2862222248" lon="8.52490277594">
		<tag k="ssr:gml_id" v="GEOMETRY_2f75a501-8d6a-4a83-8984-4396a4a3ea78" />
		<tag k="ssr:gml_nr" v="3" />
	</node>
	<node id="-20459" lat="58.2904777765" lon="8.53348889693">
		<tag k="ssr:gml_id" v="GEOMETRY_c4e49f25-b392-4c21-94f8-d11620d1554a" />
		<tag k="ssr:gml_nr" v="2" />
	</node>
	<node id="-22506" lat="58.3284416654" lon="8.61957499515">
		<tag k="ssr:gml_id" v="GEOMETRY_834ab97a-d550-4c78-8653-83d8ca4854fc" />
		<tag k="ssr:gml_nr" v="3" />
	</node>
	<node id="-22505" lat="58.3284444401" lon="8.61957778265">
		<tag k="ssr:gml_id" v="GEOMETRY_048f3dba-1bd1-441d-b7da-bcb98dee6411" />
		<tag k="ssr:gml_nr" v="2" />
	</node>
	<node id="-22504" lat="58.3268888933" lon="8.62119445164">
		<tag k="ssr:gml_id" v="GEOMETRY_4a25aabf-a5cf-426d-bd5b-1811098a746b" />
		<tag k="ssr:gml_nr" v="1" />
	</node>
	<node id="-22503" lat="58.3268666711" lon="8.62119999931">
		<tag k="ssr:gml_id" v="GEOMETRY_fbccaf3d-dcce-49f4-a75c-45a0e8b88412" />
		<tag k="ssr:gml_nr" v="0" />
	</node>
	<node id="-22502" lat="58.3198888877" lon="8.603847227">
		<tag k="ssr:gml_id" v="GEOMETRY_6660d08c-7da4-41c5-8164-721037c37732" />
		<tag k="ssr:gml_nr" v="4" />
	</node>
	<node id="-22501" lat="58.320491668" lon="8.60276388097">
		<tag k="ssr:gml_id" v="GEOMETRY_4fbed923-2cc1-475b-98cb-d3238dbbc976" />
		<tag k="ssr:gml_nr" v="3" />
	</node>
	<node id="-22500" lat="58.3197500028" lon="8.6014722142">
		<tag k="ssr:gml_id" v="GEOMETRY_e1fd5dc2-66dc-468e-96cc-a9295e9ad25f" />
		<tag k="ssr:gml_nr" v="2" />
	</node>
	<node id="-22499" lat="58.3198916626" lon="8.60384999554">
		<tag k="ssr:gml_id" v="GEOMETRY_5785a08b-b173-4458-9831-a6f55df1dc86" />
		<tag k="ssr:gml_nr" v="1" />
	</node>
	<node id="-22498" lat="58.3200361146" lon="8.60162500356">
		<tag k="ssr:gml_id" v="GEOMETRY_9c756430-11df-4587-8ef0-3316377a1702" />
		<tag k="ssr:gml_nr" v="0" />
	</node>
	<node id="-20475" lat="58.283805555" lon="8.54857222059">
		<tag k="ssr:gml_id" v="GEOMETRY_b4b7c7f4-a8d6-4604-a8ea-d750bd327f31" />
		<tag k="ssr:gml_nr" v="3" />
	</node>
	<node id="-20448" lat="58.3733055566" lon="8.75861944695">
		<tag k="ssr:gml_id" v="GEOMETRY_133cb613-a347-44d5-9a33-88829d8c65bc" />
		<tag k="ssr:gml_nr" v="1" />
	</node>
	<node id="-22495" lat="58.3469972202" lon="8.69780555072">
		<tag k="ssr:gml_id" v="GEOMETRY_0746797a-1a93-4e8e-85e1-4b8faab77d8f" />
		<tag k="ssr:gml_nr" v="3" />
	</node>
	<node id="-22494" lat="58.3465444426" lon="8.69738889469">
		<tag k="ssr:gml_id" v="GEOMETRY_283f8da6-9ca4-497b-9bf4-15157d00fff4" />
		<tag k="ssr:gml_nr" v="2" />
	</node>
	<node id="-22493" lat="58.3470000045" lon="8.69780556111">
		<tag k="ssr:gml_id" v="GEOMETRY_a6260968-e3f7-4d39-bd68-a1908e01a29d" />
		<tag k="ssr:gml_nr" v="1" />
	</node>
	<node id="-22492" lat="58.3468138879" lon="8.69769166648">
		<tag k="ssr:gml_id" v="GEOMETRY_309c2b93-9668-40f4-8ba2-ad2e7021e992" />
		<tag k="ssr:gml_nr" v="0" />
	</node>
	<node id="-22491" lat="58.3459999967" lon="8.68766667075">
		<tag k="ssr:gml_id" v="GEOMETRY_dd647d8a-877c-4a7f-b369-c080b6443e2e" />
		<tag k="ssr:gml_nr" v="2" />
	</node>
	<node id="-22490" lat="58.3462250036" lon="8.68793888657">
		<tag k="ssr:gml_id" v="GEOMETRY_17effe97-c18b-4103-a480-1f36cf7a4952" />
		<tag k="ssr:gml_nr" v="1" />
	</node>
	<node id="-22489" lat="58.3462250014" lon="8.68794167114">
		<tag k="ssr:gml_id" v="GEOMETRY_22b6d0fb-d99e-4c5f-aa82-acefa77f446e" />
		<tag k="ssr:gml_nr" v="0" />
	</node>
	<node id="-20440" lat="58.3798305545" lon="8.74128888857">
		<tag k="ssr:gml_id" v="GEOMETRY_84103879-4eec-4553-afcb-fb353ec42baa" />
		<tag k="ssr:gml_nr" v="3" />
	</node>
	<node id="-20439" lat="58.3799500002" lon="8.74133332764">
		<tag k="ssr:gml_id" v="GEOMETRY_b1766df3-5441-457d-acbb-68fbd80aed8e" />
		<tag k="ssr:gml_nr" v="2" />
	</node>
	<node id="-20438" lat="58.3799527811" lon="8.74133611159">
		<tag k="ssr:gml_id" v="GEOMETRY_8debb865-30a8-4823-97c9-28b04763946d" />
		<tag k="ssr:gml_nr" v="1" />
	</node>
	<node id="-20473" lat="58.2838055542" lon="8.54856944093">
		<tag k="ssr:gml_id" v="GEOMETRY_a837c6be-b9aa-46ca-a288-9f1571fb2713" />
		<tag k="ssr:gml_nr" v="1" />
	</node>
	<node id="-20131" lat="58.3581111121" lon="8.67608332633">
		<tag k="ssr:gml_id" v="GEOMETRY_2375c2a9-62d4-4d4d-a77e-c6291aa758bc" />
		<tag k="ssr:gml_nr" v="1" />
	</node>
	<node id="-22479" lat="58.3006194449" lon="8.58022500567">
		<tag k="ssr:gml_id" v="GEOMETRY_1927b1bb-cfb9-4ab7-8d85-693e3c445436" />
		<tag k="ssr:gml_nr" v="1" />
	</node>
	<node id="-22478" lat="58.3006222203" lon="8.58022777086">
		<tag k="ssr:gml_id" v="GEOMETRY_c5df9134-8622-4e17-be7b-2cc0a71f06ff" />
		<tag k="ssr:gml_nr" v="0" />
	</node>
	<node id="-24521" lat="58.3601777747" lon="8.75270555305">
		<tag k="ssr:gml_id" v="GEOMETRY_b0c89168-b367-4444-b467-7321e214bf5a" />
		<tag k="ssr:gml_nr" v="2" />
	</node>
	<node id="-24520" lat="58.3601805554" lon="8.75270833634">
		<tag k="ssr:gml_id" v="GEOMETRY_6545bbaf-2b3c-4fbe-99ef-8fd7e07662f6" />
		<tag k="ssr:gml_nr" v="1" />
	</node>
	<node id="-24519" lat="58.3582583323" lon="8.75258610632">
		<tag k="ssr:gml_id" v="GEOMETRY_cfa530cc-722e-42a9-bc00-dc1deca07796" />
		<tag k="ssr:gml_nr" v="0" />
	</node>
	<node id="-20811" lat="58.3269500026" lon="8.63293055365">
		<tag k="ssr:gml_id" v="GEOMETRY_47c892c3-832b-429c-915b-c3d6f9396c7f" />
		<tag k="ssr:gml_nr" v="0" />
	</node>
	<node id="-20468" lat="58.2733611107" lon="8.53686110652">
		<tag k="ssr:gml_id" v="GEOMETRY_02cc3954-61ad-4837-ab91-1ea8ce42d3b1" />
		<tag k="ssr:gml_nr" v="1" />
	</node>
	<node id="-20467" lat="58.273349997" lon="8.5368527786">
		<tag k="ssr:gml_id" v="GEOMETRY_84213943-29da-47a0-97af-0f8db8193e3c" />
		<tag k="ssr:gml_nr" v="0" />
	</node>
	<node id="-20398" lat="58.2885916641" lon="8.51828055487">
		<tag k="name" v="Vågsholtbukta" />
		<tag k="natural" v="bay" />
		<tag k="ssr:date" v="2016-05-11" />
		<tag k="ssr:stedsnr" v="898463" />
	</node>
	<node id="-24275" lat="58.3713249982" lon="8.69843611681">
		<tag k="ssr:gml_id" v="GEOMETRY_9c81f006-42f3-427b-984a-797e146f208e" />
		<tag k="ssr:gml_nr" v="1" />
	</node>
	<node id="-20806" lat="58.3506250009" lon="8.6535416604">
		<tag k="ssr:gml_id" v="GEOMETRY_f2de44be-9171-4fb6-b21b-174d7c8ed69a" />
		<tag k="ssr:gml_nr" v="2" />
	</node>
	<node id="-23193" lat="58.3605861119" lon="8.67267500792">
		<tag k="ssr:gml_id" v="GEOMETRY_88f96c7d-3520-4bf2-b976-13a7bdecd8ce" />
		<tag k="ssr:gml_nr" v="0" />
	</node>
	<node id="-21137" lat="58.3202777738" lon="8.58141666371">
		<tag k="ssr:gml_id" v="GEOMETRY_0c4a06f6-0f26-4c84-8fb5-0cf61cc83615" />
		<tag k="ssr:gml_nr" v="1" />
	</node>
	<node id="-20796" lat="58.2625833328" lon="8.52799722809">
		<tag k="ssr:gml_id" v="GEOMETRY_4e3bdd93-3e06-43c2-b35a-62ef0c466186" />
		<tag k="ssr:gml_nr" v="1" />
	</node>
	<node id="-20356" lat="58.3048194402" lon="8.60318055411">
		<tag k="name" v="Klovholmgabet" />
		<tag k="natural" v="strait" />
		<tag k="place" v="locality" />
		<tag k="ssr:date" v="2016-05-10" />
		<tag k="ssr:stedsnr" v="479316" />
	</node>
	<node id="-23189" lat="58.2714166674" lon="8.53147221605">
		<tag k="ssr:gml_id" v="GEOMETRY_9c3f57ff-d922-4e69-8d6e-f3271a5e634d" />
		<tag k="ssr:gml_nr" v="1" />
	</node>
	<node id="-20458" lat="58.290480553" lon="8.53349167472">
		<tag k="ssr:gml_id" v="GEOMETRY_189c457c-8903-45bf-a1ab-a4a91667a9dc" />
		<tag k="ssr:gml_nr" v="1" />
	</node>
	<node id="-23188" lat="58.2712555529" lon="8.53168334157">
		<tag k="ssr:gml_id" v="GEOMETRY_81fdf86f-204a-4949-899a-da52a985b7c0" />
		<tag k="ssr:gml_nr" v="0" />
	</node>
	<node id="-20457" lat="58.2863388928" lon="8.52400278469">
		<tag k="ssr:gml_id" v="GEOMETRY_288f2663-0059-49d4-a51e-edbf11250447" />
		<tag k="ssr:gml_nr" v="0" />
	</node>
	<node id="-23187" lat="58.2606944456" lon="8.51813888852">
		<tag k="name" v="Makrellbukta" />
		<tag k="natural" v="bay" />
		<tag k="ssr:date" v="2016-05-11" />
		<tag k="ssr:stedsnr" v="697111" />
	</node>
	<node id="-24424" lat="58.2833861137" lon="8.56670556009">
		<tag k="name" v="Østre Steinene" />
		<tag k="natural" v="shoal" />
		<tag k="place" v="locality" />
		<tag k="ssr:date" v="2016-05-11" />
		<tag k="ssr:stedsnr" v="904340" />
	</node>
	<node id="-24423" lat="58.2958222266" lon="8.5810361133">
		<tag k="name" v="Rivinggabet" />
		<tag k="natural" v="strait" />
		<tag k="place" v="locality" />
		<tag k="ssr:date" v="2016-05-11" />
		<tag k="ssr:stedsnr" v="904320" />
	</node>
	<node id="-23185" lat="58.3535555532" lon="8.66305555136">
		<tag k="ssr:gml_id" v="GEOMETRY_3e096cd5-98fa-4399-bbea-d3eedfa5de81" />
		<tag k="ssr:gml_nr" v="1" />
	</node>
	<node id="-20795" lat="58.2625805562" lon="8.52799445291">
		<tag k="ssr:gml_id" v="GEOMETRY_ffd726a2-0ada-4630-8936-ae87ebb7d872" />
		<tag k="ssr:gml_nr" v="0" />
	</node>
	<node id="-21136" lat="58.3202805566" lon="8.58137777784">
		<tag k="ssr:gml_id" v="GEOMETRY_b24172bf-dbd2-47e7-a787-9906815c83cd" />
		<tag k="ssr:gml_nr" v="0" />
	</node>
	<node id="-20794" lat="58.3040277736" lon="8.57805555064">
		<tag k="ssr:gml_id" v="GEOMETRY_7ab0f9cd-07b7-4745-967a-779ee9416cdf" />
		<tag k="ssr:gml_nr" v="3" />
	</node>
	<node id="-23183" lat="58.295677776" lon="8.56759444053">
		<tag k="name" v="Vikletten" />
		<tag k="natural" v="shoal" />
		<tag k="place" v="locality" />
		<tag k="ssr:date" v="2016-05-11" />
		<tag k="ssr:stedsnr" v="694804" />
	</node>
	<node id="-20793" lat="58.3046333373" lon="8.57748054698">
		<tag k="ssr:gml_id" v="GEOMETRY_3ffca394-60b8-4d0b-83e9-3171ee0d410e" />
		<tag k="ssr:gml_nr" v="2" />
	</node>
	<node id="-23182" lat="58.3344999972" lon="8.63116667405">
		<tag k="ssr:gml_id" v="GEOMETRY_bba22efe-b742-4c05-bc51-2b05d645924c" />
		<tag k="ssr:gml_nr" v="1" />
	</node>
	<node id="-22354" lat="58.2371111156" lon="8.46457222864">
		<tag k="name" v="Bergkyrkjegrunnene" />
		<tag k="natural" v="shoal" />
		<tag k="place" v="locality" />
		<tag k="ssr:date" v="2016-05-10" />
		<tag k="ssr:stedsnr" v="542589" />
	</node>
	<node id="-22353" lat="58.3510611139" lon="8.67488055493">
		<tag k="name" v="Vestre Midtgrunnen" />
		<tag k="natural" v="shoal" />
		<tag k="place" v="locality" />
		<tag k="ssr:date" v="2016-05-10" />
		<tag k="ssr:stedsnr" v="542447" />
	</node>
	<node id="-22352" lat="58.2976444453" lon="8.58952777615">
		<tag k="name" v="Stangholmen" />
		<tag k="place" v="islet" />
		<tag k="ssr:date" v="2016-05-10" />
		<tag k="ssr:stedsnr" v="542348" />
	</node>
	<node id="-22351" lat="58.3141083356" lon="8.60939165969">
		<tag k="name" v="Svertinggabet" />
		<tag k="natural" v="strait" />
		<tag k="place" v="locality" />
		<tag k="ssr:date" v="2016-05-10" />
		<tag k="ssr:stedsnr" v="542342" />
	</node>
	<node id="-22350" lat="58.3275527736" lon="8.60888333624">
		<tag k="name" v="Flatholmen" />
		<tag k="place" v="islet" />
		<tag k="ssr:date" v="2016-05-10" />
		<tag k="ssr:stedsnr" v="541612" />
	</node>
	<node id="-23181" lat="58.3097194417" lon="8.66811111638">
		<tag k="ssr:gml_id" v="GEOMETRY_6ae1dfd1-a9be-4dd6-9e32-3f50e4fd68ea" />
		<tag k="ssr:gml_nr" v="0" />
	</node>
	<node id="-22346" lat="58.2543999999" lon="8.52563610437">
		<tag k="name" v="Homborsund" />
		<tag k="natural" v="strait" />
		<tag k="place" v="locality" />
		<tag k="ssr:date" v="2016-05-10" />
		<tag k="ssr:stedsnr" v="540260" />
	</node>
	<node id="-20791" lat="58.3044722243" lon="8.57845834151">
		<tag k="ssr:gml_id" v="GEOMETRY_d5b51cca-7cdf-46c0-a19e-a77104074217" />
		<tag k="ssr:gml_nr" v="0" />
	</node>
	<node id="-23180" lat="58.3669750044" lon="8.74505555274">
		<tag k="fixme" v="consider seamark:type=rock" />
		<tag k="name" v="Knabernakk" />
		<tag k="natural" v="islet" />
		<tag k="ssr:date" v="2016-05-11" />
		<tag k="ssr:stedsnr" v="694658" />
	</node>
	<node id="-23179" lat="58.3309305575" lon="8.68085555156">
		<tag k="name" v="Makrellgrunnen" />
		<tag k="natural" v="shoal" />
		<tag k="place" v="locality" />
		<tag k="ssr:date" v="2016-05-11" />
		<tag k="ssr:stedsnr" v="694646" />
	</node>
	<node id="-20447" lat="58.3733027761" lon="8.75861666217">
		<tag k="ssr:gml_id" v="GEOMETRY_1f0d9fd4-5458-4517-b35f-225e3ee870ae" />
		<tag k="ssr:gml_nr" v="0" />
	</node>
	<node id="-20280" lat="58.2817250024" lon="8.52356666354">
		<tag k="ssr:gml_id" v="GEOMETRY_5a743eab-b621-4dfb-b8ff-6b49668674b9" />
		<tag k="ssr:gml_nr" v="0" />
	</node>
	<node id="-24362" lat="58.2519999962" lon="8.46636111589">
		<tag k="name" v="Sokken" />
		<tag k="natural" v="bay" />
		<tag k="ssr:date" v="2016-05-11" />
		<tag k="ssr:stedsnr" v="880430" />
	</node>
	<node id="-20444" lat="58.3836388896" lon="8.72513889408">
		<tag k="ssr:gml_id" v="GEOMETRY_9b737416-124e-49b9-8f85-1dc308c1f278" />
		<tag k="ssr:gml_nr" v="2" />
	</node>
	<node id="-19906" lat="58.3331166667" lon="8.59333333094">
		<tag k="name" v="Gullmannsbukta" />
		<tag k="natural" v="bay" />
		<tag k="ssr:date" v="2016-05-10" />
		<tag k="ssr:stedsnr" v="344637" />
	</node>
	<node id="-20259" lat="58.2882138857" lon="8.44002778419">
		<tag k="name" v="Sundsodden" />
		<tag k="natural" v="cape" />
		<tag k="place" v="locality" />
		<tag k="ssr:date" v="2016-05-10" />
		<tag k="ssr:stedsnr" v="410083" />
	</node>
	<node id="-24354" lat="58.3371666679" lon="8.63583333059">
		<tag k="name" v="Klauholmen" />
		<tag k="place" v="islet" />
		<tag k="ssr:date" v="2016-05-11" />
		<tag k="ssr:stedsnr" v="879479" />
	</node>
	<node id="-20443" lat="58.3837250043" lon="8.72545278472">
		<tag k="ssr:gml_id" v="GEOMETRY_fb50ef8d-af70-4acc-8530-bc6ba10ff3ec" />
		<tag k="ssr:gml_nr" v="1" />
	</node>
	<node id="-24351" lat="58.3346388903" lon="8.66186111308">
		<tag k="name" v="Gamlegabet" />
		<tag k="natural" v="strait" />
		<tag k="place" v="locality" />
		<tag k="ssr:date" v="2016-05-11" />
		<tag k="ssr:stedsnr" v="879458" />
	</node>
	<node id="-24350" lat="58.3429166626" lon="8.64272222729">
		<tag k="name" v="Breivigstranda" />
		<tag k="natural" v="beach" />
		<tag k="place" v="locality" />
		<tag k="ssr:date" v="2016-05-11" />
		<tag k="ssr:stedsnr" v="879453" />
	</node>
	<node id="-24348" lat="58.2507777751" lon="8.51952778483">
		<tag k="name" v="Fluholmen" />
		<tag k="place" v="islet" />
		<tag k="ssr:date" v="2016-05-11" />
		<tag k="ssr:stedsnr" v="879394" />
	</node>
	<node id="-24347" lat="58.2506666647" lon="8.52291666587">
		<tag k="name" v="Hove Kalvøy" />
		<tag k="place" v="island" />
		<tag k="ssr:date" v="2016-05-11" />
		<tag k="ssr:stedsnr" v="879392" />
	</node>
	<node id="-24346" lat="58.2425555596" lon="8.52208334079">
		<tag k="name" v="Ytre Vassfloss" />
		<tag k="place" v="islet" />
		<tag k="ssr:date" v="2016-05-11" />
		<tag k="ssr:stedsnr" v="879390" />
	</node>
	<node id="-24345" lat="58.2480277743" lon="8.51722221487">
		<tag k="name" v="Dannevik Kalvøy" />
		<tag k="place" v="island" />
		<tag k="ssr:date" v="2016-05-11" />
		<tag k="ssr:stedsnr" v="879391" />
	</node>
	<node id="-24344" lat="58.2588888879" lon="8.5157777825">
		<tag k="name" v="Nellevine" />
		<tag k="natural" v="cape" />
		<tag k="place" v="locality" />
		<tag k="ssr:date" v="2016-05-11" />
		<tag k="ssr:stedsnr" v="879387" />
	</node>
	<node id="-24343" lat="58.2485277751" lon="8.5011388813">
		<tag k="name" v="Godthol" />
		<tag k="natural" v="bay" />
		<tag k="ssr:date" v="2016-05-11" />
		<tag k="ssr:stedsnr" v="879380" />
	</node>
	<node id="-20441" lat="58.3791666622" lon="8.74002776968">
		<tag k="ssr:gml_id" v="GEOMETRY_bdde1d8c-7b3c-4295-a6df-2541f819e40c" />
		<tag k="ssr:gml_nr" v="4" />
	</node>
	<node id="-24340" lat="58.2980000034" lon="8.57144444022">
		<tag k="fixme" v="consider seamark:type=rock" />
		<tag k="name" v="Mågholmen Svartskjær" />
		<tag k="natural" v="islet" />
		<tag k="ssr:date" v="2016-05-11" />
		<tag k="ssr:stedsnr" v="879358" />
	</node>
	<node id="-24338" lat="58.3209722228" lon="8.57822222832">
		<tag k="name" v="Holvigholmen" />
		<tag k="place" v="islet" />
		<tag k="ssr:date" v="2016-05-11" />
		<tag k="ssr:stedsnr" v="879353" />
	</node>
	<node id="-24337" lat="58.3184444488" lon="8.57669444398">
		<tag k="fixme" v="consider seamark:type=rock" />
		<tag k="name" v="Bjønnen" />
		<tag k="natural" v="islet" />
		<tag k="ssr:date" v="2016-05-11" />
		<tag k="ssr:stedsnr" v="879343" />
	</node>
	<node id="-20236" lat="58.3350833339" lon="8.60711111298">
		<tag k="name" v="Breivig" />
		<tag k="natural" v="bay" />
		<tag k="ssr:date" v="2016-05-10" />
		<tag k="ssr:stedsnr" v="394507" />
	</node>
	<node id="-23170" lat="58.3271944479" lon="8.60105554999">
		<tag k="ssr:gml_id" v="GEOMETRY_9b198b8b-c98c-4575-9791-d2d30ac7b9be" />
		<tag k="ssr:gml_nr" v="2" />
	</node>
	<node id="-20234" lat="58.3393777743" lon="8.63804444485">
		<tag k="ssr:gml_id" v="GEOMETRY_84634144-2186-4644-9125-deb0431773da" />
		<tag k="ssr:gml_nr" v="0" />
	</node>
	<node id="-20233" lat="58.3666388858" lon="8.69330555005">
		<tag k="fixme" v="consider seamark:type=rock" />
		<tag k="name" v="Kattskjær" />
		<tag k="natural" v="islet" />
		<tag k="ssr:date" v="2016-05-10" />
		<tag k="ssr:stedsnr" v="394484" />
	</node>
	<node id="-20232" lat="58.3478888846" lon="8.65055555241">
		<tag k="name" v="Aslaksteinen" />
		<tag k="natural" v="bay" />
		<tag k="ssr:date" v="2016-05-10" />
		<tag k="ssr:stedsnr" v="394482" />
	</node>
	<node id="-24327" lat="58.3622611103" lon="8.68137499686">
		<tag k="name" v="Hjelmen" />
		<tag k="natural" v="shoal" />
		<tag k="place" v="locality" />
		<tag k="ssr:date" v="2016-05-11" />
		<tag k="ssr:stedsnr" v="876747" />
	</node>
	<node id="-24326" lat="58.3069722261" lon="8.59505554814">
		<tag k="ssr:gml_id" v="GEOMETRY_4d5721c3-f903-43ae-b9bc-c8bdb81467c6" />
		<tag k="ssr:gml_nr" v="1" />
	</node>
	<node id="-24325" lat="58.3069472187" lon="8.59426389692">
		<tag k="ssr:gml_id" v="GEOMETRY_cbc5d10d-d0f1-47de-9cd6-f2871c7ccd3c" />
		<tag k="ssr:gml_nr" v="0" />
	</node>
	<node id="-22276" lat="58.2913000022" lon="8.51007500247">
		<tag k="name" v="Saulekilen" />
		<tag k="natural" v="bay" />
		<tag k="ssr:date" v="2016-05-10" />
		<tag k="ssr:stedsnr" v="534483" />
	</node>
	<node id="-24323" lat="58.3149111087" lon="8.64479722839">
		<tag k="name" v="Ytre Rossegrunnen" />
		<tag k="natural" v="shoal" />
		<tag k="place" v="locality" />
		<tag k="ssr:date" v="2016-05-11" />
		<tag k="ssr:stedsnr" v="876697" />
	</node>
	<node id="-20226" lat="58.3559444426" lon="8.6686388815">
		<tag k="name" v="Slyngplanteviga" />
		<tag k="natural" v="bay" />
		<tag k="ssr:date" v="2016-05-10" />
		<tag k="ssr:stedsnr" v="394462" />
	</node>
	<node id="-24321" lat="58.3640861142" lon="8.68952777692">
		<tag k="name" v="Fevigbåen" />
		<tag k="place" v="locality" />
		<tag k="seamark:type" v="rock" />
		<tag k="ssr:date" v="2016-05-11" />
		<tag k="ssr:stedsnr" v="876674" />
	</node>
	<node id="-20223" lat="58.2525555515" lon="8.4439722163">
		<tag k="name" v="Såvigholmen" />
		<tag k="place" v="islet" />
		<tag k="ssr:date" v="2016-05-10" />
		<tag k="ssr:stedsnr" v="394446" />
	</node>
	<node id="-20222" lat="58.2571111073" lon="8.47299999738">
		<tag k="name" v="Risholmene" />
		<tag k="place" v="islet" />
		<tag k="ssr:date" v="2016-05-10" />
		<tag k="ssr:stedsnr" v="394437" />
	</node>
	<node id="-20437" lat="58.3791277812" lon="8.74095000068">
		<tag k="ssr:gml_id" v="GEOMETRY_3e01a7e4-5c62-4a9d-89a0-1a7d473decb0" />
		<tag k="ssr:gml_nr" v="0" />
	</node>
	<node id="-24316" lat="58.2754611068" lon="8.58176944201">
		<tag k="name" v="Søndre Håbbågrunnen" />
		<tag k="natural" v="shoal" />
		<tag k="place" v="locality" />
		<tag k="ssr:date" v="2016-05-11" />
		<tag k="ssr:stedsnr" v="876666" />
	</node>
	<node id="-20219" lat="58.250861113" lon="8.45919443792">
		<tag k="name" v="Breivig" />
		<tag k="natural" v="bay" />
		<tag k="ssr:date" v="2016-05-10" />
		<tag k="ssr:stedsnr" v="394429" />
	</node>
	<node id="-20218" lat="58.2411944434" lon="8.49280555714">
		<tag k="fixme" v="consider seamark:type=rock" />
		<tag k="name" v="Vestre Svarteskjæra" />
		<tag k="natural" v="islet" />
		<tag k="ssr:date" v="2016-05-10" />
		<tag k="ssr:stedsnr" v="394422" />
	</node>
	<node id="-20217" lat="58.2744722221" lon="8.44761110591">
		<tag k="name" v="Lindtveitstrand" />
		<tag k="natural" v="beach" />
		<tag k="place" v="locality" />
		<tag k="ssr:date" v="2016-05-10" />
		<tag k="ssr:stedsnr" v="394409" />
	</node>
	<node id="-20216" lat="58.2493055534" lon="8.5198888918">
		<tag k="name" v="Mannholmen" />
		<tag k="place" v="islet" />
		<tag k="ssr:date" v="2016-05-10" />
		<tag k="ssr:stedsnr" v="394396" />
	</node>
	<node id="-20215" lat="58.2419722229" lon="8.49708332606">
		<tag k="fixme" v="consider seamark:type=rock" />
		<tag k="name" v="Svarteskjærbåen" />
		<tag k="natural" v="islet" />
		<tag k="ssr:date" v="2016-05-10" />
		<tag k="ssr:stedsnr" v="394393" />
	</node>
	<node id="-24309" lat="58.3339555591" lon="8.65286666087">
		<tag k="ssr:gml_id" v="GEOMETRY_3e2abf88-0f9b-4389-a1bf-6dd77c7a74bf" />
		<tag k="ssr:gml_nr" v="3" />
	</node>
	<node id="-24308" lat="58.3334888879" lon="8.65376110361">
		<tag k="ssr:gml_id" v="GEOMETRY_d9ca3a6d-61e1-4b5e-a122-840f2d01ae19" />
		<tag k="ssr:gml_nr" v="2" />
	</node>
	<node id="-24307" lat="58.3334916708" lon="8.65376389411">
		<tag k="ssr:gml_id" v="GEOMETRY_ce309ebe-3c94-4136-8e3e-272180eb56c3" />
		<tag k="ssr:gml_nr" v="1" />
	</node>
	<node id="-24306" lat="58.3355361143" lon="8.64949165954">
		<tag k="ssr:gml_id" v="GEOMETRY_b53bb117-a379-43e2-96c9-c033fcf3e436" />
		<tag k="ssr:gml_nr" v="0" />
	</node>
	<node id="-20209" lat="58.2903611134" lon="8.55433332799">
		<tag k="name" v="Ytre Halsebukt" />
		<tag k="natural" v="bay" />
		<tag k="ssr:date" v="2016-05-10" />
		<tag k="ssr:stedsnr" v="394358" />
	</node>
	<node id="-20208" lat="58.3407777755" lon="8.64441667024">
		<tag k="name" v="Sundholmen" />
		<tag k="place" v="islet" />
		<tag k="ssr:date" v="2016-05-10" />
		<tag k="ssr:stedsnr" v="394343" />
	</node>
	<node id="-20207" lat="58.3015833334" lon="8.58788889404">
		<tag k="name" v="Ramsholmen" />
		<tag k="place" v="islet" />
		<tag k="ssr:date" v="2016-05-10" />
		<tag k="ssr:stedsnr" v="394342" />
	</node>
	<node id="-20206" lat="58.3072499975" lon="8.60222222018">
		<tag k="name" v="Klåholmen" />
		<tag k="place" v="islet" />
		<tag k="ssr:date" v="2016-05-10" />
		<tag k="ssr:stedsnr" v="394337" />
	</node>
	<node id="-20205" lat="58.30455556" lon="8.60180555754">
		<tag k="name" v="Håkallen" />
		<tag k="place" v="islet" />
		<tag k="ssr:date" v="2016-05-10" />
		<tag k="ssr:stedsnr" v="394329" />
	</node>
	<node id="-20203" lat="58.3453611076" lon="8.60144443691">
		<tag k="name" v="Kjellviga" />
		<tag k="natural" v="bay" />
		<tag k="ssr:date" v="2016-05-10" />
		<tag k="ssr:stedsnr" v="394311" />
	</node>
	<node id="-20202" lat="58.332055553" lon="8.59363889078">
		<tag k="name" v="Vessøyneset" />
		<tag k="natural" v="cape" />
		<tag k="place" v="locality" />
		<tag k="ssr:date" v="2016-05-10" />
		<tag k="ssr:stedsnr" v="394301" />
	</node>
	<node id="-24297" lat="58.2957527792" lon="8.51803333758">
		<tag k="ssr:gml_id" v="GEOMETRY_2d7bef98-c142-45b3-9796-719f870814c8" />
		<tag k="ssr:gml_nr" v="2" />
	</node>
	<node id="-24296" lat="58.2969611151" lon="8.51771388312">
		<tag k="ssr:gml_id" v="GEOMETRY_bb3ebe19-098a-44c5-b8ea-4a1b080b15f0" />
		<tag k="ssr:gml_nr" v="1" />
	</node>
	<node id="-24295" lat="58.2957555561" lon="8.51803611457">
		<tag k="ssr:gml_id" v="GEOMETRY_d117d20f-0199-445a-a6b6-decdd4139e29" />
		<tag k="ssr:gml_nr" v="0" />
	</node>
	<node id="-22246" lat="58.3714222178" lon="8.67195556014">
		<tag k="name" v="Sandodden" />
		<tag k="natural" v="cape" />
		<tag k="place" v="locality" />
		<tag k="ssr:date" v="2016-05-10" />
		<tag k="ssr:stedsnr" v="515754" />
	</node>
	<node id="-23505" lat="58.2518249979" lon="8.51225834124">
		<tag k="ssr:gml_id" v="GEOMETRY_8b24a68c-0e60-49b1-a903-17f5177aa4f1" />
		<tag k="ssr:gml_nr" v="0" />
	</node>
	<node id="-22244" lat="58.3320944466" lon="8.61112222661">
		<tag k="ssr:gml_id" v="GEOMETRY_a0d2c0bc-b49b-41e9-ac65-dea764ce9b8f" />
		<tag k="ssr:gml_nr" v="0" />
	</node>
	<node id="-22243" lat="58.254333335" lon="8.45658333998">
		<tag k="name" v="Eidet" />
		<tag k="place" v="locality" />
		<tag k="ssr:date" v="2016-05-10" />
		<tag k="ssr:stedsnr" v="515493" />
	</node>
	<node id="-22242" lat="58.3457500011" lon="8.64930554749">
		<tag k="name" v="Drotningviga" />
		<tag k="natural" v="bay" />
		<tag k="ssr:date" v="2016-05-10" />
		<tag k="ssr:stedsnr" v="515471" />
	</node>
	<node id="-21115" lat="58.3564055582" lon="8.73738888718">
		<tag k="ssr:gml_id" v="GEOMETRY_bb6a1fc4-6f00-4ee7-aaa1-3efb12bd13b3" />
		<tag k="ssr:gml_nr" v="0" />
	</node>
	<node id="-20192" lat="58.2581111081" lon="8.47358332792">
		<tag k="name" v="Nordmannsviga" />
		<tag k="natural" v="bay" />
		<tag k="ssr:date" v="2016-05-10" />
		<tag k="ssr:stedsnr" v="394105" />
	</node>
	<node id="-22239" lat="58.2601111126" lon="8.47658333634">
		<tag k="fixme" v="consider seamark:type=rock" />
		<tag k="name" v="St. Helena" />
		<tag k="natural" v="islet" />
		<tag k="ssr:date" v="2016-05-10" />
		<tag k="ssr:stedsnr" v="515427" />
	</node>
	<node id="-22238" lat="58.2603333335" lon="8.45211666881">
		<tag k="ssr:gml_id" v="GEOMETRY_66d194f9-349a-4c15-aad6-57290a906991" />
		<tag k="ssr:gml_nr" v="1" />
	</node>
	<node id="-22237" lat="58.2603333367" lon="8.45211111306">
		<tag k="ssr:gml_id" v="GEOMETRY_44dae030-5c2b-4dfe-b7db-ef29b15283b0" />
		<tag k="ssr:gml_nr" v="0" />
	</node>
	<node id="-20188" lat="58.340927778" lon="8.60057222411">
		<tag k="ssr:gml_id" v="GEOMETRY_f8f95399-d958-4697-9e3b-fbdfecec0eb2" />
		<tag k="ssr:gml_nr" v="0" />
	</node>
	<node id="-20187" lat="58.320963885" lon="8.64390000582">
		<tag k="name" v="Indre Rossegrunnen" />
		<tag k="natural" v="shoal" />
		<tag k="place" v="locality" />
		<tag k="ssr:date" v="2016-05-10" />
		<tag k="ssr:stedsnr" v="390801" />
	</node>
	<node id="-20186" lat="58.2800861089" lon="8.58115277387">
		<tag k="name" v="Klemet" />
		<tag k="natural" v="shoal" />
		<tag k="place" v="locality" />
		<tag k="ssr:date" v="2016-05-10" />
		<tag k="ssr:stedsnr" v="390794" />
	</node>
	<node id="-20185" lat="58.3371833348" lon="8.72373611028">
		<tag k="name" v="Moyhausene" />
		<tag k="natural" v="shoal" />
		<tag k="place" v="locality" />
		<tag k="ssr:date" v="2016-05-10" />
		<tag k="ssr:stedsnr" v="390706" />
	</node>
	<node id="-22232" lat="58.2923888913" lon="8.55380555728">
		<tag k="name" v="Indre Halsebukt" />
		<tag k="natural" v="bay" />
		<tag k="ssr:date" v="2016-05-10" />
		<tag k="ssr:stedsnr" v="515370" />
	</node>
	<node id="-20183" lat="58.3182888874" lon="8.61064167227">
		<tag k="ssr:gml_id" v="GEOMETRY_27b299bd-e626-4d35-8de2-4d957ca93cfb" />
		<tag k="ssr:gml_nr" v="0" />
	</node>
	<node id="-20182" lat="58.3186333334" lon="8.6238833303">
		<tag k="name" v="Jakobshausene" />
		<tag k="natural" v="shoal" />
		<tag k="place" v="locality" />
		<tag k="ssr:date" v="2016-05-10" />
		<tag k="ssr:stedsnr" v="390658" />
	</node>
	<node id="-20181" lat="58.3369166681" lon="8.693455562">
		<tag k="name" v="Davidsbåen" />
		<tag k="place" v="locality" />
		<tag k="seamark:type" v="rock" />
		<tag k="ssr:date" v="2016-05-10" />
		<tag k="ssr:stedsnr" v="390628" />
	</node>
	<node id="-22228" lat="58.3039722191" lon="8.58986111057">
		<tag k="name" v="Lille Ramsholmen" />
		<tag k="place" v="islet" />
		<tag k="ssr:date" v="2016-05-10" />
		<tag k="ssr:stedsnr" v="515343" />
	</node>
	<node id="-20179" lat="58.2884083365" lon="8.53718888559">
		<tag k="fixme" v="consider seamark:type=rock" />
		<tag k="name" v="Skarveskjær" />
		<tag k="natural" v="islet" />
		<tag k="ssr:date" v="2016-05-10" />
		<tag k="ssr:stedsnr" v="390610" />
	</node>
	<node id="-20178" lat="58.261205552" lon="8.46748054841">
		<tag k="name" v="Eidekilen" />
		<tag k="natural" v="bay" />
		<tag k="ssr:date" v="2016-05-10" />
		<tag k="ssr:stedsnr" v="390611" />
	</node>
	<node id="-20177" lat="58.3151638867" lon="8.61091389429">
		<tag k="name" v="Lille Skoholmen" />
		<tag k="place" v="islet" />
		<tag k="ssr:date" v="2016-05-10" />
		<tag k="ssr:stedsnr" v="390607" />
	</node>
	<node id="-20172" lat="58.3169361143" lon="8.6215277732">
		<tag k="ssr:gml_id" v="GEOMETRY_31361cf3-6bf8-4d6c-b687-87f5f9368f7a" />
		<tag k="ssr:gml_nr" v="3" />
	</node>
	<node id="-20171" lat="58.3167555552" lon="8.62096944639">
		<tag k="ssr:gml_id" v="GEOMETRY_2f7db2c5-b46d-46da-b56f-2fb856be49be" />
		<tag k="ssr:gml_nr" v="2" />
	</node>
	<node id="-22218" lat="58.2748888901" lon="8.53327778593">
		<tag k="name" v="Røodden" />
		<tag k="natural" v="cape" />
		<tag k="place" v="locality" />
		<tag k="ssr:date" v="2016-05-10" />
		<tag k="ssr:stedsnr" v="515123" />
	</node>
	<node id="-22217" lat="58.3409166642" lon="8.69694444067">
		<tag k="ssr:gml_id" v="GEOMETRY_f5a3f217-4fb3-46bc-b76b-1451a0180564" />
		<tag k="ssr:gml_nr" v="1" />
	</node>
	<node id="-22216" lat="58.3408777789" lon="8.69685556181">
		<tag k="ssr:gml_id" v="GEOMETRY_29ee901c-f6fb-4bf1-b94f-a9077110a108" />
		<tag k="ssr:gml_nr" v="0" />
	</node>
	<node id="-22215" lat="58.3320555583" lon="8.63933332616">
		<tag k="ssr:gml_id" v="GEOMETRY_26d6cd0e-8dae-40b3-b918-506eb694ca21" />
		<tag k="ssr:gml_nr" v="1" />
	</node>
	<node id="-22214" lat="58.332061109" lon="8.63933333793">
		<tag k="ssr:gml_id" v="GEOMETRY_960cbca9-2e76-48e1-abc8-1974313176f9" />
		<tag k="ssr:gml_nr" v="0" />
	</node>
	<node id="-22212" lat="58.2824861081" lon="8.6014861171">
		<tag k="name" v="Skårhogg" />
		<tag k="natural" v="shoal" />
		<tag k="place" v="locality" />
		<tag k="ssr:date" v="2016-05-10" />
		<tag k="ssr:stedsnr" v="512719" />
	</node>
	<node id="-22211" lat="58.3296000027" lon="8.64884999569">
		<tag k="name" v="Jonsgrunnen" />
		<tag k="natural" v="shoal" />
		<tag k="place" v="locality" />
		<tag k="ssr:date" v="2016-05-10" />
		<tag k="ssr:stedsnr" v="512717" />
	</node>
	<node id="-22210" lat="58.3385277791" lon="8.69925000123">
		<tag k="name" v="Makrellbåen" />
		<tag k="place" v="locality" />
		<tag k="seamark:type" v="rock" />
		<tag k="ssr:date" v="2016-05-10" />
		<tag k="ssr:stedsnr" v="512691" />
	</node>
	<node id="-22209" lat="58.2963333319" lon="8.55488889243">
		<tag k="ssr:gml_id" v="GEOMETRY_08c218c1-b4db-42f4-83ab-793ea36654c1" />
		<tag k="ssr:gml_nr" v="1" />
	</node>
	<node id="-22208" lat="58.2963083296" lon="8.55482777607">
		<tag k="ssr:gml_id" v="GEOMETRY_2bfc9182-fda4-43ba-a75a-661996a0439b" />
		<tag k="ssr:gml_nr" v="0" />
	</node>
	<node id="-22205" lat="58.2440555588" lon="8.53119166225">
		<tag k="name" v="Steingrunnen" />
		<tag k="natural" v="shoal" />
		<tag k="place" v="locality" />
		<tag k="ssr:date" v="2016-05-10" />
		<tag k="ssr:stedsnr" v="507984" />
	</node>
	<node id="-22204" lat="58.2586083373" lon="8.45857499683">
		<tag k="name" v="Vessøya" />
		<tag k="natural" v="cape" />
		<tag k="place" v="locality" />
		<tag k="ssr:date" v="2016-05-10" />
		<tag k="ssr:stedsnr" v="507971" />
	</node>
	<node id="-22203" lat="58.2398861143" lon="8.51867500024">
		<tag k="name" v="Nilsesgrunnen" />
		<tag k="natural" v="shoal" />
		<tag k="place" v="locality" />
		<tag k="ssr:date" v="2016-05-10" />
		<tag k="ssr:stedsnr" v="507895" />
	</node>
	<node id="-22181" lat="58.2587500005" lon="8.45906110347">
		<tag k="ssr:gml_id" v="GEOMETRY_09baa56d-1c39-4231-ab2e-61237f74d1e9" />
		<tag k="ssr:gml_nr" v="2" />
	</node>
	<node id="-22180" lat="58.259527776" lon="8.45836111267">
		<tag k="ssr:gml_id" v="GEOMETRY_95a8d766-d7dd-4e12-af3e-b1e88d0446dc" />
		<tag k="ssr:gml_nr" v="1" />
	</node>
	<node id="-22179" lat="58.2595194464" lon="8.45836665898">
		<tag k="ssr:gml_id" v="GEOMETRY_d1ff51db-5b1e-47e3-bb4c-029a69732b31" />
		<tag k="ssr:gml_nr" v="0" />
	</node>
	<node id="-20130" lat="58.3579388877" lon="8.67803055106">
		<tag k="ssr:gml_id" v="GEOMETRY_b08d4601-96f1-450e-bc00-32286e078340" />
		<tag k="ssr:gml_nr" v="0" />
	</node>
	<node id="-20127" lat="58.3565555539" lon="8.61427777465">
		<tag k="ssr:gml_id" v="GEOMETRY_e80829cd-e2d2-4dca-bd32-e61e16f28932" />
		<tag k="ssr:gml_nr" v="3" />
	</node>
	<node id="-20126" lat="58.3533805551" lon="8.61245554933">
		<tag k="ssr:gml_id" v="GEOMETRY_9ac2cb0c-f88e-4b26-927b-ab48e5f22cae" />
		<tag k="ssr:gml_nr" v="2" />
	</node>
	<node id="-20125" lat="58.3533833299" lon="8.61245833824">
		<tag k="ssr:gml_id" v="GEOMETRY_637e2be6-4a19-49e3-a3bd-0916cf30a231" />
		<tag k="ssr:gml_nr" v="1" />
	</node>
	<node id="-20124" lat="58.3522361117" lon="8.60985833452">
		<tag k="ssr:gml_id" v="GEOMETRY_1e0e97ef-6a54-4a98-b855-144accc0c77e" />
		<tag k="ssr:gml_nr" v="0" />
	</node>
	<node id="-22146" lat="58.3889444487" lon="8.73735555291">
		<tag k="ssr:gml_id" v="GEOMETRY_9911e7b7-656a-4403-afc7-f5142c6cb377" />
		<tag k="ssr:gml_nr" v="4" />
	</node>
	<node id="-22145" lat="58.3895527775" lon="8.7371583359">
		<tag k="ssr:gml_id" v="GEOMETRY_a4ad2545-dee4-434e-96bc-af6ade024e33" />
		<tag k="ssr:gml_nr" v="3" />
	</node>
	<node id="-22144" lat="58.3895555585" lon="8.73716110318">
		<tag k="ssr:gml_id" v="GEOMETRY_e6b464be-b298-4962-a521-de2f4c34c9f1" />
		<tag k="ssr:gml_nr" v="2" />
	</node>
	<node id="-22143" lat="58.3889444421" lon="8.73736111169">
		<tag k="ssr:gml_id" v="GEOMETRY_2149af40-6254-47c7-827f-515ec8cc3368" />
		<tag k="ssr:gml_nr" v="1" />
	</node>
	<node id="-22142" lat="58.388941671" lon="8.73734999773">
		<tag k="ssr:gml_id" v="GEOMETRY_94ffaa60-c0dd-461b-8959-2554b14f5eaf" />
		<tag k="ssr:gml_nr" v="0" />
	</node>
	<node id="-22219" lat="58.2613888933" lon="8.49972221755">
		<tag k="name" v="Bojervik" />
		<tag k="natural" v="bay" />
		<tag k="ssr:date" v="2016-05-10" />
		<tag k="ssr:stedsnr" v="515122" />
	</node>
	<node id="-22084" lat="58.2476083298" lon="8.50608056221">
		<tag k="ssr:gml_id" v="GEOMETRY_e22138f4-cbbe-4220-86bd-b8913830c0ef" />
		<tag k="ssr:gml_nr" v="2" />
	</node>
	<node id="-22083" lat="58.247611107" lon="8.50608333452">
		<tag k="ssr:gml_id" v="GEOMETRY_983571f9-8338-4b5b-af4c-fa14844f74b5" />
		<tag k="ssr:gml_nr" v="1" />
	</node>
	<node id="-22082" lat="58.2481527808" lon="8.51725000552">
		<tag k="ssr:gml_id" v="GEOMETRY_d01f5030-bb08-44d8-a37f-e8b34534061d" />
		<tag k="ssr:gml_nr" v="0" />
	</node>
	<node id="-24128" lat="58.3455555555" lon="8.72450555818">
		<tag k="name" v="Hauslandsgrunnen" />
		<tag k="natural" v="shoal" />
		<tag k="place" v="locality" />
		<tag k="ssr:date" v="2016-05-11" />
		<tag k="ssr:stedsnr" v="846418" />
	</node>
	<node id="-24127" lat="58.3256833328" lon="8.59406667152">
		<tag k="name" v="Helmersbåen" />
		<tag k="place" v="locality" />
		<tag k="seamark:type" v="rock" />
		<tag k="ssr:date" v="2016-05-11" />
		<tag k="ssr:stedsnr" v="845644" />
	</node>
	<node id="-24125" lat="58.2906527767" lon="8.50949445238">
		<tag k="name" v="Saulekilen" />
		<tag k="natural" v="bay" />
		<tag k="ssr:date" v="2016-05-11" />
		<tag k="ssr:stedsnr" v="844699" />
	</node>
	<node id="-24123" lat="58.3292388874" lon="8.60847222684">
		<tag k="name" v="Iversholmen" />
		<tag k="place" v="islet" />
		<tag k="ssr:date" v="2016-05-11" />
		<tag k="ssr:stedsnr" v="844580" />
	</node>
	<node id="-24120" lat="58.2820500029" lon="8.56170833471">
		<tag k="name" v="Nordre Steinene" />
		<tag k="natural" v="shoal" />
		<tag k="place" v="locality" />
		<tag k="ssr:date" v="2016-05-11" />
		<tag k="ssr:stedsnr" v="844329" />
	</node>
	<node id="-20014" lat="58.36655" lon="8.67619167152">
		<tag k="name" v="Fevigkilen" />
		<tag k="natural" v="bay" />
		<tag k="ssr:date" v="2016-05-10" />
		<tag k="ssr:stedsnr" v="360405" />
	</node>
	<node id="-20013" lat="58.3730194439" lon="8.75848333282">
		<tag k="fixme" v="consider seamark:type=rock" />
		<tag k="name" v="Fiskeskjær" />
		<tag k="natural" v="islet" />
		<tag k="ssr:date" v="2016-05-10" />
		<tag k="ssr:stedsnr" v="360382" />
	</node>
	<node id="-20442" lat="58.3837277765" lon="8.72545555069">
		<tag k="ssr:gml_id" v="GEOMETRY_d45420f6-d449-4c69-af41-0652ce70c04d" />
		<tag k="ssr:gml_nr" v="0" />
	</node>
	<node id="-20011" lat="58.2977916699" lon="8.59619444209">
		<tag k="name" v="Håkjeften" />
		<tag k="natural" v="strait" />
		<tag k="place" v="locality" />
		<tag k="ssr:date" v="2016-05-10" />
		<tag k="ssr:stedsnr" v="359747" />
	</node>
	<node id="-20009" lat="58.3011416634" lon="8.57641666276">
		<tag k="name" v="Ytreholmen" />
		<tag k="place" v="islet" />
		<tag k="ssr:date" v="2016-05-10" />
		<tag k="ssr:stedsnr" v="358650" />
	</node>
	<node id="-22047" lat="58.3430916631" lon="8.72851944409">
		<tag k="ssr:gml_id" v="GEOMETRY_b020b31e-0514-4f7a-bf9c-24ca9cd5751d" />
		<tag k="ssr:gml_nr" v="1" />
	</node>
	<node id="-22046" lat="58.3430944443" lon="8.72852222414">
		<tag k="ssr:gml_id" v="GEOMETRY_78fc18af-8f59-4503-a6a6-49b49b3bb1e2" />
		<tag k="ssr:gml_nr" v="0" />
	</node>
	<node id="-22045" lat="58.3079694412" lon="8.65843333878">
		<tag k="fixme" v="consider seamark:type=rock" />
		<tag k="name" v="Hesnesbregen" />
		<tag k="natural" v="islet" />
		<tag k="ssr:date" v="2016-05-10" />
		<tag k="ssr:stedsnr" v="481355" />
	</node>
	<node id="-22043" lat="58.3414805553" lon="8.65172221466">
		<tag k="name" v="Kvaløyhaue" />
		<tag k="natural" v="cape" />
		<tag k="place" v="locality" />
		<tag k="ssr:date" v="2016-05-10" />
		<tag k="ssr:stedsnr" v="480723" />
	</node>
	<node id="-22028" lat="58.372224999" lon="8.69680833039">
		<tag k="ssr:gml_id" v="GEOMETRY_d8ba27ca-c6dc-49ab-b097-864e242b4fef" />
		<tag k="ssr:gml_nr" v="1" />
	</node>
	<node id="-22027" lat="58.3720416708" lon="8.69674167404">
		<tag k="ssr:gml_id" v="GEOMETRY_295fffc6-f083-4b66-9615-cf31c33144f5" />
		<tag k="ssr:gml_nr" v="0" />
	</node>
	<node id="-22025" lat="58.3373611129" lon="8.62736110736">
		<tag k="ssr:gml_id" v="GEOMETRY_80292686-7eb2-4501-ba97-6bf1e6f85b10" />
		<tag k="ssr:gml_nr" v="1" />
	</node>
	<node id="-22024" lat="58.337138891" lon="8.62826389307">
		<tag k="ssr:gml_id" v="GEOMETRY_2ca31bf0-49fb-4d7e-99d5-7e7262859bda" />
		<tag k="ssr:gml_nr" v="0" />
	</node>
	<node id="-22023" lat="58.3391111126" lon="8.61347221598">
		<tag k="name" v="Rodviga" />
		<tag k="natural" v="bay" />
		<tag k="ssr:date" v="2016-05-10" />
		<tag k="ssr:stedsnr" v="455474" />
	</node>
	<node id="-22021" lat="58.3342777755" lon="8.6650555611">
		<tag k="name" v="Tønneholmen" />
		<tag k="place" v="islet" />
		<tag k="ssr:date" v="2016-05-10" />
		<tag k="ssr:stedsnr" v="455458" />
	</node>
	<node id="-22020" lat="58.3425277758" lon="8.63730555609">
		<tag k="name" v="Sandum" />
		<tag k="natural" v="beach" />
		<tag k="place" v="locality" />
		<tag k="ssr:date" v="2016-05-10" />
		<tag k="ssr:stedsnr" v="455452" />
	</node>
	<node id="-22019" lat="58.3601388903" lon="8.70105555223">
		<tag k="fixme" v="consider seamark:type=rock" />
		<tag k="name" v="Torskungene" />
		<tag k="natural" v="islet" />
		<tag k="ssr:date" v="2016-05-10" />
		<tag k="ssr:stedsnr" v="455451" />
	</node>
	<node id="-22015" lat="58.3533611123" lon="8.60375000339">
		<tag k="name" v="Torasholla" />
		<tag k="natural" v="bay" />
		<tag k="ssr:date" v="2016-05-10" />
		<tag k="ssr:stedsnr" v="455434" />
	</node>
	<node id="-22014" lat="58.3948055582" lon="8.72027778346">
		<tag k="name" v="Lille Terneholmen" />
		<tag k="place" v="islet" />
		<tag k="ssr:date" v="2016-05-10" />
		<tag k="ssr:stedsnr" v="455430" />
	</node>
	<node id="-22011" lat="58.3556388853" lon="8.66266666443">
		<tag k="name" v="Grønnviga" />
		<tag k="natural" v="bay" />
		<tag k="ssr:date" v="2016-05-10" />
		<tag k="ssr:stedsnr" v="455419" />
	</node>
	<node id="-22010" lat="58.2548888922" lon="8.46922222902">
		<tag k="name" v="Lille Bjørkøy" />
		<tag k="place" v="islet" />
		<tag k="ssr:date" v="2016-05-10" />
		<tag k="ssr:stedsnr" v="455408" />
	</node>
	<node id="-22008" lat="58.277333335" lon="8.49272221452">
		<tag k="name" v="Ørevika" />
		<tag k="natural" v="bay" />
		<tag k="ssr:date" v="2016-05-10" />
		<tag k="ssr:stedsnr" v="455391" />
	</node>
	<node id="-22000" lat="58.3092222234" lon="8.60255555559">
		<tag k="name" v="Bådholmen" />
		<tag k="place" v="islet" />
		<tag k="ssr:date" v="2016-05-10" />
		<tag k="ssr:stedsnr" v="455323" />
	</node>
	<node id="-23169" lat="58.3274361131" lon="8.60177777943">
		<tag k="ssr:gml_id" v="GEOMETRY_96768887-c05b-409d-8db2-1bcbf6f4335f" />
		<tag k="ssr:gml_nr" v="1" />
	</node>
	<node id="-21996" lat="58.3307500005" lon="8.58716666895">
		<tag k="fixme" v="consider seamark:type=rock" />
		<tag k="name" v="Måkeskjær" />
		<tag k="natural" v="islet" />
		<tag k="ssr:date" v="2016-05-10" />
		<tag k="ssr:stedsnr" v="455293" />
	</node>
	<node id="-21123" lat="58.259944444" lon="8.50141667053">
		<tag k="name" v="Stoveodden" />
		<tag k="natural" v="cape" />
		<tag k="place" v="locality" />
		<tag k="ssr:date" v="2016-05-10" />
		<tag k="ssr:stedsnr" v="151107" />
	</node>
	<node id="-21987" lat="58.2617222212" lon="8.51500000225">
		<tag k="name" v="Meggersvik" />
		<tag k="natural" v="bay" />
		<tag k="ssr:date" v="2016-05-10" />
		<tag k="ssr:stedsnr" v="455120" />
	</node>
	<node id="-21986" lat="58.248194445" lon="8.46577777466">
		<tag k="name" v="Håholla" />
		<tag k="natural" v="bay" />
		<tag k="ssr:date" v="2016-05-10" />
		<tag k="ssr:stedsnr" v="454429" />
	</node>
	<node id="-24030" lat="58.2973499987" lon="8.5383333306">
		<tag k="ssr:gml_id" v="GEOMETRY_dc4699c4-fc72-4ca6-a696-76bc05a675c5" />
		<tag k="ssr:gml_nr" v="1" />
	</node>
	<node id="-24029" lat="58.2999555563" lon="8.54285555371">
		<tag k="ssr:gml_id" v="GEOMETRY_3d1f98df-e903-450d-9717-267130d21db7" />
		<tag k="ssr:gml_nr" v="0" />
	</node>
	<node id="-21978" lat="58.3481944419" lon="8.65263888346">
		<tag k="ssr:gml_id" v="GEOMETRY_4c852d65-00ad-47ae-8621-2b953f114fe1" />
		<tag k="ssr:gml_nr" v="1" />
	</node>
	<node id="-21977" lat="58.3481999974" lon="8.65257777023">
		<tag k="ssr:gml_id" v="GEOMETRY_86e77427-d1ce-4aa5-990c-f232922dec97" />
		<tag k="ssr:gml_nr" v="0" />
	</node>
	<node id="-21976" lat="58.3422749965" lon="8.65362777337">
		<tag k="name" v="Håneset" />
		<tag k="natural" v="cape" />
		<tag k="place" v="locality" />
		<tag k="ssr:date" v="2016-05-10" />
		<tag k="ssr:stedsnr" v="451700" />
	</node>
	<node id="-21975" lat="58.2543027762" lon="8.53025555114">
		<tag k="name" v="Store Grønningen" />
		<tag k="place" v="islet" />
		<tag k="ssr:date" v="2016-05-10" />
		<tag k="ssr:stedsnr" v="447978" />
	</node>
	<node id="-21974" lat="58.2577777817" lon="8.47688888299">
		<tag k="ssr:gml_id" v="GEOMETRY_faa5603f-e34a-48e9-8a8a-1d9f45e257cd" />
		<tag k="ssr:gml_nr" v="1" />
	</node>
	<node id="-21973" lat="58.25784722" lon="8.47683610709">
		<tag k="ssr:gml_id" v="GEOMETRY_eca5698d-bd22-4d08-b2e6-2d7d469c7f5d" />
		<tag k="ssr:gml_nr" v="0" />
	</node>
	<node id="-21972" lat="58.2365166706" lon="8.49024722349">
		<tag k="name" v="Fjøsgrunnen" />
		<tag k="natural" v="shoal" />
		<tag k="place" v="locality" />
		<tag k="ssr:date" v="2016-05-10" />
		<tag k="ssr:stedsnr" v="447868" />
	</node>
	<node id="-21968" lat="58.3135999991" lon="8.58258055262">
		<tag k="ssr:gml_id" v="GEOMETRY_b7ae0295-473f-46f9-a8e5-b391bc895bc7" />
		<tag k="ssr:gml_nr" v="4" />
	</node>
	<node id="-21967" lat="58.3234861117" lon="8.58960276948">
		<tag k="ssr:gml_id" v="GEOMETRY_29358051-5f3a-4a9e-b4b0-a3ac18d35cf8" />
		<tag k="ssr:gml_nr" v="3" />
	</node>
	<node id="-21966" lat="58.3301944438" lon="8.59416667405">
		<tag k="ssr:gml_id" v="GEOMETRY_f8e56ef8-3dac-4d79-9238-b7e5dc2fbc5a" />
		<tag k="ssr:gml_nr" v="2" />
	</node>
	<node id="-24013" lat="58.4001666635" lon="8.70899166731">
		<tag k="name" v="Vessøyneset" />
		<tag k="natural" v="cape" />
		<tag k="place" v="locality" />
		<tag k="ssr:date" v="2016-05-11" />
		<tag k="ssr:stedsnr" v="819774" />
	</node>
	<node id="-21964" lat="58.3301916695" lon="8.59415000601">
		<tag k="ssr:gml_id" v="GEOMETRY_daf59f42-7d45-42bc-ba7e-3a1692efea83" />
		<tag k="ssr:gml_nr" v="0" />
	</node>
	<node id="-21963" lat="58.3109666706" lon="8.54812222874">
		<tag k="ssr:gml_id" v="GEOMETRY_b1428164-aff6-428d-a08f-17aab1d5e732" />
		<tag k="ssr:gml_nr" v="2" />
	</node>
	<node id="-21962" lat="58.3118833367" lon="8.54603889532">
		<tag k="ssr:gml_id" v="GEOMETRY_85771081-b39b-41d7-a1af-b06801acd368" />
		<tag k="ssr:gml_nr" v="1" />
	</node>
	<node id="-21961" lat="58.3109638854" lon="8.54811944832">
		<tag k="ssr:gml_id" v="GEOMETRY_1d9c3563-e9a8-4a6f-a28a-8dd47aac5a01" />
		<tag k="ssr:gml_nr" v="0" />
	</node>
	<node id="-24006" lat="58.3281944444" lon="8.61274999667">
		<tag k="fixme" v="consider seamark:type=rock" />
		<tag k="name" v="Plada" />
		<tag k="natural" v="islet" />
		<tag k="ssr:date" v="2016-05-11" />
		<tag k="ssr:stedsnr" v="819519" />
	</node>
	<node id="-24005" lat="58.3337222254" lon="8.62480555584">
		<tag k="name" v="Rosseviga" />
		<tag k="natural" v="bay" />
		<tag k="ssr:date" v="2016-05-11" />
		<tag k="ssr:stedsnr" v="819515" />
	</node>
	<node id="-24003" lat="58.3628055516" lon="8.6205277714">
		<tag k="name" v="Vikstranda" />
		<tag k="natural" v="beach" />
		<tag k="place" v="locality" />
		<tag k="ssr:date" v="2016-05-11" />
		<tag k="ssr:stedsnr" v="819502" />
	</node>
	<node id="-24002" lat="58.3231111095" lon="8.60722222309">
		<tag k="name" v="Store Hampholmsund" />
		<tag k="natural" v="strait" />
		<tag k="place" v="locality" />
		<tag k="ssr:date" v="2016-05-11" />
		<tag k="ssr:stedsnr" v="819499" />
	</node>
	<node id="-21953" lat="58.2631111123" lon="8.53716667373">
		<tag k="ssr:gml_id" v="GEOMETRY_755b37b6-642f-4a97-a5de-7670c47011fe" />
		<tag k="ssr:gml_nr" v="1" />
	</node>
	<node id="-21952" lat="58.2630972199" lon="8.53714999904">
		<tag k="ssr:gml_id" v="GEOMETRY_fdd6a735-046c-4813-9e2e-5e378f932764" />
		<tag k="ssr:gml_nr" v="0" />
	</node>
	<node id="-21951" lat="58.2603888883" lon="8.48752777795">
		<tag k="ssr:gml_id" v="GEOMETRY_9154d6ff-ede3-4927-ba73-ee2069d1fa41" />
		<tag k="ssr:gml_nr" v="2" />
	</node>
	<node id="-21950" lat="58.2601611083" lon="8.48718054731">
		<tag k="ssr:gml_id" v="GEOMETRY_5f8be66d-4376-44dc-8938-d7d4cfceefbb" />
		<tag k="ssr:gml_nr" v="1" />
	</node>
	<node id="-21949" lat="58.2601583308" lon="8.48717777551">
		<tag k="ssr:gml_id" v="GEOMETRY_3206a115-8a44-48ef-b08f-ca513c91d486" />
		<tag k="ssr:gml_nr" v="0" />
	</node>
	<node id="-23996" lat="58.3858055516" lon="8.71561111085">
		<tag k="name" v="Ruakerkilen" />
		<tag k="natural" v="bay" />
		<tag k="ssr:date" v="2016-05-11" />
		<tag k="ssr:stedsnr" v="819475" />
	</node>
	<node id="-23995" lat="58.3688888877" lon="8.73769444851">
		<tag k="name" v="Lyngøya" />
		<tag k="place" v="islet" />
		<tag k="ssr:date" v="2016-05-11" />
		<tag k="ssr:stedsnr" v="819466" />
	</node>
	<node id="-23994" lat="58.3566388925" lon="8.65994444405">
		<tag k="ssr:gml_id" v="GEOMETRY_4142f325-7e5f-4189-a582-1bc97f34aac5" />
		<tag k="ssr:gml_nr" v="1" />
	</node>
	<node id="-23993" lat="58.3563944413" lon="8.66020555891">
		<tag k="ssr:gml_id" v="GEOMETRY_67adb8ee-f3cc-4efe-971a-ef4fbaaf76bc" />
		<tag k="ssr:gml_nr" v="0" />
	</node>
	<node id="-19896" lat="58.3248805558" lon="8.61094443853">
		<tag k="ssr:gml_id" v="GEOMETRY_f944b506-d0e7-4253-a96a-e4a4e1ca144c" />
		<tag k="ssr:gml_nr" v="0" />
	</node>
	<node id="-23991" lat="58.251500001" lon="8.44563888714">
		<tag k="name" v="Abrahamsodde" />
		<tag k="natural" v="cape" />
		<tag k="place" v="locality" />
		<tag k="ssr:date" v="2016-05-11" />
		<tag k="ssr:stedsnr" v="819453" />
	</node>
	<node id="-19894" lat="58.3404444407" lon="8.6246666648">
		<tag k="ssr:gml_id" v="GEOMETRY_3a195aae-9da6-4040-86d7-857b1f5bc06e" />
		<tag k="ssr:gml_nr" v="1" />
	</node>
	<node id="-23989" lat="58.262638891" lon="8.44263889049">
		<tag k="ssr:gml_id" v="GEOMETRY_36bfdaaa-0247-49b7-8807-be04ae9c956f" />
		<tag k="ssr:gml_nr" v="1" />
	</node>
	<node id="-19892" lat="58.3141944431" lon="8.60372222902">
		<tag k="name" v="Østre Brattholmen" />
		<tag k="place" v="islet" />
		<tag k="ssr:date" v="2016-05-10" />
		<tag k="ssr:stedsnr" v="333499" />
	</node>
	<node id="-19891" lat="58.2786111146" lon="8.53011111573">
		<tag k="ssr:gml_id" v="GEOMETRY_f2911c93-95fa-4129-8e83-efcd4e87e375" />
		<tag k="ssr:gml_nr" v="1" />
	</node>
	<node id="-23986" lat="58.2786111071" lon="8.50086110266">
		<tag k="name" v="Bermevika" />
		<tag k="natural" v="bay" />
		<tag k="ssr:date" v="2016-05-11" />
		<tag k="ssr:stedsnr" v="819409" />
	</node>
	<node id="-23984" lat="58.29722222" lon="8.57725000608">
		<tag k="name" v="Hvidholmen" />
		<tag k="place" v="islet" />
		<tag k="ssr:date" v="2016-05-11" />
		<tag k="ssr:stedsnr" v="819389" />
	</node>
	<node id="-19887" lat="58.2514444467" lon="8.45583334011">
		<tag k="name" v="Krærholla" />
		<tag k="natural" v="bay" />
		<tag k="ssr:date" v="2016-05-10" />
		<tag k="ssr:stedsnr" v="333449" />
	</node>
	<node id="-23982" lat="58.2941388863" lon="8.57630556409">
		<tag k="fixme" v="consider seamark:type=rock" />
		<tag k="name" v="Store Svaleskjær" />
		<tag k="natural" v="islet" />
		<tag k="ssr:date" v="2016-05-11" />
		<tag k="ssr:stedsnr" v="819376" />
	</node>
	<node id="-23981" lat="58.3120833335" lon="8.6021666678">
		<tag k="fixme" v="consider seamark:type=rock" />
		<tag k="name" v="Fløytesundskjæra" />
		<tag k="natural" v="islet" />
		<tag k="ssr:date" v="2016-05-11" />
		<tag k="ssr:stedsnr" v="819375" />
	</node>
	<node id="-23980" lat="58.3048611104" lon="8.59797221891">
		<tag k="name" v="Sandholmsundet" />
		<tag k="natural" v="strait" />
		<tag k="place" v="locality" />
		<tag k="ssr:date" v="2016-05-11" />
		<tag k="ssr:stedsnr" v="819374" />
	</node>
	<node id="-23979" lat="58.3095833351" lon="8.57024999217">
		<tag k="name" v="Herøysund" />
		<tag k="natural" v="strait" />
		<tag k="place" v="locality" />
		<tag k="ssr:date" v="2016-05-11" />
		<tag k="ssr:stedsnr" v="819364" />
	</node>
	<node id="-23978" lat="58.3040000003" lon="8.59097221405">
		<tag k="fixme" v="consider seamark:type=rock" />
		<tag k="name" v="Gullskjær" />
		<tag k="natural" v="islet" />
		<tag k="ssr:date" v="2016-05-11" />
		<tag k="ssr:stedsnr" v="819360" />
	</node>
	<node id="-19881" lat="58.3118055559" lon="8.60080554829">
		<tag k="name" v="Fløytesund" />
		<tag k="natural" v="strait" />
		<tag k="place" v="locality" />
		<tag k="ssr:date" v="2016-05-10" />
		<tag k="ssr:stedsnr" v="333379" />
	</node>
	<node id="-19880" lat="58.308333332" lon="8.60166666161">
		<tag k="fixme" v="consider seamark:type=rock" />
		<tag k="name" v="Skarveskjæra" />
		<tag k="natural" v="islet" />
		<tag k="ssr:date" v="2016-05-10" />
		<tag k="ssr:stedsnr" v="333376" />
	</node>
	<node id="-19879" lat="58.3040833305" lon="8.58122223023">
		<tag k="name" v="Rivingdybet" />
		<tag k="natural" v="strait" />
		<tag k="place" v="locality" />
		<tag k="ssr:date" v="2016-05-10" />
		<tag k="ssr:stedsnr" v="333370" />
	</node>
	<node id="-21921" lat="58.3901388875" lon="8.72725000615">
		<tag k="ssr:gml_id" v="GEOMETRY_715e812e-8e03-4bd1-af64-8ab36cfff40f" />
		<tag k="ssr:gml_nr" v="3" />
	</node>
	<node id="-21920" lat="58.3901305526" lon="8.72725000208">
		<tag k="ssr:gml_id" v="GEOMETRY_6c75da2f-ad7a-4c3b-a63a-25192a5a0e4e" />
		<tag k="ssr:gml_nr" v="2" />
	</node>
	<node id="-21919" lat="58.3872472192" lon="8.72495000431">
		<tag k="ssr:gml_id" v="GEOMETRY_8bade007-874a-463b-ae82-80e71789e1d6" />
		<tag k="ssr:gml_nr" v="1" />
	</node>
	<node id="-23966" lat="58.2764833328" lon="8.60968610743">
		<tag k="name" v="Grunnsletta" />
		<tag k="natural" v="shoal" />
		<tag k="place" v="locality" />
		<tag k="ssr:date" v="2016-05-11" />
		<tag k="ssr:stedsnr" v="815809" />
	</node>
	<node id="-23965" lat="58.2853666628" lon="8.53898333997">
		<tag k="ssr:gml_id" v="GEOMETRY_1cc18033-cc11-42ff-b7bc-b1d69ed74e9c" />
		<tag k="ssr:gml_nr" v="1" />
	</node>
	<node id="-19868" lat="58.3681527785" lon="8.73205554721">
		<tag k="fixme" v="consider seamark:type=rock" />
		<tag k="name" v="Ryvingsskjæra" />
		<tag k="natural" v="islet" />
		<tag k="ssr:date" v="2016-05-10" />
		<tag k="ssr:stedsnr" v="330716" />
	</node>
	<node id="-23963" lat="58.2658527793" lon="8.54776111128">
		<tag k="name" v="Ytre Prestholmgrunnen" />
		<tag k="natural" v="shoal" />
		<tag k="place" v="locality" />
		<tag k="ssr:date" v="2016-05-11" />
		<tag k="ssr:stedsnr" v="815803" />
	</node>
	<node id="-19866" lat="58.3521916671" lon="8.70347222241">
		<tag k="name" v="Torskebåene" />
		<tag k="place" v="locality" />
		<tag k="seamark:type" v="rock" />
		<tag k="ssr:date" v="2016-05-10" />
		<tag k="ssr:stedsnr" v="330704" />
	</node>
	<node id="-23961" lat="58.3687333324" lon="8.70067499152">
		<tag k="ssr:gml_id" v="GEOMETRY_58642be9-71f0-491f-97d4-ffd181eefa39" />
		<tag k="ssr:gml_nr" v="1" />
	</node>
	<node id="-23960" lat="58.3686472205" lon="8.70048055858">
		<tag k="ssr:gml_id" v="GEOMETRY_4c2547ee-cc54-464e-988d-ac3f4a5e4301" />
		<tag k="ssr:gml_nr" v="0" />
	</node>
	<node id="-19863" lat="58.2939222229" lon="8.55876389253">
		<tag k="name" v="Nibbehausen" />
		<tag k="natural" v="shoal" />
		<tag k="place" v="locality" />
		<tag k="ssr:date" v="2016-05-10" />
		<tag k="ssr:stedsnr" v="330687" />
	</node>
	<node id="-23958" lat="58.3612055531" lon="8.6758305547">
		<tag k="ssr:gml_id" v="GEOMETRY_ccf3d2f9-50f3-49f3-b0a7-c28ed23e81ef" />
		<tag k="ssr:gml_nr" v="0" />
	</node>
	<node id="-19861" lat="58.3042805552" lon="8.55649999448">
		<tag k="name" v="Morvigpynten" />
		<tag k="natural" v="cape" />
		<tag k="place" v="locality" />
		<tag k="ssr:date" v="2016-05-10" />
		<tag k="ssr:stedsnr" v="330684" />
	</node>
	<node id="-19860" lat="58.293286112" lon="8.56685556219">
		<tag k="name" v="Vestre Vikletten" />
		<tag k="natural" v="shoal" />
		<tag k="place" v="locality" />
		<tag k="ssr:date" v="2016-05-10" />
		<tag k="ssr:stedsnr" v="330680" />
	</node>
	<node id="-23955" lat="58.3342555555" lon="8.63153889557">
		<tag k="name" v="Aua" />
		<tag k="natural" v="cape" />
		<tag k="place" v="locality" />
		<tag k="ssr:date" v="2016-05-11" />
		<tag k="ssr:stedsnr" v="815671" />
	</node>
	<node id="-23954" lat="58.3178388879" lon="8.67841389404">
		<tag k="name" v="Østre Sloa" />
		<tag k="natural" v="shoal" />
		<tag k="place" v="locality" />
		<tag k="ssr:date" v="2016-05-11" />
		<tag k="ssr:stedsnr" v="815657" />
	</node>
	<node id="-23953" lat="58.3556666669" lon="8.75023055">
		<tag k="name" v="Fevigbåen" />
		<tag k="place" v="locality" />
		<tag k="seamark:type" v="rock" />
		<tag k="ssr:date" v="2016-05-11" />
		<tag k="ssr:stedsnr" v="815634" />
	</node>
	<node id="-19856" lat="58.2553000015" lon="8.43836389519">
		<tag k="name" v="Midtsundholmen" />
		<tag k="place" v="islet" />
		<tag k="ssr:date" v="2016-05-10" />
		<tag k="ssr:stedsnr" v="325833" />
	</node>
	<node id="-23951" lat="58.3716722256" lon="8.76471666481">
		<tag k="name" v="Fiskeskjærflaget" />
		<tag k="natural" v="shoal" />
		<tag k="place" v="locality" />
		<tag k="ssr:date" v="2016-05-11" />
		<tag k="ssr:stedsnr" v="815626" />
	</node>
	<node id="-23946" lat="58.2497500004" lon="8.49830554933">
		<tag k="ssr:gml_id" v="GEOMETRY_631a520f-bb1b-48a8-8cf8-faf7eb5a0999" />
		<tag k="ssr:gml_nr" v="1" />
	</node>
	<node id="-23945" lat="58.249824999" lon="8.49859166485">
		<tag k="ssr:gml_id" v="GEOMETRY_0dc11685-ac99-4e9b-81d3-7d93a14b6371" />
		<tag k="ssr:gml_nr" v="0" />
	</node>
	<node id="-23937" lat="58.2558444457" lon="8.49247222426">
		<tag k="ssr:gml_id" v="GEOMETRY_0fd2408e-9a37-40c4-942f-e677c438216f" />
		<tag k="ssr:gml_nr" v="3" />
	</node>
	<node id="-23936" lat="58.2552472197" lon="8.49111110269">
		<tag k="ssr:gml_id" v="GEOMETRY_355f5e5f-1d93-4e8b-bc3b-4582f3e3c091" />
		<tag k="ssr:gml_nr" v="2" />
	</node>
	<node id="-23935" lat="58.2552500041" lon="8.49111111391">
		<tag k="ssr:gml_id" v="GEOMETRY_6cba0389-3945-42ce-8d69-ecd1d27fb30a" />
		<tag k="ssr:gml_nr" v="1" />
	</node>
	<node id="-23934" lat="58.255252776" lon="8.49109444358">
		<tag k="ssr:gml_id" v="GEOMETRY_50652295-4018-47f2-b3f5-c974dacd867b" />
		<tag k="ssr:gml_nr" v="0" />
	</node>
	<node id="-23933" lat="58.2506027749" lon="8.48438610338">
		<tag k="ssr:gml_id" v="GEOMETRY_ec5b1b9e-eebe-46f5-9471-bc218c2ef901" />
		<tag k="ssr:gml_nr" v="3" />
	</node>
	<node id="-23932" lat="58.2507194405" lon="8.48588889675">
		<tag k="ssr:gml_id" v="GEOMETRY_051f4acc-c100-4132-9d8f-dfb40202606c" />
		<tag k="ssr:gml_nr" v="2" />
	</node>
	<node id="-23931" lat="58.2507222249" lon="8.48588889053">
		<tag k="ssr:gml_id" v="GEOMETRY_158bb0e3-cb35-47ed-b9c0-834b3d0e3891" />
		<tag k="ssr:gml_nr" v="1" />
	</node>
	<node id="-23930" lat="58.2507222227" lon="8.48588611347">
		<tag k="ssr:gml_id" v="GEOMETRY_5e8d18cf-a0b4-4208-a944-2488c009ef96" />
		<tag k="ssr:gml_nr" v="0" />
	</node>
	<node id="-23929" lat="58.3108333303" lon="8.59894444473">
		<tag k="ssr:gml_id" v="GEOMETRY_0ba64a58-59c5-49b5-b37f-db9f76a7a8d9" />
		<tag k="ssr:gml_nr" v="3" />
	</node>
	<node id="-23928" lat="58.3108833337" lon="8.59936944128">
		<tag k="ssr:gml_id" v="GEOMETRY_3a212f60-dd0b-4c1c-a6c8-62bdb052ac88" />
		<tag k="ssr:gml_nr" v="2" />
	</node>
	<node id="-23927" lat="58.3108861088" lon="8.59937222583">
		<tag k="ssr:gml_id" v="GEOMETRY_0e9d6256-c1ee-466e-bf7e-e18a940ddde9" />
		<tag k="ssr:gml_nr" v="1" />
	</node>
	<node id="-23926" lat="58.3107527784" lon="8.5989833285">
		<tag k="ssr:gml_id" v="GEOMETRY_09a9f614-ec53-46bb-8c53-54c771e4a7a9" />
		<tag k="ssr:gml_nr" v="0" />
	</node>
	<node id="-19829" lat="58.300219446" lon="8.55918056334">
		<tag k="ssr:gml_id" v="GEOMETRY_a3fa35e8-7777-4a63-9abf-ceb8d897d29b" />
		<tag k="ssr:gml_nr" v="3" />
	</node>
	<node id="-19828" lat="58.3001944413" lon="8.55880554754">
		<tag k="ssr:gml_id" v="GEOMETRY_b220fc9e-dc74-44de-b73a-cbb6a7e1b916" />
		<tag k="ssr:gml_nr" v="2" />
	</node>
	<node id="-19827" lat="58.3002194454" lon="8.55917778239">
		<tag k="ssr:gml_id" v="GEOMETRY_3b9511b4-aaf3-4bcc-bacf-6c2a00c8ce31" />
		<tag k="ssr:gml_nr" v="1" />
	</node>
	<node id="-19826" lat="58.3002166695" lon="8.55917500183">
		<tag k="ssr:gml_id" v="GEOMETRY_9f57adab-f794-4bbd-bdd0-83c32317ffb9" />
		<tag k="ssr:gml_nr" v="0" />
	</node>
	<node id="-19823" lat="58.2498166644" lon="8.5257777787">
		<tag k="ssr:gml_id" v="GEOMETRY_3ea87933-c46d-460f-be14-6547863e37d8" />
		<tag k="ssr:gml_nr" v="1" />
	</node>
	<node id="-19822" lat="58.2498194411" lon="8.52578055272">
		<tag k="ssr:gml_id" v="GEOMETRY_431b05c9-6990-4ad1-8676-9eac72bbe20a" />
		<tag k="ssr:gml_nr" v="0" />
	</node>
	<node id="-19821" lat="58.2549861108" lon="8.52727777401">
		<tag k="ssr:gml_id" v="GEOMETRY_cf024f45-b172-41bb-9e91-ea8cb4e7e50f" />
		<tag k="ssr:gml_nr" v="3" />
	</node>
	<node id="-19820" lat="58.2549888875" lon="8.52728054855">
		<tag k="ssr:gml_id" v="GEOMETRY_31023273-0849-4e5f-a438-1f0714b70c66" />
		<tag k="ssr:gml_nr" v="2" />
	</node>
	<node id="-19819" lat="58.2550555558" lon="8.52977777685">
		<tag k="ssr:gml_id" v="GEOMETRY_7a4a846e-69e1-43b1-99d7-f08927550592" />
		<tag k="ssr:gml_nr" v="1" />
	</node>
	<node id="-19818" lat="58.2550444456" lon="8.52975832863">
		<tag k="ssr:gml_id" v="GEOMETRY_d7fad252-2a59-4fb3-917d-94f233203450" />
		<tag k="ssr:gml_nr" v="0" />
	</node>
	<node id="-23900" lat="58.3742111104" lon="8.68572499389">
		<tag k="ssr:gml_id" v="GEOMETRY_8ac6f0f8-fdf1-4d12-a980-26856a4e407d" />
		<tag k="ssr:gml_nr" v="2" />
	</node>
	<node id="-23899" lat="58.3742138926" lon="8.68572777301">
		<tag k="ssr:gml_id" v="GEOMETRY_60d13395-2848-4e04-913f-df3626275df1" />
		<tag k="ssr:gml_nr" v="1" />
	</node>
	<node id="-23898" lat="58.3760611087" lon="8.69331667385">
		<tag k="ssr:gml_id" v="GEOMETRY_94698c9b-29cd-4da3-b90d-d0434367cc09" />
		<tag k="ssr:gml_nr" v="0" />
	</node>
	<node id="-19795" lat="58.3957888875" lon="8.70565277956">
		<tag k="ssr:gml_id" v="GEOMETRY_4784ad66-b1e6-4a91-a635-df1bb54af307" />
		<tag k="ssr:gml_nr" v="2" />
	</node>
	<node id="-19794" lat="58.3957777749" lon="8.70793610583">
		<tag k="ssr:gml_id" v="GEOMETRY_5e0d5e67-611c-45e7-af56-4aa508b27012" />
		<tag k="ssr:gml_nr" v="1" />
	</node>
	<node id="-19793" lat="58.3957916692" lon="8.70565556194">
		<tag k="ssr:gml_id" v="GEOMETRY_a60df2b2-8aca-45cd-bf76-8c5f318084a5" />
		<tag k="ssr:gml_nr" v="0" />
	</node>
	<node id="-19778" lat="58.3568722209" lon="8.69799445173">
		<tag k="ssr:gml_id" v="GEOMETRY_a35bab2f-2f5f-48a1-8226-8a3da5e7543c" />
		<tag k="ssr:gml_nr" v="3" />
	</node>
	<node id="-19777" lat="58.3568750028" lon="8.69799723046">
		<tag k="ssr:gml_id" v="GEOMETRY_0668a089-41ec-4394-bc84-1139dbd236b1" />
		<tag k="ssr:gml_nr" v="2" />
	</node>
	<node id="-19776" lat="58.356833334" lon="8.69780554823">
		<tag k="ssr:gml_id" v="GEOMETRY_9145073a-53b9-40fe-b345-bd20ee4ab968" />
		<tag k="ssr:gml_nr" v="1" />
	</node>
	<node id="-19775" lat="58.3568472203" lon="8.69789722782">
		<tag k="ssr:gml_id" v="GEOMETRY_85c5d38e-25ba-4169-bfb4-f635bd865698" />
		<tag k="ssr:gml_nr" v="0" />
	</node>
	<node id="-24000" lat="58.3391388909" lon="8.64838889305">
		<tag k="name" v="Engeholmen" />
		<tag k="place" v="islet" />
		<tag k="ssr:date" v="2016-05-11" />
		<tag k="ssr:stedsnr" v="819492" />
	</node>
	<node id="-23168" lat="58.327433335" lon="8.59991944189">
		<tag k="ssr:gml_id" v="GEOMETRY_d8014080-384b-41e5-a473-652d44c6353b" />
		<tag k="ssr:gml_nr" v="0" />
	</node>
	<node id="-19701" lat="58.3372166674" lon="8.65569166466">
		<tag k="name" v="Sundet" />
		<tag k="natural" v="strait" />
		<tag k="place" v="locality" />
		<tag k="ssr:date" v="2016-05-10" />
		<tag k="ssr:stedsnr" v="299582" />
	</node>
	<node id="-19700" lat="58.301986113" lon="8.59029444573">
		<tag k="name" v="Håøysundet" />
		<tag k="natural" v="strait" />
		<tag k="place" v="locality" />
		<tag k="ssr:date" v="2016-05-10" />
		<tag k="ssr:stedsnr" v="298625" />
	</node>
	<node id="-21735" lat="58.241602774" lon="8.47547499928">
		<tag k="name" v="Rivingbåene" />
		<tag k="place" v="locality" />
		<tag k="seamark:type" v="rock" />
		<tag k="ssr:date" v="2016-05-10" />
		<tag k="ssr:stedsnr" v="265892" />
	</node>
	<node id="-21734" lat="58.2627333369" lon="8.43873889223">
		<tag k="name" v="Narrholmsundet" />
		<tag k="natural" v="strait" />
		<tag k="place" v="locality" />
		<tag k="ssr:date" v="2016-05-10" />
		<tag k="ssr:stedsnr" v="265781" />
	</node>
	<node id="-21733" lat="58.392402781" lon="8.7245694461">
		<tag k="ssr:gml_id" v="GEOMETRY_cd42e52e-1597-4e1b-b6f7-7d429b54f917" />
		<tag k="ssr:gml_nr" v="4" />
	</node>
	<node id="-21732" lat="58.3926388927" lon="8.72408332925">
		<tag k="ssr:gml_id" v="GEOMETRY_f47e326e-dc41-4dfe-8de9-6f14dbf1c6d3" />
		<tag k="ssr:gml_nr" v="3" />
	</node>
	<node id="-21731" lat="58.3905444451" lon="8.72454444068">
		<tag k="ssr:gml_id" v="GEOMETRY_02f038c3-0267-46c3-82b9-f3742a97173b" />
		<tag k="ssr:gml_nr" v="2" />
	</node>
	<node id="-21730" lat="58.3905472264" lon="8.72454722414">
		<tag k="ssr:gml_id" v="GEOMETRY_48480c08-5d11-4bfa-b0ba-0b6185a48dfa" />
		<tag k="ssr:gml_nr" v="1" />
	</node>
	<node id="-21729" lat="58.3905166671" lon="8.72401944517">
		<tag k="ssr:gml_id" v="GEOMETRY_7fea4d2a-e883-4519-9975-2cc68ff75d80" />
		<tag k="ssr:gml_nr" v="0" />
	</node>
	<node id="-21728" lat="58.2411138852" lon="8.49418333006">
		<tag k="fixme" v="consider seamark:type=rock" />
		<tag k="name" v="Svartskjær" />
		<tag k="natural" v="islet" />
		<tag k="ssr:date" v="2016-05-10" />
		<tag k="ssr:stedsnr" v="262266" />
	</node>
	<node id="-21724" lat="58.347983337" lon="8.73189999217">
		<tag k="ssr:gml_id" v="GEOMETRY_f8b089fc-0031-4246-8bc1-e034d5b4ad10" />
		<tag k="ssr:gml_nr" v="2" />
	</node>
	<node id="-21723" lat="58.3479861123" lon="8.73190000531">
		<tag k="ssr:gml_id" v="GEOMETRY_0fdaa378-913c-41ef-9aff-22f7f6db9500" />
		<tag k="ssr:gml_nr" v="1" />
	</node>
	<node id="-21722" lat="58.3482833312" lon="8.73200276948">
		<tag k="ssr:gml_id" v="GEOMETRY_edefe802-538b-4d0d-aa36-805fa6a03448" />
		<tag k="ssr:gml_nr" v="0" />
	</node>
	<node id="-21712" lat="58.2884472229" lon="8.5461194465">
		<tag k="ssr:gml_id" v="GEOMETRY_23b32ee7-cf88-46cd-9f35-e9cedd29842e" />
		<tag k="ssr:gml_nr" v="6" />
	</node>
	<node id="-21711" lat="58.2884444476" lon="8.5461194479">
		<tag k="ssr:gml_id" v="GEOMETRY_157116b0-cb91-42c5-b28a-4c5096326f9d" />
		<tag k="ssr:gml_nr" v="5" />
	</node>
	<node id="-21710" lat="58.2881305537" lon="8.54910832803">
		<tag k="ssr:gml_id" v="GEOMETRY_5bae805a-bb2b-49a4-801b-35b6dc26de3a" />
		<tag k="ssr:gml_nr" v="4" />
	</node>
	<node id="-21709" lat="58.2897222179" lon="8.54958889264">
		<tag k="ssr:gml_id" v="GEOMETRY_2878517c-4eba-4af0-b4fd-5a1c5cdadcdf" />
		<tag k="ssr:gml_nr" v="3" />
	</node>
	<node id="-21708" lat="58.2884805576" lon="8.54615833275">
		<tag k="ssr:gml_id" v="GEOMETRY_ca0af4b8-75b1-44fb-875e-170695baaec4" />
		<tag k="ssr:gml_nr" v="2" />
	</node>
	<node id="-21707" lat="58.2895027769" lon="8.55108888457">
		<tag k="ssr:gml_id" v="GEOMETRY_d35ff5ff-d793-49af-abc0-1f036aee021c" />
		<tag k="ssr:gml_nr" v="1" />
	</node>
	<node id="-21706" lat="58.2884499992" lon="8.54612222512">
		<tag k="ssr:gml_id" v="GEOMETRY_785fafa7-3132-4793-8f74-33688ed5d843" />
		<tag k="ssr:gml_nr" v="0" />
	</node>
	<node id="-23730" lat="58.3457416654" lon="8.64956110563">
		<tag k="name" v="Drottningviga" />
		<tag k="natural" v="bay" />
		<tag k="ssr:date" v="2016-05-11" />
		<tag k="ssr:stedsnr" v="784716" />
	</node>
	<node id="-23729" lat="58.3260583375" lon="8.60826945286">
		<tag k="name" v="Skytegluggholmen" />
		<tag k="place" v="islet" />
		<tag k="ssr:date" v="2016-05-11" />
		<tag k="ssr:stedsnr" v="783585" />
	</node>
	<node id="-23727" lat="58.3040722243" lon="8.59091944111">
		<tag k="fixme" v="consider seamark:type=rock" />
		<tag k="name" v="Gulskjær" />
		<tag k="natural" v="islet" />
		<tag k="ssr:date" v="2016-05-11" />
		<tag k="ssr:stedsnr" v="783358" />
	</node>
	<node id="-19618" lat="58.2834166663" lon="8.51144444309">
		<tag k="name" v="Movika" />
		<tag k="natural" v="bay" />
		<tag k="ssr:date" v="2016-05-10" />
		<tag k="ssr:stedsnr" v="291477" />
	</node>
	<node id="-19617" lat="58.2874666692" lon="8.54424167221">
		<tag k="name" v="Dunkirk" />
		<tag k="place" v="islet" />
		<tag k="ssr:date" v="2016-05-10" />
		<tag k="ssr:stedsnr" v="291471" />
	</node>
	<node id="-19616" lat="58.2954527745" lon="8.52494167373">
		<tag k="name" v="Tjoreneset" />
		<tag k="natural" v="cape" />
		<tag k="place" v="locality" />
		<tag k="ssr:date" v="2016-05-10" />
		<tag k="ssr:stedsnr" v="291401" />
	</node>
	<node id="-21661" lat="58.2411805526" lon="8.49402777425">
		<tag k="ssr:gml_id" v="GEOMETRY_e723d9e8-9941-4dee-9c43-2c18435c63f1" />
		<tag k="ssr:gml_nr" v="1" />
	</node>
	<node id="-21660" lat="58.241183337" lon="8.4940277857">
		<tag k="ssr:gml_id" v="GEOMETRY_d33306a2-2131-4a05-a26b-e6deea0229d3" />
		<tag k="ssr:gml_nr" v="0" />
	</node>
	<node id="-19599" lat="58.2988166644" lon="8.52641945012">
		<tag k="name" v="Skottevika" />
		<tag k="natural" v="bay" />
		<tag k="ssr:date" v="2016-05-10" />
		<tag k="ssr:stedsnr" v="291402" />
	</node>
	<node id="-19591" lat="58.2533333324" lon="8.53322221776">
		<tag k="name" v="Såda" />
		<tag k="place" v="islet" />
		<tag k="ssr:date" v="2016-05-10" />
		<tag k="ssr:stedsnr" v="273425" />
	</node>
	<node id="-19590" lat="58.256222223" lon="8.47900000314">
		<tag k="fixme" v="consider seamark:type=rock" />
		<tag k="name" v="Søstrene" />
		<tag k="natural" v="islet" />
		<tag k="ssr:date" v="2016-05-10" />
		<tag k="ssr:stedsnr" v="273423" />
	</node>
	<node id="-19587" lat="58.2993055554" lon="8.58983332709">
		<tag k="name" v="Skyllsund" />
		<tag k="natural" v="strait" />
		<tag k="place" v="locality" />
		<tag k="ssr:date" v="2016-05-10" />
		<tag k="ssr:stedsnr" v="273353" />
	</node>
	<node id="-19574" lat="58.3272222259" lon="8.60533332992">
		<tag k="ssr:gml_id" v="GEOMETRY_382886a0-93d0-41c1-909d-0a00d075f17f" />
		<tag k="ssr:gml_nr" v="1" />
	</node>
	<node id="-19573" lat="58.3260472262" lon="8.60439167447">
		<tag k="ssr:gml_id" v="GEOMETRY_b37171cf-f0b6-40e7-b7bd-555be7c445d0" />
		<tag k="ssr:gml_nr" v="0" />
	</node>
	<node id="-19572" lat="58.3319999984" lon="8.60513888892">
		<tag k="fixme" v="consider seamark:type=rock" />
		<tag k="name" v="Juska" />
		<tag k="natural" v="islet" />
		<tag k="ssr:date" v="2016-05-10" />
		<tag k="ssr:stedsnr" v="272477" />
	</node>
	<node id="-19571" lat="58.330666667" lon="8.61069445088">
		<tag k="name" v="Dynamittbukta" />
		<tag k="natural" v="bay" />
		<tag k="ssr:date" v="2016-05-10" />
		<tag k="ssr:stedsnr" v="272478" />
	</node>
	<node id="-19568" lat="58.2638611094" lon="8.44230555179">
		<tag k="name" v="Linnvika" />
		<tag k="natural" v="bay" />
		<tag k="ssr:date" v="2016-05-10" />
		<tag k="ssr:stedsnr" v="272400" />
	</node>
	<node id="-19567" lat="58.2614166648" lon="8.49105555497">
		<tag k="name" v="Hestevik" />
		<tag k="natural" v="bay" />
		<tag k="ssr:date" v="2016-05-10" />
		<tag k="ssr:stedsnr" v="272395" />
	</node>
	<node id="-19564" lat="58.3168333355" lon="8.58061110972">
		<tag k="fixme" v="consider seamark:type=rock" />
		<tag k="name" v="Tvillingholmskjæret" />
		<tag k="natural" v="islet" />
		<tag k="ssr:date" v="2016-05-10" />
		<tag k="ssr:stedsnr" v="272337" />
	</node>
	<node id="-19562" lat="58.3294722245" lon="8.60063888488">
		<tag k="name" v="Karvebukta" />
		<tag k="natural" v="bay" />
		<tag k="ssr:date" v="2016-05-10" />
		<tag k="ssr:stedsnr" v="272309" />
	</node>
	<node id="-19556" lat="58.3275416658" lon="8.64518334043">
		<tag k="name" v="Teinegrunnen" />
		<tag k="natural" v="shoal" />
		<tag k="place" v="locality" />
		<tag k="ssr:date" v="2016-05-10" />
		<tag k="ssr:stedsnr" v="269828" />
	</node>
	<node id="-19554" lat="58.2993333323" lon="8.62415832558">
		<tag k="name" v="Sandsloa" />
		<tag k="natural" v="shoal" />
		<tag k="place" v="locality" />
		<tag k="ssr:date" v="2016-05-10" />
		<tag k="ssr:stedsnr" v="269821" />
	</node>
	<node id="-19551" lat="58.3043694428" lon="8.61437777045">
		<tag k="name" v="Teinegrunnen" />
		<tag k="natural" v="shoal" />
		<tag k="place" v="locality" />
		<tag k="ssr:date" v="2016-05-10" />
		<tag k="ssr:stedsnr" v="269714" />
	</node>
	<node id="-19550" lat="58.2785388859" lon="8.59208332834">
		<tag k="name" v="Rivingdybet" />
		<tag k="place" v="locality" />
		<tag k="ssr:date" v="2016-05-10" />
		<tag k="ssr:stedsnr" v="269709" />
	</node>
	<node id="-19549" lat="58.3149361154" lon="8.67388055593">
		<tag k="name" v="Vestre Sloa" />
		<tag k="natural" v="shoal" />
		<tag k="place" v="locality" />
		<tag k="ssr:date" v="2016-05-10" />
		<tag k="ssr:stedsnr" v="269698" />
	</node>
	<node id="-19548" lat="58.3635222203" lon="8.73898054909">
		<tag k="name" v="Brambåen" />
		<tag k="place" v="locality" />
		<tag k="seamark:type" v="rock" />
		<tag k="ssr:date" v="2016-05-10" />
		<tag k="ssr:stedsnr" v="269675" />
	</node>
	<node id="-19547" lat="58.3326777741" lon="8.68980555769">
		<tag k="name" v="Urebåen" />
		<tag k="place" v="locality" />
		<tag k="seamark:type" v="rock" />
		<tag k="ssr:date" v="2016-05-10" />
		<tag k="ssr:stedsnr" v="269660" />
	</node>
	<node id="-19545" lat="58.3114722222" lon="8.57761110901">
		<tag k="ssr:gml_id" v="GEOMETRY_8b968576-5ebf-4212-a774-43aca777329e" />
		<tag k="ssr:gml_nr" v="1" />
	</node>
	<node id="-19544" lat="58.3114638925" lon="8.57730000088">
		<tag k="ssr:gml_id" v="GEOMETRY_e37c6ab6-f31e-4569-a75f-d8551b0ba223" />
		<tag k="ssr:gml_nr" v="0" />
	</node>
	<node id="-23627" lat="58.2916361125" lon="8.54690277584">
		<tag k="name" v="Vestre Mastevoll" />
		<tag k="natural" v="bay" />
		<tag k="ssr:date" v="2016-05-11" />
		<tag k="ssr:stedsnr" v="776456" />
	</node>
	<node id="-23626" lat="58.2880055597" lon="8.51940554948">
		<tag k="name" v="Sandodden" />
		<tag k="natural" v="cape" />
		<tag k="place" v="locality" />
		<tag k="ssr:date" v="2016-05-11" />
		<tag k="ssr:stedsnr" v="776446" />
	</node>
	<node id="-23625" lat="58.2855722182" lon="8.52713611883">
		<tag k="name" v="Lille Breivik" />
		<tag k="natural" v="bay" />
		<tag k="ssr:date" v="2016-05-11" />
		<tag k="ssr:stedsnr" v="776442" />
	</node>
	<node id="-23624" lat="58.2860472255" lon="8.5295583371">
		<tag k="name" v="Breivik" />
		<tag k="natural" v="bay" />
		<tag k="ssr:date" v="2016-05-11" />
		<tag k="ssr:stedsnr" v="776441" />
	</node>
	<node id="-22882" lat="58.3352777814" lon="8.61044444694">
		<tag k="name" v="Sundet" />
		<tag k="natural" v="strait" />
		<tag k="place" v="locality" />
		<tag k="ssr:date" v="2016-05-10" />
		<tag k="ssr:stedsnr" v="636498" />
	</node>
	<node id="-23614" lat="58.2924888919" lon="8.4428666747">
		<tag k="name" v="Kilen" />
		<tag k="natural" v="bay" />
		<tag k="ssr:date" v="2018-03-07" />
		<tag k="ssr:stedsnr" v="776389" />
	</node>
	<node id="-20495" lat="58.3364166685" lon="8.64025000402">
		<tag k="ssr:gml_id" v="GEOMETRY_f219203a-894c-4531-b771-ef3226b5060f" />
		<tag k="ssr:gml_nr" v="1" />
	</node>
	<node id="-23603" lat="58.2554166646" lon="8.47163888065">
		<tag k="name" v="Flatholmen" />
		<tag k="place" v="islet" />
		<tag k="ssr:date" v="2016-05-11" />
		<tag k="ssr:stedsnr" v="759402" />
	</node>
	<node id="-23602" lat="58.2541666657" lon="8.47166666119">
		<tag k="fixme" v="consider seamark:type=rock" />
		<tag k="name" v="Gråholmen" />
		<tag k="natural" v="islet" />
		<tag k="ssr:date" v="2016-05-11" />
		<tag k="ssr:stedsnr" v="759393" />
	</node>
	<node id="-23601" lat="58.3703055585" lon="8.6768861122">
		<tag k="ssr:gml_id" v="GEOMETRY_cd1952d3-184d-481c-b87e-2e63f6581b50" />
		<tag k="ssr:gml_nr" v="1" />
	</node>
	<node id="-23600" lat="58.3707111132" lon="8.67764166271">
		<tag k="ssr:gml_id" v="GEOMETRY_94a5e631-a4ea-4801-8a07-24d7d9a78200" />
		<tag k="ssr:gml_nr" v="0" />
	</node>
	<node id="-23597" lat="58.3394999964" lon="8.62772222373">
		<tag k="name" v="Sjursholmen" />
		<tag k="place" v="islet" />
		<tag k="ssr:date" v="2016-05-11" />
		<tag k="ssr:stedsnr" v="758533" />
	</node>
	<node id="-23596" lat="58.3369722215" lon="8.61374999224">
		<tag k="name" v="Osterkilen" />
		<tag k="natural" v="bay" />
		<tag k="ssr:date" v="2016-05-11" />
		<tag k="ssr:stedsnr" v="758530" />
	</node>
	<node id="-23594" lat="58.3339722211" lon="8.64094444259">
		<tag k="name" v="Grotta" />
		<tag k="natural" v="cape" />
		<tag k="place" v="locality" />
		<tag k="ssr:date" v="2016-05-11" />
		<tag k="ssr:stedsnr" v="758522" />
	</node>
	<node id="-23593" lat="58.338277776" lon="8.67311111481">
		<tag k="name" v="Peisen" />
		<tag k="natural" v="bay" />
		<tag k="ssr:date" v="2016-05-11" />
		<tag k="ssr:stedsnr" v="758523" />
	</node>
	<node id="-23592" lat="58.2533611133" lon="8.46338888331">
		<tag k="name" v="Lillesand" />
		<tag k="natural" v="beach" />
		<tag k="place" v="locality" />
		<tag k="ssr:date" v="2016-05-11" />
		<tag k="ssr:stedsnr" v="758487" />
	</node>
	<node id="-23590" lat="58.26091667" lon="8.4780555552">
		<tag k="name" v="Vaholmen" />
		<tag k="natural" v="cape" />
		<tag k="place" v="locality" />
		<tag k="ssr:date" v="2016-05-11" />
		<tag k="ssr:stedsnr" v="758455" />
	</node>
	<node id="-23588" lat="58.260777775" lon="8.46694444158">
		<tag k="name" v="Fossdalkilen" />
		<tag k="natural" v="bay" />
		<tag k="ssr:date" v="2016-05-11" />
		<tag k="ssr:stedsnr" v="758452" />
	</node>
	<node id="-23586" lat="58.2724722227" lon="8.44052777849">
		<tag k="name" v="Arnevikkilen" />
		<tag k="natural" v="bay" />
		<tag k="ssr:date" v="2016-05-11" />
		<tag k="ssr:stedsnr" v="758442" />
	</node>
	<node id="-23583" lat="58.2500277782" lon="8.52575000101">
		<tag k="name" v="Mellom Kalvøy" />
		<tag k="place" v="island" />
		<tag k="ssr:date" v="2016-05-11" />
		<tag k="ssr:stedsnr" v="758433" />
	</node>
	<node id="-23582" lat="58.2499722252" lon="8.5271388823">
		<tag k="name" v="Ytre Kalvøy" />
		<tag k="place" v="island" />
		<tag k="ssr:date" v="2016-05-11" />
		<tag k="ssr:stedsnr" v="758434" />
	</node>
	<node id="-23581" lat="58.2535277748" lon="8.52291667288">
		<tag k="name" v="Kråkeneshavn" />
		<tag k="natural" v="bay" />
		<tag k="ssr:date" v="2016-05-11" />
		<tag k="ssr:stedsnr" v="758428" />
	</node>
	<node id="-23580" lat="58.2562499959" lon="8.51180556235">
		<tag k="name" v="Krygle" />
		<tag k="natural" v="bay" />
		<tag k="ssr:date" v="2016-05-11" />
		<tag k="ssr:stedsnr" v="758426" />
	</node>
	<node id="-20221" lat="58.2640277789" lon="8.43711110865">
		<tag k="name" v="Narrholmen" />
		<tag k="place" v="islet" />
		<tag k="ssr:date" v="2016-05-10" />
		<tag k="ssr:stedsnr" v="394433" />
	</node>
	<node id="-23575" lat="58.3060833362" lon="8.59430555915">
		<tag k="name" v="Kontesundet" />
		<tag k="natural" v="strait" />
		<tag k="place" v="locality" />
		<tag k="ssr:date" v="2016-05-11" />
		<tag k="ssr:stedsnr" v="758382" />
	</node>
	<node id="-23574" lat="58.3044444462" lon="8.55772222334">
		<tag k="name" v="Oddebukta" />
		<tag k="natural" v="bay" />
		<tag k="ssr:date" v="2016-05-11" />
		<tag k="ssr:stedsnr" v="758378" />
	</node>
	<node id="-23573" lat="58.333083333" lon="8.59305554829">
		<tag k="name" v="Gullmannsbukten" />
		<tag k="natural" v="bay" />
		<tag k="ssr:date" v="2016-05-11" />
		<tag k="ssr:stedsnr" v="758371" />
	</node>
	<node id="-23560" lat="58.2987500021" lon="8.59063889553">
		<tag k="name" v="Sundholmen" />
		<tag k="place" v="islet" />
		<tag k="ssr:date" v="2016-05-11" />
		<tag k="ssr:stedsnr" v="758116" />
	</node>
	<node id="-23559" lat="58.3164722243" lon="8.61058332527">
		<tag k="ssr:gml_id" v="GEOMETRY_fa726c49-fea6-4410-a5c1-681d921c22d2" />
		<tag k="ssr:gml_nr" v="1" />
	</node>
	<node id="-23558" lat="58.316452775" lon="8.61003055918">
		<tag k="ssr:gml_id" v="GEOMETRY_ef94f1ef-edff-40c1-95bb-8a4ef793c315" />
		<tag k="ssr:gml_nr" v="0" />
	</node>
	<node id="-23557" lat="58.2976944415" lon="8.57550000478">
		<tag k="ssr:gml_id" v="GEOMETRY_d00e591c-994e-411a-8294-0abbd0a84866" />
		<tag k="ssr:gml_nr" v="1" />
	</node>
	<node id="-23556" lat="58.2976972185" lon="8.57551943683">
		<tag k="ssr:gml_id" v="GEOMETRY_0d327e22-22d8-46df-8e10-ab79785ac4e6" />
		<tag k="ssr:gml_nr" v="0" />
	</node>
	<node id="-23555" lat="58.3323888903" lon="8.59332500606">
		<tag k="name" v="Vessøyhauet" />
		<tag k="natural" v="cape" />
		<tag k="place" v="locality" />
		<tag k="ssr:date" v="2016-05-11" />
		<tag k="ssr:stedsnr" v="755739" />
	</node>
	<node id="-23553" lat="58.3310249963" lon="8.62884167208">
		<tag k="name" v="Rossebåen" />
		<tag k="place" v="locality" />
		<tag k="seamark:type" v="rock" />
		<tag k="ssr:date" v="2016-05-11" />
		<tag k="ssr:stedsnr" v="755679" />
	</node>
	<node id="-23552" lat="58.2696916701" lon="8.55147777224">
		<tag k="name" v="Yderstgrunnen" />
		<tag k="natural" v="shoal" />
		<tag k="place" v="locality" />
		<tag k="ssr:date" v="2016-05-11" />
		<tag k="ssr:stedsnr" v="755647" />
	</node>
	<node id="-23551" lat="58.2811277744" lon="8.53649166602">
		<tag k="ssr:gml_id" v="GEOMETRY_3b5e6432-04f8-40e2-be68-f5d1a4cb1d4e" />
		<tag k="ssr:gml_nr" v="1" />
	</node>
	<node id="-23550" lat="58.2808111101" lon="8.53641666578">
		<tag k="ssr:gml_id" v="GEOMETRY_8f8d1b8b-0450-4019-a70a-96bb1cc465d4" />
		<tag k="ssr:gml_nr" v="0" />
	</node>
	<node id="-23549" lat="58.3003388905" lon="8.57030277394">
		<tag k="name" v="Jeppegrunnen" />
		<tag k="natural" v="shoal" />
		<tag k="place" v="locality" />
		<tag k="ssr:date" v="2016-05-11" />
		<tag k="ssr:stedsnr" v="755637" />
	</node>
	<node id="-23548" lat="58.2516388885" lon="8.49391665925">
		<tag k="ssr:gml_id" v="GEOMETRY_6bd53ae6-7e10-4cf0-b9f4-5c0d1f9ae1ff" />
		<tag k="ssr:gml_nr" v="1" />
	</node>
	<node id="-23547" lat="58.2515388846" lon="8.4936944463">
		<tag k="ssr:gml_id" v="GEOMETRY_6a7ed643-3f73-48e5-aebf-ba1e5c5de33e" />
		<tag k="ssr:gml_nr" v="0" />
	</node>
	<node id="-23546" lat="58.2345111129" lon="8.47409723049">
		<tag k="name" v="Viesteinen" />
		<tag k="natural" v="shoal" />
		<tag k="place" v="locality" />
		<tag k="ssr:date" v="2016-05-11" />
		<tag k="ssr:stedsnr" v="750875" />
	</node>
	<node id="-23528" lat="58.3468888849" lon="8.68336111788">
		<tag k="ssr:gml_id" v="GEOMETRY_bd83b1d2-464b-450e-ae86-409f8a64d3e7" />
		<tag k="ssr:gml_nr" v="2" />
	</node>
	<node id="-23527" lat="58.3470722234" lon="8.68320000229">
		<tag k="ssr:gml_id" v="GEOMETRY_b3601f82-d833-4cc0-b751-70167f88b1fd" />
		<tag k="ssr:gml_nr" v="1" />
	</node>
	<node id="-23526" lat="58.3470749966" lon="8.68320277916">
		<tag k="ssr:gml_id" v="GEOMETRY_f3e8db87-656e-419b-8a7c-2bb1ca255bc5" />
		<tag k="ssr:gml_nr" v="0" />
	</node>
	<node id="-21472" lat="58.2990777813" lon="8.51755278435">
		<tag k="name" v="Sørvika" />
		<tag k="natural" v="bay" />
		<tag k="ssr:date" v="2016-05-10" />
		<tag k="ssr:stedsnr" v="230371" />
	</node>
	<node id="-23515" lat="58.2860333377" lon="8.53378611124">
		<tag k="ssr:gml_id" v="GEOMETRY_066ad9d7-e860-4053-9627-bd9dc1594257" />
		<tag k="ssr:gml_nr" v="2" />
	</node>
	<node id="-23514" lat="58.2860361143" lon="8.53378888871">
		<tag k="ssr:gml_id" v="GEOMETRY_cbd78f29-666a-46d3-a190-672cb97760c5" />
		<tag k="ssr:gml_nr" v="1" />
	</node>
	<node id="-23513" lat="58.2852694469" lon="8.5331166715">
		<tag k="ssr:gml_id" v="GEOMETRY_212aa64b-2be7-40db-9128-ff6a4e8bdcff" />
		<tag k="ssr:gml_nr" v="0" />
	</node>
	<node id="-23511" lat="58.2855444488" lon="8.5815499936">
		<tag k="ssr:gml_id" v="GEOMETRY_48a0b8d3-c632-4925-873c-7dab030fb52e" />
		<tag k="ssr:gml_nr" v="2" />
	</node>
	<node id="-23510" lat="58.2855555595" lon="8.58155555857">
		<tag k="ssr:gml_id" v="GEOMETRY_0595de5c-0c69-4269-ba91-34f2beaba230" />
		<tag k="ssr:gml_nr" v="1" />
	</node>
	<node id="-23509" lat="58.2855416645" lon="8.58154999234">
		<tag k="ssr:gml_id" v="GEOMETRY_9e8bc563-1db0-4322-bbf8-27b0c0948bfb" />
		<tag k="ssr:gml_nr" v="0" />
	</node>
	<node id="-23508" lat="58.2517305534" lon="8.51256666013">
		<tag k="ssr:gml_id" v="GEOMETRY_4184dd66-bfa3-4541-b1d2-6772482a4d78" />
		<tag k="ssr:gml_nr" v="3" />
	</node>
	<node id="-23507" lat="58.2526944447" lon="8.51102777063">
		<tag k="ssr:gml_id" v="GEOMETRY_9ea284b4-8bdc-408d-8860-c14705b59a94" />
		<tag k="ssr:gml_nr" v="2" />
	</node>
	<node id="-23506" lat="58.2518249995" lon="8.51226111839">
		<tag k="ssr:gml_id" v="GEOMETRY_92d3e3b8-c04a-40fd-bafe-d7d7cc974223" />
		<tag k="ssr:gml_nr" v="1" />
	</node>
	<node id="-21457" lat="58.2559444456" lon="8.46669444469">
		<tag k="name" v="Bjørkøy" />
		<tag k="place" v="island" />
		<tag k="ssr:date" v="2016-05-10" />
		<tag k="ssr:stedsnr" v="213456" />
	</node>
	<node id="-21456" lat="58.2545000006" lon="8.44111110974">
		<tag k="name" v="Håsund" />
		<tag k="natural" v="strait" />
		<tag k="place" v="locality" />
		<tag k="ssr:date" v="2016-05-10" />
		<tag k="ssr:stedsnr" v="213448" />
	</node>
	<node id="-23502" lat="58.30768333" lon="8.57620000146">
		<tag k="ssr:gml_id" v="GEOMETRY_723625f2-8b1b-4b70-9098-4040735f85a8" />
		<tag k="ssr:gml_nr" v="4" />
	</node>
	<node id="-23501" lat="58.3076861144" lon="8.57620000229">
		<tag k="ssr:gml_id" v="GEOMETRY_38f02b0c-7672-4cb6-bbb5-d6dec03b1a8f" />
		<tag k="ssr:gml_nr" v="3" />
	</node>
	<node id="-23500" lat="58.3073333306" lon="8.575233336">
		<tag k="ssr:gml_id" v="GEOMETRY_4df3c37b-10e3-47e3-af4c-d732e8869dd4" />
		<tag k="ssr:gml_nr" v="2" />
	</node>
	<node id="-23499" lat="58.3072361077" lon="8.57477500664">
		<tag k="ssr:gml_id" v="GEOMETRY_ed9558e6-fdb8-4bc0-b1a7-78b69c673918" />
		<tag k="ssr:gml_nr" v="1" />
	</node>
	<node id="-23498" lat="58.3077361139" lon="8.57738055424">
		<tag k="ssr:gml_id" v="GEOMETRY_71968e82-5e85-46e6-bca3-930db575e700" />
		<tag k="ssr:gml_nr" v="0" />
	</node>
	<node id="-21443" lat="58.3363333319" lon="8.65888889644">
		<tag k="ssr:gml_id" v="GEOMETRY_ec4a89f2-fa9f-4dee-8325-513feaa60c69" />
		<tag k="ssr:gml_nr" v="1" />
	</node>
	<node id="-21442" lat="58.3363722227" lon="8.65903056294">
		<tag k="ssr:gml_id" v="GEOMETRY_c58bd07a-6cb1-4874-b8e5-6ee83dd62948" />
		<tag k="ssr:gml_nr" v="0" />
	</node>
	<node id="-21441" lat="58.3658611132" lon="8.67075000503">
		<tag k="ssr:gml_id" v="GEOMETRY_86215e23-667a-482c-ab54-d43ca94360ff" />
		<tag k="ssr:gml_nr" v="1" />
	</node>
	<node id="-21440" lat="58.3658444406" lon="8.67091665973">
		<tag k="ssr:gml_id" v="GEOMETRY_6db4088b-1d46-4567-919d-7843581922dc" />
		<tag k="ssr:gml_nr" v="0" />
	</node>
	<node id="-21438" lat="58.3556944435" lon="8.6723611048">
		<tag k="fixme" v="consider seamark:type=rock" />
		<tag k="name" v="Rauskjær" />
		<tag k="natural" v="islet" />
		<tag k="ssr:date" v="2016-05-10" />
		<tag k="ssr:stedsnr" v="212443" />
	</node>
	<node id="-19865" lat="58.2639250016" lon="8.43736667364">
		<tag k="ssr:gml_id" v="GEOMETRY_77f514cc-c688-4ce5-bd33-afde5e2567ca" />
		<tag k="ssr:gml_nr" v="1" />
	</node>
	<node id="-21435" lat="58.2448583304" lon="8.49152499214">
		<tag k="ssr:gml_id" v="GEOMETRY_c8684c75-69c5-46ea-9d71-cde66add948e" />
		<tag k="ssr:gml_nr" v="1" />
	</node>
	<node id="-21434" lat="58.2448611079" lon="8.49152778013">
		<tag k="ssr:gml_id" v="GEOMETRY_1d5a19cf-3c32-47b2-aa5d-b23e0a03d7d3" />
		<tag k="ssr:gml_nr" v="0" />
	</node>
	<node id="-21433" lat="58.2453055521" lon="8.46174999522">
		<tag k="ssr:gml_id" v="GEOMETRY_d5a30727-80cf-4eee-b221-7bd60f5f1d38" />
		<tag k="ssr:gml_nr" v="1" />
	</node>
	<node id="-21432" lat="58.2453361117" lon="8.4618083365">
		<tag k="ssr:gml_id" v="GEOMETRY_95d6838d-956b-4653-bf2a-eb794e4c17ab" />
		<tag k="ssr:gml_nr" v="0" />
	</node>
	<node id="-21431" lat="58.2623611099" lon="8.46952777108">
		<tag k="name" v="Sønningdalsund" />
		<tag k="natural" v="strait" />
		<tag k="place" v="locality" />
		<tag k="ssr:date" v="2016-05-10" />
		<tag k="ssr:stedsnr" v="212404" />
	</node>
	<node id="-21427" lat="58.28875" lon="8.5517222205">
		<tag k="name" v="Bjorøytjenn" />
		<tag k="natural" v="bay" />
		<tag k="ssr:date" v="2016-05-10" />
		<tag k="ssr:stedsnr" v="212358" />
	</node>
	<node id="-21425" lat="58.3126388878" lon="8.59819444464">
		<tag k="fixme" v="consider seamark:type=rock" />
		<tag k="name" v="Sugga" />
		<tag k="natural" v="islet" />
		<tag k="ssr:date" v="2016-05-10" />
		<tag k="ssr:stedsnr" v="212333" />
	</node>
	<node id="-21424" lat="58.3057500024" lon="8.57016666775">
		<tag k="name" v="Karsholmen" />
		<tag k="place" v="islet" />
		<tag k="ssr:date" v="2016-05-10" />
		<tag k="ssr:stedsnr" v="212330" />
	</node>
	<node id="-21423" lat="58.3031944473" lon="8.55133333098">
		<tag k="name" v="Kørrvigpynten" />
		<tag k="natural" v="cape" />
		<tag k="place" v="locality" />
		<tag k="ssr:date" v="2016-05-10" />
		<tag k="ssr:stedsnr" v="212316" />
	</node>
	<node id="-21422" lat="58.3330555591" lon="8.58622222834">
		<tag k="ssr:gml_id" v="GEOMETRY_79344f00-3eef-4a7f-a20c-1a221e0a5271" />
		<tag k="ssr:gml_nr" v="1" />
	</node>
	<node id="-21421" lat="58.3329416623" lon="8.58609444149">
		<tag k="ssr:gml_id" v="GEOMETRY_9ddbcd9f-b6e4-47a6-9abb-a30b59960820" />
		<tag k="ssr:gml_nr" v="0" />
	</node>
	<node id="-21414" lat="58.3162499963" lon="8.58138889271">
		<tag k="ssr:gml_id" v="GEOMETRY_6806ca32-c188-4835-b2a7-6f9aba601d60" />
		<tag k="ssr:gml_nr" v="1" />
	</node>
	<node id="-21413" lat="58.3162499964" lon="8.58139167492">
		<tag k="ssr:gml_id" v="GEOMETRY_f63c3c2d-0f93-4849-a353-34c8ba3408a7" />
		<tag k="ssr:gml_nr" v="0" />
	</node>
	<node id="-21410" lat="58.265602779" lon="8.52632222592">
		<tag k="name" v="Homborside" />
		<tag k="place" v="sea" />
		<tag k="ssr:date" v="2017-10-31" />
		<tag k="ssr:stedsnr" v="209816" />
	</node>
	<node id="-21409" lat="58.374452779" lon="8.76740000754">
		<tag k="name" v="Bukjerrbåen" />
		<tag k="place" v="locality" />
		<tag k="seamark:type" v="rock" />
		<tag k="ssr:date" v="2016-05-10" />
		<tag k="ssr:stedsnr" v="209738" />
	</node>
	<node id="-21408" lat="58.3750472247" lon="8.74028055114">
		<tag k="name" v="Kjerkegrunnen" />
		<tag k="natural" v="shoal" />
		<tag k="place" v="locality" />
		<tag k="ssr:date" v="2016-05-10" />
		<tag k="ssr:stedsnr" v="209689" />
	</node>
	<node id="-21407" lat="58.38271944" lon="8.76346388188">
		<tag k="name" v="Løvebåene" />
		<tag k="place" v="locality" />
		<tag k="seamark:type" v="rock" />
		<tag k="ssr:date" v="2016-05-10" />
		<tag k="ssr:stedsnr" v="209683" />
	</node>
	<node id="-21406" lat="58.3604527787" lon="8.7068555574">
		<tag k="name" v="Vragebåen" />
		<tag k="place" v="locality" />
		<tag k="seamark:type" v="rock" />
		<tag k="ssr:date" v="2016-05-10" />
		<tag k="ssr:stedsnr" v="209673" />
	</node>
	<node id="-21405" lat="58.2602777764" lon="8.53100000622">
		<tag k="ssr:gml_id" v="GEOMETRY_e1efd6b2-e366-4a37-9e3d-a7d7cd2cbfbf" />
		<tag k="ssr:gml_nr" v="1" />
	</node>
	<node id="-21404" lat="58.260186109" lon="8.53075555829">
		<tag k="ssr:gml_id" v="GEOMETRY_23a1c090-ad77-4529-bb89-8a0d9eaedade" />
		<tag k="ssr:gml_nr" v="0" />
	</node>
	<node id="-21402" lat="58.2825499983" lon="8.58192500181">
		<tag k="name" v="Fladhausen" />
		<tag k="natural" v="shoal" />
		<tag k="place" v="locality" />
		<tag k="ssr:date" v="2016-05-10" />
		<tag k="ssr:stedsnr" v="209654" />
	</node>
	<node id="-21389" lat="58.2773888925" lon="8.49522222213">
		<tag k="ssr:gml_id" v="GEOMETRY_00434ca7-7d24-48aa-81e4-4bdc181720ea" />
		<tag k="ssr:gml_nr" v="4" />
	</node>
	<node id="-21388" lat="58.2745277781" lon="8.48808334089">
		<tag k="ssr:gml_id" v="GEOMETRY_bc4d98c4-1bd2-4fdd-bf5f-bf48994bc1dd" />
		<tag k="ssr:gml_nr" v="3" />
	</node>
	<node id="-21387" lat="58.279825004" lon="8.50469444086">
		<tag k="ssr:gml_id" v="GEOMETRY_f1180b35-e75a-4f23-80c8-21470513cf91" />
		<tag k="ssr:gml_nr" v="2" />
	</node>
	<node id="-21386" lat="58.2798277811" lon="8.50469721557">
		<tag k="ssr:gml_id" v="GEOMETRY_f374822c-fa37-497e-81ee-6c38a1d7b67e" />
		<tag k="ssr:gml_nr" v="1" />
	</node>
	<node id="-21385" lat="58.2803749995" lon="8.50634445167">
		<tag k="ssr:gml_id" v="GEOMETRY_cd6e2549-45ea-460a-a117-ff0281e0399f" />
		<tag k="ssr:gml_nr" v="0" />
	</node>
	<node id="-23432" lat="58.3728250023" lon="8.67495833181">
		<tag k="ssr:gml_id" v="GEOMETRY_7641a112-b429-4fec-ab8e-d728c770bbc3" />
		<tag k="ssr:gml_nr" v="3" />
	</node>
	<node id="-23431" lat="58.364472224" lon="8.67702777946">
		<tag k="ssr:gml_id" v="GEOMETRY_7a639b1a-1d77-4446-86d3-fd533e669b7c" />
		<tag k="ssr:gml_nr" v="2" />
	</node>
	<node id="-23430" lat="58.3661055572" lon="8.67566388291">
		<tag k="ssr:gml_id" v="GEOMETRY_3ec43060-0942-4d15-ae9b-dec3704974d1" />
		<tag k="ssr:gml_nr" v="1" />
	</node>
	<node id="-23429" lat="58.3661027748" lon="8.67566110522">
		<tag k="ssr:gml_id" v="GEOMETRY_1196bbce-3072-454c-b692-db3b37d180fd" />
		<tag k="ssr:gml_nr" v="0" />
	</node>
	<node id="-21376" lat="58.2996388873" lon="8.5483499991">
		<tag k="ssr:gml_id" v="GEOMETRY_5d58ce01-f13d-453d-8261-b8161a91fc4c" />
		<tag k="ssr:gml_nr" v="1" />
	</node>
	<node id="-21375" lat="58.2996416635" lon="8.54835277877">
		<tag k="ssr:gml_id" v="GEOMETRY_1d0935b0-8317-4100-b9b9-2c68895a6e07" />
		<tag k="ssr:gml_nr" v="0" />
	</node>
	<node id="-20792" lat="58.3046361129" lon="8.57748332932">
		<tag k="ssr:gml_id" v="GEOMETRY_39c49c31-b112-42f6-b458-53c23d323a0c" />
		<tag k="ssr:gml_nr" v="1" />
	</node>
	<node id="-22875" lat="58.3556555536" lon="8.66580000154">
		<tag k="ssr:gml_id" v="GEOMETRY_d0059deb-26c9-429a-9b65-682a92ff92f8" />
		<tag k="ssr:gml_nr" v="0" />
	</node>
	<node id="-21357" lat="58.3709093156" lon="8.74991451779">
		<tag k="name" v="Skåla" />
		<tag k="place" v="islet" />
		<tag k="ssr:date" v="2018-03-07" />
		<tag k="ssr:stedsnr" v="182513" />
	</node>
	<node id="-21344" lat="58.2427000001" lon="8.52030555286">
		<tag k="ssr:gml_id" v="GEOMETRY_ce6d15d5-c04b-4aa6-9967-6f2ec1ba1d15" />
		<tag k="ssr:gml_nr" v="1" />
	</node>
	<node id="-21343" lat="58.2427027754" lon="8.52030554946">
		<tag k="ssr:gml_id" v="GEOMETRY_eb55722e-b2ca-43cf-bbe9-b1219e15f899" />
		<tag k="ssr:gml_nr" v="0" />
	</node>
	<node id="-20281" lat="58.2817249991" lon="8.52354166501">
		<tag k="ssr:gml_id" v="GEOMETRY_bb7fd7cf-08e1-447b-9f14-bee6e7bd9378" />
		<tag k="ssr:gml_nr" v="1" />
	</node>
	<node id="-23379" lat="58.2445527802" lon="8.47044166543">
		<tag k="ssr:gml_id" v="GEOMETRY_dcfc62f4-56ec-4853-8b8d-b8f1f81676d4" />
		<tag k="ssr:gml_nr" v="3" />
	</node>
	<node id="-23378" lat="58.2445555582" lon="8.47044445174">
		<tag k="ssr:gml_id" v="GEOMETRY_098d7faa-d30b-4bfb-9abb-3f3129cf550c" />
		<tag k="ssr:gml_nr" v="2" />
	</node>
	<node id="-23377" lat="58.2445722265" lon="8.47040277549">
		<tag k="ssr:gml_id" v="GEOMETRY_ee0c4d2b-439c-4ed6-ba5b-f34d1cd3f58d" />
		<tag k="ssr:gml_nr" v="1" />
	</node>
	<node id="-23376" lat="58.2443027739" lon="8.47030833355">
		<tag k="ssr:gml_id" v="GEOMETRY_35097f29-16c3-487d-86bb-32ef62b06667" />
		<tag k="ssr:gml_nr" v="0" />
	</node>
	<node id="-21982" lat="58.2628611087" lon="8.5278888901">
		<tag k="ssr:gml_id" v="GEOMETRY_6d03a103-1343-46c1-866a-1b0ee3bfd272" />
		<tag k="ssr:gml_nr" v="1" />
	</node>
	<node id="-21981" lat="58.2628611128" lon="8.52772222489">
		<tag k="ssr:gml_id" v="GEOMETRY_28f54f67-c974-46b4-b8d2-da4c24928df0" />
		<tag k="ssr:gml_nr" v="0" />
	</node>
	<node id="-23327" lat="58.3362777796" lon="8.59298888992">
		<tag k="name" v="Saulebukta" />
		<tag k="natural" v="bay" />
		<tag k="ssr:date" v="2016-05-11" />
		<tag k="ssr:stedsnr" v="724079" />
	</node>
	<node id="-23326" lat="58.3089666671" lon="8.56920833003">
		<tag k="name" v="Herøysundet" />
		<tag k="natural" v="strait" />
		<tag k="place" v="locality" />
		<tag k="ssr:date" v="2016-05-11" />
		<tag k="ssr:stedsnr" v="723731" />
	</node>
	<node id="-23324" lat="58.3928666671" lon="8.71486666667">
		<tag k="name" v="Ternholmen, st" />
		<tag k="place" v="islet" />
		<tag k="ssr:date" v="2016-05-11" />
		<tag k="ssr:stedsnr" v="723182" />
	</node>
	<node id="-23318" lat="58.3293611102" lon="8.6105888858">
		<tag k="ssr:gml_id" v="GEOMETRY_84e5520d-8f66-46fd-a711-39585667b07e" />
		<tag k="ssr:gml_nr" v="1" />
	</node>
	<node id="-23317" lat="58.3292472217" lon="8.61096665962">
		<tag k="ssr:gml_id" v="GEOMETRY_208c6834-c1a0-4b43-9766-698ccbf4f854" />
		<tag k="ssr:gml_nr" v="0" />
	</node>
	<node id="-21264" lat="58.3430722195" lon="8.68035278577">
		<tag k="name" v="Fantehola" />
		<tag k="natural" v="bay" />
		<tag k="ssr:date" v="2016-05-10" />
		<tag k="ssr:stedsnr" v="177384" />
	</node>
	<node id="-21261" lat="58.2854749963" lon="8.5816361169">
		<tag k="fixme" v="consider seamark:type=rock" />
		<tag k="name" v="Håbåskjær" />
		<tag k="natural" v="islet" />
		<tag k="ssr:date" v="2016-05-10" />
		<tag k="ssr:stedsnr" v="176323" />
	</node>
	<node id="-19926" lat="58.287958334" lon="8.53670832561">
		<tag k="ssr:gml_id" v="GEOMETRY_4a6102e2-3209-48c4-ab8d-86ba4d291e95" />
		<tag k="ssr:gml_nr" v="1" />
	</node>
	<node id="-19925" lat="58.2879611155" lon="8.536886107">
		<tag k="ssr:gml_id" v="GEOMETRY_d5e06f59-b79c-4d32-b1d1-aaec9941fb9f" />
		<tag k="ssr:gml_nr" v="0" />
	</node>
	<node id="-24576" lat="58.3074999962" lon="8.57076111721">
		<tag k="ssr:gml_id" v="GEOMETRY_d71b607a-7802-4bea-8ec7-d193571d80f3" />
		<tag k="ssr:gml_nr" v="0" />
	</node>
	<node id="-20825" lat="58.3005694427" lon="8.58002499168">
		<tag k="name" v="Lille Mågholmen" />
		<tag k="place" v="islet" />
		<tag k="ssr:date" v="2016-05-10" />
		<tag k="ssr:stedsnr" v="87637" />
	</node>
	<node id="-21916" lat="58.3673305599" lon="8.73974722437">
		<tag k="ssr:gml_id" v="GEOMETRY_19fa3fb6-d0ce-4581-81d2-2683c9536766" />
		<tag k="ssr:gml_nr" v="3" />
	</node>
	<node id="-24701" lat="58.2924388853" lon="8.53541388228">
		<tag k="ssr:gml_id" v="GEOMETRY_7a039602-7c79-4063-b557-5a7da2a2478c" />
		<tag k="ssr:gml_nr" v="0" />
	</node>
	<node id="-21915" lat="58.367247225" lon="8.74016111895">
		<tag k="ssr:gml_id" v="GEOMETRY_1149c275-c908-400b-8ac8-faa72b3cc55e" />
		<tag k="ssr:gml_nr" v="2" />
	</node>
	<node id="-23246" lat="58.3021361081" lon="8.52769444449">
		<tag k="name" v="Møllepynten" />
		<tag k="natural" v="cape" />
		<tag k="place" v="locality" />
		<tag k="ssr:date" v="2016-05-11" />
		<tag k="ssr:stedsnr" v="716510" />
	</node>
	<node id="-21965" lat="58.3171388867" lon="8.58875000319">
		<tag k="ssr:gml_id" v="GEOMETRY_cb5161a3-9227-4276-8af7-6b7bb598fa21" />
		<tag k="ssr:gml_nr" v="1" />
	</node>
	<node id="-21192" lat="58.2823055545" lon="8.51803611911">
		<tag k="name" v="Hylleholmen" />
		<tag k="place" v="islet" />
		<tag k="ssr:date" v="2016-05-10" />
		<tag k="ssr:stedsnr" v="170485" />
	</node>
	<node id="-23231" lat="58.3928333342" lon="8.7148333402">
		<tag k="name" v="Store Terneholmen" />
		<tag k="place" v="islet" />
		<tag k="ssr:date" v="2016-05-11" />
		<tag k="ssr:stedsnr" v="698424" />
	</node>
	<node id="-23229" lat="58.2635000019" lon="8.5211944414">
		<tag k="name" v="Lillehavn" />
		<tag k="natural" v="bay" />
		<tag k="ssr:date" v="2016-05-11" />
		<tag k="ssr:stedsnr" v="698391" />
	</node>
	<node id="-23225" lat="58.3688055573" lon="8.68357221684">
		<tag k="ssr:gml_id" v="GEOMETRY_80734da7-2385-494c-a420-d7e2612b5a15" />
		<tag k="ssr:gml_nr" v="1" />
	</node>
	<node id="-23224" lat="58.3689027765" lon="8.68367500547">
		<tag k="ssr:gml_id" v="GEOMETRY_0c8a03c3-bbec-441d-8074-d116276136cd" />
		<tag k="ssr:gml_nr" v="0" />
	</node>
	<node id="-23220" lat="58.3371944438" lon="8.63808333532">
		<tag k="name" v="Orholmen" />
		<tag k="place" v="islet" />
		<tag k="ssr:date" v="2016-05-11" />
		<tag k="ssr:stedsnr" v="697492" />
	</node>
	<node id="-23217" lat="58.3634722192" lon="8.61425000413">
		<tag k="name" v="Sævelistranda" />
		<tag k="natural" v="beach" />
		<tag k="place" v="locality" />
		<tag k="ssr:date" v="2016-05-11" />
		<tag k="ssr:stedsnr" v="697479" />
	</node>
	<node id="-23214" lat="58.3938888869" lon="8.58736110574">
		<tag k="name" v="Terkelsbukt" />
		<tag k="natural" v="bay" />
		<tag k="ssr:date" v="2016-05-11" />
		<tag k="ssr:stedsnr" v="697442" />
	</node>
	<node id="-23212" lat="58.2495833346" lon="8.44686110984">
		<tag k="fixme" v="consider seamark:type=rock" />
		<tag k="name" v="Bjørnen" />
		<tag k="natural" v="islet" />
		<tag k="ssr:date" v="2016-05-11" />
		<tag k="ssr:stedsnr" v="697421" />
	</node>
	<node id="-23211" lat="58.2488611154" lon="8.49097222455">
		<tag k="name" v="Brattholmen" />
		<tag k="place" v="islet" />
		<tag k="ssr:date" v="2016-05-11" />
		<tag k="ssr:stedsnr" v="697415" />
	</node>
	<node id="-21161" lat="58.3694666646" lon="8.69068611096">
		<tag k="name" v="Breivigholmen" />
		<tag k="place" v="islet" />
		<tag k="ssr:date" v="2016-05-10" />
		<tag k="ssr:stedsnr" v="151744" />
	</node>
	<node id="-23208" lat="58.243083334" lon="8.51827778002">
		<tag k="name" v="Indre Vassfloss" />
		<tag k="place" v="islet" />
		<tag k="ssr:date" v="2016-05-11" />
		<tag k="ssr:stedsnr" v="697396" />
	</node>
	<node id="-23207" lat="58.2483611078" lon="8.49491667164">
		<tag k="name" v="Sjeneveren" />
		<tag k="place" v="islet" />
		<tag k="ssr:date" v="2016-05-11" />
		<tag k="ssr:stedsnr" v="697391" />
	</node>
	<node id="-23204" lat="58.2590555518" lon="8.470638886">
		<tag k="name" v="Guleodde" />
		<tag k="natural" v="cape" />
		<tag k="place" v="locality" />
		<tag k="ssr:date" v="2016-05-11" />
		<tag k="ssr:stedsnr" v="697339" />
	</node>
	<node id="-21155" lat="58.3383055582" lon="8.63238888189">
		<tag k="ssr:gml_id" v="GEOMETRY_e385a9e1-3fdc-4fe3-aea8-cf8649421746" />
		<tag k="ssr:gml_nr" v="1" />
	</node>
	<node id="-21154" lat="58.3383083319" lon="8.63204444742">
		<tag k="ssr:gml_id" v="GEOMETRY_afe6019a-fcde-423e-899f-4641594de25f" />
		<tag k="ssr:gml_nr" v="0" />
	</node>
	<node id="-21152" lat="58.3671972225" lon="8.68660000287">
		<tag k="ssr:gml_id" v="GEOMETRY_bac57968-f029-4c37-a8c8-8768552d90f6" />
		<tag k="ssr:gml_nr" v="2" />
	</node>
	<node id="-21151" lat="58.3665277789" lon="8.68602778388">
		<tag k="ssr:gml_id" v="GEOMETRY_bbf169e9-73ca-4946-91ae-2965e55e1ea1" />
		<tag k="ssr:gml_nr" v="1" />
	</node>
	<node id="-21150" lat="58.3671944486" lon="8.68601388159">
		<tag k="ssr:gml_id" v="GEOMETRY_4fcee7c3-0adf-4ec5-8199-6af02b4ddbb0" />
		<tag k="ssr:gml_nr" v="0" />
	</node>
	<node id="-21149" lat="58.3475555533" lon="8.61063889179">
		<tag k="name" v="Ramsviga" />
		<tag k="natural" v="bay" />
		<tag k="ssr:date" v="2016-05-10" />
		<tag k="ssr:stedsnr" v="151486" />
	</node>
	<node id="-21148" lat="58.3518888907" lon="8.61344443825">
		<tag k="name" v="Klesviga" />
		<tag k="natural" v="bay" />
		<tag k="ssr:date" v="2016-05-10" />
		<tag k="ssr:stedsnr" v="151479" />
	</node>
	<node id="-21147" lat="58.3618888924" lon="8.67366667195">
		<tag k="name" v="Ørnåsbukta" />
		<tag k="natural" v="bay" />
		<tag k="ssr:date" v="2016-05-10" />
		<tag k="ssr:stedsnr" v="151463" />
	</node>
	<node id="-23194" lat="58.3605555573" lon="8.67252778615">
		<tag k="ssr:gml_id" v="GEOMETRY_b4f5edbf-c0e2-41f1-a5a0-7820bc491e7e" />
		<tag k="ssr:gml_nr" v="1" />
	</node>
	<node id="-21145" lat="58.2488055534" lon="8.45449999262">
		<tag k="name" v="Kusundholmen" />
		<tag k="place" v="islet" />
		<tag k="ssr:date" v="2016-05-10" />
		<tag k="ssr:stedsnr" v="151435" />
	</node>
	<node id="-21144" lat="58.2475000029" lon="8.48675000737">
		<tag k="name" v="Lille Ålesøy" />
		<tag k="place" v="island" />
		<tag k="ssr:date" v="2016-05-10" />
		<tag k="ssr:stedsnr" v="151432" />
	</node>
	<node id="-21143" lat="58.2620000003" lon="8.47108333054">
		<tag k="name" v="Persbukta" />
		<tag k="natural" v="bay" />
		<tag k="ssr:date" v="2016-05-10" />
		<tag k="ssr:stedsnr" v="151431" />
	</node>
	<node id="-21142" lat="58.2616944474" lon="8.48058332512">
		<tag k="name" v="Gamlestrand" />
		<tag k="natural" v="beach" />
		<tag k="place" v="locality" />
		<tag k="ssr:date" v="2016-05-10" />
		<tag k="ssr:stedsnr" v="151428" />
	</node>
	<node id="-21141" lat="58.2529999962" lon="8.52355554778">
		<tag k="name" v="Kråkenes" />
		<tag k="natural" v="cape" />
		<tag k="place" v="locality" />
		<tag k="ssr:date" v="2016-05-10" />
		<tag k="ssr:stedsnr" v="151405" />
	</node>
	<node id="-21140" lat="58.2794444472" lon="8.50230554862">
		<tag k="name" v="Bufjorden" />
		<tag k="natural" v="bay" />
		<tag k="ssr:date" v="2016-05-10" />
		<tag k="ssr:stedsnr" v="151406" />
	</node>
	<node id="-21139" lat="58.3207777765" lon="8.58219444948">
		<tag k="fixme" v="consider seamark:type=rock" />
		<tag k="name" v="Halvorsholmskjæret" />
		<tag k="natural" v="islet" />
		<tag k="ssr:date" v="2016-05-10" />
		<tag k="ssr:stedsnr" v="151377" />
	</node>
	<node id="-21138" lat="58.3179166652" lon="8.57513888209">
		<tag k="name" v="Lille Danmark" />
		<tag k="place" v="islet" />
		<tag k="ssr:date" v="2016-05-10" />
		<tag k="ssr:stedsnr" v="151374" />
	</node>
	<node id="-21955" lat="58.2631111112" lon="8.53716389569">
		<tag k="ssr:gml_id" v="GEOMETRY_4ac78590-29d4-4d2d-a835-63f81d13edd5" />
		<tag k="ssr:gml_nr" v="3" />
	</node>
	<node id="-23184" lat="58.3535472258" lon="8.6629833368">
		<tag k="ssr:gml_id" v="GEOMETRY_8aa19c88-89ff-4f5f-82d0-e329a9e092fc" />
		<tag k="ssr:gml_nr" v="0" />
	</node>
	<node id="-21135" lat="58.318944444" lon="8.57733332635">
		<tag k="fixme" v="consider seamark:type=rock" />
		<tag k="name" v="Lille Porterskjæret" />
		<tag k="natural" v="islet" />
		<tag k="ssr:date" v="2016-05-10" />
		<tag k="ssr:stedsnr" v="151357" />
	</node>
	<node id="-21134" lat="58.3077777749" lon="8.57730555291">
		<tag k="name" v="Forholmen" />
		<tag k="place" v="islet" />
		<tag k="ssr:date" v="2016-05-10" />
		<tag k="ssr:stedsnr" v="151350" />
	</node>
	<node id="-21133" lat="58.3036388871" lon="8.55602777497">
		<tag k="name" v="Brennevinskastet" />
		<tag k="natural" v="bay" />
		<tag k="ssr:date" v="2016-05-10" />
		<tag k="ssr:stedsnr" v="151348" />
	</node>
	<node id="-21132" lat="58.3361111091" lon="8.59549999182">
		<tag k="name" v="Gundersholmen" />
		<tag k="natural" v="cape" />
		<tag k="place" v="locality" />
		<tag k="ssr:date" v="2016-05-10" />
		<tag k="ssr:stedsnr" v="151335" />
	</node>
	<node id="-21954" lat="58.2630000029" lon="8.53911945219">
		<tag k="ssr:gml_id" v="GEOMETRY_b1872cf4-c7a3-4584-a9e1-97e66f1f230b" />
		<tag k="ssr:gml_nr" v="2" />
	</node>
	<node id="-23178" lat="58.2462583353" lon="8.54679999789">
		<tag k="name" v="Knatten" />
		<tag k="natural" v="shoal" />
		<tag k="place" v="locality" />
		<tag k="ssr:date" v="2016-05-11" />
		<tag k="ssr:stedsnr" v="690988" />
	</node>
	<node id="-23177" lat="58.2499166712" lon="8.47644444588">
		<tag k="ssr:gml_id" v="GEOMETRY_d20ff2f7-c034-424a-8e44-df54d860bd44" />
		<tag k="ssr:gml_nr" v="1" />
	</node>
	<node id="-23176" lat="58.2500694425" lon="8.47642222665">
		<tag k="ssr:gml_id" v="GEOMETRY_50a45d56-9cde-4fb8-93e0-56ef33b60f51" />
		<tag k="ssr:gml_nr" v="0" />
	</node>
	<node id="-21125" lat="58.2764999999" lon="8.53280556216">
		<tag k="name" v="Båsebuktene" />
		<tag k="natural" v="bay" />
		<tag k="ssr:date" v="2016-05-10" />
		<tag k="ssr:stedsnr" v="151112" />
	</node>
	<node id="-23172" lat="58.3273138854" lon="8.59942777657">
		<tag k="ssr:gml_id" v="GEOMETRY_c2686640-f4ab-4a07-91f2-e00c73c28aaf" />
		<tag k="ssr:gml_nr" v="4" />
	</node>
	<node id="-23171" lat="58.3273166697" lon="8.59942777923">
		<tag k="ssr:gml_id" v="GEOMETRY_373c078c-1e67-45bc-b801-2a8a2ccc225c" />
		<tag k="ssr:gml_nr" v="3" />
	</node>
	<node id="-21122" lat="58.3230111123" lon="8.61871665854">
		<tag k="name" v="Auseflaget" />
		<tag k="natural" v="shoal" />
		<tag k="place" v="locality" />
		<tag k="ssr:date" v="2016-05-10" />
		<tag k="ssr:stedsnr" v="148834" />
	</node>
	<node id="-21121" lat="58.3112527737" lon="8.66062222397">
		<tag k="name" v="Bregebåen" />
		<tag k="place" v="locality" />
		<tag k="seamark:type" v="rock" />
		<tag k="ssr:date" v="2016-05-10" />
		<tag k="ssr:stedsnr" v="148832" />
	</node>
	<node id="-21120" lat="58.3004944481" lon="8.60447221496">
		<tag k="name" v="Skifjellgrunnen" />
		<tag k="natural" v="shoal" />
		<tag k="place" v="locality" />
		<tag k="ssr:date" v="2016-05-10" />
		<tag k="ssr:stedsnr" v="148716" />
	</node>
	<node id="-21119" lat="58.3586888932" lon="8.6829277717">
		<tag k="name" v="Larshausen" />
		<tag k="natural" v="shoal" />
		<tag k="place" v="locality" />
		<tag k="ssr:date" v="2016-05-10" />
		<tag k="ssr:stedsnr" v="148692" />
	</node>
	<node id="-21118" lat="58.3569444453" lon="8.73772222658">
		<tag k="ssr:gml_id" v="GEOMETRY_2718f2c8-7aee-4c59-aea9-86d7614a645b" />
		<tag k="ssr:gml_nr" v="3" />
	</node>
	<node id="-21117" lat="58.3572611144" lon="8.73870000376">
		<tag k="ssr:gml_id" v="GEOMETRY_4e24b615-f72a-43aa-9d70-4837fceea022" />
		<tag k="ssr:gml_nr" v="2" />
	</node>
	<node id="-21116" lat="58.3572583301" lon="8.73870000724">
		<tag k="ssr:gml_id" v="GEOMETRY_4b7b1731-2ff3-497c-b73c-681df29e4c60" />
		<tag k="ssr:gml_nr" v="1" />
	</node>
	<node id="-23163" lat="58.3239083336" lon="8.60864999524">
		<tag k="ssr:gml_id" v="GEOMETRY_6a586232-1c24-4468-9a90-1c1dafe61b86" />
		<tag k="ssr:gml_nr" v="4" />
	</node>
	<node id="-23162" lat="58.3239111089" lon="8.60864999872">
		<tag k="ssr:gml_id" v="GEOMETRY_b8afe234-e390-43f4-8eae-27ca92360cbd" />
		<tag k="ssr:gml_nr" v="3" />
	</node>
	<node id="-23161" lat="58.3245166692" lon="8.60611666025">
		<tag k="ssr:gml_id" v="GEOMETRY_4186200d-a1a9-463a-a739-3007fefc1614" />
		<tag k="ssr:gml_nr" v="2" />
	</node>
	<node id="-23160" lat="58.3252499981" lon="8.60611111686">
		<tag k="ssr:gml_id" v="GEOMETRY_ca281d31-092c-4a88-9343-bf42ce48c1f7" />
		<tag k="ssr:gml_nr" v="1" />
	</node>
	<node id="-23159" lat="58.3242750045" lon="8.60681944527">
		<tag k="ssr:gml_id" v="GEOMETRY_80d8a9d6-b070-4246-ac0f-3a09580c4e01" />
		<tag k="ssr:gml_nr" v="0" />
	</node>
	<node id="-21108" lat="58.3415166645" lon="8.65651665817">
		<tag k="ssr:gml_id" v="GEOMETRY_3fb86a5f-e83e-4c8b-b796-91ce14ff5ad1" />
		<tag k="ssr:gml_nr" v="2" />
	</node>
	<node id="-21107" lat="58.3415194473" lon="8.65651944951">
		<tag k="ssr:gml_id" v="GEOMETRY_e7e4f542-970c-4296-a444-85cce72befb7" />
		<tag k="ssr:gml_nr" v="1" />
	</node>
	<node id="-21106" lat="58.3399805536" lon="8.65482778382">
		<tag k="ssr:gml_id" v="GEOMETRY_85a73ede-d43c-42b2-980d-eb023c6055ae" />
		<tag k="ssr:gml_nr" v="0" />
	</node>
	<node id="-21103" lat="58.3061944401" lon="8.59961111909">
		<tag k="ssr:gml_id" v="GEOMETRY_f1ccd564-e432-4d66-a500-d0238a0996d8" />
		<tag k="ssr:gml_nr" v="2" />
	</node>
	<node id="-21102" lat="58.3060555572" lon="8.60019166484">
		<tag k="ssr:gml_id" v="GEOMETRY_c053c301-9a57-4d81-8e3a-2d286f7b907a" />
		<tag k="ssr:gml_nr" v="1" />
	</node>
	<node id="-21101" lat="58.3060583322" lon="8.60019444908">
		<tag k="ssr:gml_id" v="GEOMETRY_15c646b3-2824-4b94-a915-6276f88a8a4b" />
		<tag k="ssr:gml_nr" v="0" />
	</node>
	<node id="-19897" lat="58.3249999997" lon="8.61105555201">
		<tag k="ssr:gml_id" v="GEOMETRY_d4e7ae5c-dcd8-478d-bfde-ed03857ab626" />
		<tag k="ssr:gml_nr" v="1" />
	</node>
	<node id="-23120" lat="58.2570083351" lon="8.44718333032">
		<tag k="ssr:gml_id" v="GEOMETRY_3f42951d-46ab-4aeb-900b-817be470650f" />
		<tag k="ssr:gml_nr" v="2" />
	</node>
	<node id="-23992" lat="58.2526944471" lon="8.45463888144">
		<tag k="fixme" v="consider seamark:type=rock" />
		<tag k="name" v="Bremenholmen" />
		<tag k="natural" v="islet" />
		<tag k="ssr:date" v="2016-05-11" />
		<tag k="ssr:stedsnr" v="819452" />
	</node>
	<node id="-23118" lat="58.2559388911" lon="8.44652776952">
		<tag k="ssr:gml_id" v="GEOMETRY_b2f4873a-a418-4bc5-94d9-b6a79a96ab2b" />
		<tag k="ssr:gml_nr" v="0" />
	</node>
	<node id="-20235" lat="58.3393333353" lon="8.63808332896">
		<tag k="ssr:gml_id" v="GEOMETRY_4c91257a-8385-409b-b14b-450439d59a1d" />
		<tag k="ssr:gml_nr" v="1" />
	</node>
	<node id="-19893" lat="58.3410777784" lon="8.62386666887">
		<tag k="ssr:gml_id" v="GEOMETRY_e25f9f3a-2a21-427a-b5e6-58deccf4ea91" />
		<tag k="ssr:gml_nr" v="0" />
	</node>
	<node id="-20184" lat="58.3184722193" lon="8.61088889396">
		<tag k="ssr:gml_id" v="GEOMETRY_5759aa12-cbaf-4321-acf4-81fab840c72e" />
		<tag k="ssr:gml_nr" v="1" />
	</node>
	<node id="-23988" lat="58.2587500011" lon="8.45275000135">
		<tag k="ssr:gml_id" v="GEOMETRY_0bf15d47-71e9-4d2d-89b9-790aa60fe071" />
		<tag k="ssr:gml_nr" v="0" />
	</node>
	<node id="-21043" lat="58.3551444417" lon="8.6597555543">
		<tag k="ssr:gml_id" v="GEOMETRY_198f4141-a728-469b-871b-46bc62c14ffd" />
		<tag k="ssr:gml_nr" v="1" />
	</node>
	<node id="-21042" lat="58.3542305582" lon="8.65333888036">
		<tag k="ssr:gml_id" v="GEOMETRY_407e9432-80a2-4f69-b011-203828a944eb" />
		<tag k="ssr:gml_nr" v="0" />
	</node>
	<node id="-24328" lat="58.2879916623" lon="8.5928444505">
		<tag k="name" v="Østre Håbågrunnen" />
		<tag k="natural" v="shoal" />
		<tag k="place" v="locality" />
		<tag k="ssr:date" v="2016-05-11" />
		<tag k="ssr:stedsnr" v="876811" />
	</node>
	<node id="-19890" lat="58.2784611115" lon="8.5299527749">
		<tag k="ssr:gml_id" v="GEOMETRY_6111727f-6019-4a94-9302-fd3570ee7383" />
		<tag k="ssr:gml_nr" v="0" />
	</node>
	<node id="-22278" lat="58.2913333319" lon="8.54557222015">
		<tag k="ssr:gml_id" v="GEOMETRY_9fa3f48b-8dfb-4056-a987-f3614c9a0756" />
		<tag k="ssr:gml_nr" v="1" />
	</node>
	<node id="-22277" lat="58.2909583328" lon="8.54542777958">
		<tag k="ssr:gml_id" v="GEOMETRY_0f28e09e-d08a-4e7b-93a0-c7c201bd6491" />
		<tag k="ssr:gml_nr" v="0" />
	</node>
	<node id="-24666" lat="58.2545555566" lon="8.46624999319">
		<tag k="name" v="Vestre Bjørkesund" />
		<tag k="natural" v="strait" />
		<tag k="place" v="locality" />
		<tag k="ssr:date" v="2016-05-11" />
		<tag k="ssr:stedsnr" v="941434" />
	</node>
	<node id="-24324" lat="58.2971499959" lon="8.61488332809">
		<tag k="name" v="Bærstadgrunnen" />
		<tag k="natural" v="shoal" />
		<tag k="place" v="locality" />
		<tag k="ssr:date" v="2016-05-11" />
		<tag k="ssr:stedsnr" v="876707" />
	</node>
	<node id="-20569" lat="58.2900944465" lon="8.53915555542">
		<tag k="ssr:gml_id" v="GEOMETRY_6de0d54a-2b46-4b01-bacf-5b7bc244a558" />
		<tag k="ssr:gml_nr" v="1" />
	</node>
	<node id="-22275" lat="58.2835194405" lon="8.52504722694">
		<tag k="name" v="Bratthau bukt" />
		<tag k="natural" v="bay" />
		<tag k="ssr:date" v="2016-05-10" />
		<tag k="ssr:stedsnr" v="534482" />
	</node>
	<node id="-24322" lat="58.3554777766" lon="8.72813611081">
		<tag k="name" v="Snærbåen" />
		<tag k="place" v="locality" />
		<tag k="seamark:type" v="rock" />
		<tag k="ssr:date" v="2016-05-11" />
		<tag k="ssr:stedsnr" v="876678" />
	</node>
	<node id="-20885" lat="58.2961194447" lon="8.52970000748">
		<tag k="ssr:gml_id" v="GEOMETRY_0e1bc3ba-e3fb-4713-8f7a-09380f52bcdb" />
		<tag k="ssr:gml_nr" v="1" />
	</node>
	<node id="-24318" lat="58.3488611131" lon="8.66358333481">
		<tag k="ssr:gml_id" v="GEOMETRY_4af4b6de-06fb-42cb-9d16-6f699f45d7d0" />
		<tag k="ssr:gml_nr" v="1" />
	</node>
	<node id="-24317" lat="58.3488305565" lon="8.66330277436">
		<tag k="ssr:gml_id" v="GEOMETRY_59c8a512-2dfd-4fe2-a9ae-c0fec443319f" />
		<tag k="ssr:gml_nr" v="0" />
	</node>
	<node id="-23975" lat="58.3284444481" lon="8.59463888349">
		<tag k="fixme" v="consider seamark:type=rock" />
		<tag k="name" v="Reveskjær" />
		<tag k="natural" v="islet" />
		<tag k="ssr:date" v="2016-05-11" />
		<tag k="ssr:stedsnr" v="819336" />
	</node>
	<node id="-20816" lat="58.2591111118" lon="8.50941666182">
		<tag k="ssr:gml_id" v="GEOMETRY_f256d52b-3bbc-446e-ba74-04654e15ecd8" />
		<tag k="ssr:gml_nr" v="1" />
	</node>
	<node id="-24315" lat="58.2881666626" lon="8.58358056227">
		<tag k="name" v="Broddet" />
		<tag k="natural" v="shoal" />
		<tag k="place" v="locality" />
		<tag k="ssr:date" v="2016-05-11" />
		<tag k="ssr:stedsnr" v="876665" />
	</node>
	<node id="-20957" lat="58.3071166643" lon="8.60250555178">
		<tag k="name" v="Klovholmen" />
		<tag k="place" v="islet" />
		<tag k="ssr:date" v="2016-05-10" />
		<tag k="ssr:stedsnr" v="115405" />
	</node>
	<node id="-20956" lat="58.2631361099" lon="8.53925554848">
		<tag k="fixme" v="consider seamark:type=rock" />
		<tag k="name" v="Svartskjær" />
		<tag k="natural" v="islet" />
		<tag k="ssr:date" v="2016-05-10" />
		<tag k="ssr:stedsnr" v="115272" />
	</node>
	<node id="-24592" lat="58.3418027741" lon="8.68020555051">
		<tag k="ssr:gml_id" v="GEOMETRY_494d292c-7282-4b4c-9065-34e831b9337e" />
		<tag k="ssr:gml_nr" v="2" />
	</node>
	<node id="-24313" lat="58.2472000008" lon="8.52864444393">
		<tag k="name" v="Kalvøybåene" />
		<tag k="place" v="locality" />
		<tag k="seamark:type" v="rock" />
		<tag k="ssr:date" v="2016-05-11" />
		<tag k="ssr:stedsnr" v="872981" />
	</node>
	<node id="-24312" lat="58.2451250042" lon="8.5190638946">
		<tag k="fixme" v="consider seamark:type=rock" />
		<tag k="name" v="Persskjær" />
		<tag k="natural" v="islet" />
		<tag k="ssr:date" v="2016-05-11" />
		<tag k="ssr:stedsnr" v="872980" />
	</node>
	<node id="-22989" lat="58.326949999" lon="8.62111667518">
		<tag k="fixme" v="consider seamark:type=rock" />
		<tag k="name" v="Svartskjær" />
		<tag k="natural" v="islet" />
		<tag k="ssr:date" v="2016-05-10" />
		<tag k="ssr:stedsnr" v="661368" />
	</node>
	<node id="-24311" lat="58.2715916686" lon="8.43561110509">
		<tag k="name" v="Skånnøya" />
		<tag k="place" v="islet" />
		<tag k="ssr:date" v="2016-05-11" />
		<tag k="ssr:stedsnr" v="871859" />
	</node>
	<node id="-20815" lat="58.2585305521" lon="8.50845555463">
		<tag k="ssr:gml_id" v="GEOMETRY_52367814-124b-44bb-82d1-003517254053" />
		<tag k="ssr:gml_nr" v="0" />
	</node>
	<node id="-20474" lat="58.2836861104" lon="8.54928888153">
		<tag k="ssr:gml_id" v="GEOMETRY_8642a665-5dfe-4111-8fa8-15fbc43acf5d" />
		<tag k="ssr:gml_nr" v="2" />
	</node>
	<node id="-21918" lat="58.390136115" lon="8.72725555226">
		<tag k="ssr:gml_id" v="GEOMETRY_22898e62-8fa3-4361-ac9e-fd53c3f4fdcd" />
		<tag k="ssr:gml_nr" v="0" />
	</node>
	<node id="-21114" lat="58.30575" lon="8.57649723032">
		<tag k="name" v="Risholmsundet" />
		<tag k="natural" v="strait" />
		<tag k="place" v="locality" />
		<tag k="ssr:date" v="2016-05-10" />
		<tag k="ssr:stedsnr" v="147696" />
	</node>
	<node id="-21917" lat="58.367194442" lon="8.73855556178">
		<tag k="ssr:gml_id" v="GEOMETRY_df946940-6cd1-4d80-ba64-13e9f7879cfe" />
		<tag k="ssr:gml_nr" v="4" />
	</node>
	<node id="-20132" lat="58.3579361144" lon="8.67802777374">
		<tag k="ssr:gml_id" v="GEOMETRY_15a483a0-64d6-4afc-ab04-dcf928663419" />
		<tag k="ssr:gml_nr" v="2" />
	</node>
	<node id="-23964" lat="58.2850500013" lon="8.53850278597">
		<tag k="ssr:gml_id" v="GEOMETRY_6e84a92c-2848-4825-81ce-abb881871b68" />
		<tag k="ssr:gml_nr" v="0" />
	</node>
	<node id="-19867" lat="58.353252782" lon="8.73671389621">
		<tag k="name" v="Rundebåen" />
		<tag k="place" v="locality" />
		<tag k="seamark:type" v="rock" />
		<tag k="ssr:date" v="2016-05-10" />
		<tag k="ssr:stedsnr" v="330714" />
	</node>
	<node id="-21914" lat="58.3672499969" lon="8.74016388479">
		<tag k="ssr:gml_id" v="GEOMETRY_3da5f2b3-1440-42f2-bf6e-de86274cf17e" />
		<tag k="ssr:gml_nr" v="1" />
	</node>
	<node id="-21913" lat="58.3671944477" lon="8.73855833085">
		<tag k="ssr:gml_id" v="GEOMETRY_9c85ef25-f4c5-48d8-b899-9d1afbd19b78" />
		<tag k="ssr:gml_nr" v="0" />
	</node>
	<node id="-20884" lat="58.2976138863" lon="8.52853889599">
		<tag k="ssr:gml_id" v="GEOMETRY_b13a5a84-7c87-4bbb-aa70-7fa9cd955543" />
		<tag k="ssr:gml_nr" v="0" />
	</node>
	<node id="-19864" lat="58.2643222192" lon="8.43622777179">
		<tag k="ssr:gml_id" v="GEOMETRY_0cbfbf3c-53f1-4927-b34a-1e1ddfbde468" />
		<tag k="ssr:gml_nr" v="0" />
	</node>
	<node id="-22924" lat="58.2993722242" lon="8.52795556333">
		<tag k="name" v="Lensmannsodden" />
		<tag k="natural" v="cape" />
		<tag k="place" v="locality" />
		<tag k="ssr:date" v="2016-05-10" />
		<tag k="ssr:stedsnr" v="655472" />
	</node>
	<node id="-22923" lat="58.2899694457" lon="8.52086110413">
		<tag k="name" v="Holmen" />
		<tag k="natural" v="cape" />
		<tag k="place" v="locality" />
		<tag k="ssr:date" v="2016-05-10" />
		<tag k="ssr:stedsnr" v="655470" />
	</node>
	<node id="-22922" lat="58.292569445" lon="8.54775834018">
		<tag k="name" v="Østre Mastevoll" />
		<tag k="natural" v="bay" />
		<tag k="ssr:date" v="2016-05-10" />
		<tag k="ssr:stedsnr" v="655466" />
	</node>
	<node id="-23959" lat="58.3611944468" lon="8.67588888347">
		<tag k="ssr:gml_id" v="GEOMETRY_e01c0dfc-9fb8-4f19-b331-700bb5c19ae9" />
		<tag k="ssr:gml_nr" v="1" />
	</node>
	<node id="-20867" lat="58.3062499962" lon="8.54930555214">
		<tag k="name" v="Steinviga" />
		<tag k="natural" v="bay" />
		<tag k="ssr:date" v="2016-05-10" />
		<tag k="ssr:stedsnr" v="91357" />
	</node>
	<node id="-23957" lat="58.3248111088" lon="8.58569445145">
		<tag k="ssr:gml_id" v="GEOMETRY_d6477cb2-acd6-48bf-8d64-492b87e9f61b" />
		<tag k="ssr:gml_nr" v="1" />
	</node>
	<node id="-24639" lat="58.3163888872" lon="8.57922222066">
		<tag k="name" v="Store Tvillingholmen" />
		<tag k="place" v="islet" />
		<tag k="ssr:date" v="2016-05-11" />
		<tag k="ssr:stedsnr" v="940346" />
	</node>
	<node id="-23956" lat="58.3247277752" lon="8.58541389462">
		<tag k="ssr:gml_id" v="GEOMETRY_63699074-93a1-4b93-a0be-9001640f3362" />
		<tag k="ssr:gml_nr" v="0" />
	</node>
	<node id="-22901" lat="58.3030916686" lon="8.52449167142">
		<tag k="name" v="Strandholmen" />
		<tag k="place" v="islet" />
		<tag k="ssr:date" v="2016-05-10" />
		<tag k="ssr:stedsnr" v="653251" />
	</node>
	<node id="-20851" lat="58.2540833316" lon="8.4607500068">
		<tag k="name" v="Storesand" />
		<tag k="natural" v="beach" />
		<tag k="place" v="locality" />
		<tag k="ssr:date" v="2016-05-10" />
		<tag k="ssr:stedsnr" v="90435" />
	</node>
	<node id="-20850" lat="58.2467472257" lon="8.46335833187">
		<tag k="ssr:gml_id" v="GEOMETRY_d3f7984e-2957-47a3-830c-d62ca654805f" />
		<tag k="ssr:gml_nr" v="2" />
	</node>
	<node id="-19859" lat="58.2533055581" lon="8.53313055742">
		<tag k="name" v="Lille Grønningen" />
		<tag k="place" v="islet" />
		<tag k="ssr:date" v="2016-05-10" />
		<tag k="ssr:stedsnr" v="325981" />
	</node>
	<node id="-22896" lat="58.3413000044" lon="8.59684444906">
		<tag k="name" v="Dramsvika" />
		<tag k="natural" v="bay" />
		<tag k="ssr:date" v="2016-05-10" />
		<tag k="ssr:stedsnr" v="647627" />
	</node>
	<node id="-20846" lat="58.2476944484" lon="8.49688889367">
		<tag k="name" v="Lyngholmene" />
		<tag k="place" v="islet" />
		<tag k="ssr:date" v="2016-05-10" />
		<tag k="ssr:stedsnr" v="90375" />
	</node>
	<node id="-22893" lat="58.3556388875" lon="8.67097221742">
		<tag k="name" v="Grefstadraua" />
		<tag k="place" v="locality" />
		<tag k="ssr:date" v="2016-05-10" />
		<tag k="ssr:stedsnr" v="637469" />
	</node>
	<node id="-22892" lat="58.2570000036" lon="8.46747221624">
		<tag k="name" v="Østre Bjørkesund" />
		<tag k="natural" v="strait" />
		<tag k="place" v="locality" />
		<tag k="ssr:date" v="2016-05-10" />
		<tag k="ssr:stedsnr" v="637442" />
	</node>
	<node id="-19858" lat="58.2577972194" lon="8.53593332548">
		<tag k="name" v="Ytre Vidbåen" />
		<tag k="place" v="locality" />
		<tag k="seamark:type" v="rock" />
		<tag k="ssr:date" v="2016-05-10" />
		<tag k="ssr:stedsnr" v="325978" />
	</node>
	<node id="-20839" lat="58.3051666648" lon="8.5995833296">
		<tag k="fixme" v="consider seamark:type=rock" />
		<tag k="name" v="Teineskjær" />
		<tag k="natural" v="islet" />
		<tag k="ssr:date" v="2016-05-10" />
		<tag k="ssr:stedsnr" v="90335" />
	</node>
	<node id="-19857" lat="58.2403027771" lon="8.50966110951">
		<tag k="name" v="Grunnhausen" />
		<tag k="natural" v="shoal" />
		<tag k="place" v="locality" />
		<tag k="ssr:date" v="2016-05-10" />
		<tag k="ssr:stedsnr" v="325871" />
	</node>
	<node id="-20835" lat="58.2762500039" lon="8.52730555044">
		<tag k="name" v="Hovekilen" />
		<tag k="natural" v="bay" />
		<tag k="ssr:date" v="2016-05-10" />
		<tag k="ssr:stedsnr" v="90093" />
	</node>
	<node id="-20834" lat="58.2797222264" lon="8.51636110503">
		<tag k="ssr:gml_id" v="GEOMETRY_4394af1e-b0da-4091-bf0c-a41c4df2ec11" />
		<tag k="ssr:gml_nr" v="1" />
	</node>
	<node id="-20833" lat="58.2797222195" lon="8.51641389589">
		<tag k="ssr:gml_id" v="GEOMETRY_61f12b58-9573-4c14-b448-e842cb3816a2" />
		<tag k="ssr:gml_nr" v="0" />
	</node>
	<node id="-20832" lat="58.2663333359" lon="8.52480556048">
		<tag k="name" v="Plankebukta" />
		<tag k="natural" v="bay" />
		<tag k="ssr:date" v="2016-05-10" />
		<tag k="ssr:stedsnr" v="90092" />
	</node>
	<node id="-23952" lat="58.3625916627" lon="8.72835554951">
		<tag k="name" v="Seibåen" />
		<tag k="place" v="locality" />
		<tag k="seamark:type" v="rock" />
		<tag k="ssr:date" v="2016-05-11" />
		<tag k="ssr:stedsnr" v="815631" />
	</node>
	<node id="-22245" lat="58.3321388876" lon="8.61180556377">
		<tag k="ssr:gml_id" v="GEOMETRY_a403f1f6-5a9a-4c78-966e-363ae94552b7" />
		<tag k="ssr:gml_nr" v="1" />
	</node>
	<node id="-20828" lat="58.3397027747" lon="8.70991388765">
		<tag k="name" v="Kjerkegrunnen" />
		<tag k="natural" v="shoal" />
		<tag k="place" v="locality" />
		<tag k="ssr:date" v="2016-05-10" />
		<tag k="ssr:stedsnr" v="87726" />
	</node>
	<node id="-20827" lat="58.2591666626" lon="8.51347222817">
		<tag k="ssr:gml_id" v="GEOMETRY_3d655106-d64e-4395-967f-c0f92bd0a349" />
		<tag k="ssr:gml_nr" v="1" />
	</node>
	<node id="-20826" lat="58.2592305564" lon="8.51321666834">
		<tag k="ssr:gml_id" v="GEOMETRY_0f0f8fd4-4740-417c-b029-0e3eb4b861d2" />
		<tag k="ssr:gml_nr" v="0" />
	</node>
	<node id="-20879" lat="58.3001361152" lon="8.54170556132">
		<tag k="name" v="Stølekilen" />
		<tag k="natural" v="bay" />
		<tag k="ssr:date" v="2016-05-10" />
		<tag k="ssr:stedsnr" v="109446" />
	</node>
	<node id="-22872" lat="58.254805552" lon="8.45933332556">
		<tag k="name" v="Svennevig" />
		<tag k="natural" v="bay" />
		<tag k="ssr:date" v="2016-05-10" />
		<tag k="ssr:stedsnr" v="636444" />
	</node>
	<node id="-22871" lat="58.3394444418" lon="8.61986111945">
		<tag k="name" v="Eidet" />
		<tag k="place" v="locality" />
		<tag k="ssr:date" v="2016-05-10" />
		<tag k="ssr:stedsnr" v="636437" />
	</node>
	<node id="-22869" lat="58.26291667" lon="8.48608333151">
		<tag k="name" v="Breivik" />
		<tag k="natural" v="bay" />
		<tag k="ssr:date" v="2016-05-10" />
		<tag k="ssr:stedsnr" v="636397" />
	</node>
	<node id="-22868" lat="58.2474722245" lon="8.51988888224">
		<tag k="name" v="Gråholmen" />
		<tag k="place" v="islet" />
		<tag k="ssr:date" v="2016-05-10" />
		<tag k="ssr:stedsnr" v="636391" />
	</node>
	<node id="-22867" lat="58.2545833328" lon="8.51502777266">
		<tag k="name" v="Stangsodden" />
		<tag k="natural" v="cape" />
		<tag k="place" v="locality" />
		<tag k="ssr:date" v="2016-05-10" />
		<tag k="ssr:stedsnr" v="636387" />
	</node>
	<node id="-20818" lat="58.2580361072" lon="8.47035833829">
		<tag k="name" v="Nordmannsviga" />
		<tag k="natural" v="bay" />
		<tag k="ssr:date" v="2016-05-10" />
		<tag k="ssr:stedsnr" v="83985" />
	</node>
	<node id="-20817" lat="58.2537666661" lon="8.54091110618">
		<tag k="name" v="Kristtjern" />
		<tag k="natural" v="shoal" />
		<tag k="place" v="locality" />
		<tag k="ssr:date" v="2016-05-10" />
		<tag k="ssr:stedsnr" v="83984" />
	</node>
	<node id="-22864" lat="58.2950000027" lon="8.57713888893">
		<tag k="fixme" v="consider seamark:type=rock" />
		<tag k="name" v="Lille Svaleskjær" />
		<tag k="natural" v="islet" />
		<tag k="ssr:date" v="2016-05-10" />
		<tag k="ssr:stedsnr" v="636377" />
	</node>
	<node id="-22863" lat="58.3196666626" lon="8.57758332641">
		<tag k="fixme" v="consider seamark:type=rock" />
		<tag k="name" v="Porterskjæret" />
		<tag k="natural" v="islet" />
		<tag k="ssr:date" v="2016-05-10" />
		<tag k="ssr:stedsnr" v="636359" />
	</node>
	<node id="-20814" lat="58.326944448" lon="8.63291666185">
		<tag k="ssr:gml_id" v="GEOMETRY_b195ea74-cf13-470c-b53f-5ced1ecd8096" />
		<tag k="ssr:gml_nr" v="3" />
	</node>
	<node id="-20813" lat="58.3270916707" lon="8.63341944962">
		<tag k="ssr:gml_id" v="GEOMETRY_38ef0f32-dbe8-4013-b9e9-034356b98c0a" />
		<tag k="ssr:gml_nr" v="2" />
	</node>
	<node id="-20812" lat="58.327094445" lon="8.63342222103">
		<tag k="ssr:gml_id" v="GEOMETRY_ae4edbd7-07fa-4761-8b60-11f980970f08" />
		<tag k="ssr:gml_nr" v="1" />
	</node>
	<node id="-22859" lat="58.3298611132" lon="8.58605555759">
		<tag k="fixme" v="consider seamark:type=rock" />
		<tag k="name" v="Terneskjær" />
		<tag k="natural" v="islet" />
		<tag k="ssr:date" v="2016-05-10" />
		<tag k="ssr:stedsnr" v="636334" />
	</node>
	<node id="-22858" lat="58.3315000017" lon="8.60305556017">
		<tag k="name" v="Tage" />
		<tag k="natural" v="cape" />
		<tag k="place" v="locality" />
		<tag k="ssr:date" v="2016-05-10" />
		<tag k="ssr:stedsnr" v="636332" />
	</node>
	<node id="-22856" lat="58.3867222218" lon="8.56347221886">
		<tag k="name" v="Danmark" />
		<tag k="natural" v="cape" />
		<tag k="place" v="locality" />
		<tag k="ssr:date" v="2016-05-10" />
		<tag k="ssr:stedsnr" v="636321" />
	</node>
	<node id="-20807" lat="58.3511111125" lon="8.65188889737">
		<tag k="ssr:gml_id" v="GEOMETRY_6ff44a78-c549-42ac-a778-3969d3304fc7" />
		<tag k="ssr:gml_nr" v="3" />
	</node>
	<node id="-22854" lat="58.3240277778" lon="8.61447222799">
		<tag k="fixme" v="consider seamark:type=rock" />
		<tag k="name" v="Auseflakkskjæra" />
		<tag k="natural" v="islet" />
		<tag k="ssr:date" v="2016-05-10" />
		<tag k="ssr:stedsnr" v="636509" />
	</node>
	<node id="-20805" lat="58.3506277748" lon="8.65354445231">
		<tag k="ssr:gml_id" v="GEOMETRY_e82dc835-d506-4608-8868-302efe8075a9" />
		<tag k="ssr:gml_nr" v="1" />
	</node>
	<node id="-20804" lat="58.3508138898" lon="8.6526055471">
		<tag k="ssr:gml_id" v="GEOMETRY_3820cc10-7d8d-420c-acf9-6ff12ec8a840" />
		<tag k="ssr:gml_nr" v="0" />
	</node>
	<node id="-20801" lat="58.3394999983" lon="8.61949999893">
		<tag k="ssr:gml_id" v="GEOMETRY_68c3b428-722a-4a0f-9dff-72b993007c8d" />
		<tag k="ssr:gml_nr" v="3" />
	</node>
	<node id="-20800" lat="58.339688887" lon="8.6258944482">
		<tag k="ssr:gml_id" v="GEOMETRY_73235118-a360-40ac-9ef7-e15f0766f8bc" />
		<tag k="ssr:gml_nr" v="2" />
	</node>
	<node id="-20799" lat="58.3396916705" lon="8.62589721991">
		<tag k="ssr:gml_id" v="GEOMETRY_9ae33a5b-c0da-4584-83b2-22018dea01a4" />
		<tag k="ssr:gml_nr" v="1" />
	</node>
	<node id="-20798" lat="58.3393888931" lon="8.62065834009">
		<tag k="ssr:gml_id" v="GEOMETRY_f9a41082-d7a0-4940-a92a-b8a48907b590" />
		<tag k="ssr:gml_nr" v="0" />
	</node>
	<node id="-22844" lat="58.2610277786" lon="8.50397222353">
		<tag k="name" v="Kistevik" />
		<tag k="natural" v="bay" />
		<tag k="ssr:date" v="2016-05-10" />
		<tag k="ssr:stedsnr" v="636110" />
	</node>
	<node id="-22843" lat="58.2608055548" lon="8.50505554848">
		<tag k="name" v="Sildeholmen" />
		<tag k="natural" v="cape" />
		<tag k="place" v="locality" />
		<tag k="ssr:date" v="2016-05-10" />
		<tag k="ssr:stedsnr" v="636109" />
	</node>
	<node id="-22842" lat="58.3436388891" lon="8.66388888078">
		<tag k="ssr:gml_id" v="GEOMETRY_38769881-72bd-416e-9485-b4737f3b4514" />
		<tag k="ssr:gml_nr" v="1" />
	</node>
	<node id="-22841" lat="58.343505556" lon="8.66338611258">
		<tag k="ssr:gml_id" v="GEOMETRY_c1717039-0ba5-4ef5-a0cd-c779b9e8fad7" />
		<tag k="ssr:gml_nr" v="0" />
	</node>
	<node id="-22840" lat="58.3109694459" lon="8.54812222748">
		<tag k="name" v="Morvigkilen" />
		<tag k="natural" v="bay" />
		<tag k="ssr:date" v="2016-05-10" />
		<tag k="ssr:stedsnr" v="633735" />
	</node>
	<node id="-22839" lat="58.3394444469" lon="8.59580554966">
		<tag k="ssr:gml_id" v="GEOMETRY_3922aa94-5c89-4050-8fc9-2f4dca33e459" />
		<tag k="ssr:gml_nr" v="1" />
	</node>
	<node id="-22838" lat="58.3394472235" lon="8.59578888207">
		<tag k="ssr:gml_id" v="GEOMETRY_af44ac31-c08e-4175-99e5-d34347d8565e" />
		<tag k="ssr:gml_nr" v="0" />
	</node>
	<node id="-22837" lat="58.2591111113" lon="8.49680555052">
		<tag k="ssr:gml_id" v="GEOMETRY_911b12da-12f3-49f0-bc04-8800ee6c3845" />
		<tag k="ssr:gml_nr" v="1" />
	</node>
	<node id="-22836" lat="58.2590416677" lon="8.49687500684">
		<tag k="ssr:gml_id" v="GEOMETRY_bd61ce92-f188-4879-9d2a-d31831bb5b16" />
		<tag k="ssr:gml_nr" v="0" />
	</node>
	<node id="-22835" lat="58.2502499979" lon="8.45016666389">
		<tag k="ssr:gml_id" v="GEOMETRY_49dd8721-2a91-4e74-bbd9-dcefb7ddaabb" />
		<tag k="ssr:gml_nr" v="1" />
	</node>
	<node id="-22834" lat="58.2479722217" lon="8.44974167194">
		<tag k="ssr:gml_id" v="GEOMETRY_2216576b-cfa3-4de4-b8cf-57fbdc62603a" />
		<tag k="ssr:gml_nr" v="0" />
	</node>
	<node id="-22833" lat="58.2495944402" lon="8.44692221863">
		<tag k="fixme" v="consider seamark:type=rock" />
		<tag k="name" v="Gullsmeden" />
		<tag k="natural" v="islet" />
		<tag k="ssr:date" v="2016-05-10" />
		<tag k="ssr:stedsnr" v="628885" />
	</node>
	<node id="-22832" lat="58.2565083312" lon="8.43836110948">
		<tag k="name" v="Håssund" />
		<tag k="natural" v="strait" />
		<tag k="place" v="locality" />
		<tag k="ssr:date" v="2016-05-10" />
		<tag k="ssr:stedsnr" v="628826" />
	</node>
	<node id="-20189" lat="58.3405277791" lon="8.60088888369">
		<tag k="ssr:gml_id" v="GEOMETRY_15a0adbf-b3f8-4826-8ee6-14bf15366df7" />
		<tag k="ssr:gml_nr" v="1" />
	</node>
	<node id="-24626" lat="58.2706944447" lon="8.52941666807">
		<tag k="name" v="Hoveneset" />
		<tag k="natural" v="cape" />
		<tag k="place" v="locality" />
		<tag k="ssr:date" v="2016-05-11" />
		<tag k="ssr:stedsnr" v="940115" />
	</node>
	<node id="-22235" lat="58.2517500024" lon="8.49819444471">
		<tag k="name" v="Sjuresau" />
		<tag k="natural" v="bay" />
		<tag k="ssr:date" v="2016-05-10" />
		<tag k="ssr:stedsnr" v="515398" />
	</node>
	<node id="-22815" lat="58.3352777795" lon="8.67550000322">
		<tag k="ssr:gml_id" v="GEOMETRY_cf8972e0-e780-4346-9b95-28193b2aa6ae" />
		<tag k="ssr:gml_nr" v="3" />
	</node>
	<node id="-22814" lat="58.3348388912" lon="8.67553888147">
		<tag k="ssr:gml_id" v="GEOMETRY_3aaa42ca-7f19-4f7b-a611-6366985e297f" />
		<tag k="ssr:gml_nr" v="2" />
	</node>
	<node id="-22813" lat="58.3348416647" lon="8.67554167387">
		<tag k="ssr:gml_id" v="GEOMETRY_2577ab3c-29d3-4673-a21b-a7d4359a63be" />
		<tag k="ssr:gml_nr" v="1" />
	</node>
	<node id="-22812" lat="58.335269446" lon="8.67547222558">
		<tag k="ssr:gml_id" v="GEOMETRY_065ddd1f-46cf-4582-bb9f-cd46acd1dbc4" />
		<tag k="ssr:gml_nr" v="0" />
	</node>
	<node id="-20763" lat="58.3741083359" lon="8.69955555522">
		<tag k="ssr:gml_id" v="GEOMETRY_c806bdd1-8e10-4d39-8c81-e19eb2d055d3" />
		<tag k="ssr:gml_nr" v="2" />
	</node>
	<node id="-20762" lat="58.37393333" lon="8.69996944525">
		<tag k="ssr:gml_id" v="GEOMETRY_a1183698-d0aa-485b-8476-bc3a43ea7b15" />
		<tag k="ssr:gml_nr" v="1" />
	</node>
	<node id="-20761" lat="58.3739361118" lon="8.69997222547">
		<tag k="ssr:gml_id" v="GEOMETRY_e8c74d36-57d2-4020-9c17-b77df6be4341" />
		<tag k="ssr:gml_nr" v="0" />
	</node>
	<node id="-22806" lat="58.3118027785" lon="8.6141250036">
		<tag k="ssr:gml_id" v="GEOMETRY_c72de7f3-ce81-448a-8f8c-c39463f14f05" />
		<tag k="ssr:gml_nr" v="3" />
	</node>
	<node id="-22805" lat="58.3116694451" lon="8.61366666553">
		<tag k="ssr:gml_id" v="GEOMETRY_aff127f1-482a-40fa-b1d8-f0788c5d0156" />
		<tag k="ssr:gml_nr" v="2" />
	</node>
	<node id="-22804" lat="58.3116666635" lon="8.61352777412">
		<tag k="ssr:gml_id" v="GEOMETRY_190e2c1b-9563-4e8c-850c-b3203cc5e9a5" />
		<tag k="ssr:gml_nr" v="1" />
	</node>
	<node id="-22803" lat="58.3118000031" lon="8.61412499969">
		<tag k="ssr:gml_id" v="GEOMETRY_a2ed8e67-a88d-413f-8ead-8fbfae65662c" />
		<tag k="ssr:gml_nr" v="0" />
	</node>
	<node id="-22802" lat="58.3122856096" lon="8.60716606144">
		<tag k="name" v="Teistholmen" />
		<tag k="place" v="islet" />
		<tag k="ssr:date" v="2018-03-07" />
		<tag k="ssr:stedsnr" v="606954" />
	</node>
	<node id="-22801" lat="58.3001194428" lon="8.59613332867">
		<tag k="ssr:gml_id" v="GEOMETRY_da6053c2-7827-4b1e-a9b3-4fad04eea50e" />
		<tag k="ssr:gml_nr" v="4" />
	</node>
	<node id="-22800" lat="58.3017777792" lon="8.59425000677">
		<tag k="ssr:gml_id" v="GEOMETRY_aa9b7155-fe5d-4ffd-a06c-69b207ff9abb" />
		<tag k="ssr:gml_nr" v="3" />
	</node>
	<node id="-22799" lat="58.3013444475" lon="8.59630554896">
		<tag k="ssr:gml_id" v="GEOMETRY_7b0ca603-254a-457c-a5ac-3d97e2a72e5f" />
		<tag k="ssr:gml_nr" v="2" />
	</node>
	<node id="-22798" lat="58.3013472227" lon="8.59630833252">
		<tag k="ssr:gml_id" v="GEOMETRY_171a8208-729e-4490-bfcd-c543b380e270" />
		<tag k="ssr:gml_nr" v="1" />
	</node>
	<node id="-22797" lat="58.3015638902" lon="8.59311667419">
		<tag k="ssr:gml_id" v="GEOMETRY_7d5409fa-9e6f-4015-b10a-708d5f53b8e8" />
		<tag k="ssr:gml_nr" v="0" />
	</node>
	<node id="-22229" lat="58.3084722181" lon="8.57661111885">
		<tag k="fixme" v="consider seamark:type=rock" />
		<tag k="name" v="Forholmskjæra" />
		<tag k="natural" v="islet" />
		<tag k="ssr:date" v="2016-05-10" />
		<tag k="ssr:stedsnr" v="515347" />
	</node>
	<node id="-24618" lat="58.3132500042" lon="8.58444445281">
		<tag k="ssr:gml_id" v="GEOMETRY_e26743a0-72c8-4c4b-8648-c3ddcd3ea491" />
		<tag k="ssr:gml_nr" v="1" />
	</node>
	<node id="-24276" lat="58.3713416693" lon="8.6983222226">
		<tag k="ssr:gml_id" v="GEOMETRY_42f3e3c8-bcc5-4a91-9fe1-31953ac4e261" />
		<tag k="ssr:gml_nr" v="2" />
	</node>
	<node id="-22227" lat="58.3285555514" lon="8.58666667518">
		<tag k="name" v="Nypholmen" />
		<tag k="place" v="islet" />
		<tag k="ssr:date" v="2016-05-10" />
		<tag k="ssr:stedsnr" v="515325" />
	</node>
	<node id="-24616" lat="58.3541333336" lon="8.68582223019">
		<tag k="name" v="Østre Midtgrunnen" />
		<tag k="natural" v="shoal" />
		<tag k="place" v="locality" />
		<tag k="ssr:date" v="2016-05-11" />
		<tag k="ssr:stedsnr" v="937700" />
	</node>
	<node id="-24274" lat="58.3713277801" lon="8.69843889671">
		<tag k="ssr:gml_id" v="GEOMETRY_b0d6225d-ea8c-47f8-b084-02aa82a15473" />
		<tag k="ssr:gml_nr" v="0" />
	</node>
	<node id="-19835" lat="58.3385194415" lon="8.68597499771">
		<tag k="ssr:gml_id" v="GEOMETRY_885c9766-cdc5-4a92-a259-6e3ea6461bdc" />
		<tag k="ssr:gml_nr" v="2" />
	</node>
	<node id="-20517" lat="58.3529444406" lon="8.65605556312">
		<tag k="name" v="Moyodden" />
		<tag k="natural" v="cape" />
		<tag k="place" v="locality" />
		<tag k="ssr:date" v="2016-05-10" />
		<tag k="ssr:stedsnr" v="30469" />
	</node>
	<node id="-19834" lat="58.3385222236" lon="8.68597777405">
		<tag k="ssr:gml_id" v="GEOMETRY_bbd23166-717b-41ea-a413-bdcba5c9654d" />
		<tag k="ssr:gml_nr" v="1" />
	</node>
	<node id="-19833" lat="58.3372944432" lon="8.67951666971">
		<tag k="ssr:gml_id" v="GEOMETRY_0f18911f-fb31-45d2-95a4-49c4069bca7d" />
		<tag k="ssr:gml_nr" v="0" />
	</node>
	<node id="-20515" lat="58.3868583347" lon="8.72471944204">
		<tag k="ssr:gml_id" v="GEOMETRY_4bdd299d-0e5a-406f-999a-eca2e72b8eaf" />
		<tag k="ssr:gml_nr" v="1" />
	</node>
	<node id="-20514" lat="58.386861107" lon="8.72472222529">
		<tag k="ssr:gml_id" v="GEOMETRY_9b6baa22-c804-4116-b8d4-044b2c19181b" />
		<tag k="ssr:gml_nr" v="0" />
	</node>
	<node id="-24777" lat="58.3503083299" lon="8.69747500168">
		<tag k="name" v="Hundebåen" />
		<tag k="place" v="locality" />
		<tag k="seamark:type" v="rock" />
		<tag k="ssr:date" v="2016-05-11" />
		<tag k="ssr:stedsnr" v="967416" />
	</node>
	<node id="-24773" lat="58.297822224" lon="8.59426666615">
		<tag k="name" v="Andholmen" />
		<tag k="place" v="islet" />
		<tag k="ssr:date" v="2016-05-11" />
		<tag k="ssr:stedsnr" v="966761" />
	</node>
	<node id="-24772" lat="58.3032277777" lon="8.55103610606">
		<tag k="name" v="Kjørrvigpynten" />
		<tag k="natural" v="cape" />
		<tag k="place" v="locality" />
		<tag k="ssr:date" v="2016-05-11" />
		<tag k="ssr:stedsnr" v="966747" />
	</node>
	<node id="-24769" lat="58.3210305547" lon="8.60880277208">
		<tag k="name" v="Ulkholmen" />
		<tag k="place" v="islet" />
		<tag k="ssr:date" v="2016-05-11" />
		<tag k="ssr:stedsnr" v="965587" />
	</node>
	<node id="-24767" lat="58.2970749962" lon="8.57731943675">
		<tag k="name" v="Hvitholmen" />
		<tag k="place" v="islet" />
		<tag k="ssr:date" v="2016-05-11" />
		<tag k="ssr:stedsnr" v="965390" />
	</node>
	<node id="-24766" lat="58.2796166639" lon="8.56415833228">
		<tag k="name" v="Vestre Steinene" />
		<tag k="natural" v="shoal" />
		<tag k="place" v="locality" />
		<tag k="ssr:date" v="2016-05-11" />
		<tag k="ssr:stedsnr" v="965370" />
	</node>
	<node id="-20853" lat="58.3549999965" lon="8.663944436">
		<tag k="name" v="Grønnvigodden" />
		<tag k="natural" v="cape" />
		<tag k="place" v="locality" />
		<tag k="ssr:date" v="2016-05-10" />
		<tag k="ssr:stedsnr" v="90449" />
	</node>
	<node id="-20170" lat="58.3167222202" lon="8.62108332881">
		<tag k="ssr:gml_id" v="GEOMETRY_ffea8815-10f6-486a-acdf-a6458350251a" />
		<tag k="ssr:gml_nr" v="1" />
	</node>
	<node id="-22559" lat="58.2878055547" lon="8.55244445206">
		<tag k="ssr:gml_id" v="GEOMETRY_a3e53a8a-a5ef-4083-ac73-f3ef0abf678a" />
		<tag k="ssr:gml_nr" v="1" />
	</node>
	<node id="-20169" lat="58.3169333307" lon="8.62152500361">
		<tag k="ssr:gml_id" v="GEOMETRY_e0ecf98d-7192-4372-9bfa-d445e4b26bc2" />
		<tag k="ssr:gml_nr" v="0" />
	</node>
	<node id="-20849" lat="58.2467500038" lon="8.4633611178">
		<tag k="ssr:gml_id" v="GEOMETRY_7f17173b-a352-4167-8283-4f62167fdab7" />
		<tag k="ssr:gml_nr" v="1" />
	</node>
	<node id="-20644" lat="58.3063277751" lon="8.63339999309">
		<tag k="name" v="Indre Bregegrunnen" />
		<tag k="natural" v="shoal" />
		<tag k="place" v="locality" />
		<tag k="ssr:date" v="2016-05-10" />
		<tag k="ssr:stedsnr" v="56340" />
	</node>
	<node id="-20643" lat="58.3026444413" lon="8.5749999941">
		<tag k="name" v="Indreholmen" />
		<tag k="place" v="islet" />
		<tag k="ssr:date" v="2016-05-10" />
		<tag k="ssr:stedsnr" v="55602" />
	</node>
	<node id="-20642" lat="58.258000003" lon="8.53191111851">
		<tag k="name" v="Indre Vidbåen" />
		<tag k="place" v="locality" />
		<tag k="seamark:type" v="rock" />
		<tag k="ssr:date" v="2016-05-10" />
		<tag k="ssr:stedsnr" v="55256" />
	</node>
	<node id="-20848" lat="58.2469527796" lon="8.46353888771">
		<tag k="ssr:gml_id" v="GEOMETRY_b3c959b6-3b81-430d-a3ac-fa6b3a138c6f" />
		<tag k="ssr:gml_nr" v="0" />
	</node>
	<node id="-22678" lat="58.3040666682" lon="8.58390555442">
		<tag k="name" v="Rivingen" />
		<tag k="place" v="islet" />
		<tag k="ssr:date" v="2016-05-10" />
		<tag k="ssr:stedsnr" v="602351" />
	</node>
	<node id="-20191" lat="58.2646111068" lon="8.5191388948">
		<tag k="ssr:gml_id" v="GEOMETRY_c88811c4-4fae-4b24-a201-bacadedf1d3a" />
		<tag k="ssr:gml_nr" v="1" />
	</node>
	<node id="-20845" lat="58.2492222237" lon="8.51105554965">
		<tag k="name" v="Merrefua" />
		<tag k="natural" v="bay" />
		<tag k="ssr:date" v="2016-05-10" />
		<tag k="ssr:stedsnr" v="90373" />
	</node>
	<node id="-24702" lat="58.292727779" lon="8.53594444114">
		<tag k="ssr:gml_id" v="GEOMETRY_fcc3e18f-0c7c-48f9-b05f-6362e8ef3ab3" />
		<tag k="ssr:gml_nr" v="1" />
	</node>
	<node id="-22549" lat="58.3263611075" lon="8.5827777749">
		<tag k="name" v="Grooseneset" />
		<tag k="natural" v="cape" />
		<tag k="place" v="locality" />
		<tag k="ssr:date" v="2016-05-10" />
		<tag k="ssr:stedsnr" v="576301" />
	</node>
	<node id="-24696" lat="58.3028611142" lon="8.52125000695">
		<tag k="name" v="Langstrand" />
		<tag k="natural" v="beach" />
		<tag k="place" v="locality" />
		<tag k="ssr:date" v="2016-05-11" />
		<tag k="ssr:stedsnr" v="959257" />
	</node>
	<node id="-20190" lat="58.264608336" lon="8.51913056372">
		<tag k="ssr:gml_id" v="GEOMETRY_25e58d5f-33d1-42a0-9a2a-3a181150f38b" />
		<tag k="ssr:gml_nr" v="0" />
	</node>
	<node id="-24593" lat="58.3414111143" lon="8.67902222722">
		<tag k="ssr:gml_id" v="GEOMETRY_f5a3c5ee-edc6-45d1-b1b4-c98154c07bb2" />
		<tag k="ssr:gml_nr" v="3" />
	</node>
	<node id="-23119" lat="58.2602777735" lon="8.44202777786">
		<tag k="ssr:gml_id" v="GEOMETRY_1138f20f-9b03-4313-86cf-44324cafe63f" />
		<tag k="ssr:gml_nr" v="1" />
	</node>
	<node id="-24671" lat="58.3029777817" lon="8.54594722854">
		<tag k="ssr:gml_id" v="GEOMETRY_965f68fe-2e3d-4b6f-8025-858c2bfb9462" />
		<tag k="ssr:gml_nr" v="1" />
	</node>
	<node id="-24670" lat="58.3028861078" lon="8.54604166582">
		<tag k="ssr:gml_id" v="GEOMETRY_4cdba7ac-4719-44f5-afd6-311999ecf26c" />
		<tag k="ssr:gml_nr" v="0" />
	</node>
	<node id="-20572" lat="58.2946249967" lon="8.54183610446">
		<tag k="ssr:gml_id" v="GEOMETRY_75190b43-6371-44c8-b6cb-28c250287067" />
		<tag k="ssr:gml_nr" v="1" />
	</node>
	<node id="-20571" lat="58.2945277823" lon="8.54215833089">
		<tag k="ssr:gml_id" v="GEOMETRY_3c8e5361-4fc6-437b-a07d-e8297a823c33" />
		<tag k="ssr:gml_nr" v="0" />
	</node>
	<node id="-20570" lat="58.3009416638" lon="8.54406111093">
		<tag k="name" v="Terneholmen" />
		<tag k="place" v="islet" />
		<tag k="ssr:date" v="2016-05-10" />
		<tag k="ssr:stedsnr" v="48451" />
	</node>
	<node id="-24665" lat="58.2597777806" lon="8.47552777605">
		<tag k="name" v="Lille Vaholmen" />
		<tag k="place" v="islet" />
		<tag k="ssr:date" v="2016-05-11" />
		<tag k="ssr:stedsnr" v="941426" />
	</node>
	<node id="-20568" lat="58.2894499984" lon="8.54104722827">
		<tag k="ssr:gml_id" v="GEOMETRY_15086e8c-8dc3-4918-a7a7-f9a4c49fe25b" />
		<tag k="ssr:gml_nr" v="0" />
	</node>
	<node id="-20567" lat="58.2912027791" lon="8.54350833521">
		<tag k="name" v="Østre Fristelsesholmen" />
		<tag k="place" v="islet" />
		<tag k="ssr:date" v="2016-05-10" />
		<tag k="ssr:stedsnr" v="48446" />
	</node>
	<node id="-24662" lat="58.3670805536" lon="8.69358611625">
		<tag k="name" v="Katteskjær" />
		<tag k="place" v="islet" />
		<tag k="ssr:date" v="2016-05-11" />
		<tag k="ssr:stedsnr" v="940730" />
	</node>
	<node id="-20494" lat="58.3371499993" lon="8.64201388069">
		<tag k="ssr:gml_id" v="GEOMETRY_e254e688-1d35-4f2e-ad38-c4f8edfc8809" />
		<tag k="ssr:gml_nr" v="0" />
	</node>
	<node id="-24657" lat="58.3380277738" lon="8.64694443757">
		<tag k="name" v="Kabelviga" />
		<tag k="natural" v="bay" />
		<tag k="ssr:date" v="2016-05-11" />
		<tag k="ssr:stedsnr" v="940482" />
	</node>
	<node id="-24656" lat="58.3294722235" lon="8.60697222563">
		<tag k="fixme" v="consider seamark:type=rock" />
		<tag k="name" v="Iverskjær" />
		<tag k="natural" v="islet" />
		<tag k="ssr:date" v="2016-05-11" />
		<tag k="ssr:stedsnr" v="940477" />
	</node>
	<node id="-24652" lat="58.3321111079" lon="8.65244444681">
		<tag k="name" v="Vaukilen" />
		<tag k="natural" v="bay" />
		<tag k="ssr:date" v="2016-05-11" />
		<tag k="ssr:stedsnr" v="940459" />
	</node>
	<node id="-24651" lat="58.334638888" lon="8.64886110602">
		<tag k="name" v="Bydelstranda" />
		<tag k="natural" v="beach" />
		<tag k="place" v="locality" />
		<tag k="ssr:date" v="2016-05-11" />
		<tag k="ssr:stedsnr" v="940456" />
	</node>
	<node id="-24649" lat="58.2488888866" lon="8.46297221409">
		<tag k="name" v="Skogholmen" />
		<tag k="place" v="islet" />
		<tag k="ssr:date" v="2016-05-11" />
		<tag k="ssr:stedsnr" v="940415" />
	</node>
	<node id="-24648" lat="58.2605277766" lon="8.45850000405">
		<tag k="name" v="Bjørnevikbukt" />
		<tag k="natural" v="bay" />
		<tag k="ssr:date" v="2016-05-11" />
		<tag k="ssr:stedsnr" v="940408" />
	</node>
	<node id="-24645" lat="58.2514722217" lon="8.51838889271">
		<tag k="name" v="Losholla" />
		<tag k="natural" v="bay" />
		<tag k="ssr:date" v="2016-05-11" />
		<tag k="ssr:stedsnr" v="940396" />
	</node>
	<node id="-22594" lat="58.2973472243" lon="8.54694445216">
		<tag k="fixme" v="consider seamark:type=rock" />
		<tag k="name" v="Lefsa" />
		<tag k="natural" v="islet" />
		<tag k="ssr:date" v="2016-05-10" />
		<tag k="ssr:stedsnr" v="594473" />
	</node>
	<node id="-22539" lat="58.3558611132" lon="8.6701388963">
		<tag k="name" v="Grassviga" />
		<tag k="natural" v="bay" />
		<tag k="ssr:date" v="2016-05-10" />
		<tag k="ssr:stedsnr" v="575434" />
	</node>
	<node id="-24640" lat="58.3019722255" lon="8.59708333255">
		<tag k="name" v="Breiviga" />
		<tag k="natural" v="bay" />
		<tag k="ssr:date" v="2016-05-11" />
		<tag k="ssr:stedsnr" v="940356" />
	</node>
	<node id="-22880" lat="58.3409999987" lon="8.69352777244">
		<tag k="name" v="Egersundsholmen" />
		<tag k="place" v="islet" />
		<tag k="ssr:date" v="2016-05-10" />
		<tag k="ssr:stedsnr" v="636491" />
	</node>
	<node id="-24638" lat="58.3045277817" lon="8.5955277817">
		<tag k="name" v="Vollviga" />
		<tag k="natural" v="bay" />
		<tag k="ssr:date" v="2016-05-11" />
		<tag k="ssr:stedsnr" v="940343" />
	</node>
	<node id="-20831" lat="58.3195361115" lon="8.63155554762">
		<tag k="name" v="Kobbernaglen" />
		<tag k="natural" v="shoal" />
		<tag k="place" v="locality" />
		<tag k="ssr:date" v="2016-05-10" />
		<tag k="ssr:stedsnr" v="87805" />
	</node>
	<node id="-20536" lat="58.3404166676" lon="8.63575000211">
		<tag k="name" v="Gullodden" />
		<tag k="natural" v="cape" />
		<tag k="place" v="locality" />
		<tag k="ssr:date" v="2016-05-10" />
		<tag k="ssr:stedsnr" v="30502" />
	</node>
	<node id="-20535" lat="58.3284444424" lon="8.61908333544">
		<tag k="name" v="Smørsundholmene" />
		<tag k="place" v="islet" />
		<tag k="ssr:date" v="2016-05-10" />
		<tag k="ssr:stedsnr" v="30498" />
	</node>
	<node id="-20534" lat="58.3342222249" lon="8.62841667237">
		<tag k="name" v="Stilleviga" />
		<tag k="natural" v="bay" />
		<tag k="ssr:date" v="2016-05-10" />
		<tag k="ssr:stedsnr" v="30497" />
	</node>
	<node id="-24628" lat="58.2636944427" lon="8.51166667214">
		<tag k="name" v="Homborsundfjorden" />
		<tag k="natural" v="bay" />
		<tag k="ssr:date" v="2016-05-11" />
		<tag k="ssr:stedsnr" v="940131" />
	</node>
	<node id="-20530" lat="58.3714638871" lon="8.68871944241">
		<tag k="name" v="Breiviga" />
		<tag k="natural" v="bay" />
		<tag k="ssr:date" v="2016-05-10" />
		<tag k="ssr:stedsnr" v="30724" />
	</node>
	<node id="-20529" lat="58.256750004" lon="8.4534166654">
		<tag k="name" v="Skuteholla" />
		<tag k="natural" v="bay" />
		<tag k="ssr:date" v="2016-05-10" />
		<tag k="ssr:stedsnr" v="30436" />
	</node>
	<node id="-20528" lat="58.2528888857" lon="8.45505555335">
		<tag k="name" v="Teineholla" />
		<tag k="place" v="locality" />
		<tag k="ssr:date" v="2016-05-10" />
		<tag k="ssr:stedsnr" v="30432" />
	</node>
	<node id="-20527" lat="58.2525555522" lon="8.49063889601">
		<tag k="name" v="Bjørnholmen" />
		<tag k="place" v="islet" />
		<tag k="ssr:date" v="2016-05-10" />
		<tag k="ssr:stedsnr" v="30430" />
	</node>
	<node id="-20526" lat="58.2511944449" lon="8.49008332738">
		<tag k="name" v="Krossen" />
		<tag k="natural" v="strait" />
		<tag k="place" v="locality" />
		<tag k="ssr:date" v="2016-05-10" />
		<tag k="ssr:stedsnr" v="30418" />
	</node>
	<node id="-20525" lat="58.2476944408" lon="8.49138889464">
		<tag k="name" v="Flatholmen" />
		<tag k="place" v="islet" />
		<tag k="ssr:date" v="2016-05-10" />
		<tag k="ssr:stedsnr" v="30414" />
	</node>
	<node id="-20524" lat="58.2575833308" lon="8.50936110264">
		<tag k="name" v="Jaktesund" />
		<tag k="natural" v="strait" />
		<tag k="place" v="locality" />
		<tag k="ssr:date" v="2016-05-10" />
		<tag k="ssr:stedsnr" v="30409" />
	</node>
	<node id="-20522" lat="58.2613055542" lon="8.4436666597">
		<tag k="name" v="Bjorvika" />
		<tag k="natural" v="bay" />
		<tag k="ssr:date" v="2016-05-10" />
		<tag k="ssr:stedsnr" v="30408" />
	</node>
	<node id="-24617" lat="58.313499999" lon="8.58429166859">
		<tag k="ssr:gml_id" v="GEOMETRY_9b309967-25b9-41e7-a1e2-f17399a1d30a" />
		<tag k="ssr:gml_nr" v="0" />
	</node>
	<node id="-20520" lat="58.3033888929" lon="8.55669443736">
		<tag k="name" v="Odde" />
		<tag k="natural" v="cape" />
		<tag k="place" v="locality" />
		<tag k="ssr:date" v="2016-05-10" />
		<tag k="ssr:stedsnr" v="30347" />
	</node>
	<node id="-22876" lat="58.3559166694" lon="8.6656666588">
		<tag k="ssr:gml_id" v="GEOMETRY_87d2d380-6660-4ac7-a962-2393bab1e79b" />
		<tag k="ssr:gml_nr" v="1" />
	</node>
	<node id="-20518" lat="58.3331388918" lon="8.60183333241">
		<tag k="fixme" v="consider seamark:type=rock" />
		<tag k="name" v="Kuskjær" />
		<tag k="natural" v="islet" />
		<tag k="ssr:date" v="2016-05-10" />
		<tag k="ssr:stedsnr" v="30333" />
	</node>
	<node id="-22565" lat="58.3383258334" lon="8.64128267452">
		<tag k="name" v="Tvillingholmen" />
		<tag k="place" v="islet" />
		<tag k="ssr:date" v="2018-03-07" />
		<tag k="ssr:stedsnr" v="576512" />
	</node>
	<node id="-22564" lat="58.3299166698" lon="8.60894444764">
		<tag k="name" v="Smørsund" />
		<tag k="natural" v="strait" />
		<tag k="place" v="locality" />
		<tag k="ssr:date" v="2016-05-10" />
		<tag k="ssr:stedsnr" v="576506" />
	</node>
	<node id="-22563" lat="58.3393888893" lon="8.65224999919">
		<tag k="name" v="Rønnesodden" />
		<tag k="natural" v="cape" />
		<tag k="place" v="locality" />
		<tag k="ssr:date" v="2016-05-10" />
		<tag k="ssr:stedsnr" v="576486" />
	</node>
	<node id="-22562" lat="58.3729444463" lon="8.75844443888">
		<tag k="fixme" v="consider seamark:type=rock" />
		<tag k="name" v="Fiskeskjæra" />
		<tag k="natural" v="islet" />
		<tag k="ssr:date" v="2016-05-10" />
		<tag k="ssr:stedsnr" v="576455" />
	</node>
	<node id="-20513" lat="58.2683611081" lon="8.52633333317">
		<tag k="name" v="Ramsvika" />
		<tag k="natural" v="bay" />
		<tag k="ssr:date" v="2016-05-10" />
		<tag k="ssr:stedsnr" v="30391" />
	</node>
	<node id="-20512" lat="58.2548333377" lon="8.5127499997">
		<tag k="name" v="Kvibukta" />
		<tag k="natural" v="bay" />
		<tag k="ssr:date" v="2016-05-10" />
		<tag k="ssr:stedsnr" v="30390" />
	</node>
	<node id="-20511" lat="58.2477777777" lon="8.50063889679">
		<tag k="name" v="Terneholmen" />
		<tag k="place" v="islet" />
		<tag k="ssr:date" v="2016-05-10" />
		<tag k="ssr:stedsnr" v="30387" />
	</node>
	<node id="-22558" lat="58.2879111122" lon="8.5524250075">
		<tag k="ssr:gml_id" v="GEOMETRY_860acaa7-a885-416e-b6f1-08038494e460" />
		<tag k="ssr:gml_nr" v="0" />
	</node>
	<node id="-22556" lat="58.2998611096" lon="8.59855555599">
		<tag k="name" v="Breivigbukta" />
		<tag k="natural" v="bay" />
		<tag k="ssr:date" v="2016-05-10" />
		<tag k="ssr:stedsnr" v="576362" />
	</node>
	<node id="-22555" lat="58.3051666703" lon="8.56644443618">
		<tag k="fixme" v="consider seamark:type=rock" />
		<tag k="name" v="Herøy Svartskjær" />
		<tag k="natural" v="islet" />
		<tag k="ssr:date" v="2016-05-10" />
		<tag k="ssr:stedsnr" v="576349" />
	</node>
	<node id="-20503" lat="58.3162222239" lon="8.60263889604">
		<tag k="ssr:gml_id" v="GEOMETRY_3ef048f1-d0bb-4096-a21b-194452167984" />
		<tag k="ssr:gml_nr" v="1" />
	</node>
	<node id="-20502" lat="58.3162777733" lon="8.60272778172">
		<tag k="ssr:gml_id" v="GEOMETRY_06f5d438-08bb-408c-85d4-43c2ac241b1c" />
		<tag k="ssr:gml_nr" v="0" />
	</node>
	<node id="-20501" lat="58.3862444414" lon="8.74745000085">
		<tag k="name" v="Spærrumpen" />
		<tag k="natural" v="shoal" />
		<tag k="place" v="locality" />
		<tag k="ssr:date" v="2016-05-10" />
		<tag k="ssr:stedsnr" v="27734" />
	</node>
	<node id="-20498" lat="58.300713886" lon="8.63293054825">
		<tag k="name" v="Steinen" />
		<tag k="natural" v="shoal" />
		<tag k="place" v="locality" />
		<tag k="ssr:date" v="2016-05-10" />
		<tag k="ssr:stedsnr" v="27719" />
	</node>
	<node id="-20497" lat="58.3044416626" lon="8.63930555424">
		<tag k="name" v="Ytre Bregegrunnen" />
		<tag k="natural" v="shoal" />
		<tag k="place" v="locality" />
		<tag k="ssr:date" v="2016-05-10" />
		<tag k="ssr:stedsnr" v="27715" />
	</node>
	<node id="-20496" lat="58.3733638859" lon="8.74189999875">
		<tag k="name" v="Haslegrunnen" />
		<tag k="natural" v="shoal" />
		<tag k="place" v="locality" />
		<tag k="ssr:date" v="2016-05-10" />
		<tag k="ssr:stedsnr" v="26696" />
	</node>
	<node id="-24591" lat="58.3418055563" lon="8.68020832666">
		<tag k="ssr:gml_id" v="GEOMETRY_525a8c09-34ec-4c5e-9e53-28949266361c" />
		<tag k="ssr:gml_nr" v="1" />
	</node>
	<node id="-24590" lat="58.3415416634" lon="8.68183611226">
		<tag k="ssr:gml_id" v="GEOMETRY_262c900c-c10a-42fb-bb62-78f4db07e965" />
		<tag k="ssr:gml_nr" v="0" />
	</node>
	<node id="-20493" lat="58.3349722197" lon="8.60222222241">
		<tag k="ssr:gml_id" v="GEOMETRY_9b5baada-06c8-4cfa-89e4-d2f1f92ded98" />
		<tag k="ssr:gml_nr" v="1" />
	</node>
	<node id="-20492" lat="58.3346138877" lon="8.60404166796">
		<tag k="ssr:gml_id" v="GEOMETRY_a7df6969-69d9-43a3-94b3-08829e936475" />
		<tag k="ssr:gml_nr" v="0" />
	</node>
	<node id="-20491" lat="58.2813972225" lon="8.57066667045">
		<tag k="name" v="Sloa" />
		<tag k="natural" v="shoal" />
		<tag k="place" v="locality" />
		<tag k="ssr:date" v="2016-05-10" />
		<tag k="ssr:stedsnr" v="26610" />
	</node>
	<node id="-20489" lat="58.3287444438" lon="8.58697777603">
		<tag k="ssr:gml_id" v="GEOMETRY_4e9fa7cb-87ec-44d0-a29e-6d601509b6ed" />
		<tag k="ssr:gml_nr" v="3" />
	</node>
	<node id="-20488" lat="58.3337916659" lon="8.59032777153">
		<tag k="ssr:gml_id" v="GEOMETRY_85e33a29-11ec-4d19-a97e-5a88e84beff9" />
		<tag k="ssr:gml_nr" v="2" />
	</node>
	<node id="-20487" lat="58.3287472192" lon="8.58698056101">
		<tag k="ssr:gml_id" v="GEOMETRY_64fe5773-6635-4502-8669-04d9ca409817" />
		<tag k="ssr:gml_nr" v="1" />
	</node>
	<node id="-20486" lat="58.328516669" lon="8.58681388604">
		<tag k="ssr:gml_id" v="GEOMETRY_a1b45519-d57d-4a8c-9690-d20a4f09ada6" />
		<tag k="ssr:gml_nr" v="0" />
	</node>
	<node id="-22532" lat="58.3149999966" lon="8.58600000418">
		<tag k="fixme" v="consider seamark:type=rock" />
		<tag k="name" v="Lura" />
		<tag k="natural" v="islet" />
		<tag k="ssr:date" v="2016-05-10" />
		<tag k="ssr:stedsnr" v="575321" />
	</node>
	<node id="-24579" lat="58.3079166643" lon="8.57133333837">
		<tag k="ssr:gml_id" v="GEOMETRY_b20f5680-688c-44c7-8519-23f9b82ebba2" />
		<tag k="ssr:gml_nr" v="3" />
	</node>
	<node id="-24578" lat="58.3087138853" lon="8.57280833108">
		<tag k="ssr:gml_id" v="GEOMETRY_ebdbe0f2-2d85-47c4-a608-b35d271d24a0" />
		<tag k="ssr:gml_nr" v="2" />
	</node>
	<node id="-24577" lat="58.30871667" lon="8.57281111327">
		<tag k="ssr:gml_id" v="GEOMETRY_8a63571f-55d0-45fc-87a9-2c19d371d66c" />
		<tag k="ssr:gml_nr" v="1" />
	</node>
	<way id="-5623">
		<tag k="name" v="Drevholmen" />
		<tag k="place" v="islet" />
		<tag k="ssr:date" v="2016-05-10" />
		<tag k="ssr:stedsnr" v="485218" />
		<nd ref="-22082" />
		<nd ref="-22083" />
		<nd ref="-22084" />
	</way>
	<way id="-5620">
		<tag k="name" v="Sandoddryggene" />
		<tag k="natural" v="shoal" />
		<tag k="place" v="locality" />
		<tag k="ssr:date" v="2016-05-10" />
		<tag k="ssr:stedsnr" v="481478" />
		<nd ref="-22046" />
		<nd ref="-22047" />
	</way>
	<way id="-5618">
		<tag k="name" v="Rødsund" />
		<tag k="natural" v="strait" />
		<tag k="place" v="locality" />
		<tag k="ssr:date" v="2016-05-10" />
		<tag k="ssr:stedsnr" v="455717" />
		<nd ref="-22027" />
		<nd ref="-22028" />
	</way>
	<way id="-5617">
		<tag k="name" v="Mollen" />
		<tag k="natural" v="shoal" />
		<tag k="place" v="locality" />
		<tag k="ssr:date" v="2016-05-10" />
		<tag k="ssr:stedsnr" v="455479" />
		<nd ref="-22024" />
		<nd ref="-22025" />
	</way>
	<way id="-5614">
		<tag k="name" v="Indre Mågholmen" />
		<tag k="place" v="islet" />
		<tag k="ssr:date" v="2016-05-10" />
		<tag k="ssr:stedsnr" v="451821" />
		<nd ref="-21981" />
		<nd ref="-21982" />
	</way>
	<way id="-5612">
		<tag k="name" v="Lille Danmark" />
		<tag k="place" v="islet" />
		<tag k="ssr:date" v="2016-05-10" />
		<tag k="ssr:stedsnr" v="451742" />
		<nd ref="-21977" />
		<nd ref="-21978" />
	</way>
	<way id="-5611">
		<tag k="name" v="Haralden" />
		<tag k="place" v="islet" />
		<tag k="ssr:date" v="2016-05-10" />
		<tag k="ssr:stedsnr" v="447976" />
		<nd ref="-21973" />
		<nd ref="-21974" />
	</way>
	<way id="-5609">
		<tag k="alt_name" v="Groosfjorden;Grosfjorden" />
		<tag k="bay" v="fjord" />
		<tag k="name" v="Groosefjorden" />
		<tag k="natural" v="bay" />
		<tag k="ssr:date" v="2016-05-10" />
		<tag k="ssr:stedsnr" v="425992" />
		<nd ref="-21964" />
		<nd ref="-21965" />
		<nd ref="-21966" />
		<nd ref="-21967" />
		<nd ref="-21968" />
	</way>
	<way id="-5608">
		<tag k="fixme" v="multiple name tags, choose one and add the other to alt_name" />
		<tag k="name" v="Morvigfjorden;Morvigkilen" />
		<tag k="natural" v="bay" />
		<tag k="ssr:date" v="2016-05-10" />
		<tag k="ssr:stedsnr" v="425987" />
		<nd ref="-21961" />
		<nd ref="-21962" />
		<nd ref="-21963" />
	</way>
	<way id="-5605">
		<tag k="alt_name" v="Svarteskjæra;Svartskjer" />
		<tag k="fixme" v="consider seamark:type=rock" />
		<tag k="name" v="Svartskjær" />
		<tag k="natural" v="islet" />
		<tag k="ssr:date" v="2016-05-10" />
		<tag k="ssr:stedsnr" v="425953" />
		<nd ref="-21952" />
		<nd ref="-21953" />
		<nd ref="-21954" />
		<nd ref="-21955" />
	</way>
	<way id="-5604">
		<tag k="name" v="Kjelnes" />
		<tag k="natural" v="cape" />
		<tag k="place" v="locality" />
		<tag k="ssr:date" v="2016-05-10" />
		<tag k="ssr:stedsnr" v="425951" />
		<nd ref="-21949" />
		<nd ref="-21950" />
		<nd ref="-21951" />
	</way>
	<way id="-5371">
		<tag k="name" v="Kalven" />
		<tag k="natural" v="strait" />
		<tag k="place" v="locality" />
		<tag k="ssr:date" v="2016-05-10" />
		<tag k="ssr:stedsnr" v="272480" />
		<nd ref="-19573" />
		<nd ref="-19574" />
	</way>
	<way id="-5597">
		<tag k="name" v="Kringlene" />
		<tag k="place" v="islet" />
		<tag k="ssr:date" v="2016-05-10" />
		<tag k="ssr:stedsnr" v="425516" />
		<nd ref="-21918" />
		<nd ref="-21919" />
		<nd ref="-21920" />
		<nd ref="-21921" />
	</way>
	<way id="-5596">
		<tag k="name" v="Ryvingen" />
		<tag k="place" v="islet" />
		<tag k="ssr:date" v="2016-05-10" />
		<tag k="ssr:stedsnr" v="425481" />
		<nd ref="-21913" />
		<nd ref="-21914" />
		<nd ref="-21915" />
		<nd ref="-21916" />
		<nd ref="-21917" />
	</way>
	<way id="-5587">
		<tag k="name" v="Hasseltangen" />
		<tag k="natural" v="cape" />
		<tag k="place" v="locality" />
		<tag k="ssr:date" v="2016-05-10" />
		<tag k="ssr:stedsnr" v="263048" />
		<nd ref="-21729" />
		<nd ref="-21730" />
		<nd ref="-21731" />
		<nd ref="-21732" />
		<nd ref="-21733" />
	</way>
	<way id="-5586">
		<tag k="name" v="Rovelbåene" />
		<tag k="place" v="locality" />
		<tag k="seamark:type" v="rock" />
		<tag k="ssr:date" v="2016-05-10" />
		<tag k="ssr:stedsnr" v="243981" />
		<nd ref="-21722" />
		<nd ref="-21723" />
		<nd ref="-21724" />
	</way>
	<way id="-5583">
		<tag k="alt_name" v="Bjorøy" />
		<tag k="name" v="Bjorøya" />
		<tag k="place" v="island" />
		<tag k="ssr:date" v="2017-11-08" />
		<tag k="ssr:stedsnr" v="243939" />
		<nd ref="-21706" />
		<nd ref="-21707" />
		<nd ref="-21708" />
		<nd ref="-21709" />
		<nd ref="-21710" />
		<nd ref="-21711" />
		<nd ref="-21712" />
	</way>
	<way id="-5569">
		<tag k="fixme" v="consider seamark:type=rock" />
		<tag k="name" v="Svartskjer" />
		<tag k="natural" v="islet" />
		<tag k="ssr:date" v="2016-05-10" />
		<tag k="ssr:stedsnr" v="243302" />
		<nd ref="-21660" />
		<nd ref="-21661" />
	</way>
	<way id="-5561">
		<tag k="name" v="Varviga" />
		<tag k="natural" v="bay" />
		<tag k="ssr:date" v="2016-05-10" />
		<tag k="ssr:stedsnr" v="212474" />
		<nd ref="-21442" />
		<nd ref="-21443" />
	</way>
	<way id="-5560">
		<tag k="name" v="Skraviga" />
		<tag k="natural" v="bay" />
		<tag k="ssr:date" v="2016-05-10" />
		<tag k="ssr:stedsnr" v="212464" />
		<nd ref="-21440" />
		<nd ref="-21441" />
	</way>
	<way id="-5559">
		<tag k="name" v="Malmen" />
		<tag k="place" v="island" />
		<tag k="ssr:date" v="2016-05-10" />
		<tag k="ssr:stedsnr" v="212414" />
		<nd ref="-21434" />
		<nd ref="-21435" />
	</way>
	<way id="-5558">
		<tag k="fixme" v="consider seamark:type=rock" />
		<tag k="name" v="Vaskjær" />
		<tag k="natural" v="islet" />
		<tag k="ssr:date" v="2016-05-10" />
		<tag k="ssr:stedsnr" v="212412" />
		<nd ref="-21432" />
		<nd ref="-21433" />
	</way>
	<way id="-5557">
		<tag k="name" v="Grømbukta" />
		<tag k="natural" v="bay" />
		<tag k="ssr:date" v="2016-05-10" />
		<tag k="ssr:stedsnr" v="212307" />
		<nd ref="-21421" />
		<nd ref="-21422" />
	</way>
	<way id="-5556">
		<tag k="name" v="Lille Tvillingholmen" />
		<tag k="place" v="islet" />
		<tag k="ssr:date" v="2016-05-10" />
		<tag k="ssr:stedsnr" v="212087" />
		<nd ref="-21413" />
		<nd ref="-21414" />
	</way>
	<way id="-5554">
		<tag k="name" v="Ytre Mågholmen" />
		<tag k="place" v="islet" />
		<tag k="ssr:date" v="2016-05-10" />
		<tag k="ssr:stedsnr" v="209667" />
		<nd ref="-21404" />
		<nd ref="-21405" />
	</way>
	<way id="-5552">
		<tag k="name" v="Engekilen" />
		<tag k="natural" v="bay" />
		<tag k="ssr:date" v="2016-05-10" />
		<tag k="ssr:stedsnr" v="182960" />
		<nd ref="-21385" />
		<nd ref="-21386" />
		<nd ref="-21387" />
		<nd ref="-21388" />
		<nd ref="-21389" />
	</way>
	<way id="-5548">
		<tag k="alt_name" v="Saltøy" />
		<tag k="name" v="Saltøya" />
		<tag k="place" v="islet" />
		<tag k="ssr:date" v="2016-05-10" />
		<tag k="ssr:stedsnr" v="182932" />
		<nd ref="-21375" />
		<nd ref="-21376" />
	</way>
	<way id="-5539">
		<tag k="fixme" v="consider seamark:type=rock" />
		<tag k="name" v="Vasflos" />
		<tag k="natural" v="islet" />
		<tag k="ssr:date" v="2016-05-10" />
		<tag k="ssr:stedsnr" v="182298" />
		<nd ref="-21343" />
		<nd ref="-21344" />
	</way>
	<way id="-5536">
		<tag k="name" v="Vaholmen" />
		<tag k="place" v="islet" />
		<tag k="ssr:date" v="2016-05-10" />
		<tag k="ssr:stedsnr" v="151503" />
		<nd ref="-21154" />
		<nd ref="-21155" />
	</way>
	<way id="-5535">
		<tag k="name" v="Fevikodden" />
		<tag k="natural" v="cape" />
		<tag k="place" v="locality" />
		<tag k="ssr:date" v="2016-05-10" />
		<tag k="ssr:stedsnr" v="151488" />
		<nd ref="-21150" />
		<nd ref="-21151" />
		<nd ref="-21152" />
	</way>
	<way id="-5534">
		<tag k="name" v="Halvorsholmen" />
		<tag k="place" v="islet" />
		<tag k="ssr:date" v="2016-05-10" />
		<tag k="ssr:stedsnr" v="151362" />
		<nd ref="-21136" />
		<nd ref="-21137" />
	</way>
	<way id="-5533">
		<tag k="fixme" v="consider seamark:type=rock" />
		<tag k="name" v="Lossene" />
		<tag k="natural" v="islet" />
		<tag k="ssr:date" v="2016-05-10" />
		<tag k="ssr:stedsnr" v="148689" />
		<nd ref="-21115" />
		<nd ref="-21116" />
		<nd ref="-21117" />
		<nd ref="-21118" />
	</way>
	<way id="-5531">
		<tag k="name" v="Kvaløya" />
		<tag k="place" v="island" />
		<tag k="ssr:date" v="2016-05-10" />
		<tag k="ssr:stedsnr" v="121984" />
		<nd ref="-21106" />
		<nd ref="-21107" />
		<nd ref="-21108" />
	</way>
	<way id="-5530">
		<tag k="name" v="Sandholmen" />
		<tag k="place" v="islet" />
		<tag k="ssr:date" v="2016-05-10" />
		<tag k="ssr:stedsnr" v="121952" />
		<nd ref="-21101" />
		<nd ref="-21102" />
		<nd ref="-21103" />
	</way>
	<way id="-5518">
		<tag k="name" v="Moysanden" />
		<tag k="natural" v="bay" />
		<tag k="ssr:date" v="2016-05-10" />
		<tag k="ssr:stedsnr" v="121514" />
		<nd ref="-21042" />
		<nd ref="-21043" />
	</way>
	<way id="-5508">
		<tag k="bay" v="fjord" />
		<tag k="name" v="Strandfjorden" />
		<tag k="natural" v="bay" />
		<tag k="ssr:date" v="2017-11-08" />
		<tag k="ssr:stedsnr" v="109363" />
		<nd ref="-20884" />
		<nd ref="-20885" />
	</way>
	<way id="-5507">
		<tag k="name" v="Skogodden" />
		<tag k="natural" v="cape" />
		<tag k="place" v="locality" />
		<tag k="ssr:date" v="2016-05-10" />
		<tag k="ssr:stedsnr" v="90405" />
		<nd ref="-20848" />
		<nd ref="-20849" />
		<nd ref="-20850" />
	</way>
	<way id="-5504">
		<tag k="name" v="Hyllen" />
		<tag k="natural" v="bay" />
		<tag k="ssr:date" v="2016-05-10" />
		<tag k="ssr:stedsnr" v="90094" />
		<nd ref="-20833" />
		<nd ref="-20834" />
	</way>
	<way id="-5502">
		<tag k="name" v="Dybesund" />
		<tag k="natural" v="strait" />
		<tag k="place" v="locality" />
		<tag k="ssr:date" v="2016-05-10" />
		<tag k="ssr:stedsnr" v="87640" />
		<nd ref="-20826" />
		<nd ref="-20827" />
	</way>
	<way id="-5500">
		<tag k="name" v="Sundholmen" />
		<tag k="place" v="islet" />
		<tag k="ssr:date" v="2016-05-10" />
		<tag k="ssr:stedsnr" v="83980" />
		<nd ref="-20815" />
		<nd ref="-20816" />
	</way>
	<way id="-5499">
		<tag k="name" v="Gråholmen" />
		<tag k="place" v="islet" />
		<tag k="ssr:date" v="2016-05-10" />
		<tag k="ssr:stedsnr" v="61991" />
		<nd ref="-20811" />
		<nd ref="-20812" />
		<nd ref="-20813" />
		<nd ref="-20814" />
	</way>
	<way id="-5497">
		<tag k="name" v="Fugleviga" />
		<tag k="natural" v="bay" />
		<tag k="ssr:date" v="2016-05-10" />
		<tag k="ssr:stedsnr" v="61975" />
		<nd ref="-20804" />
		<nd ref="-20805" />
		<nd ref="-20806" />
		<nd ref="-20807" />
	</way>
	<way id="-5496">
		<tag k="name" v="Hesneskanalen" />
		<tag k="natural" v="bay" />
		<tag k="ssr:date" v="2016-05-10" />
		<tag k="ssr:stedsnr" v="61961" />
		<nd ref="-20798" />
		<nd ref="-20799" />
		<nd ref="-20800" />
		<nd ref="-20801" />
	</way>
	<way id="-5495">
		<tag k="alt_name" v="Måkholmane" />
		<tag k="name" v="Måkholmene" />
		<tag k="place" v="islet" />
		<tag k="ssr:date" v="2016-05-10" />
		<tag k="ssr:stedsnr" v="61948" />
		<nd ref="-20795" />
		<nd ref="-20796" />
	</way>
	<way id="-5494">
		<tag k="name" v="Risholmen" />
		<tag k="place" v="islet" />
		<tag k="ssr:date" v="2016-05-10" />
		<tag k="ssr:stedsnr" v="61934" />
		<nd ref="-20791" />
		<nd ref="-20792" />
		<nd ref="-20793" />
		<nd ref="-20794" />
	</way>
	<way id="-5486">
		<tag k="name" v="Randviga" />
		<tag k="natural" v="bay" />
		<tag k="ssr:date" v="2016-05-10" />
		<tag k="ssr:stedsnr" v="61497" />
		<nd ref="-20761" />
		<nd ref="-20762" />
		<nd ref="-20763" />
	</way>
	<way id="-5476">
		<tag k="name" v="Åbålvika" />
		<tag k="natural" v="bay" />
		<tag k="ssr:date" v="2016-05-10" />
		<tag k="ssr:stedsnr" v="48452" />
		<nd ref="-20571" />
		<nd ref="-20572" />
	</way>
	<way id="-5475">
		<tag k="name" v="Vestre Fristelsesholmen" />
		<tag k="place" v="islet" />
		<tag k="ssr:date" v="2016-05-10" />
		<tag k="ssr:stedsnr" v="48447" />
		<nd ref="-20568" />
		<nd ref="-20569" />
	</way>
	<way id="-5472">
		<tag k="name" v="Sødholmene" />
		<tag k="place" v="islet" />
		<tag k="ssr:date" v="2016-05-10" />
		<tag k="ssr:stedsnr" v="30455" />
		<nd ref="-20514" />
		<nd ref="-20515" />
	</way>
	<way id="-5471">
		<tag k="fixme" v="consider seamark:type=rock" />
		<tag k="name" v="Saleskjær" />
		<tag k="natural" v="islet" />
		<tag k="ssr:date" v="2016-05-10" />
		<tag k="ssr:stedsnr" v="27670" />
		<nd ref="-20502" />
		<nd ref="-20503" />
	</way>
	<way id="-5469">
		<tag k="name" v="Hesnessund" />
		<tag k="natural" v="strait" />
		<tag k="place" v="locality" />
		<tag k="ssr:date" v="2016-05-10" />
		<tag k="ssr:stedsnr" v="26691" />
		<nd ref="-20494" />
		<nd ref="-20495" />
	</way>
	<way id="-5468">
		<tag k="name" v="Ulehauet" />
		<tag k="natural" v="cape" />
		<tag k="place" v="locality" />
		<tag k="ssr:date" v="2016-05-10" />
		<tag k="ssr:stedsnr" v="26675" />
		<nd ref="-20492" />
		<nd ref="-20493" />
	</way>
	<way id="-5467">
		<tag k="alt_name" v="Vessøy" />
		<tag k="name" v="Vesøy" />
		<tag k="place" v="islet" />
		<tag k="ssr:date" v="2016-05-10" />
		<tag k="ssr:stedsnr" v="996" />
		<nd ref="-20486" />
		<nd ref="-20487" />
		<nd ref="-20488" />
		<nd ref="-20489" />
	</way>
	<way id="-5463">
		<tag k="alt_name" v="Helleskjer" />
		<tag k="fixme" v="consider seamark:type=rock" />
		<tag k="name" v="Helleskjær" />
		<tag k="natural" v="islet" />
		<tag k="ssr:date" v="2016-05-10" />
		<tag k="ssr:stedsnr" v="971" />
		<nd ref="-20472" />
		<nd ref="-20473" />
		<nd ref="-20474" />
		<nd ref="-20475" />
	</way>
	<way id="-5462">
		<tag k="alt_name" v="Presteholmen" />
		<tag k="name" v="Prestholmen" />
		<tag k="place" v="islet" />
		<tag k="ssr:date" v="2016-05-10" />
		<tag k="ssr:stedsnr" v="967" />
		<nd ref="-20467" />
		<nd ref="-20468" />
		<nd ref="-20469" />
		<nd ref="-20470" />
	</way>
	<way id="-5459">
		<tag k="bay" v="fjord" />
		<tag k="name" v="Bufjorden" />
		<tag k="natural" v="bay" />
		<tag k="ssr:date" v="2016-05-10" />
		<tag k="ssr:stedsnr" v="947" />
		<nd ref="-20457" />
		<nd ref="-20458" />
		<nd ref="-20459" />
		<nd ref="-20460" />
		<nd ref="-20461" />
	</way>
	<way id="-5455">
		<tag k="fixme" v="consider seamark:type=rock" />
		<tag k="name" v="Fiskeskjer" />
		<tag k="natural" v="islet" />
		<tag k="ssr:date" v="2016-05-10" />
		<tag k="ssr:stedsnr" v="522" />
		<nd ref="-20447" />
		<nd ref="-20448" />
	</way>
	<way id="-5453">
		<tag k="name" v="Gråholmen" />
		<tag k="place" v="islet" />
		<tag k="ssr:date" v="2016-05-10" />
		<tag k="ssr:stedsnr" v="519" />
		<nd ref="-20442" />
		<nd ref="-20443" />
		<nd ref="-20444" />
	</way>
	<way id="-5452">
		<tag k="name" v="Spærholmene" />
		<tag k="place" v="islet" />
		<tag k="ssr:date" v="2016-05-10" />
		<tag k="ssr:stedsnr" v="518" />
		<nd ref="-20437" />
		<nd ref="-20438" />
		<nd ref="-20439" />
		<nd ref="-20440" />
		<nd ref="-20441" />
	</way>
	<way id="-5435">
		<tag k="name" v="Jaktvik" />
		<tag k="natural" v="bay" />
		<tag k="ssr:date" v="2016-05-10" />
		<tag k="ssr:stedsnr" v="412436" />
		<nd ref="-20280" />
		<nd ref="-20281" />
	</way>
	<way id="-5431">
		<tag k="name" v="Tristeinsholmen" />
		<tag k="place" v="islet" />
		<tag k="ssr:date" v="2016-05-10" />
		<tag k="ssr:stedsnr" v="394509" />
		<nd ref="-20234" />
		<nd ref="-20235" />
	</way>
	<way id="-5429">
		<tag k="name" v="Kalvehagneset" />
		<tag k="natural" v="cape" />
		<tag k="place" v="locality" />
		<tag k="ssr:date" v="2016-05-10" />
		<tag k="ssr:stedsnr" v="394030" />
		<nd ref="-20190" />
		<nd ref="-20191" />
	</way>
	<way id="-5428">
		<tag k="name" v="Biodden" />
		<tag k="natural" v="cape" />
		<tag k="place" v="locality" />
		<tag k="ssr:date" v="2016-05-10" />
		<tag k="ssr:stedsnr" v="390804" />
		<nd ref="-20188" />
		<nd ref="-20189" />
	</way>
	<way id="-5427">
		<tag k="name" v="Indre Leiholmen" />
		<tag k="place" v="islet" />
		<tag k="ssr:date" v="2016-05-10" />
		<tag k="ssr:stedsnr" v="390661" />
		<nd ref="-20183" />
		<nd ref="-20184" />
	</way>
	<way id="-5425">
		<tag k="alt_name" v="Østre Svertingen;Austre Svertingen" />
		<tag k="name" v="Svertingen, austre" />
		<tag k="place" v="islet" />
		<tag k="ssr:date" v="2016-05-10" />
		<tag k="ssr:stedsnr" v="364991" />
		<nd ref="-20169" />
		<nd ref="-20170" />
		<nd ref="-20171" />
		<nd ref="-20172" />
	</way>
	<way id="-5415">
		<tag k="alt_name" v="Stangholmene" />
		<tag k="name" v="Stangholmen" />
		<tag k="place" v="islet" />
		<tag k="ssr:date" v="2016-05-10" />
		<tag k="ssr:stedsnr" v="364525" />
		<nd ref="-20130" />
		<nd ref="-20131" />
		<nd ref="-20132" />
	</way>
	<way id="-5413">
		<tag k="name" v="Vikkilen" />
		<tag k="natural" v="bay" />
		<tag k="ssr:date" v="2016-05-10" />
		<tag k="ssr:stedsnr" v="364516" />
		<nd ref="-20124" />
		<nd ref="-20125" />
		<nd ref="-20126" />
		<nd ref="-20127" />
	</way>
	<way id="-5403">
		<tag k="fixme" v="consider seamark:type=rock" />
		<tag k="name" v="Flatskjær" />
		<tag k="natural" v="islet" />
		<tag k="ssr:date" v="2016-05-10" />
		<tag k="ssr:stedsnr" v="351453" />
		<nd ref="-19925" />
		<nd ref="-19926" />
	</way>
	<way id="-5400">
		<tag k="name" v="Lille Hampholmen" />
		<tag k="place" v="islet" />
		<tag k="ssr:date" v="2016-05-10" />
		<tag k="ssr:stedsnr" v="333512" />
		<nd ref="-19896" />
		<nd ref="-19897" />
	</way>
	<way id="-5399">
		<tag k="name" v="Barselkilen" />
		<tag k="natural" v="bay" />
		<tag k="ssr:date" v="2016-05-10" />
		<tag k="ssr:stedsnr" v="333504" />
		<nd ref="-19893" />
		<nd ref="-19894" />
	</way>
	<way id="-5398">
		<tag k="name" v="Sundholmen" />
		<tag k="place" v="islet" />
		<tag k="ssr:date" v="2016-05-10" />
		<tag k="ssr:stedsnr" v="333496" />
		<nd ref="-19890" />
		<nd ref="-19891" />
	</way>
	<way id="-5397">
		<tag k="name" v="Narrholmen" />
		<tag k="place" v="islet" />
		<tag k="ssr:date" v="2016-05-10" />
		<tag k="ssr:stedsnr" v="330697" />
		<nd ref="-19864" />
		<nd ref="-19865" />
	</way>
	<way id="-5393">
		<tag k="alt_name" v="Kallen" />
		<tag k="name" v="Hesnes merke" />
		<tag k="place" v="islet" />
		<tag k="ssr:date" v="2016-05-10" />
		<tag k="ssr:stedsnr" v="303975" />
		<nd ref="-19833" />
		<nd ref="-19834" />
		<nd ref="-19835" />
	</way>
	<way id="-5391">
		<tag k="fixme" v="consider seamark:type=rock" />
		<tag k="name" v="Morvigskjær" />
		<tag k="natural" v="islet" />
		<tag k="ssr:date" v="2016-05-10" />
		<tag k="ssr:stedsnr" v="303947" />
		<nd ref="-19826" />
		<nd ref="-19827" />
		<nd ref="-19828" />
		<nd ref="-19829" />
	</way>
	<way id="-5390">
		<tag k="name" v="Kalvøyene" />
		<tag k="place" v="islet" />
		<tag k="ssr:date" v="2016-05-10" />
		<tag k="ssr:stedsnr" v="303920" />
		<nd ref="-19822" />
		<nd ref="-19823" />
	</way>
	<way id="-5389">
		<tag k="alt_name" v="Grønningene" />
		<tag k="name" v="Grønningen" />
		<tag k="place" v="islet" />
		<tag k="ssr:date" v="2016-05-10" />
		<tag k="ssr:stedsnr" v="303917" />
		<nd ref="-19818" />
		<nd ref="-19819" />
		<nd ref="-19820" />
		<nd ref="-19821" />
	</way>
	<way id="-5386">
		<tag k="alt_name" v="Sømkilen" />
		<tag k="name" v="Sømskilen" />
		<tag k="natural" v="bay" />
		<tag k="ssr:date" v="2016-05-10" />
		<tag k="ssr:stedsnr" v="303567" />
		<nd ref="-19793" />
		<nd ref="-19794" />
		<nd ref="-19795" />
	</way>
	<way id="-5382">
		<tag k="alt_name" v="Torsk" />
		<tag k="name" v="Torsken" />
		<tag k="place" v="islet" />
		<tag k="ssr:date" v="2016-05-10" />
		<tag k="ssr:stedsnr" v="303520" />
		<nd ref="-19775" />
		<nd ref="-19776" />
		<nd ref="-19777" />
		<nd ref="-19778" />
	</way>
	<way id="-5886">
		<tag k="name" v="Vragvika" />
		<tag k="natural" v="bay" />
		<tag k="ssr:date" v="2016-05-11" />
		<tag k="ssr:stedsnr" v="959465" />
		<nd ref="-24701" />
		<nd ref="-24702" />
	</way>
	<way id="-5883">
		<tag k="name" v="Kjørrvika" />
		<tag k="natural" v="bay" />
		<tag k="ssr:date" v="2016-05-11" />
		<tag k="ssr:stedsnr" v="957248" />
		<nd ref="-24670" />
		<nd ref="-24671" />
	</way>
	<way id="-5368">
		<tag k="fixme" v="consider seamark:type=rock" />
		<tag k="name" v="Kråga" />
		<tag k="natural" v="islet" />
		<tag k="ssr:date" v="2016-05-10" />
		<tag k="ssr:stedsnr" v="269658" />
		<nd ref="-19544" />
		<nd ref="-19545" />
	</way>
	<way id="-5879">
		<tag k="name" v="Flade Rivingen" />
		<tag k="place" v="islet" />
		<tag k="ssr:date" v="2016-05-11" />
		<tag k="ssr:stedsnr" v="937736" />
		<nd ref="-24617" />
		<nd ref="-24618" />
	</way>
	<way id="-5873">
		<tag k="name" v="Valøyene" />
		<tag k="place" v="island" />
		<tag k="ssr:date" v="2016-05-11" />
		<tag k="ssr:stedsnr" v="910986" />
		<nd ref="-24590" />
		<nd ref="-24591" />
		<nd ref="-24592" />
		<nd ref="-24593" />
	</way>
	<way id="-5870">
		<tag k="name" v="Herøya" />
		<tag k="place" v="islet" />
		<tag k="ssr:date" v="2016-05-11" />
		<tag k="ssr:stedsnr" v="910958" />
		<nd ref="-24576" />
		<nd ref="-24577" />
		<nd ref="-24578" />
		<nd ref="-24579" />
	</way>
	<way id="-5863">
		<tag k="name" v="Bliksgrunnen" />
		<tag k="natural" v="shoal" />
		<tag k="place" v="locality" />
		<tag k="ssr:date" v="2016-05-11" />
		<tag k="ssr:stedsnr" v="910524" />
		<nd ref="-24519" />
		<nd ref="-24520" />
		<nd ref="-24521" />
	</way>
	<way id="-5857">
		<tag k="name" v="Bratthauet" />
		<tag k="place" v="islet" />
		<tag k="ssr:date" v="2016-05-11" />
		<tag k="ssr:stedsnr" v="876710" />
		<nd ref="-24325" />
		<nd ref="-24326" />
	</way>
	<way id="-5855">
		<tag k="fixme" v="consider seamark:type=rock" />
		<tag k="name" v="Hellene" />
		<tag k="natural" v="islet" />
		<tag k="ssr:date" v="2016-05-11" />
		<tag k="ssr:stedsnr" v="876672" />
		<nd ref="-24317" />
		<nd ref="-24318" />
	</way>
	<way id="-5854">
		<tag k="name" v="Hesnesøya" />
		<tag k="place" v="island" />
		<tag k="ssr:date" v="2016-05-11" />
		<tag k="ssr:stedsnr" v="850997" />
		<nd ref="-24306" />
		<nd ref="-24307" />
		<nd ref="-24308" />
		<nd ref="-24309" />
	</way>
	<way id="-5850">
		<tag k="alt_name" v="Nørholmskilen" />
		<tag k="name" v="Nørholmkilen" />
		<tag k="natural" v="bay" />
		<tag k="ssr:date" v="2016-05-11" />
		<tag k="ssr:stedsnr" v="850937" />
		<nd ref="-24295" />
		<nd ref="-24296" />
		<nd ref="-24297" />
	</way>
	<way id="-5843">
		<tag k="name" v="Rødøya" />
		<tag k="place" v="islet" />
		<tag k="ssr:date" v="2016-05-11" />
		<tag k="ssr:stedsnr" v="850528" />
		<nd ref="-24274" />
		<nd ref="-24275" />
		<nd ref="-24276" />
	</way>
	<way id="-5827">
		<tag k="name" v="Saulekilen" />
		<tag k="natural" v="bay" />
		<tag k="ssr:date" v="2016-05-11" />
		<tag k="ssr:stedsnr" v="837477" />
		<nd ref="-24029" />
		<nd ref="-24030" />
	</way>
	<way id="-5822">
		<tag k="name" v="Grefstadviga" />
		<tag k="natural" v="bay" />
		<tag k="ssr:date" v="2016-05-11" />
		<tag k="ssr:stedsnr" v="819462" />
		<nd ref="-23993" />
		<nd ref="-23994" />
	</way>
	<way id="-5821">
		<tag k="name" v="Dalesunder" />
		<tag k="natural" v="strait" />
		<tag k="place" v="locality" />
		<tag k="ssr:date" v="2016-05-11" />
		<tag k="ssr:stedsnr" v="819441" />
		<nd ref="-23988" />
		<nd ref="-23989" />
	</way>
	<way id="-5820">
		<tag k="fixme" v="consider seamark:type=rock" />
		<tag k="name" v="Pølseskjær" />
		<tag k="natural" v="islet" />
		<tag k="ssr:date" v="2016-05-11" />
		<tag k="ssr:stedsnr" v="815806" />
		<nd ref="-23964" />
		<nd ref="-23965" />
	</way>
	<way id="-5819">
		<tag k="fixme" v="consider seamark:type=rock" />
		<tag k="name" v="Rødskjær" />
		<tag k="natural" v="islet" />
		<tag k="ssr:date" v="2016-05-11" />
		<tag k="ssr:stedsnr" v="815711" />
		<nd ref="-23960" />
		<nd ref="-23961" />
	</way>
	<way id="-5818">
		<tag k="name" v="Persandsholmen" />
		<tag k="place" v="islet" />
		<tag k="ssr:date" v="2016-05-11" />
		<tag k="ssr:stedsnr" v="815682" />
		<nd ref="-23958" />
		<nd ref="-23959" />
	</way>
	<way id="-5817">
		<tag k="name" v="Groosholmen" />
		<tag k="place" v="islet" />
		<tag k="ssr:date" v="2016-05-11" />
		<tag k="ssr:stedsnr" v="815672" />
		<nd ref="-23956" />
		<nd ref="-23957" />
	</way>
	<way id="-5814">
		<tag k="name" v="Langøya" />
		<tag k="place" v="island" />
		<tag k="ssr:date" v="2016-05-11" />
		<tag k="ssr:stedsnr" v="811977" />
		<nd ref="-23945" />
		<nd ref="-23946" />
	</way>
	<way id="-5811">
		<tag k="alt_name" v="Kongsholmane" />
		<tag k="name" v="Kongsholmene" />
		<tag k="place" v="islet" />
		<tag k="ssr:date" v="2016-05-11" />
		<tag k="ssr:stedsnr" v="789958" />
		<nd ref="-23934" />
		<nd ref="-23935" />
		<nd ref="-23936" />
		<nd ref="-23937" />
	</way>
	<way id="-5810">
		<tag k="alt_name" v="Ålesøy" />
		<tag k="name" v="Ålesøya" />
		<tag k="place" v="island" />
		<tag k="ssr:date" v="2016-05-11" />
		<tag k="ssr:stedsnr" v="789952" />
		<nd ref="-23930" />
		<nd ref="-23931" />
		<nd ref="-23932" />
		<nd ref="-23933" />
	</way>
	<way id="-5809">
		<tag k="name" v="Engholmen" />
		<tag k="place" v="islet" />
		<tag k="ssr:date" v="2016-05-11" />
		<tag k="ssr:stedsnr" v="789950" />
		<nd ref="-23926" />
		<nd ref="-23927" />
		<nd ref="-23928" />
		<nd ref="-23929" />
	</way>
	<way id="-5800">
		<tag k="name" v="Storesand" />
		<tag k="natural" v="beach" />
		<tag k="place" v="locality" />
		<tag k="ssr:date" v="2016-05-11" />
		<tag k="ssr:stedsnr" v="789528" />
		<nd ref="-23898" />
		<nd ref="-23899" />
		<nd ref="-23900" />
	</way>
	<way id="-5776">
		<tag k="name" v="Verkstedviga" />
		<tag k="natural" v="bay" />
		<tag k="ssr:date" v="2016-05-11" />
		<tag k="ssr:stedsnr" v="758754" />
		<nd ref="-23600" />
		<nd ref="-23601" />
	</way>
	<way id="-5774">
		<tag k="name" v="Ytre Leiholmen" />
		<tag k="place" v="islet" />
		<tag k="ssr:date" v="2016-05-11" />
		<tag k="ssr:stedsnr" v="755834" />
		<nd ref="-23558" />
		<nd ref="-23559" />
	</way>
	<way id="-5773">
		<tag k="name" v="Store Mågholmen" />
		<tag k="place" v="islet" />
		<tag k="ssr:date" v="2016-05-11" />
		<tag k="ssr:stedsnr" v="755831" />
		<nd ref="-23556" />
		<nd ref="-23557" />
	</way>
	<way id="-5772">
		<tag k="name" v="Havnevågholmen" />
		<tag k="place" v="islet" />
		<tag k="ssr:date" v="2016-05-11" />
		<tag k="ssr:stedsnr" v="755644" />
		<nd ref="-23550" />
		<nd ref="-23551" />
	</way>
	<way id="-5771">
		<tag k="name" v="Arset" />
		<tag k="place" v="islet" />
		<tag k="ssr:date" v="2016-05-11" />
		<tag k="ssr:stedsnr" v="750976" />
		<nd ref="-23547" />
		<nd ref="-23548" />
	</way>
	<way id="-5766">
		<tag k="name" v="Håstangen" />
		<tag k="place" v="islet" />
		<tag k="ssr:date" v="2016-05-11" />
		<tag k="ssr:stedsnr" v="728979" />
		<nd ref="-23526" />
		<nd ref="-23527" />
		<nd ref="-23528" />
	</way>
	<way id="-5763">
		<tag k="name" v="Kjekstadneset" />
		<tag k="natural" v="cape" />
		<tag k="place" v="locality" />
		<tag k="ssr:date" v="2016-05-11" />
		<tag k="ssr:stedsnr" v="728973" />
		<nd ref="-23513" />
		<nd ref="-23514" />
		<nd ref="-23515" />
	</way>
	<way id="-5762">
		<tag k="alt_name" v="Håbber;Håbåane" />
		<tag k="fixme" v="consider seamark:type=rock" />
		<tag k="name" v="Håbåene" />
		<tag k="natural" v="islet" />
		<tag k="ssr:date" v="2016-05-11" />
		<tag k="ssr:stedsnr" v="728963" />
		<nd ref="-23509" />
		<nd ref="-23510" />
		<nd ref="-23511" />
	</way>
	<way id="-5761">
		<tag k="name" v="Homborøya" />
		<tag k="place" v="island" />
		<tag k="ssr:date" v="2016-05-11" />
		<tag k="ssr:stedsnr" v="728955" />
		<nd ref="-23505" />
		<nd ref="-23506" />
		<nd ref="-23507" />
		<nd ref="-23508" />
	</way>
	<way id="-5760">
		<tag k="alt_name" v="Vestre Don Kyllene" />
		<tag k="name" v="Donkjølen" />
		<tag k="place" v="islet" />
		<tag k="ssr:date" v="2016-05-11" />
		<tag k="ssr:stedsnr" v="728947" />
		<nd ref="-23498" />
		<nd ref="-23499" />
		<nd ref="-23500" />
		<nd ref="-23501" />
		<nd ref="-23502" />
	</way>
	<way id="-5754">
		<tag k="name" v="Fevikkilen" />
		<tag k="natural" v="bay" />
		<tag k="ssr:date" v="2016-05-11" />
		<tag k="ssr:stedsnr" v="728493" />
		<nd ref="-23429" />
		<nd ref="-23430" />
		<nd ref="-23431" />
		<nd ref="-23432" />
	</way>
	<way id="-5744">
		<tag k="name" v="Rivingen" />
		<tag k="place" v="islet" />
		<tag k="ssr:date" v="2016-05-11" />
		<tag k="ssr:stedsnr" v="728240" />
		<nd ref="-23376" />
		<nd ref="-23377" />
		<nd ref="-23378" />
		<nd ref="-23379" />
	</way>
	<way id="-5740">
		<tag k="name" v="Smørsundet" />
		<tag k="natural" v="strait" />
		<tag k="place" v="locality" />
		<tag k="ssr:date" v="2016-05-11" />
		<tag k="ssr:stedsnr" v="722397" />
		<nd ref="-23317" />
		<nd ref="-23318" />
	</way>
	<way id="-5735">
		<tag k="name" v="Moviga" />
		<tag k="natural" v="bay" />
		<tag k="ssr:date" v="2016-05-11" />
		<tag k="ssr:stedsnr" v="697725" />
		<nd ref="-23224" />
		<nd ref="-23225" />
	</way>
	<way id="-5733">
		<tag k="name" v="Terkelsbukt" />
		<tag k="natural" v="bay" />
		<tag k="ssr:date" v="2016-05-11" />
		<tag k="ssr:stedsnr" v="697298" />
		<nd ref="-23193" />
		<nd ref="-23194" />
	</way>
	<way id="-5732">
		<tag k="name" v="Valvikodden" />
		<tag k="natural" v="cape" />
		<tag k="place" v="locality" />
		<tag k="ssr:date" v="2016-05-11" />
		<tag k="ssr:stedsnr" v="697123" />
		<nd ref="-23188" />
		<nd ref="-23189" />
	</way>
	<way id="-5731">
		<tag k="name" v="Krabbeskjær" />
		<tag k="place" v="islet" />
		<tag k="ssr:date" v="2016-05-11" />
		<tag k="ssr:stedsnr" v="694815" />
		<nd ref="-23184" />
		<nd ref="-23185" />
	</way>
	<way id="-5730">
		<tag k="name" v="Pølsegrunnen" />
		<tag k="natural" v="shoal" />
		<tag k="place" v="locality" />
		<tag k="ssr:date" v="2016-05-11" />
		<tag k="ssr:stedsnr" v="694682" />
		<nd ref="-23181" />
		<nd ref="-23182" />
	</way>
	<way id="-5729">
		<tag k="name" v="Skjolden" />
		<tag k="place" v="islet" />
		<tag k="ssr:date" v="2016-05-11" />
		<tag k="ssr:stedsnr" v="690982" />
		<nd ref="-23176" />
		<nd ref="-23177" />
	</way>
	<way id="-5727">
		<tag k="alt_name" v="Maløya, in" />
		<tag k="name" v="Indre Maløya" />
		<tag k="place" v="island" />
		<tag k="ssr:date" v="2016-05-10" />
		<tag k="ssr:stedsnr" v="667998" />
		<nd ref="-23168" />
		<nd ref="-23169" />
		<nd ref="-23170" />
		<nd ref="-23171" />
		<nd ref="-23172" />
	</way>
	<way id="-5725">
		<tag k="alt_name" v="Store Hampholmen" />
		<tag k="name" v="Hampholmen" />
		<tag k="place" v="islet" />
		<tag k="ssr:date" v="2016-05-10" />
		<tag k="ssr:stedsnr" v="667990" />
		<nd ref="-23159" />
		<nd ref="-23160" />
		<nd ref="-23161" />
		<nd ref="-23162" />
		<nd ref="-23163" />
	</way>
	<way id="-5720">
		<tag k="name" v="Auesøya" />
		<tag k="place" v="island" />
		<tag k="ssr:date" v="2016-05-10" />
		<tag k="ssr:stedsnr" v="667658" />
		<nd ref="-23118" />
		<nd ref="-23119" />
		<nd ref="-23120" />
	</way>
	<way id="-5700">
		<tag k="name" v="Grødeviga" />
		<tag k="natural" v="bay" />
		<tag k="ssr:date" v="2016-05-10" />
		<tag k="ssr:stedsnr" v="636462" />
		<nd ref="-22875" />
		<nd ref="-22876" />
	</way>
	<way id="-5699">
		<tag k="name" v="Håholmen" />
		<tag k="place" v="islet" />
		<tag k="ssr:date" v="2016-05-10" />
		<tag k="ssr:stedsnr" v="633751" />
		<nd ref="-22841" />
		<nd ref="-22842" />
	</way>
	<way id="-5698">
		<tag k="name" v="Torskeholmen" />
		<tag k="place" v="islet" />
		<tag k="ssr:date" v="2016-05-10" />
		<tag k="ssr:stedsnr" v="633670" />
		<nd ref="-22838" />
		<nd ref="-22839" />
	</way>
	<way id="-5697">
		<tag k="fixme" v="consider seamark:type=rock" />
		<tag k="name" v="Skarveskjær" />
		<tag k="natural" v="islet" />
		<tag k="ssr:date" v="2016-05-10" />
		<tag k="ssr:stedsnr" v="628975" />
		<nd ref="-22836" />
		<nd ref="-22837" />
	</way>
	<way id="-5696">
		<tag k="name" v="Sandviga" />
		<tag k="natural" v="bay" />
		<tag k="ssr:date" v="2016-05-10" />
		<tag k="ssr:stedsnr" v="628963" />
		<nd ref="-22834" />
		<nd ref="-22835" />
	</way>
	<way id="-5692">
		<tag k="name" v="Langholmen" />
		<tag k="place" v="islet" />
		<tag k="ssr:date" v="2016-05-10" />
		<tag k="ssr:stedsnr" v="606973" />
		<nd ref="-22812" />
		<nd ref="-22813" />
		<nd ref="-22814" />
		<nd ref="-22815" />
	</way>
	<way id="-5690">
		<tag k="alt_name" v="Vestre Svertingen" />
		<tag k="name" v="Svertingen, vestre" />
		<tag k="place" v="islet" />
		<tag k="ssr:date" v="2016-05-10" />
		<tag k="ssr:stedsnr" v="606953" />
		<nd ref="-22803" />
		<nd ref="-22804" />
		<nd ref="-22805" />
		<nd ref="-22806" />
	</way>
	<way id="-5689">
		<tag k="name" v="Håøya" />
		<tag k="place" v="island" />
		<tag k="ssr:date" v="2016-05-10" />
		<tag k="ssr:stedsnr" v="606946" />
		<nd ref="-22797" />
		<nd ref="-22798" />
		<nd ref="-22799" />
		<nd ref="-22800" />
		<nd ref="-22801" />
	</way>
	<way id="-5676">
		<tag k="name" v="Lakseodden" />
		<tag k="natural" v="cape" />
		<tag k="place" v="locality" />
		<tag k="ssr:date" v="2016-05-10" />
		<tag k="ssr:stedsnr" v="576373" />
		<nd ref="-22558" />
		<nd ref="-22559" />
	</way>
	<way id="-5674">
		<tag k="name" v="Håkallene" />
		<tag k="place" v="islet" />
		<tag k="ssr:date" v="2016-05-10" />
		<tag k="ssr:stedsnr" v="572818" />
		<nd ref="-22521" />
		<nd ref="-22522" />
	</way>
	<way id="-5672">
		<tag k="name" v="Leiholmsundet" />
		<tag k="natural" v="strait" />
		<tag k="place" v="locality" />
		<tag k="ssr:date" v="2016-05-10" />
		<tag k="ssr:stedsnr" v="572654" />
		<nd ref="-22512" />
		<nd ref="-22513" />
	</way>
	<way id="-5671">
		<tag k="alt_name" v="Svarteskjær" />
		<tag k="fixme" v="consider seamark:type=rock" />
		<tag k="name" v="Svartskjer" />
		<tag k="natural" v="islet" />
		<tag k="ssr:date" v="2016-05-10" />
		<tag k="ssr:stedsnr" v="546993" />
		<nd ref="-22503" />
		<nd ref="-22504" />
		<nd ref="-22505" />
		<nd ref="-22506" />
	</way>
	<way id="-5670">
		<tag k="alt_name" v="Maløya, yt" />
		<tag k="name" v="Ytre Maløya" />
		<tag k="place" v="island" />
		<tag k="ssr:date" v="2016-05-10" />
		<tag k="ssr:stedsnr" v="546988" />
		<nd ref="-22498" />
		<nd ref="-22499" />
		<nd ref="-22500" />
		<nd ref="-22501" />
		<nd ref="-22502" />
	</way>
	<way id="-5669">
		<tag k="alt_name" v="Hundeskjer" />
		<tag k="fixme" v="consider seamark:type=rock" />
		<tag k="name" v="Hundeskjær" />
		<tag k="natural" v="islet" />
		<tag k="ssr:date" v="2016-05-10" />
		<tag k="ssr:stedsnr" v="546973" />
		<nd ref="-22492" />
		<nd ref="-22493" />
		<nd ref="-22494" />
		<nd ref="-22495" />
	</way>
	<way id="-5668">
		<tag k="name" v="Kjeholmen" />
		<tag k="place" v="islet" />
		<tag k="ssr:date" v="2016-05-10" />
		<tag k="ssr:stedsnr" v="546972" />
		<nd ref="-22489" />
		<nd ref="-22490" />
		<nd ref="-22491" />
	</way>
	<way id="-5664">
		<tag k="name" v="Mågholmene" />
		<tag k="place" v="islet" />
		<tag k="ssr:date" v="2016-05-10" />
		<tag k="ssr:stedsnr" v="546933" />
		<nd ref="-22478" />
		<nd ref="-22479" />
	</way>
	<way id="-5645">
		<tag k="name" v="Bjorsund" />
		<tag k="natural" v="strait" />
		<tag k="place" v="locality" />
		<tag k="ssr:date" v="2016-05-10" />
		<tag k="ssr:stedsnr" v="534493" />
		<nd ref="-22277" />
		<nd ref="-22278" />
	</way>
	<way id="-5643">
		<tag k="name" v="Marivollbukta" />
		<tag k="natural" v="bay" />
		<tag k="ssr:date" v="2016-05-10" />
		<tag k="ssr:stedsnr" v="515497" />
		<nd ref="-22244" />
		<nd ref="-22245" />
	</way>
	<way id="-5642">
		<tag k="name" v="Breivik" />
		<tag k="natural" v="bay" />
		<tag k="ssr:date" v="2016-05-10" />
		<tag k="ssr:stedsnr" v="515422" />
		<nd ref="-22237" />
		<nd ref="-22238" />
	</way>
	<way id="-5641">
		<tag k="fixme" v="consider seamark:type=rock" />
		<tag k="name" v="Jensesskjær" />
		<tag k="natural" v="islet" />
		<tag k="ssr:date" v="2016-05-10" />
		<tag k="ssr:stedsnr" v="512845" />
		<nd ref="-22216" />
		<nd ref="-22217" />
	</way>
	<way id="-5640">
		<tag k="fixme" v="consider seamark:type=rock" />
		<tag k="name" v="Soba" />
		<tag k="natural" v="islet" />
		<tag k="ssr:date" v="2016-05-10" />
		<tag k="ssr:stedsnr" v="512724" />
		<nd ref="-22214" />
		<nd ref="-22215" />
	</way>
	<way id="-5639">
		<tag k="fixme" v="consider seamark:type=rock" />
		<tag k="name" v="Bjorøy Svartskjær" />
		<tag k="natural" v="islet" />
		<tag k="ssr:date" v="2016-05-10" />
		<tag k="ssr:stedsnr" v="512676" />
		<nd ref="-22208" />
		<nd ref="-22209" />
	</way>
	<way id="-5637">
		<tag k="alt_name" v="Vessøy" />
		<tag k="name" v="Vessøya" />
		<tag k="place" v="islet" />
		<tag k="ssr:date" v="2016-05-10" />
		<tag k="ssr:stedsnr" v="485648" />
		<nd ref="-22179" />
		<nd ref="-22180" />
		<nd ref="-22181" />
	</way>
	<way id="-5633">
		<tag k="alt_name" v="Svarteskjæra" />
		<tag k="fixme" v="consider seamark:type=rock" />
		<tag k="name" v="Svartskjera" />
		<tag k="natural" v="islet" />
		<tag k="ssr:date" v="2016-05-10" />
		<tag k="ssr:stedsnr" v="485486" />
		<nd ref="-22142" />
		<nd ref="-22143" />
		<nd ref="-22144" />
		<nd ref="-22145" />
		<nd ref="-22146" />
	</way>
</osm>
