<?xml version="1.0" encoding="UTF-8"?>
<osm generator="osmapis" version="0.6">
	<node id="-31232" lat="63.3991194405" lon="10.4377472228">
		<tag k="name" v="Risvollan/Othilienborg" />
		<tag k="ssr:date" v="2018-01-09" />
		<tag k="ssr:stedsnr" v="484811" />
	</node>
	<node id="-28544" lat="63.4524805517" lon="10.260094442">
		<tag k="fixme" v="consider boundary=protected_area and relevant protect_class if not nature reserve" />
		<tag k="leisure" v="nature_reserve" />
		<tag k="name" v="Bymarka naturreservat" />
		<tag k="ssr:date" v="2018-01-09" />
		<tag k="ssr:stedsnr" v="525861" />
	</node>
	<node id="-27321" lat="63.8366638918" lon="9.99972499124">
		<tag k="ssr:gml_id" v="GEOMETRY_2d37eb80-3220-4e05-94e8-86769ce15faf" />
		<tag k="ssr:gml_nr" v="3" />
	</node>
	<node id="-29333" lat="63.3819472222" lon="10.3634583316">
		<tag k="name" v="Selsbakk/Romulslia" />
		<tag k="ssr:date" v="2018-01-09" />
		<tag k="ssr:stedsnr" v="42980" />
	</node>
	<node id="-31867" lat="63.3443027783" lon="10.1790111156">
		<tag k="fixme" v="consider boundary=protected_area and relevant protect_class if not nature reserve" />
		<tag k="leisure" v="nature_reserve" />
		<tag k="name" v="Gaulosen naturreservat" />
		<tag k="old_name" v="Gaulosen landskapsvernområde" />
		<tag k="ssr:date" v="2018-01-09" />
		<tag k="ssr:stedsnr" v="283378" />
	</node>
	<node id="-29816" lat="63.4399111087" lon="10.436502783">
		<tag k="name" v="Lademoen/Lilleby" />
		<tag k="ssr:date" v="2018-01-09" />
		<tag k="ssr:stedsnr" v="604465" />
	</node>
	<node id="-28791" lat="63.4275750017" lon="10.3994750017">
		<tag k="ssr:gml_id" v="GEOMETRY_195a4ab6-5999-4c49-8731-0db81e30c388" />
		<tag k="ssr:gml_nr" v="2" />
	</node>
	<node id="-28790" lat="63.4281027767" lon="10.3968749996">
		<tag k="ssr:gml_id" v="GEOMETRY_0a573af2-bbef-4ea6-9b7b-446d9afe1de4" />
		<tag k="ssr:gml_nr" v="1" />
	</node>
	<node id="-28789" lat="63.4281055594" lon="10.3968749948">
		<tag k="ssr:gml_id" v="GEOMETRY_eb05fe2f-6789-4446-b616-a9241ce25293" />
		<tag k="ssr:gml_nr" v="0" />
	</node>
	<node id="-32109" lat="63.3946250031" lon="10.3958472178">
		<tag k="ssr:gml_id" v="GEOMETRY_bffb2b0c-4860-4d36-a47a-0a4313353297" />
		<tag k="ssr:gml_nr" v="1" />
	</node>
	<node id="-32108" lat="63.3895527807" lon="10.4078499961">
		<tag k="ssr:gml_id" v="GEOMETRY_4c964a86-b24b-4de9-8a74-7e3e46283591" />
		<tag k="ssr:gml_nr" v="0" />
	</node>
	<node id="-30571" lat="63.3965138903" lon="10.2592583398">
		<tag k="ssr:gml_id" v="GEOMETRY_4b2255f7-d20c-45e9-b7ad-a5eddc87ef82" />
		<tag k="ssr:gml_nr" v="1" />
	</node>
	<node id="-30570" lat="63.3972166682" lon="10.2832305638">
		<tag k="ssr:gml_id" v="GEOMETRY_401fe5f4-0dc2-438f-bac3-cfda7f871654" />
		<tag k="ssr:gml_nr" v="0" />
	</node>
	<node id="-29160" lat="63.432094445" lon="10.3991027729">
		<tag k="name" v="Trondheim sentrum" />
		<tag k="ssr:date" v="2018-01-09" />
		<tag k="ssr:stedsnr" v="143548" />
	</node>
	<node id="-28135" lat="63.3960861142" lon="10.3941777814">
		<tag k="name" v="Sluppen" />
		<tag k="ssr:date" v="2018-01-09" />
		<tag k="ssr:stedsnr" v="326575" />
	</node>
	<node id="-27323" lat="62.6841722253" lon="9.59749999422">
		<tag k="ssr:gml_id" v="GEOMETRY_469a73dd-376c-494a-abb8-cae9b00732ab" />
		<tag k="ssr:gml_nr" v="5" />
	</node>
	<node id="-30046" lat="63.3747416643" lon="10.1928805627">
		<tag k="historic" v="boundary_stone" />
		<tag k="man_made" v="cairn" />
		<tag k="name" v="Merkesgrana" />
		<tag k="place" v="locality" />
		<tag k="ssr:date" v="2018-01-09" />
		<tag k="ssr:stedsnr" v="452869" />
	</node>
	<node id="-34651" lat="63.3472472224" lon="10.1659027861">
		<tag k="fixme" v="consider boundary=protected_area and relevant protect_class if not nature reserve" />
		<tag k="leisure" v="nature_reserve" />
		<tag k="name" v="Apoteket naturreservat" />
		<tag k="ssr:date" v="2018-01-09" />
		<tag k="ssr:stedsnr" v="768417" />
	</node>
	<node id="-29786" lat="63.3708805583" lon="10.3494361178">
		<tag k="name" v="Flatåsen/Saupstad" />
		<tag k="ssr:date" v="2018-01-09" />
		<tag k="ssr:stedsnr" v="848970" />
	</node>
	<node id="-33209" lat="63.4108416628" lon="10.4006388934">
		<tag k="ssr:gml_id" v="GEOMETRY_dec40cd8-f8ee-4129-9735-d396cc2cd5b4" />
		<tag k="ssr:gml_nr" v="0" />
	</node>
	<node id="-27320" lat="64.2447666688" lon="10.7254277736">
		<tag k="ssr:gml_id" v="GEOMETRY_84897065-15d9-4cfb-8eb7-3e51e98fcd5c" />
		<tag k="ssr:gml_nr" v="2" />
	</node>
	<node id="-34890" lat="63.5169210211" lon="10.4860505232">
		<tag k="name" v="Trøndelag fylke" />
		<tag k="ssr:date" v="2018-01-09" />
		<tag k="ssr:stedsnr" v="980645" />
	</node>
	<node id="-27319" lat="63.0307027789" lon="10.7462277831">
		<tag k="ssr:gml_id" v="GEOMETRY_66316881-1025-4354-be1a-5cd5c9220f18" />
		<tag k="ssr:gml_nr" v="1" />
	</node>
	<node id="-27722" lat="63.3661611111" lon="10.2787472203">
		<tag k="historic" v="boundary_stone" />
		<tag k="man_made" v="cairn" />
		<tag k="name" v="Skjefstadmerket" />
		<tag k="place" v="locality" />
		<tag k="ssr:date" v="2018-01-09" />
		<tag k="ssr:stedsnr" v="328107" />
	</node>
	<node id="-27318" lat="63.4291666641" lon="10.3945194421">
		<tag k="ssr:gml_id" v="GEOMETRY_d295cd66-f88e-433a-9d68-c25fa40b0daf" />
		<tag k="ssr:gml_nr" v="0" />
	</node>
	<node id="-27329" lat="63.4291638903" lon="10.3945222132">
		<tag k="ssr:gml_id" v="GEOMETRY_da39fbad-9431-4ece-bcc9-4c894774cd75" />
		<tag k="ssr:gml_nr" v="11" />
	</node>
	<node id="-27328" lat="63.0306999959" lon="10.7462277747">
		<tag k="ssr:gml_id" v="GEOMETRY_afdb79cd-2edb-4603-92b8-bbeaf7e6138b" />
		<tag k="ssr:gml_nr" v="10" />
	</node>
	<node id="-27327" lat="63.4291694466" lon="10.3945222227">
		<tag k="ssr:gml_id" v="GEOMETRY_c7bbb68b-a7de-4f15-85ac-e3a4f60abbfe" />
		<tag k="ssr:gml_nr" v="9" />
	</node>
	<node id="-27326" lat="62.9044388925" lon="10.7605583348">
		<tag k="ssr:gml_id" v="GEOMETRY_98cd296d-835c-448a-8ebd-bf644702f2fd" />
		<tag k="ssr:gml_nr" v="8" />
	</node>
	<node id="-27325" lat="62.9044416678" lon="10.7605611192">
		<tag k="ssr:gml_id" v="GEOMETRY_75354aaf-0cbf-4938-8991-afcaec820693" />
		<tag k="ssr:gml_nr" v="7" />
	</node>
	<node id="-27324" lat="63.4286166704" lon="9.69111110381">
		<tag k="ssr:gml_id" v="GEOMETRY_159d7365-35fc-4117-813b-3756d582161f" />
		<tag k="ssr:gml_nr" v="6" />
	</node>
	<node id="-32187" lat="63.4446749957" lon="10.2338444354">
		<tag k="name" v="Flakkallmenningen" />
		<tag k="place" v="locality" />
		<tag k="ssr:date" v="2018-01-09" />
		<tag k="ssr:stedsnr" v="88599" />
	</node>
	<node id="-33210" lat="63.3833500034" lon="10.4132083338">
		<tag k="ssr:gml_id" v="GEOMETRY_0ff2ea4d-2096-4626-bc95-caf6135c69bc" />
		<tag k="ssr:gml_nr" v="1" />
	</node>
	<node id="-33465" lat="63.3233944422" lon="10.668530559">
		<tag k="ssr:gml_id" v="GEOMETRY_2d325a6f-8eed-47fa-afc0-9bf02271f065" />
		<tag k="ssr:gml_nr" v="15" />
	</node>
	<node id="-33464" lat="63.3177944457" lon="10.6473027752">
		<tag k="ssr:gml_id" v="GEOMETRY_d9235e94-0b66-4da9-ba94-2f7833d3e03d" />
		<tag k="ssr:gml_nr" v="14" />
	</node>
	<node id="-33463" lat="63.3190833328" lon="10.636177778">
		<tag k="ssr:gml_id" v="GEOMETRY_e8f4c83a-f69c-4ec8-952c-0fae85482838" />
		<tag k="ssr:gml_nr" v="13" />
	</node>
	<node id="-33462" lat="63.3195138848" lon="10.6123833348">
		<tag k="ssr:gml_id" v="GEOMETRY_192ca02e-002f-40d5-bc6f-b0a7b6e7fad0" />
		<tag k="ssr:gml_nr" v="12" />
	</node>
	<node id="-33461" lat="63.3292333295" lon="10.5918361079">
		<tag k="ssr:gml_id" v="GEOMETRY_c3740658-f472-4b93-a791-0042e1573918" />
		<tag k="ssr:gml_nr" v="11" />
	</node>
	<node id="-33460" lat="63.3519222193" lon="10.6092611182">
		<tag k="ssr:gml_id" v="GEOMETRY_4ec7fce3-6e10-474a-8f00-4aad8cfe89ca" />
		<tag k="ssr:gml_nr" v="10" />
	</node>
	<node id="-33459" lat="63.31633611" lon="10.6837749946">
		<tag k="ssr:gml_id" v="GEOMETRY_ff3a6922-7740-4ecc-80ef-1c30945c9e8b" />
		<tag k="ssr:gml_nr" v="9" />
	</node>
	<node id="-33458" lat="63.3489000038" lon="10.5742749996">
		<tag k="ssr:gml_id" v="GEOMETRY_6626e3b3-0b0a-4e40-803a-32daca4d1315" />
		<tag k="ssr:gml_nr" v="8" />
	</node>
	<node id="-33457" lat="63.3521638866" lon="10.6075361201">
		<tag k="ssr:gml_id" v="GEOMETRY_036b7b0e-e475-4a06-a5d9-3511883c2712" />
		<tag k="ssr:gml_nr" v="7" />
	</node>
	<node id="-33456" lat="63.3172111098" lon="10.6303416658">
		<tag k="ssr:gml_id" v="GEOMETRY_9061b2e2-adbf-4cdc-b6fe-6c1d9855fc5e" />
		<tag k="ssr:gml_nr" v="6" />
	</node>
	<node id="-33455" lat="63.3355722218" lon="10.5812194488">
		<tag k="ssr:gml_id" v="GEOMETRY_0a2bdedf-a8b6-4842-9748-aa3d4e339bce" />
		<tag k="ssr:gml_nr" v="5" />
	</node>
	<node id="-33454" lat="63.3375138864" lon="10.5391722206">
		<tag k="ssr:gml_id" v="GEOMETRY_029a6832-0c05-4b40-9218-ab61df7a6040" />
		<tag k="ssr:gml_nr" v="4" />
	</node>
	<node id="-33453" lat="63.3348055556" lon="10.5708277789">
		<tag k="ssr:gml_id" v="GEOMETRY_165dfcbb-f0fa-4632-8889-f79a99149869" />
		<tag k="ssr:gml_nr" v="3" />
	</node>
	<node id="-33452" lat="63.3519305566" lon="10.6090583264">
		<tag k="ssr:gml_id" v="GEOMETRY_04f30570-14cb-4a00-ae4c-8af8fd2fc95b" />
		<tag k="ssr:gml_nr" v="2" />
	</node>
	<node id="-33451" lat="63.3449027791" lon="10.5751750035">
		<tag k="ssr:gml_id" v="GEOMETRY_26a91982-da99-434a-ad91-67bf90b2b042" />
		<tag k="ssr:gml_nr" v="1" />
	</node>
	<node id="-33450" lat="63.317738893" lon="10.6505722244">
		<tag k="ssr:gml_id" v="GEOMETRY_4521656d-5c37-4349-8150-b3ae62b54b3d" />
		<tag k="ssr:gml_nr" v="0" />
	</node>
	<node id="-28841" lat="63.4256083337" lon="10.4115611131">
		<tag k="ssr:gml_id" v="GEOMETRY_390c8d66-2101-45ce-9b70-43018ea5c234" />
		<tag k="ssr:gml_nr" v="0" />
	</node>
	<node id="-27941" lat="63.4099916692" lon="10.1809055606">
		<tag k="historic" v="boundary_stone" />
		<tag k="man_made" v="cairn" />
		<tag k="name" v="Johansteinen" />
		<tag k="place" v="locality" />
		<tag k="ssr:date" v="2018-01-09" />
		<tag k="ssr:stedsnr" v="26135" />
	</node>
	<node id="-28678" lat="63.3986027748" lon="10.2168527868">
		<tag k="ssr:gml_id" v="GEOMETRY_c740737b-df31-495c-b719-0b76659d688a" />
		<tag k="ssr:gml_nr" v="5" />
	</node>
	<node id="-28681" lat="63.3989888905" lon="10.1997722124">
		<tag k="ssr:gml_id" v="GEOMETRY_c834df40-199a-4cf2-b396-22b70fa4bf31" />
		<tag k="ssr:gml_nr" v="8" />
	</node>
	<node id="-27322" lat="62.4127749985" lon="11.648608329">
		<tag k="ssr:gml_id" v="GEOMETRY_cce54b07-4c82-4360-8088-ac9b7310dd75" />
		<tag k="ssr:gml_nr" v="4" />
	</node>
	<node id="-28842" lat="63.4190583377" lon="10.3930277787">
		<tag k="ssr:gml_id" v="GEOMETRY_5f0dea97-6ede-430c-9b56-6f0063fc59b6" />
		<tag k="ssr:gml_nr" v="1" />
	</node>
	<node id="-31145" lat="63.3741388872" lon="10.2351166588">
		<tag k="alt_name" v="Målsteinen" />
		<tag k="historic" v="boundary_stone" />
		<tag k="man_made" v="cairn" />
		<tag k="name" v="Marsteinen" />
		<tag k="place" v="locality" />
		<tag k="ssr:date" v="2018-01-09" />
		<tag k="ssr:stedsnr" v="754381" />
	</node>
	<node id="-34069" lat="63.4376499977" lon="10.1803805571">
		<tag k="historic" v="boundary_stone" />
		<tag k="man_made" v="cairn" />
		<tag k="name" v="Gråsteinen" />
		<tag k="place" v="locality" />
		<tag k="ssr:date" v="2018-01-09" />
		<tag k="ssr:stedsnr" v="452059" />
	</node>
	<node id="-28674" lat="63.4147250011" lon="10.2232027681">
		<tag k="ssr:gml_id" v="GEOMETRY_d1532db2-6378-4f07-bf3d-41f953359d00" />
		<tag k="ssr:gml_nr" v="1" />
	</node>
	<node id="-28041" lat="63.4098666662" lon="10.4393861078">
		<tag k="name" v="Moholt" />
		<tag k="ssr:date" v="2018-01-09" />
		<tag k="ssr:stedsnr" v="326568" />
	</node>
	<node id="-28680" lat="63.4042083356" lon="10.232324993">
		<tag k="ssr:gml_id" v="GEOMETRY_0d09c483-af9a-44ad-9cf9-3ae77cc5d92c" />
		<tag k="ssr:gml_nr" v="7" />
	</node>
	<node id="-28679" lat="63.3848861137" lon="10.2451444471">
		<tag k="ssr:gml_id" v="GEOMETRY_1810a158-83cd-4a53-9393-34edebfec41e" />
		<tag k="ssr:gml_nr" v="6" />
	</node>
	<node id="-33851" lat="63.4114694467" lon="10.5135722321">
		<tag k="name" v="Bratsberg/Jonsvatnet" />
		<tag k="ssr:date" v="2018-01-09" />
		<tag k="ssr:stedsnr" v="967146" />
	</node>
	<node id="-28677" lat="63.4326277753" lon="10.2454722205">
		<tag k="ssr:gml_id" v="GEOMETRY_5b1c4723-4bc0-4718-be8f-1d7f371e92b9" />
		<tag k="ssr:gml_nr" v="4" />
	</node>
	<node id="-28676" lat="63.3842777758" lon="10.2470194534">
		<tag k="ssr:gml_id" v="GEOMETRY_4138dc07-95d3-4676-b5af-244379988a5f" />
		<tag k="ssr:gml_nr" v="3" />
	</node>
	<node id="-28675" lat="63.3800833307" lon="10.2349527828">
		<tag k="ssr:gml_id" v="GEOMETRY_2f285037-8ed1-4f4b-8aa4-9ae8f8fe517c" />
		<tag k="ssr:gml_nr" v="2" />
	</node>
	<node id="-30978" lat="63.4218500026" lon="10.4302500006">
		<tag k="name" v="Berg/Tyholt/Moholt" />
		<tag k="ssr:date" v="2018-01-09" />
		<tag k="ssr:stedsnr" v="892359" />
	</node>
	<node id="-28673" lat="63.3822527761" lon="10.2017916731">
		<tag k="ssr:gml_id" v="GEOMETRY_004cf511-9893-42a8-99d4-c6a864a9e80b" />
		<tag k="ssr:gml_nr" v="0" />
	</node>
	<way id="-6203">
		<tag k="name" v="Sør-Trøndelag fylke" />
		<tag k="ssr:date" v="2018-01-09" />
		<tag k="ssr:stedsnr" v="328026" />
		<nd ref="-27318" />
		<nd ref="-27319" />
		<nd ref="-27320" />
		<nd ref="-27321" />
		<nd ref="-27322" />
		<nd ref="-27323" />
		<nd ref="-27324" />
		<nd ref="-27325" />
		<nd ref="-27326" />
		<nd ref="-27327" />
		<nd ref="-27328" />
		<nd ref="-27329" />
	</way>
	<way id="-7129">
		<tag k="name" v="Haukås statsallmenning" />
		<tag k="old_name" v="Haukås statsalmenning" />
		<tag k="place" v="locality" />
		<tag k="ssr:date" v="2018-01-09" />
		<tag k="ssr:stedsnr" v="80361" />
		<nd ref="-33450" />
		<nd ref="-33451" />
		<nd ref="-33452" />
		<nd ref="-33453" />
		<nd ref="-33454" />
		<nd ref="-33455" />
		<nd ref="-33456" />
		<nd ref="-33457" />
		<nd ref="-33458" />
		<nd ref="-33459" />
		<nd ref="-33460" />
		<nd ref="-33461" />
		<nd ref="-33462" />
		<nd ref="-33463" />
		<nd ref="-33464" />
		<nd ref="-33465" />
	</way>
	<way id="-6424">
		<tag k="name" v="Byneset statsalmenning" />
		<tag k="place" v="locality" />
		<tag k="ssr:date" v="2018-01-09" />
		<tag k="ssr:stedsnr" v="84997" />
		<nd ref="-28673" />
		<nd ref="-28674" />
		<nd ref="-28675" />
		<nd ref="-28676" />
		<nd ref="-28677" />
		<nd ref="-28678" />
		<nd ref="-28679" />
		<nd ref="-28680" />
		<nd ref="-28681" />
	</way>
	<way id="-7094">
		<tag k="name" v="Tempe og Leira menighet" />
		<tag k="ssr:date" v="2018-01-09" />
		<tag k="ssr:stedsnr" v="483754" />
		<nd ref="-33209" />
		<nd ref="-33210" />
	</way>
	<way id="-6930">
		<tag k="name" v="Nidarvoll/Leira" />
		<tag k="ssr:date" v="2018-01-09" />
		<tag k="ssr:stedsnr" v="587906" />
		<nd ref="-32108" />
		<nd ref="-32109" />
	</way>
	<way id="-6448">
		<tag k="name" v="Øya/Singsaker" />
		<tag k="ssr:date" v="2018-01-09" />
		<tag k="ssr:stedsnr" v="830338" />
		<nd ref="-28841" />
		<nd ref="-28842" />
	</way>
	<way id="-6701">
		<tag k="alt_name" v="Byåsen bygdealmenning" />
		<tag k="name" v="Byåsen almenning" />
		<tag k="place" v="locality" />
		<tag k="ssr:date" v="2018-01-09" />
		<tag k="ssr:stedsnr" v="787570" />
		<nd ref="-30570" />
		<nd ref="-30571" />
	</way>
	<way id="-6441">
		<tag k="name" v="Trondheim kommune" />
		<tag k="ssr:date" v="2018-01-09" />
		<tag k="ssr:stedsnr" v="572507" />
		<nd ref="-28789" />
		<nd ref="-28790" />
		<nd ref="-28791" />
	</way>
</osm>
