<?xml version="1.0" encoding="UTF-8"?>
<osm generator="osmapis" version="0.6">
	<node id="-30717" lat="63.3671527806" lon="10.5543777714">
		<tag k="name" v="Væresaunbukta" />
		<tag k="natural" v="strait" />
		<tag k="place" v="locality" />
		<tag k="ssr:date" v="2018-01-09" />
		<tag k="ssr:stedsnr" v="657287" />
	</node>
	<node id="-30713" lat="63.3847388907" lon="10.5821027769">
		<tag k="ssr:gml_id" v="GEOMETRY_db9572ff-bd17-4c69-8b2f-16733653cf4e" />
		<tag k="ssr:gml_nr" v="1" />
	</node>
	<node id="-30712" lat="63.385938886" lon="10.583127784">
		<tag k="ssr:gml_id" v="GEOMETRY_7880871c-9b55-4516-a46f-c8473932ab95" />
		<tag k="ssr:gml_nr" v="0" />
	</node>
	<node id="-30710" lat="63.3911222221" lon="10.4876222152">
		<tag k="fixme" v="consider water=pond" />
		<tag k="name" v="Estenstaddammen" />
		<tag k="natural" v="water" />
		<tag k="ssr:date" v="2018-01-09" />
		<tag k="ssr:stedsnr" v="727589" />
		<tag k="water" v="lake" />
	</node>
	<node id="-34796" lat="63.4401833351" lon="10.2551722145">
		<tag k="ssr:gml_id" v="GEOMETRY_b86dba92-f663-4c3f-b010-99148941c5de" />
		<tag k="ssr:gml_nr" v="2" />
	</node>
	<node id="-34795" lat="63.4401861111" lon="10.2551750023">
		<tag k="ssr:gml_id" v="GEOMETRY_00a7c0bc-7798-4d39-84f9-b315e65b34b5" />
		<tag k="ssr:gml_nr" v="1" />
	</node>
	<node id="-34794" lat="63.4401972195" lon="10.2551805606">
		<tag k="ssr:gml_id" v="GEOMETRY_71b54456-1d2a-4440-89c5-bd75c4943420" />
		<tag k="ssr:gml_nr" v="0" />
	</node>
	<node id="-32051" lat="63.384344442" lon="10.2668888984">
		<tag k="ssr:gml_id" v="GEOMETRY_5d52565d-5b56-4231-a465-882b85d92492" />
		<tag k="ssr:gml_nr" v="3" />
	</node>
	<node id="-34775" lat="63.3654416701" lon="10.1989499927">
		<tag k="name" v="Vassverkdam" />
		<tag k="ssr:date" v="2018-01-09" />
		<tag k="ssr:stedsnr" v="387995" />
		<tag k="waterway" v="dam" />
	</node>
	<node id="-32720" lat="63.3756277791" lon="10.2921888904">
		<tag k="fixme" v="consider water=pond" />
		<tag k="name" v="Fålåtjønnan" />
		<tag k="natural" v="water" />
		<tag k="ssr:date" v="2018-01-09" />
		<tag k="ssr:stedsnr" v="693175" />
		<tag k="water" v="lake" />
	</node>
	<node id="-32718" lat="63.4331861104" lon="10.2678833411">
		<tag k="ssr:gml_id" v="GEOMETRY_8f008571-a850-4ba0-b02f-e64728008760" />
		<tag k="ssr:gml_nr" v="1" />
	</node>
	<node id="-32717" lat="63.4338944456" lon="10.2698583313">
		<tag k="ssr:gml_id" v="GEOMETRY_de5f8023-65c4-46a7-b929-0468653344ac" />
		<tag k="ssr:gml_nr" v="0" />
	</node>
	<node id="-30668" lat="63.3658250031" lon="10.4458416635">
		<tag k="name" v="Liabekken" />
		<tag k="ssr:date" v="2018-01-09" />
		<tag k="ssr:stedsnr" v="238593" />
		<tag k="waterway" v="stream" />
	</node>
	<node id="-32715" lat="63.3625861071" lon="10.2166083416">
		<tag k="fixme" v="consider water=pond" />
		<tag k="name" v="Gammeldammen" />
		<tag k="natural" v="water" />
		<tag k="ssr:date" v="2018-01-09" />
		<tag k="ssr:stedsnr" v="85697" />
		<tag k="water" v="lake" />
	</node>
	<node id="-34756" lat="63.3883416655" lon="10.359619448">
		<tag k="name" v="Uglabekken" />
		<tag k="ssr:date" v="2018-01-09" />
		<tag k="ssr:stedsnr" v="353763" />
		<tag k="waterway" v="stream" />
	</node>
	<node id="-30657" lat="63.334627782" lon="10.6364611183">
		<tag k="ssr:gml_id" v="GEOMETRY_3eec4b1d-0121-46e2-ad49-6fed6883ff17" />
		<tag k="ssr:gml_nr" v="3" />
	</node>
	<node id="-30656" lat="63.3291277814" lon="10.6355749918">
		<tag k="ssr:gml_id" v="GEOMETRY_ec98dc94-0e57-4e49-bdf4-056212808f4c" />
		<tag k="ssr:gml_nr" v="2" />
	</node>
	<node id="-30655" lat="63.3228333375" lon="10.633194443">
		<tag k="ssr:gml_id" v="GEOMETRY_10da2709-2a4e-4e15-974a-eec18c5370b9" />
		<tag k="ssr:gml_nr" v="1" />
	</node>
	<node id="-30654" lat="63.3291416712" lon="10.6355888822">
		<tag k="ssr:gml_id" v="GEOMETRY_c3d3b7d6-f54c-40a9-b5a9-0fa8b5e2af42" />
		<tag k="ssr:gml_nr" v="0" />
	</node>
	<node id="-30649" lat="63.3151361079" lon="10.6365305524">
		<tag k="fixme" v="consider water=pond" />
		<tag k="name" v="Loken" />
		<tag k="natural" v="water" />
		<tag k="ssr:date" v="2018-01-09" />
		<tag k="ssr:stedsnr" v="840271" />
		<tag k="water" v="lake" />
	</node>
	<node id="-34740" lat="63.4084055596" lon="10.2407777734">
		<tag k="ssr:gml_id" v="GEOMETRY_b5890d85-45c9-4489-93f3-c3c509a8a5f2" />
		<tag k="ssr:gml_nr" v="1" />
	</node>
	<node id="-34739" lat="63.4113916681" lon="10.2421666653">
		<tag k="ssr:gml_id" v="GEOMETRY_9f9affbc-1d8c-4aff-90ac-82e5f0132b2e" />
		<tag k="ssr:gml_nr" v="0" />
	</node>
	<node id="-34737" lat="63.3927333316" lon="10.5898527783">
		<tag k="ssr:gml_id" v="GEOMETRY_9af494c3-a112-489f-a508-0fbc788f8226" />
		<tag k="ssr:gml_nr" v="3" />
	</node>
	<node id="-34736" lat="63.3929388891" lon="10.5889583302">
		<tag k="ssr:gml_id" v="GEOMETRY_c7107706-5f31-4c26-abd4-ad5704633162" />
		<tag k="ssr:gml_nr" v="2" />
	</node>
	<node id="-34735" lat="63.3927472259" lon="10.5898666578">
		<tag k="ssr:gml_id" v="GEOMETRY_47b90029-5680-477c-9bd7-7644506ce5e0" />
		<tag k="ssr:gml_nr" v="1" />
	</node>
	<node id="-34734" lat="63.3926583355" lon="10.5891027844">
		<tag k="ssr:gml_id" v="GEOMETRY_cca233e8-ffd3-44b0-acef-dc076a3b3c18" />
		<tag k="ssr:gml_nr" v="0" />
	</node>
	<node id="-32677" lat="63.4379888911" lon="10.3424472154">
		<tag k="fixme" v="multiple name tags, choose one and add the other to alt_name" />
		<tag k="name" v="Skardbekken;Skardhaugbekken" />
		<tag k="ssr:date" v="2018-01-09" />
		<tag k="ssr:stedsnr" v="271825" />
		<tag k="waterway" v="stream" />
	</node>
	<node id="-32663" lat="63.3462705561" lon="10.5932375648">
		<tag k="name" v="Hammerbekken" />
		<tag k="ssr:date" v="2018-02-07" />
		<tag k="ssr:stedsnr" v="708027" />
		<tag k="waterway" v="stream" />
	</node>
	<node id="-34710" lat="63.3428250018" lon="10.2687194516">
		<tag k="name" v="Mobekken" />
		<tag k="ssr:date" v="2018-01-09" />
		<tag k="ssr:stedsnr" v="482540" />
		<tag k="waterway" v="stream" />
	</node>
	<node id="-28564" lat="63.3571972263" lon="10.1277499965">
		<tag k="ssr:gml_id" v="GEOMETRY_d896b8c6-9a84-4c50-aa97-2deff2519333" />
		<tag k="ssr:gml_nr" v="2" />
	</node>
	<node id="-28563" lat="63.3571277752" lon="10.1280027772">
		<tag k="ssr:gml_id" v="GEOMETRY_a34e08c8-43a3-425e-ae43-9bbbd6cc7fa3" />
		<tag k="ssr:gml_nr" v="1" />
	</node>
	<node id="-34706" lat="63.4224138853" lon="10.1599388955">
		<tag k="name" v="Ryesbekken" />
		<tag k="ssr:date" v="2018-01-09" />
		<tag k="ssr:stedsnr" v="815039" />
		<tag k="waterway" v="stream" />
	</node>
	<node id="-30608" lat="63.3312666657" lon="10.4331611206">
		<tag k="name" v="Nordsetfossen" />
		<tag k="natural" v="waterfall" />
		<tag k="ssr:date" v="2018-01-09" />
		<tag k="ssr:stedsnr" v="657267" />
	</node>
	<node id="-34694" lat="63.3718749985" lon="10.5649222275">
		<tag k="ssr:gml_id" v="GEOMETRY_65ddbefc-d1c2-4021-ad06-0e4987ff01a9" />
		<tag k="ssr:gml_nr" v="1" />
	</node>
	<node id="-34693" lat="63.3718833364" lon="10.5649305618">
		<tag k="ssr:gml_id" v="GEOMETRY_800213ba-2ad3-44a8-95ed-9650aaa303cd" />
		<tag k="ssr:gml_nr" v="0" />
	</node>
	<node id="-34689" lat="63.382163886" lon="10.1722999982">
		<tag k="name" v="Karibekken" />
		<tag k="ssr:date" v="2018-01-09" />
		<tag k="ssr:stedsnr" v="25901" />
		<tag k="waterway" v="stream" />
	</node>
	<node id="-32627" lat="63.4046222255" lon="10.2851638981">
		<tag k="ssr:gml_id" v="GEOMETRY_5a06e7e9-439f-4487-bdff-05fe60044fc3" />
		<tag k="ssr:gml_nr" v="1" />
	</node>
	<node id="-32626" lat="63.3854388909" lon="10.2970722128">
		<tag k="ssr:gml_id" v="GEOMETRY_b5cc348d-db2a-4b0d-95f2-ccff97e786c8" />
		<tag k="ssr:gml_nr" v="0" />
	</node>
	<node id="-28525" lat="63.336775001" lon="10.6020666661">
		<tag k="ssr:gml_id" v="GEOMETRY_a9c4a57c-d0e8-4e56-8917-27b95506121f" />
		<tag k="ssr:gml_nr" v="2" />
	</node>
	<node id="-28524" lat="63.3377916623" lon="10.6004805556">
		<tag k="ssr:gml_id" v="GEOMETRY_ce0bcc5f-fb66-4b30-9dc6-decd222b00da" />
		<tag k="ssr:gml_nr" v="1" />
	</node>
	<node id="-28523" lat="63.3367833372" lon="10.6020805546">
		<tag k="ssr:gml_id" v="GEOMETRY_3d98c829-4f26-4751-a456-5d0e6a0383d2" />
		<tag k="ssr:gml_nr" v="0" />
	</node>
	<node id="-29671" lat="63.3427194439" lon="10.56656388">
		<tag k="ssr:gml_id" v="GEOMETRY_f62a8c31-bd00-4535-948a-132f8e14a2a8" />
		<tag k="ssr:gml_nr" v="1" />
	</node>
	<node id="-28517" lat="63.3367000013" lon="10.5488583318">
		<tag k="ssr:gml_id" v="GEOMETRY_35c33c17-8da4-4a80-b0bb-2eb888cab05c" />
		<tag k="ssr:gml_nr" v="2" />
	</node>
	<node id="-28516" lat="63.3363222192" lon="10.5495222232">
		<tag k="ssr:gml_id" v="GEOMETRY_38bedfff-d05e-43be-a967-c78bf6c7a2d6" />
		<tag k="ssr:gml_nr" v="1" />
	</node>
	<node id="-29670" lat="63.3440916702" lon="10.5754111029">
		<tag k="ssr:gml_id" v="GEOMETRY_6f2090c6-aa3e-4529-be93-1d8579989929" />
		<tag k="ssr:gml_nr" v="0" />
	</node>
	<node id="-30557" lat="63.3503916639" lon="10.1904833421">
		<tag k="name" v="Stordalsbekken" />
		<tag k="ssr:date" v="2018-01-09" />
		<tag k="ssr:stedsnr" v="569984" />
		<tag k="waterway" v="stream" />
	</node>
	<node id="-30548" lat="63.4010888865" lon="10.2420833367">
		<tag k="name" v="Raudodden" />
		<tag k="natural" v="cape" />
		<tag k="place" v="locality" />
		<tag k="ssr:date" v="2018-01-09" />
		<tag k="ssr:stedsnr" v="208170" />
	</node>
	<node id="-32591" lat="63.4132750017" lon="10.2120861196">
		<tag k="fixme" v="consider water=pond" />
		<tag k="name" v="Kutjønna" />
		<tag k="natural" v="water" />
		<tag k="ssr:date" v="2018-01-09" />
		<tag k="ssr:stedsnr" v="938066" />
		<tag k="water" v="lake" />
	</node>
	<node id="-32590" lat="63.4071499963" lon="10.0834000043">
		<tag k="name" v="Smallibekken" />
		<tag k="ssr:date" v="2018-01-09" />
		<tag k="ssr:stedsnr" v="448846" />
		<tag k="waterway" v="stream" />
	</node>
	<node id="-32584" lat="63.4246499959" lon="10.2809222273">
		<tag k="ssr:gml_id" v="GEOMETRY_4cb1edee-c5da-4ad4-a768-da598fca4431" />
		<tag k="ssr:gml_nr" v="3" />
	</node>
	<node id="-32583" lat="63.4263111089" lon="10.2828888795">
		<tag k="ssr:gml_id" v="GEOMETRY_5ca47016-03e1-419e-bcef-efad5f09546b" />
		<tag k="ssr:gml_nr" v="2" />
	</node>
	<node id="-32582" lat="63.4246555583" lon="10.2809305504">
		<tag k="ssr:gml_id" v="GEOMETRY_5dcf51f6-7c3a-4dcd-870b-dde743d24fe5" />
		<tag k="ssr:gml_nr" v="1" />
	</node>
	<node id="-32581" lat="63.4240638852" lon="10.2799638861">
		<tag k="ssr:gml_id" v="GEOMETRY_0583e41c-4151-4ba7-908c-265902ec3cbe" />
		<tag k="ssr:gml_nr" v="0" />
	</node>
	<node id="-32580" lat="63.4266055557" lon="10.2074555626">
		<tag k="ssr:gml_id" v="GEOMETRY_f17276c6-bcd2-4b3e-abbb-0c353086cb76" />
		<tag k="ssr:gml_nr" v="2" />
	</node>
	<node id="-32579" lat="63.4266083329" lon="10.2074583245">
		<tag k="ssr:gml_id" v="GEOMETRY_98aeab2c-9cf9-44ce-b8f8-210e04b92d5d" />
		<tag k="ssr:gml_nr" v="1" />
	</node>
	<node id="-32578" lat="63.4269611085" lon="10.2082166673">
		<tag k="ssr:gml_id" v="GEOMETRY_62d4f202-4735-4bea-9667-3ac0a400da06" />
		<tag k="ssr:gml_nr" v="0" />
	</node>
	<node id="-27616" lat="63.357352779" lon="10.2136416758">
		<tag k="ssr:gml_id" v="GEOMETRY_6ffadfea-2b51-4d0b-9626-9784ea30b7e2" />
		<tag k="ssr:gml_nr" v="2" />
	</node>
	<node id="-27615" lat="63.357355556" lon="10.2136444515">
		<tag k="ssr:gml_id" v="GEOMETRY_a1bc6375-5c58-4b4b-b8f5-9c6d2e7f4d0c" />
		<tag k="ssr:gml_nr" v="1" />
	</node>
	<node id="-27614" lat="63.3573583329" lon="10.2136472272">
		<tag k="ssr:gml_id" v="GEOMETRY_172c655f-0459-451a-9571-d7bc07cc6a4f" />
		<tag k="ssr:gml_nr" v="0" />
	</node>
	<node id="-28465" lat="63.4188583358" lon="10.2100166697">
		<tag k="fixme" v="consider water=pond" />
		<tag k="name" v="Elsettjønna" />
		<tag k="natural" v="water" />
		<tag k="ssr:date" v="2018-01-09" />
		<tag k="ssr:stedsnr" v="574083" />
		<tag k="water" v="lake" />
	</node>
	<node id="-30511" lat="63.3490416666" lon="10.6217111088">
		<tag k="name" v="Lomøya" />
		<tag k="place" v="islet" />
		<tag k="ssr:date" v="2018-01-09" />
		<tag k="ssr:stedsnr" v="840241" />
	</node>
	<node id="-32556" lat="63.3922361101" lon="10.1749138815">
		<tag k="name" v="Skogbekken" />
		<tag k="ssr:date" v="2018-01-09" />
		<tag k="ssr:stedsnr" v="84106" />
		<tag k="waterway" v="stream" />
	</node>
	<node id="-34098" lat="63.3235499997" lon="10.5890694431">
		<tag k="ssr:gml_id" v="GEOMETRY_c4cef0f8-1250-4c03-a20e-e32963fc5951" />
		<tag k="ssr:gml_nr" v="1" />
	</node>
	<node id="-32049" lat="63.3845777746" lon="10.2790666732">
		<tag k="ssr:gml_id" v="GEOMETRY_c5d1a323-e150-41f1-ba85-c3196ea58528" />
		<tag k="ssr:gml_nr" v="1" />
	</node>
	<node id="-34586" lat="63.3898333323" lon="10.3798027824">
		<tag k="ssr:gml_id" v="GEOMETRY_89799e84-9177-403d-8e90-5bdeb4f6be36" />
		<tag k="ssr:gml_nr" v="9" />
	</node>
	<node id="-34585" lat="63.3835138882" lon="10.3517499986">
		<tag k="ssr:gml_id" v="GEOMETRY_ef79d12e-9c9d-4c54-afbd-a735b94c1b3a" />
		<tag k="ssr:gml_nr" v="8" />
	</node>
	<node id="-34584" lat="63.3822944411" lon="10.3090944452">
		<tag k="ssr:gml_id" v="GEOMETRY_2c0e4ec9-d27d-4064-bf76-94d1a1b649a4" />
		<tag k="ssr:gml_nr" v="7" />
	</node>
	<node id="-34583" lat="63.3922777821" lon="10.3833250022">
		<tag k="ssr:gml_id" v="GEOMETRY_bf921206-2047-44fe-8064-baf080eacd6f" />
		<tag k="ssr:gml_nr" v="6" />
	</node>
	<node id="-34582" lat="63.3821555545" lon="10.3115499938">
		<tag k="ssr:gml_id" v="GEOMETRY_033db116-aa85-4509-836f-dd9c0de66472" />
		<tag k="ssr:gml_nr" v="5" />
	</node>
	<node id="-34581" lat="63.3831583347" lon="10.3218249917">
		<tag k="ssr:gml_id" v="GEOMETRY_353a7ef5-f5c9-49d4-92e6-3dbd9b63a27e" />
		<tag k="ssr:gml_nr" v="4" />
	</node>
	<node id="-34580" lat="63.3836333319" lon="10.3400499912">
		<tag k="ssr:gml_id" v="GEOMETRY_3ade5d89-7112-4d67-ad04-31cc1201a728" />
		<tag k="ssr:gml_nr" v="3" />
	</node>
	<node id="-34579" lat="63.3837750007" lon="10.371469443">
		<tag k="ssr:gml_id" v="GEOMETRY_7277e49b-0145-4f2f-986e-12853f9023bd" />
		<tag k="ssr:gml_nr" v="2" />
	</node>
	<node id="-34578" lat="63.3831722179" lon="10.3218388955">
		<tag k="ssr:gml_id" v="GEOMETRY_eef8fd2f-f7e3-4f19-b0b0-ef0bca28c29b" />
		<tag k="ssr:gml_nr" v="1" />
	</node>
	<node id="-34577" lat="63.3824277799" lon="10.3084805615">
		<tag k="ssr:gml_id" v="GEOMETRY_defba9b6-a6f5-4462-9e3f-77eb52dd207b" />
		<tag k="ssr:gml_nr" v="0" />
	</node>
	<node id="-28430" lat="63.3419944446" lon="10.5407305498">
		<tag k="ssr:gml_id" v="GEOMETRY_df096fda-f700-4636-b084-408a0e51f5af" />
		<tag k="ssr:gml_nr" v="3" />
	</node>
	<node id="-28429" lat="63.3398333365" lon="10.5375722184">
		<tag k="ssr:gml_id" v="GEOMETRY_fff52a34-2756-4d7a-bb15-c447832d6a74" />
		<tag k="ssr:gml_nr" v="2" />
	</node>
	<node id="-28428" lat="63.3437305595" lon="10.5413027724">
		<tag k="ssr:gml_id" v="GEOMETRY_dd00d0b8-b28c-420b-8c15-f3b5b2347834" />
		<tag k="ssr:gml_nr" v="1" />
	</node>
	<node id="-28427" lat="63.3398472265" lon="10.5375777749">
		<tag k="ssr:gml_id" v="GEOMETRY_f9c554d6-a938-4094-b50c-0e1ae91fb86c" />
		<tag k="ssr:gml_nr" v="0" />
	</node>
	<node id="-28423" lat="63.3486138864" lon="10.618208329">
		<tag k="ssr:gml_id" v="GEOMETRY_792b040b-2168-4baa-ad44-fd8f972c47b9" />
		<tag k="ssr:gml_nr" v="2" />
	</node>
	<node id="-28422" lat="63.3486249984" lon="10.6183999975">
		<tag k="ssr:gml_id" v="GEOMETRY_988d91fe-7003-4b68-8e79-bfe9a95abae1" />
		<tag k="ssr:gml_nr" v="1" />
	</node>
	<node id="-28421" lat="63.34863889" lon="10.6184083331">
		<tag k="ssr:gml_id" v="GEOMETRY_3dcebf58-960a-4fc1-a780-73f825eb6d62" />
		<tag k="ssr:gml_nr" v="0" />
	</node>
	<node id="-28409" lat="63.4153361154" lon="10.5197472195">
		<tag k="ssr:gml_id" v="GEOMETRY_3910f32b-ba4b-4272-ba45-ba2c922b50a0" />
		<tag k="ssr:gml_nr" v="1" />
	</node>
	<node id="-28408" lat="63.4127055516" lon="10.5121555622">
		<tag k="ssr:gml_id" v="GEOMETRY_ba0611d8-ac67-4b57-958d-4d94c69d230c" />
		<tag k="ssr:gml_nr" v="0" />
	</node>
	<node id="-29179" lat="63.3352972204" lon="10.6516194456">
		<tag k="ssr:gml_id" v="GEOMETRY_f9070c12-ce2e-4a2f-9c21-13d06c7d0d15" />
		<tag k="ssr:gml_nr" v="1" />
	</node>
	<node id="-28387" lat="63.3558388921" lon="10.4211722236">
		<tag k="ssr:gml_id" v="GEOMETRY_c6bac4c4-cf94-4246-98ed-9412bdd47e5a" />
		<tag k="ssr:gml_nr" v="2" />
	</node>
	<node id="-28386" lat="63.3541722235" lon="10.4182500002">
		<tag k="ssr:gml_id" v="GEOMETRY_df0cd0e6-ee9e-4c77-b1a7-b8e3c24b9e42" />
		<tag k="ssr:gml_nr" v="1" />
	</node>
	<node id="-28385" lat="63.3541416649" lon="10.4184083423">
		<tag k="ssr:gml_id" v="GEOMETRY_1f3991ea-558a-4fb8-aae1-07f405e02ebc" />
		<tag k="ssr:gml_nr" v="0" />
	</node>
	<node id="-32050" lat="63.3844638893" lon="10.2785388937">
		<tag k="ssr:gml_id" v="GEOMETRY_5545f215-bfd0-4d29-8e61-b95e08ccb833" />
		<tag k="ssr:gml_nr" v="2" />
	</node>
	<node id="-28377" lat="63.44127222" lon="10.2618472242">
		<tag k="name" v="Herbernsbekken" />
		<tag k="ssr:date" v="2018-01-09" />
		<tag k="ssr:stedsnr" v="210988" />
		<tag k="waterway" v="stream" />
	</node>
	<node id="-32459" lat="63.3631388866" lon="10.2825111186">
		<tag k="alt_name" v="Jelleintjørna" />
		<tag k="fixme" v="consider water=pond" />
		<tag k="name" v="Jelleintjønna" />
		<tag k="natural" v="water" />
		<tag k="ssr:date" v="2018-01-09" />
		<tag k="ssr:stedsnr" v="147283" />
		<tag k="water" v="lake" />
	</node>
	<node id="-30409" lat="63.3629638903" lon="10.628994435">
		<tag k="name" v="Kvernbekken" />
		<tag k="ssr:date" v="2018-01-09" />
		<tag k="ssr:stedsnr" v="283086" />
		<tag k="waterway" v="stream" />
	</node>
	<node id="-30407" lat="63.3957888873" lon="10.3272444468">
		<tag k="name" v="Åsabekken" />
		<tag k="ssr:date" v="2018-01-09" />
		<tag k="ssr:stedsnr" v="28228" />
		<tag k="waterway" v="stream" />
	</node>
	<node id="-30385" lat="63.4203444468" lon="10.1738805551">
		<tag k="fixme" v="multiple name tags, choose one and add the other to alt_name" />
		<tag k="name" v="Svebekken;Holmsbekken" />
		<tag k="ssr:date" v="2018-01-09" />
		<tag k="ssr:stedsnr" v="390007" />
		<tag k="waterway" v="stream" />
	</node>
	<node id="-28957" lat="63.3847805533" lon="10.272472218">
		<tag k="name" v="Storøya" />
		<tag k="place" v="islet" />
		<tag k="ssr:date" v="2018-01-09" />
		<tag k="ssr:stedsnr" v="148125" />
	</node>
	<node id="-32428" lat="63.439697219" lon="10.3285750064">
		<tag k="name" v="Garnisonsbekken" />
		<tag k="ssr:date" v="2018-01-09" />
		<tag k="ssr:stedsnr" v="571708" />
		<tag k="waterway" v="stream" />
	</node>
	<node id="-34470" lat="63.3601361108" lon="10.6304527749">
		<tag k="name" v="Litlodden" />
		<tag k="natural" v="cape" />
		<tag k="place" v="locality" />
		<tag k="ssr:date" v="2018-01-09" />
		<tag k="ssr:stedsnr" v="161115" />
	</node>
	<node id="-30371" lat="63.3463972237" lon="10.301388879">
		<tag k="ssr:gml_id" v="GEOMETRY_ceb14b52-1d18-44a3-9d45-a27f8a5c61b8" />
		<tag k="ssr:gml_nr" v="1" />
	</node>
	<node id="-30370" lat="63.3464638866" lon="10.3040694377">
		<tag k="ssr:gml_id" v="GEOMETRY_5d6b41ae-694b-4e4c-ae0a-df53f67b2c41" />
		<tag k="ssr:gml_nr" v="0" />
	</node>
	<node id="-30349" lat="63.4016916628" lon="10.2242888836">
		<tag k="name" v="Kvistingsbekken" />
		<tag k="ssr:date" v="2018-01-09" />
		<tag k="ssr:stedsnr" v="391576" />
		<tag k="waterway" v="stream" />
	</node>
	<node id="-31682" lat="63.3827749995" lon="10.2399749944">
		<tag k="ssr:gml_id" v="GEOMETRY_a8fdbcf0-055b-4ec0-b321-995e21003ef2" />
		<tag k="ssr:gml_nr" v="2" />
	</node>
	<node id="-31681" lat="63.3827749957" lon="10.2399888794">
		<tag k="ssr:gml_id" v="GEOMETRY_d8598e79-ded9-4e78-90c0-e87c7ef99032" />
		<tag k="ssr:gml_nr" v="1" />
	</node>
	<node id="-32380" lat="63.3953527801" lon="10.5448111108">
		<tag k="name" v="Simsnebben" />
		<tag k="natural" v="cape" />
		<tag k="place" v="locality" />
		<tag k="ssr:date" v="2018-01-09" />
		<tag k="ssr:stedsnr" v="476228" />
	</node>
	<node id="-34423" lat="63.3567638865" lon="10.2857055599">
		<tag k="name" v="Hestsjøbekken" />
		<tag k="ssr:date" v="2018-01-09" />
		<tag k="ssr:stedsnr" v="570645" />
		<tag k="waterway" v="stream" />
	</node>
	<node id="-32019" lat="63.3781527819" lon="10.1727500044">
		<tag k="ssr:gml_id" v="GEOMETRY_e165899c-1eba-4bfd-9c13-4d0913acda39" />
		<tag k="ssr:gml_nr" v="0" />
	</node>
	<node id="-30317" lat="63.3944250037" lon="10.5234250093">
		<tag k="name" v="Osvatnet" />
		<tag k="natural" v="water" />
		<tag k="ssr:date" v="2018-01-09" />
		<tag k="ssr:stedsnr" v="849042" />
		<tag k="water" v="lake" />
	</node>
	<node id="-31023" lat="63.414499996" lon="10.2518527859">
		<tag k="ssr:gml_id" v="GEOMETRY_cf82a9cd-da35-464f-b05b-b826a287ebdc" />
		<tag k="ssr:gml_nr" v="1" />
	</node>
	<node id="-32363" lat="63.3875666632" lon="10.179988885">
		<tag k="ssr:gml_id" v="GEOMETRY_dd91d401-35fb-4092-bc4c-a36ee4fe4f8f" />
		<tag k="ssr:gml_nr" v="3" />
	</node>
	<node id="-32362" lat="63.3876833321" lon="10.1800888857">
		<tag k="ssr:gml_id" v="GEOMETRY_2ce38ed6-69a1-4725-aea3-f2a07acde3da" />
		<tag k="ssr:gml_nr" v="2" />
	</node>
	<node id="-32361" lat="63.3876805545" lon="10.1800861102">
		<tag k="ssr:gml_id" v="GEOMETRY_1ceefd35-fa07-43d9-a5b1-273ee2ebcabc" />
		<tag k="ssr:gml_nr" v="1" />
	</node>
	<node id="-32360" lat="63.387677777" lon="10.1800833347">
		<tag k="ssr:gml_id" v="GEOMETRY_444fedec-66af-45f7-abf7-91bdd9e9be5d" />
		<tag k="ssr:gml_nr" v="0" />
	</node>
	<node id="-27060" lat="63.3975000037" lon="10.1643249981">
		<tag k="ssr:gml_id" v="GEOMETRY_d45841cf-e234-4471-94a1-8332d7f7002e" />
		<tag k="ssr:gml_nr" v="1" />
	</node>
	<node id="-28248" lat="63.3119749963" lon="10.3951416572">
		<tag k="ssr:gml_id" v="GEOMETRY_9398b9cf-6d26-4380-9964-216f3dbdff4a" />
		<tag k="ssr:gml_nr" v="2" />
	</node>
	<node id="-28247" lat="63.3125361091" lon="10.3957833398">
		<tag k="ssr:gml_id" v="GEOMETRY_0f963b56-9768-4f99-bb33-23336922a9ba" />
		<tag k="ssr:gml_nr" v="1" />
	</node>
	<node id="-28246" lat="63.311975004" lon="10.3951555491">
		<tag k="ssr:gml_id" v="GEOMETRY_b538839e-a323-4468-b020-2049264ef952" />
		<tag k="ssr:gml_nr" v="0" />
	</node>
	<node id="-34385" lat="63.3288972189" lon="10.4087583346">
		<tag k="fixme" v="consider water=pond" />
		<tag k="name" v="Rundhaugtjønna" />
		<tag k="natural" v="water" />
		<tag k="old_name" v="Rundhaugtjern" />
		<tag k="ssr:date" v="2018-01-09" />
		<tag k="ssr:stedsnr" v="961277" />
		<tag k="water" v="lake" />
	</node>
	<node id="-28239" lat="63.3136638892" lon="10.6986888851">
		<tag k="alt_name" v="Øver Bjørnstadtjørna" />
		<tag k="fixme" v="consider water=pond" />
		<tag k="name" v="Øver Bjørnstadtjønna" />
		<tag k="natural" v="water" />
		<tag k="ssr:date" v="2018-01-09" />
		<tag k="ssr:stedsnr" v="718281" />
		<tag k="water" v="lake" />
	</node>
	<node id="-27059" lat="63.3970972184" lon="10.1660444436">
		<tag k="ssr:gml_id" v="GEOMETRY_d6bdb05b-6f4f-4e21-97a0-cd755d69fa1a" />
		<tag k="ssr:gml_nr" v="0" />
	</node>
	<node id="-31328" lat="63.4060333345" lon="10.5549388943">
		<tag k="ssr:gml_id" v="GEOMETRY_f0bb6d0b-b4e1-4b40-9192-e6b077d8851b" />
		<tag k="ssr:gml_nr" v="0" />
	</node>
	<node id="-34361" lat="63.3237305522" lon="10.3927916568">
		<tag k="ssr:gml_id" v="GEOMETRY_ec3da628-96b3-42ec-b5e2-1730d4f44054" />
		<tag k="ssr:gml_nr" v="2" />
	</node>
	<node id="-34360" lat="63.322975003" lon="10.393747232">
		<tag k="ssr:gml_id" v="GEOMETRY_6386287b-3e0a-430f-af18-d7a3a3104ec4" />
		<tag k="ssr:gml_nr" v="1" />
	</node>
	<node id="-34359" lat="63.3229861155" lon="10.393752781">
		<tag k="ssr:gml_id" v="GEOMETRY_a7b7859f-a626-466a-aaf8-1843d7716db6" />
		<tag k="ssr:gml_nr" v="0" />
	</node>
	<node id="-28200" lat="63.4312166709" lon="10.495674997">
		<tag k="name" v="Grillstadbekken" />
		<tag k="ssr:date" v="2018-01-09" />
		<tag k="ssr:stedsnr" v="727152" />
		<tag k="waterway" v="stream" />
	</node>
	<node id="-28192" lat="63.3167027747" lon="10.6955999955">
		<tag k="ssr:gml_id" v="GEOMETRY_0343a12b-9cb6-40c0-83dc-fc240155af94" />
		<tag k="ssr:gml_nr" v="1" />
	</node>
	<node id="-28191" lat="63.3167166677" lon="10.6956138892">
		<tag k="ssr:gml_id" v="GEOMETRY_c218e50f-8297-40ef-95cd-06ca24c53f06" />
		<tag k="ssr:gml_nr" v="0" />
	</node>
	<node id="-32280" lat="63.3494527738" lon="10.6371083247">
		<tag k="ssr:gml_id" v="GEOMETRY_f8cf8e81-8688-48e5-9f66-0a5673072699" />
		<tag k="ssr:gml_nr" v="2" />
	</node>
	<node id="-32279" lat="63.3494666634" lon="10.6371222257">
		<tag k="ssr:gml_id" v="GEOMETRY_5e993698-4915-4c1b-9f69-616a8a4ae7b7" />
		<tag k="ssr:gml_nr" v="1" />
	</node>
	<node id="-32278" lat="63.3494972188" lon="10.6377638904">
		<tag k="ssr:gml_id" v="GEOMETRY_51dda185-3863-4361-acaf-8cde4a01a3db" />
		<tag k="ssr:gml_nr" v="0" />
	</node>
	<node id="-34325" lat="63.3504555577" lon="10.5691055544">
		<tag k="name" v="Krossvikholmen" />
		<tag k="place" v="islet" />
		<tag k="ssr:date" v="2018-01-09" />
		<tag k="ssr:stedsnr" v="415242" />
	</node>
	<node id="-32272" lat="63.3805583315" lon="10.4286361191">
		<tag k="ssr:gml_id" v="GEOMETRY_07bf95f2-1382-4764-9c5e-f2024b823d8c" />
		<tag k="ssr:gml_nr" v="3" />
	</node>
	<node id="-32271" lat="63.3793111153" lon="10.4205111206">
		<tag k="ssr:gml_id" v="GEOMETRY_99177e62-8315-46f4-a34b-2908bf75c271" />
		<tag k="ssr:gml_nr" v="2" />
	</node>
	<node id="-32270" lat="63.3741777815" lon="10.4139972306">
		<tag k="ssr:gml_id" v="GEOMETRY_b7d7b196-1454-4f56-a94c-fb1fe5c667a6" />
		<tag k="ssr:gml_nr" v="1" />
	</node>
	<node id="-32269" lat="63.3750027759" lon="10.4186583237">
		<tag k="ssr:gml_id" v="GEOMETRY_9a469364-8a4a-4ae4-980d-3db287333616" />
		<tag k="ssr:gml_nr" v="0" />
	</node>
	<node id="-32268" lat="63.3616500044" lon="10.2441250056">
		<tag k="ssr:gml_id" v="GEOMETRY_3fdbfa0c-5f7d-407c-8429-75fe91ce23df" />
		<tag k="ssr:gml_nr" v="2" />
	</node>
	<node id="-32267" lat="63.3616527807" lon="10.2441277847">
		<tag k="ssr:gml_id" v="GEOMETRY_028e3927-54d6-42dc-bbe8-359f871e579e" />
		<tag k="ssr:gml_nr" v="1" />
	</node>
	<node id="-32266" lat="63.3616638862" lon="10.244138881">
		<tag k="ssr:gml_id" v="GEOMETRY_9dd529a8-c458-437d-b1b3-b94cad6f3404" />
		<tag k="ssr:gml_nr" v="0" />
	</node>
	<node id="-28167" lat="63.3452166691" lon="10.5810277771">
		<tag k="name" v="Storvassbukta" />
		<tag k="natural" v="strait" />
		<tag k="place" v="locality" />
		<tag k="ssr:date" v="2018-01-09" />
		<tag k="ssr:stedsnr" v="718290" />
	</node>
	<node id="-34307" lat="63.4205111145" lon="10.5342861049">
		<tag k="ssr:gml_id" v="GEOMETRY_02b92a25-a0e5-4e9b-a664-e989a387a0f2" />
		<tag k="ssr:gml_nr" v="8" />
	</node>
	<node id="-34306" lat="63.4177027756" lon="10.5376222246">
		<tag k="ssr:gml_id" v="GEOMETRY_990714ba-9dd3-450a-9128-b190be601d55" />
		<tag k="ssr:gml_nr" v="7" />
	</node>
	<node id="-34305" lat="63.403980555" lon="10.5315611075">
		<tag k="ssr:gml_id" v="GEOMETRY_ccd40c2b-7115-4953-b005-11af074034dd" />
		<tag k="ssr:gml_nr" v="6" />
	</node>
	<node id="-34304" lat="63.4137472231" lon="10.5422555549">
		<tag k="ssr:gml_id" v="GEOMETRY_fb32de42-a5df-4c5a-9979-94eee7fa909e" />
		<tag k="ssr:gml_nr" v="5" />
	</node>
	<node id="-34303" lat="63.4012305529" lon="10.5275083239">
		<tag k="ssr:gml_id" v="GEOMETRY_c4f4e61b-ec74-4b63-87ef-340a6690cff9" />
		<tag k="ssr:gml_nr" v="4" />
	</node>
	<node id="-30206" lat="63.3214249967" lon="10.5972500004">
		<tag k="ssr:gml_id" v="GEOMETRY_1ebda01c-9080-4c23-b951-3f071ef1dbd5" />
		<tag k="ssr:gml_nr" v="2" />
	</node>
	<node id="-34301" lat="63.4204722202" lon="10.5347250023">
		<tag k="ssr:gml_id" v="GEOMETRY_990e918f-15b9-45e6-8fa6-538770187e9f" />
		<tag k="ssr:gml_nr" v="2" />
	</node>
	<node id="-30204" lat="63.3214250015" lon="10.5972527761">
		<tag k="ssr:gml_id" v="GEOMETRY_aea25ca4-b368-4409-8a4e-d5351e7e7074" />
		<tag k="ssr:gml_nr" v="0" />
	</node>
	<node id="-34299" lat="63.4050166687" lon="10.5335166709">
		<tag k="ssr:gml_id" v="GEOMETRY_30fcac9f-8d1b-4028-b034-c4982167e142" />
		<tag k="ssr:gml_nr" v="0" />
	</node>
	<node id="-34284" lat="63.4412500003" lon="10.3000749992">
		<tag k="ssr:gml_id" v="GEOMETRY_d4c3218b-0052-4306-9a4e-c778ea0cf8c4" />
		<tag k="ssr:gml_nr" v="1" />
	</node>
	<node id="-28139" lat="63.3813611131" lon="10.5429388794">
		<tag k="name" v="Engelsåsodden" />
		<tag k="natural" v="cape" />
		<tag k="place" v="locality" />
		<tag k="ssr:date" v="2018-01-09" />
		<tag k="ssr:stedsnr" v="344429" />
	</node>
	<node id="-32989" lat="63.3554833326" lon="10.6725305602">
		<tag k="ssr:gml_id" v="GEOMETRY_e6c45927-6b77-4898-b59a-fb48946d4f1f" />
		<tag k="ssr:gml_nr" v="2" />
	</node>
	<node id="-28241" lat="63.4222055549" lon="10.2881555645">
		<tag k="name" v="Kobberdamsbekken" />
		<tag k="ssr:date" v="2018-01-09" />
		<tag k="ssr:stedsnr" v="874154" />
		<tag k="waterway" v="stream" />
	</node>
	<node id="-28132" lat="63.3818166665" lon="10.4769361088">
		<tag k="ssr:gml_id" v="GEOMETRY_3c853b51-9707-4191-ac8e-1b69f6fbf9f4" />
		<tag k="ssr:gml_nr" v="0" />
	</node>
	<node id="-32214" lat="63.3469204455" lon="10.6215707947">
		<tag k="name" v="Kusetvika" />
		<tag k="natural" v="bay" />
		<tag k="ssr:date" v="2018-02-14" />
		<tag k="ssr:stedsnr" v="465121" />
	</node>
	<node id="-30161" lat="63.3625055594" lon="10.5679611172">
		<tag k="ssr:gml_id" v="GEOMETRY_b1b8b07d-4363-4add-a4df-183247f34fd2" />
		<tag k="ssr:gml_nr" v="2" />
	</node>
	<node id="-30160" lat="63.362527775" lon="10.56787223">
		<tag k="ssr:gml_id" v="GEOMETRY_a7fe0ab0-73af-46eb-a67a-271fbfde13f9" />
		<tag k="ssr:gml_nr" v="1" />
	</node>
	<node id="-30159" lat="63.362541666" lon="10.5678833244">
		<tag k="ssr:gml_id" v="GEOMETRY_67f79cd3-c6a9-4e56-b426-1c99ffb0aea2" />
		<tag k="ssr:gml_nr" v="0" />
	</node>
	<node id="-30533" lat="63.3196222228" lon="10.6936694485">
		<tag k="alt_name" v="Ner Bjørnstadtjørna" />
		<tag k="fixme" v="consider water=pond" />
		<tag k="name" v="Ner Bjørnstadtjønna" />
		<tag k="natural" v="water" />
		<tag k="ssr:date" v="2018-01-09" />
		<tag k="ssr:stedsnr" v="657274" />
		<tag k="water" v="lake" />
	</node>
	<node id="-30149" lat="63.4330083301" lon="10.1584055533">
		<tag k="ssr:gml_id" v="GEOMETRY_f9aa3214-81a7-43b8-922c-0fd652f349f1" />
		<tag k="ssr:gml_nr" v="5" />
	</node>
	<node id="-30148" lat="63.4332805585" lon="10.1558361102">
		<tag k="ssr:gml_id" v="GEOMETRY_0866e64c-a1a3-4210-8c50-7d06f0b066a7" />
		<tag k="ssr:gml_nr" v="4" />
	</node>
	<node id="-30147" lat="63.42935278" lon="10.2024055537">
		<tag k="ssr:gml_id" v="GEOMETRY_4255511b-bcd8-4b9f-af3c-a41baadb10a9" />
		<tag k="ssr:gml_nr" v="3" />
	</node>
	<node id="-30146" lat="63.4329499982" lon="10.1585194421">
		<tag k="ssr:gml_id" v="GEOMETRY_62e92014-b87c-4799-8da7-078e66fc21c6" />
		<tag k="ssr:gml_nr" v="2" />
	</node>
	<node id="-30145" lat="63.4329527762" lon="10.1585222199">
		<tag k="ssr:gml_id" v="GEOMETRY_9bf37627-3787-43bf-891c-15ac9992b906" />
		<tag k="ssr:gml_nr" v="1" />
	</node>
	<node id="-30144" lat="63.4329500026" lon="10.1585166765">
		<tag k="ssr:gml_id" v="GEOMETRY_82348641-4bb1-494b-a222-c2aa5bb46d86" />
		<tag k="ssr:gml_nr" v="0" />
	</node>
	<node id="-31988" lat="63.4116749955" lon="10.2681972297">
		<tag k="name" v="Vadbekken" />
		<tag k="ssr:date" v="2018-01-09" />
		<tag k="ssr:stedsnr" v="696148" />
		<tag k="waterway" v="stream" />
	</node>
	<node id="-30120" lat="63.4404999983" lon="10.2196555534">
		<tag k="ssr:gml_id" v="GEOMETRY_753241dd-2493-4160-aa27-68149bafa758" />
		<tag k="ssr:gml_nr" v="1" />
	</node>
	<node id="-32167" lat="63.3320111104" lon="10.3896361059">
		<tag k="name" v="Håbrubekken" />
		<tag k="ssr:date" v="2018-01-09" />
		<tag k="ssr:stedsnr" v="353281" />
		<tag k="waterway" v="stream" />
	</node>
	<node id="-28063" lat="63.3306333334" lon="10.5815055648">
		<tag k="ssr:gml_id" v="GEOMETRY_b1025205-0c78-4e91-ae9c-7cb73f363801" />
		<tag k="ssr:gml_nr" v="2" />
	</node>
	<node id="-28062" lat="63.3305833336" lon="10.5822694448">
		<tag k="ssr:gml_id" v="GEOMETRY_10822a3b-cbc9-49cf-a971-67ef2f22d4ed" />
		<tag k="ssr:gml_nr" v="1" />
	</node>
	<node id="-28061" lat="63.3305972194" lon="10.5822833297">
		<tag k="ssr:gml_id" v="GEOMETRY_f03905c5-25c9-4b3f-a65a-61e1cc0d0b1e" />
		<tag k="ssr:gml_nr" v="0" />
	</node>
	<node id="-30102" lat="63.3960527801" lon="10.3183694397">
		<tag k="name" v="Lianvassbekken" />
		<tag k="ssr:date" v="2018-01-09" />
		<tag k="ssr:stedsnr" v="271241" />
		<tag k="waterway" v="stream" />
	</node>
	<node id="-32142" lat="63.3837527768" lon="10.556513894">
		<tag k="name" v="Valen" />
		<tag k="natural" v="strait" />
		<tag k="place" v="locality" />
		<tag k="ssr:date" v="2018-01-09" />
		<tag k="ssr:stedsnr" v="687353" />
	</node>
	<node id="-32126" lat="63.3525583315" lon="10.59324445">
		<tag k="alt_name" v="Setervika" />
		<tag k="name" v="Sætervika" />
		<tag k="natural" v="bay" />
		<tag k="ssr:date" v="2018-01-09" />
		<tag k="ssr:stedsnr" v="353275" />
	</node>
	<node id="-32117" lat="63.4235499969" lon="10.1856722279">
		<tag k="name" v="Elsetbekken" />
		<tag k="ssr:date" v="2018-01-09" />
		<tag k="ssr:stedsnr" v="87013" />
		<tag k="waterway" v="stream" />
	</node>
	<node id="-28018" lat="63.3395388855" lon="10.5845722195">
		<tag k="name" v="Litlbekken" />
		<tag k="ssr:date" v="2018-01-09" />
		<tag k="ssr:stedsnr" v="718264" />
		<tag k="waterway" v="stream" />
	</node>
	<node id="-28562" lat="63.3591222192" lon="10.132183324">
		<tag k="ssr:gml_id" v="GEOMETRY_e77747d6-bb42-41e2-9b48-d1a209288e4a" />
		<tag k="ssr:gml_nr" v="0" />
	</node>
	<node id="-34153" lat="63.3419472252" lon="10.4945138981">
		<tag k="name" v="Bruråkbekken" />
		<tag k="ssr:date" v="2018-01-09" />
		<tag k="ssr:stedsnr" v="50241" />
		<tag k="waterway" v="stream" />
	</node>
	<node id="-32101" lat="63.4429555595" lon="10.2743916617">
		<tag k="fixme" v="consider water=pond" />
		<tag k="name" v="Stortjønna" />
		<tag k="natural" v="water" />
		<tag k="ssr:date" v="2018-01-09" />
		<tag k="ssr:stedsnr" v="331958" />
		<tag k="water" v="lake" />
	</node>
	<node id="-34146" lat="63.3397416687" lon="10.5071638968">
		<tag k="ssr:gml_id" v="GEOMETRY_9a2b8fcb-1543-4f80-aca6-f3b1a3b49268" />
		<tag k="ssr:gml_nr" v="1" />
	</node>
	<node id="-34145" lat="63.3377194402" lon="10.4544777847">
		<tag k="ssr:gml_id" v="GEOMETRY_10c19d0f-ebfc-4776-b682-23913a159697" />
		<tag k="ssr:gml_nr" v="0" />
	</node>
	<node id="-34134" lat="63.3946444416" lon="10.5315416666">
		<tag k="name" v="Odda" />
		<tag k="natural" v="cape" />
		<tag k="place" v="locality" />
		<tag k="ssr:date" v="2018-01-09" />
		<tag k="ssr:stedsnr" v="891460" />
	</node>
	<node id="-30031" lat="63.3804138868" lon="10.6195194364">
		<tag k="fixme" v="consider water=pond" />
		<tag k="name" v="Kjerringtjønna" />
		<tag k="natural" v="water" />
		<tag k="ssr:date" v="2018-01-09" />
		<tag k="ssr:stedsnr" v="900290" />
		<tag k="water" v="lake" />
	</node>
	<node id="-30027" lat="63.4016250029" lon="10.6034250002">
		<tag k="ssr:gml_id" v="GEOMETRY_24bb49f8-15ab-4212-9a86-51cba7709f1d" />
		<tag k="ssr:gml_nr" v="2" />
	</node>
	<node id="-30026" lat="63.4016861119" lon="10.6023972288">
		<tag k="ssr:gml_id" v="GEOMETRY_4c0b4441-eee7-4b4d-b2eb-d42b12741b6e" />
		<tag k="ssr:gml_nr" v="1" />
	</node>
	<node id="-30025" lat="63.401627782" lon="10.6034333246">
		<tag k="ssr:gml_id" v="GEOMETRY_c68a8ca6-107f-45b7-8c05-be0fbb17d8a2" />
		<tag k="ssr:gml_nr" v="0" />
	</node>
	<node id="-34120" lat="63.3471027764" lon="10.6264583386">
		<tag k="name" v="Tangstadodden" />
		<tag k="natural" v="cape" />
		<tag k="place" v="locality" />
		<tag k="ssr:date" v="2018-01-09" />
		<tag k="ssr:stedsnr" v="961234" />
	</node>
	<node id="-27970" lat="63.4100138863" lon="10.5397916605">
		<tag k="name" v="Nydammen" />
		<tag k="natural" v="water" />
		<tag k="ssr:date" v="2018-01-09" />
		<tag k="ssr:stedsnr" v="899884" />
		<tag k="water" v="pond" />
	</node>
	<node id="-27962" lat="63.3678277748" lon="10.5606916743">
		<tag k="name" v="Væresauntangen" />
		<tag k="natural" v="cape" />
		<tag k="place" v="locality" />
		<tag k="ssr:date" v="2018-01-09" />
		<tag k="ssr:stedsnr" v="102561" />
	</node>
	<node id="-32052" lat="63.384574999" lon="10.2790638885">
		<tag k="ssr:gml_id" v="GEOMETRY_7ff53875-eee4-4053-91ba-bd5d6c5f3032" />
		<tag k="ssr:gml_nr" v="4" />
	</node>
	<node id="-27955" lat="63.3857000024" lon="10.254499998">
		<tag k="ssr:gml_id" v="GEOMETRY_5716b44f-4737-459e-98ca-3a4f8f0a61f6" />
		<tag k="ssr:gml_nr" v="1" />
	</node>
	<node id="-27954" lat="63.3857111083" lon="10.2545027838">
		<tag k="ssr:gml_id" v="GEOMETRY_0dc770df-820f-44c8-967c-2728a91ca9db" />
		<tag k="ssr:gml_nr" v="0" />
	</node>
	<node id="-34097" lat="63.3235638849" lon="10.5890833279">
		<tag k="ssr:gml_id" v="GEOMETRY_0743ee58-aa5e-45b1-a1fd-805e0cef15b0" />
		<tag k="ssr:gml_nr" v="0" />
	</node>
	<node id="-32048" lat="63.3842499977" lon="10.2816916609">
		<tag k="ssr:gml_id" v="GEOMETRY_ed872d4f-7a0c-4531-8d2e-d9433374effc" />
		<tag k="ssr:gml_nr" v="0" />
	</node>
	<node id="-27949" lat="63.3780472232" lon="10.582997232">
		<tag k="ssr:gml_id" v="GEOMETRY_32f471f0-ec4c-437a-9cdd-cc1c1e342b5d" />
		<tag k="ssr:gml_nr" v="1" />
	</node>
	<node id="-27948" lat="63.3784777803" lon="10.583358325">
		<tag k="ssr:gml_id" v="GEOMETRY_2f05b48c-3b95-430b-a012-73e1404171d1" />
		<tag k="ssr:gml_nr" v="0" />
	</node>
	<node id="-29982" lat="63.3946444455" lon="10.3112388806">
		<tag k="name" v="Marilibekken" />
		<tag k="ssr:date" v="2018-01-09" />
		<tag k="ssr:stedsnr" v="634213" />
		<tag k="waterway" v="stream" />
	</node>
	<node id="-29981" lat="63.38206944" lon="10.5513611206">
		<tag k="name" v="Kolbudalsøya" />
		<tag k="place" v="island" />
		<tag k="ssr:date" v="2018-01-09" />
		<tag k="ssr:stedsnr" v="900262" />
	</node>
	<node id="-29977" lat="63.4011055545" lon="10.2432249946">
		<tag k="name" v="Raudfjæra" />
		<tag k="natural" v="beach" />
		<tag k="ssr:date" v="2018-01-09" />
		<tag k="ssr:stedsnr" v="511162" />
	</node>
	<node id="-32020" lat="63.3763361112" lon="10.1537333302">
		<tag k="ssr:gml_id" v="GEOMETRY_752ba4d3-03b6-4080-9566-04dc941e4a82" />
		<tag k="ssr:gml_nr" v="1" />
	</node>
	<node id="-34067" lat="63.4150472188" lon="10.2096166702">
		<tag k="fixme" v="consider water=pond" />
		<tag k="name" v="Litlkvistingen" />
		<tag k="natural" v="water" />
		<tag k="ssr:date" v="2018-01-09" />
		<tag k="ssr:stedsnr" v="210525" />
		<tag k="water" v="lake" />
	</node>
	<node id="-29969" lat="63.4259500007" lon="10.1691111048">
		<tag k="name" v="Byabekken" />
		<tag k="ssr:date" v="2018-01-09" />
		<tag k="ssr:stedsnr" v="751081" />
		<tag k="waterway" v="stream" />
	</node>
	<node id="-29776" lat="63.4044555567" lon="10.3411999904">
		<tag k="ssr:gml_id" v="GEOMETRY_f8e82b2d-594e-4e5c-8fdd-4a15a60348e3" />
		<tag k="ssr:gml_nr" v="2" />
	</node>
	<node id="-34036" lat="63.3713583294" lon="10.5364416589">
		<tag k="name" v="Lykkjbekken" />
		<tag k="ssr:date" v="2018-01-09" />
		<tag k="ssr:stedsnr" v="891435" />
		<tag k="waterway" v="stream" />
	</node>
	<node id="-31985" lat="63.3822722253" lon="10.6027750084">
		<tag k="ssr:gml_id" v="GEOMETRY_5e345353-8e2b-433b-afb6-f2286eee2c1c" />
		<tag k="ssr:gml_nr" v="2" />
	</node>
	<node id="-31984" lat="63.3821749986" lon="10.6030555557">
		<tag k="ssr:gml_id" v="GEOMETRY_a436f50a-881e-4f9e-8653-f17aec90e08d" />
		<tag k="ssr:gml_nr" v="1" />
	</node>
	<node id="-31983" lat="63.3821777782" lon="10.6030694369">
		<tag k="ssr:gml_id" v="GEOMETRY_579306c8-8cb9-4991-b2c3-bd4413290afc" />
		<tag k="ssr:gml_nr" v="0" />
	</node>
	<node id="-31977" lat="63.3808916652" lon="10.5953555523">
		<tag k="ssr:gml_id" v="GEOMETRY_5e7f1296-478d-421c-89db-c66be75b56ce" />
		<tag k="ssr:gml_nr" v="2" />
	</node>
	<node id="-31976" lat="63.3801250021" lon="10.5991583335">
		<tag k="ssr:gml_id" v="GEOMETRY_cafcd7d2-f631-4d24-af2d-2df345c8f085" />
		<tag k="ssr:gml_nr" v="1" />
	</node>
	<node id="-31975" lat="63.3801305558" lon="10.5991722276">
		<tag k="ssr:gml_id" v="GEOMETRY_fdc605f5-e1ed-4984-bb9b-3a72efbb9e17" />
		<tag k="ssr:gml_nr" v="0" />
	</node>
	<node id="-29925" lat="63.3935972265" lon="10.1781805469">
		<tag k="ssr:gml_id" v="GEOMETRY_724c9e21-b1aa-45a2-84a5-b1c49f905c10" />
		<tag k="ssr:gml_nr" v="5" />
	</node>
	<node id="-29924" lat="63.3904972238" lon="10.1530472221">
		<tag k="ssr:gml_id" v="GEOMETRY_c223aeca-c456-43ce-853c-894494c6c609" />
		<tag k="ssr:gml_nr" v="4" />
	</node>
	<node id="-29923" lat="63.3942805595" lon="10.1855638811">
		<tag k="ssr:gml_id" v="GEOMETRY_c0f23ec3-730a-4ba3-81b9-0474a1c623f3" />
		<tag k="ssr:gml_nr" v="3" />
	</node>
	<node id="-29922" lat="63.3936249969" lon="10.1801361119">
		<tag k="ssr:gml_id" v="GEOMETRY_ea8cf79a-affa-4eb4-b96a-4bf2b26b096b" />
		<tag k="ssr:gml_nr" v="2" />
	</node>
	<node id="-29921" lat="63.3936277745" lon="10.1801388879">
		<tag k="ssr:gml_id" v="GEOMETRY_84425e34-e8cd-45fe-8780-5121e9432c8f" />
		<tag k="ssr:gml_nr" v="1" />
	</node>
	<node id="-29920" lat="63.3936972182" lon="10.1801555503">
		<tag k="ssr:gml_id" v="GEOMETRY_56050fa2-328b-4aff-9b07-b0e705a04ab6" />
		<tag k="ssr:gml_nr" v="0" />
	</node>
	<node id="-29561" lat="63.3837500019" lon="10.5564999969">
		<tag k="ssr:gml_id" v="GEOMETRY_c3b45c8f-1138-4e90-91a9-f8f547073bbb" />
		<tag k="ssr:gml_nr" v="1" />
	</node>
	<node id="-31952" lat="63.3624444462" lon="10.2627666584">
		<tag k="name" v="Vadbekken" />
		<tag k="ssr:date" v="2018-01-09" />
		<tag k="ssr:stedsnr" v="330321" />
		<tag k="waterway" v="stream" />
	</node>
	<node id="-27834" lat="63.4433222228" lon="10.2736861019">
		<tag k="fixme" v="consider water=pond" />
		<tag k="name" v="Tjønnen" />
		<tag k="natural" v="water" />
		<tag k="ssr:date" v="2018-01-09" />
		<tag k="ssr:stedsnr" v="756963" />
		<tag k="water" v="lake" />
	</node>
	<node id="-27829" lat="63.3037972256" lon="10.398913899">
		<tag k="ssr:gml_id" v="GEOMETRY_c10a9aab-0c73-4c21-86f0-cb8fc2a99d93" />
		<tag k="ssr:gml_nr" v="3" />
	</node>
	<node id="-27828" lat="63.3035749972" lon="10.3982083268">
		<tag k="ssr:gml_id" v="GEOMETRY_210e4e71-c0f8-4e60-8678-eb31f9c9d333" />
		<tag k="ssr:gml_nr" v="2" />
	</node>
	<node id="-27827" lat="63.3035888911" lon="10.3982222293">
		<tag k="ssr:gml_id" v="GEOMETRY_eb3a8376-dd66-409b-883d-6c975f75d7c7" />
		<tag k="ssr:gml_nr" v="1" />
	</node>
	<node id="-31922" lat="63.3176805558" lon="10.6991861055">
		<tag k="name" v="Heinfjordbekken" />
		<tag k="ssr:date" v="2018-01-09" />
		<tag k="ssr:stedsnr" v="908072" />
		<tag k="waterway" v="stream" />
	</node>
	<node id="-33963" lat="63.3098583324" lon="10.3107944394">
		<tag k="name" v="Stokkbekken" />
		<tag k="ssr:date" v="2018-01-09" />
		<tag k="ssr:stedsnr" v="293316" />
		<tag k="waterway" v="stream" />
	</node>
	<node id="-33524" lat="63.3720972246" lon="10.4156555595">
		<tag k="ssr:gml_id" v="GEOMETRY_09659166-c322-4087-8abf-432397d0c216" />
		<tag k="ssr:gml_nr" v="1" />
	</node>
	<node id="-27627" lat="63.3650361098" lon="10.6186916641">
		<tag k="ssr:gml_id" v="GEOMETRY_9d9ca4cf-48b0-4e93-9c26-adf816635d1b" />
		<tag k="ssr:gml_nr" v="0" />
	</node>
	<node id="-29830" lat="63.3971304982" lon="10.5767629623">
		<tag k="name" v="Valsetbekken" />
		<tag k="ssr:date" v="2018-02-06" />
		<tag k="ssr:stedsnr" v="284432" />
		<tag k="waterway" v="stream" />
	</node>
	<node id="-33923" lat="63.4006972235" lon="10.316805554">
		<tag k="ssr:gml_id" v="GEOMETRY_bc1c7ff9-018c-4796-be0f-65b114047010" />
		<tag k="ssr:gml_nr" v="1" />
	</node>
	<node id="-33922" lat="63.40070556" lon="10.3168194499">
		<tag k="ssr:gml_id" v="GEOMETRY_9b4f1f54-227e-41c7-b480-8a2fb3656e04" />
		<tag k="ssr:gml_nr" v="0" />
	</node>
	<node id="-29822" lat="63.4145833298" lon="10.4861944424">
		<tag k="ssr:gml_id" v="GEOMETRY_7a1f386e-afa2-428f-a9b7-310784ea0b7d" />
		<tag k="ssr:gml_nr" v="5" />
	</node>
	<node id="-29821" lat="63.4114222228" lon="10.4795027682">
		<tag k="ssr:gml_id" v="GEOMETRY_0254ca83-011c-49fc-8278-54e4753afba6" />
		<tag k="ssr:gml_nr" v="4" />
	</node>
	<node id="-29820" lat="63.4179194442" lon="10.4900333342">
		<tag k="ssr:gml_id" v="GEOMETRY_1af1c366-bea3-48c2-86cc-7e3845fd4b29" />
		<tag k="ssr:gml_nr" v="3" />
	</node>
	<node id="-29819" lat="63.4104722242" lon="10.4767305654">
		<tag k="ssr:gml_id" v="GEOMETRY_4538f820-bb8b-4460-a10b-103b71a6a959" />
		<tag k="ssr:gml_nr" v="2" />
	</node>
	<node id="-29818" lat="63.4104749963" lon="10.4767333316">
		<tag k="ssr:gml_id" v="GEOMETRY_a975e3c1-1689-43f9-8839-8e6f6ca25cd1" />
		<tag k="ssr:gml_nr" v="1" />
	</node>
	<node id="-29817" lat="63.406874997" lon="10.4728972277">
		<tag k="ssr:gml_id" v="GEOMETRY_9344b967-68df-422e-b622-eab9b3f2dd2d" />
		<tag k="ssr:gml_nr" v="0" />
	</node>
	<node id="-27763" lat="63.3651555536" lon="10.1991805496">
		<tag k="fixme" v="consider water=pond" />
		<tag k="name" v="Sagdammen" />
		<tag k="natural" v="water" />
		<tag k="ssr:date" v="2018-01-09" />
		<tag k="ssr:stedsnr" v="513904" />
		<tag k="water" v="lake" />
	</node>
	<node id="-29808" lat="63.4260777812" lon="10.2158333303">
		<tag k="name" v="Storgrovbekken" />
		<tag k="ssr:date" v="2018-01-09" />
		<tag k="ssr:stedsnr" v="754105" />
		<tag k="waterway" v="stream" />
	</node>
	<node id="-31853" lat="63.3971444437" lon="10.254883325">
		<tag k="name" v="Kvitsanden" />
		<tag k="natural" v="beach" />
		<tag k="ssr:date" v="2018-01-09" />
		<tag k="ssr:stedsnr" v="147168" />
	</node>
	<node id="-33896" lat="63.4187777776" lon="10.2609583345">
		<tag k="alt_name" v="Blomstertjørna" />
		<tag k="fixme" v="consider water=pond" />
		<tag k="name" v="Blomstertjønna" />
		<tag k="natural" v="water" />
		<tag k="ssr:date" v="2018-01-09" />
		<tag k="ssr:stedsnr" v="268828" />
		<tag k="water" v="lake" />
	</node>
	<node id="-31837" lat="63.447636108" lon="10.2224611171">
		<tag k="name" v="Svartbekken" />
		<tag k="ssr:date" v="2018-01-09" />
		<tag k="ssr:stedsnr" v="148740" />
		<tag k="waterway" v="stream" />
	</node>
	<node id="-31836" lat="63.3882138847" lon="10.2332000047">
		<tag k="ssr:gml_id" v="GEOMETRY_8324a144-d765-4771-bde6-bd9e3c2134bf" />
		<tag k="ssr:gml_nr" v="2" />
	</node>
	<node id="-31835" lat="63.3886944453" lon="10.2273194436">
		<tag k="ssr:gml_id" v="GEOMETRY_7eecc74d-d1a1-442b-85ec-5c1976f09826" />
		<tag k="ssr:gml_nr" v="1" />
	</node>
	<node id="-31834" lat="63.3883333314" lon="10.2305861034">
		<tag k="ssr:gml_id" v="GEOMETRY_fb655cee-eea1-4bd9-a8d3-38a3323d7790" />
		<tag k="ssr:gml_nr" v="0" />
	</node>
	<node id="-31828" lat="63.3679638893" lon="10.2968055609">
		<tag k="name" v="Smistadbekken" />
		<tag k="ssr:date" v="2018-01-09" />
		<tag k="ssr:stedsnr" v="510108" />
		<tag k="waterway" v="stream" />
	</node>
	<node id="-29779" lat="63.3927972255" lon="10.318097217">
		<tag k="ssr:gml_id" v="GEOMETRY_24ee9d55-0381-4c38-828f-5ede0dbf3c82" />
		<tag k="ssr:gml_nr" v="1" />
	</node>
	<node id="-29778" lat="63.392811113" lon="10.3180999956">
		<tag k="ssr:gml_id" v="GEOMETRY_c9ba378d-8374-4bd1-aa24-fb19f75809bf" />
		<tag k="ssr:gml_nr" v="0" />
	</node>
	<node id="-31825" lat="63.3421777792" lon="10.6130500069">
		<tag k="ssr:gml_id" v="GEOMETRY_81525080-f02c-4efc-8cc9-6c6d6b31db82" />
		<tag k="ssr:gml_nr" v="2" />
	</node>
	<node id="-31824" lat="63.3421916666" lon="10.6130500055">
		<tag k="ssr:gml_id" v="GEOMETRY_410ec7ce-f4a2-4f18-a822-eba761f8169f" />
		<tag k="ssr:gml_nr" v="1" />
	</node>
	<node id="-31823" lat="63.3430444473" lon="10.6129805645">
		<tag k="ssr:gml_id" v="GEOMETRY_8aca603e-0fe4-4f47-81d2-b87a7d436913" />
		<tag k="ssr:gml_nr" v="0" />
	</node>
	<node id="-29774" lat="63.4078555589" lon="10.3395777862">
		<tag k="ssr:gml_id" v="GEOMETRY_f01efb05-c19e-4254-ac23-79d088dff023" />
		<tag k="ssr:gml_nr" v="0" />
	</node>
	<node id="-31475" lat="63.4284916648" lon="10.2162166755">
		<tag k="ssr:gml_id" v="GEOMETRY_41236e88-e1f6-418d-8690-baecfdbec23c" />
		<tag k="ssr:gml_nr" v="0" />
	</node>
	<node id="-33861" lat="63.3909333344" lon="10.4790277737">
		<tag k="fixme" v="consider water=pond" />
		<tag k="name" v="Tømmerholtdammen" />
		<tag k="natural" v="water" />
		<tag k="ssr:date" v="2018-01-09" />
		<tag k="ssr:stedsnr" v="849624" />
		<tag k="water" v="lake" />
	</node>
	<node id="-29761" lat="63.4178027803" lon="10.3270000095">
		<tag k="name" v="Baklibekken" />
		<tag k="ssr:date" v="2018-01-09" />
		<tag k="ssr:stedsnr" v="271166" />
		<tag k="waterway" v="stream" />
	</node>
	<node id="-28133" lat="63.3834972242" lon="10.4785638864">
		<tag k="ssr:gml_id" v="GEOMETRY_c347f557-4de0-4e13-9746-dfdfa3b1f945" />
		<tag k="ssr:gml_nr" v="1" />
	</node>
	<node id="-27711" lat="63.373547226" lon="10.2443527797">
		<tag k="ssr:gml_id" v="GEOMETRY_326a48cb-e7a9-4496-a187-dbb37370e144" />
		<tag k="ssr:gml_nr" v="1" />
	</node>
	<node id="-27710" lat="63.3723777793" lon="10.2447027684">
		<tag k="ssr:gml_id" v="GEOMETRY_2b128ab8-c49a-48b7-bec3-bcf821a88156" />
		<tag k="ssr:gml_nr" v="0" />
	</node>
	<node id="-31800" lat="63.3846694455" lon="10.284011103">
		<tag k="name" v="Gibraltar" />
		<tag k="natural" v="cape" />
		<tag k="place" v="locality" />
		<tag k="ssr:date" v="2018-01-09" />
		<tag k="ssr:stedsnr" v="876177" />
	</node>
	<node id="-29747" lat="63.3836694405" lon="10.2932111033">
		<tag k="name" v="Gammeldammen" />
		<tag k="place" v="locality" />
		<tag k="ssr:date" v="2018-01-09" />
		<tag k="ssr:stedsnr" v="85153" />
	</node>
	<node id="-31794" lat="63.3704611136" lon="10.214197221">
		<tag k="ssr:gml_id" v="GEOMETRY_653ed3a9-efd3-4e9a-a84a-835d3724fca1" />
		<tag k="ssr:gml_nr" v="2" />
	</node>
	<node id="-31793" lat="63.3704638905" lon="10.2141999981">
		<tag k="ssr:gml_id" v="GEOMETRY_48050da5-fd96-4f58-bfbc-df3409b3f926" />
		<tag k="ssr:gml_nr" v="1" />
	</node>
	<node id="-31792" lat="63.3704666641" lon="10.2141999952">
		<tag k="ssr:gml_id" v="GEOMETRY_53d9abfb-87ab-4da0-a073-1fcf2eb38154" />
		<tag k="ssr:gml_nr" v="0" />
	</node>
	<node id="-27826" lat="63.3037000001" lon="10.3997249995">
		<tag k="ssr:gml_id" v="GEOMETRY_ec7bdcf5-2e6d-48e9-b6bc-4a1587ba75d3" />
		<tag k="ssr:gml_nr" v="0" />
	</node>
	<node id="-31777" lat="63.3763999967" lon="10.2479833344">
		<tag k="ssr:gml_id" v="GEOMETRY_d1fa4a57-f843-46a3-ad11-f17115276abd" />
		<tag k="ssr:gml_nr" v="2" />
	</node>
	<node id="-31776" lat="63.3764027819" lon="10.2479861157">
		<tag k="ssr:gml_id" v="GEOMETRY_a1a959e9-a481-4550-bfb0-17b7c4760100" />
		<tag k="ssr:gml_nr" v="1" />
	</node>
	<node id="-31775" lat="63.376413887" lon="10.2479972193">
		<tag k="ssr:gml_id" v="GEOMETRY_df9636f0-9111-4da9-8a56-d0eeb580d4f1" />
		<tag k="ssr:gml_nr" v="0" />
	</node>
	<node id="-31770" lat="63.34407778" lon="10.5753999921">
		<tag k="ssr:gml_id" v="GEOMETRY_78096233-b256-4e61-81da-329429728922" />
		<tag k="ssr:gml_nr" v="2" />
	</node>
	<node id="-31769" lat="63.3441805519" lon="10.5749361083">
		<tag k="ssr:gml_id" v="GEOMETRY_5674b36e-53e6-4600-b1c8-d3054a1584fe" />
		<tag k="ssr:gml_nr" v="1" />
	</node>
	<node id="-31768" lat="63.3440916702" lon="10.5754111029">
		<tag k="ssr:gml_id" v="GEOMETRY_c2b78bec-9ecd-4c9c-9506-93b4e8c2d4ec" />
		<tag k="ssr:gml_nr" v="0" />
	</node>
	<node id="-29714" lat="63.3982055553" lon="10.2698027867">
		<tag k="ssr:gml_id" v="GEOMETRY_abe9b248-005d-4ac7-8a9f-b089b5b6d0c6" />
		<tag k="ssr:gml_nr" v="2" />
	</node>
	<node id="-31761" lat="63.4209833359" lon="10.2227888982">
		<tag k="name" v="Kudalsbekken" />
		<tag k="ssr:date" v="2018-01-09" />
		<tag k="ssr:stedsnr" v="513099" />
		<tag k="waterway" v="stream" />
	</node>
	<node id="-29712" lat="63.3981111106" lon="10.270138884">
		<tag k="ssr:gml_id" v="GEOMETRY_d0c0abd4-650b-436b-a605-3b794b7dff4f" />
		<tag k="ssr:gml_nr" v="0" />
	</node>
	<node id="-30210" lat="63.3549527755" lon="10.6387138972">
		<tag k="name" v="Sivertvika" />
		<tag k="natural" v="bay" />
		<tag k="ssr:date" v="2018-01-09" />
		<tag k="ssr:stedsnr" v="951106" />
	</node>
	<node id="-33798" lat="63.3673055554" lon="10.1998888874">
		<tag k="ssr:gml_id" v="GEOMETRY_e4901221-a6fc-463f-a74e-e6b6e5ae3e3f" />
		<tag k="ssr:gml_nr" v="2" />
	</node>
	<node id="-33797" lat="63.3668638847" lon="10.1987111014">
		<tag k="ssr:gml_id" v="GEOMETRY_409cf9ed-c13c-4b5a-9fe8-3f8f89d856c5" />
		<tag k="ssr:gml_nr" v="1" />
	</node>
	<node id="-33796" lat="63.3629305545" lon="10.1932861133">
		<tag k="ssr:gml_id" v="GEOMETRY_8f3b35ac-23fc-4077-bcd5-1b53e8747024" />
		<tag k="ssr:gml_nr" v="0" />
	</node>
	<node id="-31747" lat="63.3745111093" lon="10.2234527767">
		<tag k="alt_name" v="Klokktjørna" />
		<tag k="fixme" v="consider water=pond" />
		<tag k="name" v="Klokktjønna" />
		<tag k="natural" v="water" />
		<tag k="ssr:date" v="2018-01-09" />
		<tag k="ssr:stedsnr" v="88511" />
		<tag k="water" v="lake" />
	</node>
	<node id="-30207" lat="63.3202777808" lon="10.6003638925">
		<tag k="ssr:gml_id" v="GEOMETRY_4209a742-c1b2-4aef-a4db-dc98f1350fa9" />
		<tag k="ssr:gml_nr" v="3" />
	</node>
	<node id="-33783" lat="63.3812722248" lon="10.5920750015">
		<tag k="ssr:gml_id" v="GEOMETRY_cdf63ccc-40a4-41cc-8aea-c2d7f7d567ab" />
		<tag k="ssr:gml_nr" v="1" />
	</node>
	<node id="-33782" lat="63.3812861121" lon="10.5920749903">
		<tag k="ssr:gml_id" v="GEOMETRY_a0522a07-5c68-480f-b59e-c9507e5fa186" />
		<tag k="ssr:gml_nr" v="0" />
	</node>
	<node id="-34302" lat="63.4050027783" lon="10.5335027731">
		<tag k="ssr:gml_id" v="GEOMETRY_0b00ca6d-e36e-49ea-9c14-800a531278b0" />
		<tag k="ssr:gml_nr" v="3" />
	</node>
	<node id="-31730" lat="63.3567888848" lon="10.2464861082">
		<tag k="ssr:gml_id" v="GEOMETRY_5f185029-2818-42f3-9376-b6945ba7cc54" />
		<tag k="ssr:gml_nr" v="0" />
	</node>
	<node id="-30205" lat="63.322941666" lon="10.5966388975">
		<tag k="ssr:gml_id" v="GEOMETRY_ce2d021c-1d7a-4370-842f-11df8a66eae3" />
		<tag k="ssr:gml_nr" v="1" />
	</node>
	<node id="-27628" lat="63.3650222183" lon="10.6186777843">
		<tag k="ssr:gml_id" v="GEOMETRY_b05ef019-7370-41dc-a6e4-a0c2a62f1710" />
		<tag k="ssr:gml_nr" v="1" />
	</node>
	<node id="-31723" lat="63.3719416704" lon="10.2267027826">
		<tag k="name" v="Sandbekken" />
		<tag k="ssr:date" v="2018-01-09" />
		<tag k="ssr:stedsnr" v="88504" />
		<tag k="waterway" v="stream" />
	</node>
	<node id="-27626" lat="63.359322223" lon="10.5496555616">
		<tag k="fixme" v="consider water=pond" />
		<tag k="name" v="Digresauntjønna" />
		<tag k="natural" v="water" />
		<tag k="ssr:date" v="2018-01-09" />
		<tag k="ssr:stedsnr" v="475309" />
		<tag k="water" v="lake" />
	</node>
	<node id="-34300" lat="63.4116333331" lon="10.5410805486">
		<tag k="ssr:gml_id" v="GEOMETRY_1e9366a8-6c4c-474e-b385-c37b28910c26" />
		<tag k="ssr:gml_nr" v="1" />
	</node>
	<node id="-33766" lat="63.3654999974" lon="10.5820277843">
		<tag k="ssr:gml_id" v="GEOMETRY_60d65159-1f00-4cbc-8796-7f1c36ee40bb" />
		<tag k="ssr:gml_nr" v="8" />
	</node>
	<node id="-33765" lat="63.340655556" lon="10.6383416584">
		<tag k="ssr:gml_id" v="GEOMETRY_b6d9932c-8f0a-4eb0-922d-3f8309d042a6" />
		<tag k="ssr:gml_nr" v="7" />
	</node>
	<node id="-33764" lat="63.3601305596" lon="10.5798083329">
		<tag k="ssr:gml_id" v="GEOMETRY_ff3656c2-c813-41bb-97a9-c091238558b9" />
		<tag k="ssr:gml_nr" v="6" />
	</node>
	<node id="-33763" lat="63.3713638927" lon="10.5998472309">
		<tag k="ssr:gml_id" v="GEOMETRY_327e2eac-c0ac-4e71-a67d-76bdcb0ab803" />
		<tag k="ssr:gml_nr" v="5" />
	</node>
	<node id="-33762" lat="63.3756361153" lon="10.5747388836">
		<tag k="ssr:gml_id" v="GEOMETRY_3331f135-8ab1-4ceb-a327-92665d044485" />
		<tag k="ssr:gml_nr" v="4" />
	</node>
	<node id="-27617" lat="63.3474944462" lon="10.2028916717">
		<tag k="ssr:gml_id" v="GEOMETRY_ac8c1038-89f2-4f95-9105-deab7990fc2e" />
		<tag k="ssr:gml_nr" v="3" />
	</node>
	<node id="-33760" lat="63.3786111119" lon="10.5797305479">
		<tag k="ssr:gml_id" v="GEOMETRY_ee1138da-d802-443a-a049-cef4a01374ed" />
		<tag k="ssr:gml_nr" v="2" />
	</node>
	<node id="-33759" lat="63.3786138856" lon="10.5797305603">
		<tag k="ssr:gml_id" v="GEOMETRY_97d0dfb5-8b19-4599-89d4-b73c2f5efd72" />
		<tag k="ssr:gml_nr" v="1" />
	</node>
	<node id="-33758" lat="63.3654999962" lon="10.5820416623">
		<tag k="ssr:gml_id" v="GEOMETRY_bb3e5637-a541-429e-8ff3-45d9b8b3f3b6" />
		<tag k="ssr:gml_nr" v="0" />
	</node>
	<node id="-33757" lat="63.3668583317" lon="10.5600972269">
		<tag k="ssr:gml_id" v="GEOMETRY_fc11dfa4-c842-43e6-b221-f8c91a3f0b29" />
		<tag k="ssr:gml_nr" v="1" />
	</node>
	<node id="-33756" lat="63.3668722244" lon="10.5601000002">
		<tag k="ssr:gml_id" v="GEOMETRY_b76dcc20-d127-4689-b3e0-52a4ea0cdae8" />
		<tag k="ssr:gml_nr" v="0" />
	</node>
	<node id="-27602" lat="63.3940722202" lon="10.5303305489">
		<tag k="name" v="Trongsundet" />
		<tag k="natural" v="strait" />
		<tag k="place" v="locality" />
		<tag k="ssr:date" v="2018-01-09" />
		<tag k="ssr:stedsnr" v="475288" />
	</node>
	<node id="-31695" lat="63.3798999982" lon="10.3693055622">
		<tag k="name" v="Heimdalsbekken" />
		<tag k="ssr:date" v="2018-01-09" />
		<tag k="ssr:stedsnr" v="232876" />
		<tag k="waterway" v="river" />
	</node>
	<node id="-27587" lat="63.3551833292" lon="10.5389166582">
		<tag k="ssr:gml_id" v="GEOMETRY_c42518a4-1797-41af-b427-60d89831fca0" />
		<tag k="ssr:gml_nr" v="2" />
	</node>
	<node id="-27586" lat="63.3554749982" lon="10.5405777764">
		<tag k="ssr:gml_id" v="GEOMETRY_f9f7bc3c-4e9f-4fff-a962-f89e535cdb9e" />
		<tag k="ssr:gml_nr" v="1" />
	</node>
	<node id="-27585" lat="63.3554777748" lon="10.5405916582">
		<tag k="ssr:gml_id" v="GEOMETRY_47bebf2e-fe4f-44fd-bc63-e28a14b833f7" />
		<tag k="ssr:gml_nr" v="0" />
	</node>
	<node id="-31680" lat="63.3833750044" lon="10.2372361185">
		<tag k="ssr:gml_id" v="GEOMETRY_ba45c65c-99bd-4077-ac0d-bcc4053c1a41" />
		<tag k="ssr:gml_nr" v="0" />
	</node>
	<node id="-33714" lat="63.407674998" lon="10.5658416713">
		<tag k="ssr:gml_id" v="GEOMETRY_a68667eb-5817-4dd8-8533-d9ddec680db9" />
		<tag k="ssr:gml_nr" v="3" />
	</node>
	<node id="-33713" lat="63.4074305582" lon="10.5670555577">
		<tag k="ssr:gml_id" v="GEOMETRY_f7b1b92f-87d9-4ab5-a8c4-db5371d2112e" />
		<tag k="ssr:gml_nr" v="2" />
	</node>
	<node id="-33712" lat="63.4065805544" lon="10.5657027684">
		<tag k="ssr:gml_id" v="GEOMETRY_ab9e6af8-c829-4295-8fdf-aa26ca68f824" />
		<tag k="ssr:gml_nr" v="1" />
	</node>
	<node id="-33711" lat="63.4074444455" lon="10.5670694529">
		<tag k="ssr:gml_id" v="GEOMETRY_4a25b231-75e3-48c7-aa09-1f1389d24f2c" />
		<tag k="ssr:gml_nr" v="0" />
	</node>
	<node id="-33709" lat="63.378811114" lon="10.3033361044">
		<tag k="fixme" v="multiple name tags, choose one and add the other to alt_name; consider water=pond" />
		<tag k="name" v="Ytre Stryptjønna;Øvre Hallatjønna" />
		<tag k="natural" v="water" />
		<tag k="ssr:date" v="2018-01-09" />
		<tag k="ssr:stedsnr" v="329148" />
		<tag k="water" v="lake" />
	</node>
	<node id="-29612" lat="63.4084333351" lon="10.2128166677">
		<tag k="ssr:gml_id" v="GEOMETRY_1ef3d96a-57fc-435d-a71a-e2568bd70890" />
		<tag k="ssr:gml_nr" v="2" />
	</node>
	<node id="-29611" lat="63.408436112" lon="10.2128194483">
		<tag k="ssr:gml_id" v="GEOMETRY_cc4baef1-1a7d-4f83-8034-713f0a88860e" />
		<tag k="ssr:gml_nr" v="1" />
	</node>
	<node id="-29610" lat="63.4091472242" lon="10.2130944388">
		<tag k="ssr:gml_id" v="GEOMETRY_8dcaff4d-9126-4d58-9c87-ebcbcf08e9cc" />
		<tag k="ssr:gml_nr" v="0" />
	</node>
	<node id="-29602" lat="63.4157694412" lon="10.1658416661">
		<tag k="ssr:gml_id" v="GEOMETRY_679a6137-eb3d-4bf5-bf15-c32851c6a878" />
		<tag k="ssr:gml_nr" v="1" />
	</node>
	<node id="-29601" lat="63.4157388926" lon="10.1661194458">
		<tag k="ssr:gml_id" v="GEOMETRY_1bdba37e-168d-4c70-b042-39cf8d6191e2" />
		<tag k="ssr:gml_nr" v="0" />
	</node>
	<node id="-33695" lat="63.3181555581" lon="10.6224250055">
		<tag k="ssr:gml_id" v="GEOMETRY_3225ecd0-d980-4165-b661-60a6104b2126" />
		<tag k="ssr:gml_nr" v="3" />
	</node>
	<node id="-33694" lat="63.321716665" lon="10.6270611068">
		<tag k="ssr:gml_id" v="GEOMETRY_b7b79d27-15ea-4c82-a21b-f69ed9c3815b" />
		<tag k="ssr:gml_nr" v="2" />
	</node>
	<node id="-33693" lat="63.317447218" lon="10.6220083345">
		<tag k="ssr:gml_id" v="GEOMETRY_7c60c042-4ae9-40dc-8054-b4579b0f893b" />
		<tag k="ssr:gml_nr" v="1" />
	</node>
	<node id="-33692" lat="63.3181694409" lon="10.6224277833">
		<tag k="ssr:gml_id" v="GEOMETRY_5c2c1415-cab6-4ab2-98de-b5ce61235f42" />
		<tag k="ssr:gml_nr" v="0" />
	</node>
	<node id="-33690" lat="63.437491671" lon="10.3109138806">
		<tag k="name" v="Kinnbekken" />
		<tag k="ssr:date" v="2018-01-09" />
		<tag k="ssr:stedsnr" v="208772" />
		<tag k="waterway" v="stream" />
	</node>
	<node id="-33684" lat="63.3421944485" lon="10.5749472268">
		<tag k="name" v="Haversundet" />
		<tag k="natural" v="strait" />
		<tag k="place" v="locality" />
		<tag k="ssr:date" v="2018-01-09" />
		<tag k="ssr:stedsnr" v="596287" />
	</node>
	<node id="-29570" lat="63.3700972229" lon="10.2322833405">
		<tag k="name" v="Indre Sandbekken" />
		<tag k="ssr:date" v="2018-01-09" />
		<tag k="ssr:stedsnr" v="148236" />
		<tag k="waterway" v="stream" />
	</node>
	<node id="-34283" lat="63.4412611145" lon="10.3000777686">
		<tag k="ssr:gml_id" v="GEOMETRY_047b3ed0-1ea4-45d4-ae70-702a73634e58" />
		<tag k="ssr:gml_nr" v="0" />
	</node>
	<node id="-27513" lat="63.4469500027" lon="10.2027805622">
		<tag k="fixme" v="multiple name tags, choose one and add the other to alt_name" />
		<tag k="name" v="Flakkbekken;Rennarbekken" />
		<tag k="ssr:date" v="2018-01-09" />
		<tag k="ssr:stedsnr" v="149673" />
		<tag k="waterway" v="stream" />
	</node>
	<node id="-29560" lat="63.3837527768" lon="10.556513894">
		<tag k="ssr:gml_id" v="GEOMETRY_fb3a5f07-c0b9-4c3e-ab7d-8f7bbdac40c0" />
		<tag k="ssr:gml_nr" v="0" />
	</node>
	<node id="-29180" lat="63.3350222187" lon="10.6545277805">
		<tag k="ssr:gml_id" v="GEOMETRY_b74f58c1-bd3e-405e-a6b5-3e2e35d9b3f2" />
		<tag k="ssr:gml_nr" v="2" />
	</node>
	<node id="-27113" lat="63.3570694469" lon="10.2765027746">
		<tag k="ssr:gml_id" v="GEOMETRY_e073cc64-755c-46c0-8dd1-525fd91e9e75" />
		<tag k="ssr:gml_nr" v="0" />
	</node>
	<node id="-31597" lat="63.3903777816" lon="10.2352166703">
		<tag k="name" v="Svenskbekken" />
		<tag k="ssr:date" v="2018-01-09" />
		<tag k="ssr:stedsnr" v="453220" />
		<tag k="waterway" v="stream" />
	</node>
	<node id="-33255" lat="63.3369833371" lon="10.6779277704">
		<tag k="ssr:gml_id" v="GEOMETRY_5e435fb5-1d9a-4321-b540-56aaffc3bfe9" />
		<tag k="ssr:gml_nr" v="2" />
	</node>
	<node id="-31588" lat="63.4256416629" lon="10.3322722205">
		<tag k="ssr:gml_id" v="GEOMETRY_1597e577-c8e3-4fef-907a-bd054983fdb2" />
		<tag k="ssr:gml_nr" v="1" />
	</node>
	<node id="-31587" lat="63.4255416706" lon="10.3382583358">
		<tag k="ssr:gml_id" v="GEOMETRY_21cd2cb6-382b-49f8-9013-92887f4d1ff3" />
		<tag k="ssr:gml_nr" v="0" />
	</node>
	<node id="-33629" lat="63.4444888876" lon="10.3132972184">
		<tag k="fixme" v="consider water=pond" />
		<tag k="name" v="Munkauntjønna" />
		<tag k="natural" v="water" />
		<tag k="ssr:date" v="2018-01-09" />
		<tag k="ssr:stedsnr" v="208771" />
		<tag k="water" v="lake" />
	</node>
	<node id="-29530" lat="63.3931027813" lon="10.5235750003">
		<tag k="ssr:gml_id" v="GEOMETRY_21eb5bcc-06eb-4fce-b576-a2358d337b3f" />
		<tag k="ssr:gml_nr" v="7" />
	</node>
	<node id="-29529" lat="63.3887611081" lon="10.5476611202">
		<tag k="ssr:gml_id" v="GEOMETRY_98d79fdf-19bd-4a2c-a9b8-dcba3c0c5957" />
		<tag k="ssr:gml_nr" v="6" />
	</node>
	<node id="-29528" lat="63.395400004" lon="10.5362861093">
		<tag k="ssr:gml_id" v="GEOMETRY_6972cb5c-05a7-4015-b543-28cae5417060" />
		<tag k="ssr:gml_nr" v="5" />
	</node>
	<node id="-29527" lat="63.3762250005" lon="10.5447250069">
		<tag k="ssr:gml_id" v="GEOMETRY_0fd375b2-8668-46ce-9bde-5566d2783372" />
		<tag k="ssr:gml_nr" v="4" />
	</node>
	<node id="-29526" lat="63.3940249963" lon="10.5301777873">
		<tag k="ssr:gml_id" v="GEOMETRY_caab8a49-fa26-4b76-972f-3c545c39cc04" />
		<tag k="ssr:gml_nr" v="3" />
	</node>
	<node id="-29525" lat="63.3910750039" lon="10.5490305518">
		<tag k="ssr:gml_id" v="GEOMETRY_060dc3e5-b012-4488-98b6-e1184f4f52af" />
		<tag k="ssr:gml_nr" v="2" />
	</node>
	<node id="-29524" lat="63.3910777796" lon="10.5490444516">
		<tag k="ssr:gml_id" v="GEOMETRY_91ae8b6e-c631-447c-bcdf-58dc7f1150a4" />
		<tag k="ssr:gml_nr" v="1" />
	</node>
	<node id="-29523" lat="63.3940361073" lon="10.5301888879">
		<tag k="ssr:gml_id" v="GEOMETRY_a675f712-f156-44c4-9856-9c3fd89fa4f6" />
		<tag k="ssr:gml_nr" v="0" />
	</node>
	<node id="-31564" lat="63.3927222217" lon="10.2867722281">
		<tag k="name" v="Holbekken" />
		<tag k="ssr:date" v="2018-01-09" />
		<tag k="ssr:stedsnr" v="210026" />
		<tag k="waterway" v="stream" />
	</node>
	<node id="-31560" lat="63.368052782" lon="10.5509444433">
		<tag k="name" v="Furuodden" />
		<tag k="natural" v="cape" />
		<tag k="place" v="locality" />
		<tag k="ssr:date" v="2018-01-09" />
		<tag k="ssr:stedsnr" v="526389" />
	</node>
	<node id="-27449" lat="63.3458805529" lon="10.6646777797">
		<tag k="alt_name" v="Langenbekken" />
		<tag k="name" v="Langengbekken" />
		<tag k="ssr:date" v="2018-01-09" />
		<tag k="ssr:stedsnr" v="475265" />
		<tag k="waterway" v="stream" />
	</node>
	<node id="-33245" lat="63.4072999968" lon="10.1816499922">
		<tag k="ssr:gml_id" v="GEOMETRY_e273979a-d31c-48b8-8cb7-9716a8486dfc" />
		<tag k="ssr:gml_nr" v="0" />
	</node>
	<node id="-29480" lat="63.3732083348" lon="10.6334944519">
		<tag k="name" v="Herjuvatnet" />
		<tag k="natural" v="water" />
		<tag k="ssr:date" v="2018-01-09" />
		<tag k="ssr:stedsnr" v="414293" />
		<tag k="water" v="lake" />
	</node>
	<node id="-33573" lat="63.3410249962" lon="10.5614777791">
		<tag k="name" v="Breivikbukta" />
		<tag k="natural" v="bay" />
		<tag k="ssr:date" v="2018-01-09" />
		<tag k="ssr:stedsnr" v="596283" />
	</node>
	<node id="-33560" lat="63.3972666644" lon="10.2461583394">
		<tag k="ssr:gml_id" v="GEOMETRY_9217d0f7-a094-41d1-807d-442b010f35f4" />
		<tag k="ssr:gml_nr" v="2" />
	</node>
	<node id="-33559" lat="63.3964472259" lon="10.2411472154">
		<tag k="ssr:gml_id" v="GEOMETRY_43449fbc-6b64-4cd2-9628-0002a39b17fd" />
		<tag k="ssr:gml_nr" v="1" />
	</node>
	<node id="-33558" lat="63.3964555517" lon="10.2411611066">
		<tag k="ssr:gml_id" v="GEOMETRY_fa23d91c-200a-42ae-8a37-913faad016f8" />
		<tag k="ssr:gml_nr" v="0" />
	</node>
	<node id="-31502" lat="63.395277775" lon="10.551875003">
		<tag k="name" v="Tronøya" />
		<tag k="place" v="islet" />
		<tag k="ssr:date" v="2018-01-09" />
		<tag k="ssr:stedsnr" v="85480" />
	</node>
	<node id="-29453" lat="63.4241777751" lon="10.317819443">
		<tag k="name" v="Helkansæterbekken" />
		<tag k="ssr:date" v="2018-01-09" />
		<tag k="ssr:stedsnr" v="634119" />
		<tag k="waterway" v="stream" />
	</node>
	<node id="-29444" lat="63.4388777822" lon="10.2911555491">
		<tag k="ssr:gml_id" v="GEOMETRY_d32450bd-83b2-45e0-b58e-fb21b30a84b5" />
		<tag k="ssr:gml_nr" v="3" />
	</node>
	<node id="-29443" lat="63.4388916684" lon="10.2911694454">
		<tag k="ssr:gml_id" v="GEOMETRY_d6f0d938-8569-42bb-884c-d64039023078" />
		<tag k="ssr:gml_nr" v="2" />
	</node>
	<node id="-29442" lat="63.4383916642" lon="10.2908472171">
		<tag k="ssr:gml_id" v="GEOMETRY_7c271739-7e55-4a2f-90cb-808be0b6e0e6" />
		<tag k="ssr:gml_nr" v="1" />
	</node>
	<node id="-32555" lat="63.3173194474" lon="10.6704361018">
		<tag k="fixme" v="consider water=pond" />
		<tag k="name" v="Kutjønna" />
		<tag k="natural" v="water" />
		<tag k="ssr:date" v="2018-01-09" />
		<tag k="ssr:stedsnr" v="665067" />
		<tag k="water" v="lake" />
	</node>
	<node id="-29440" lat="63.3887777749" lon="10.5828833265">
		<tag k="name" v="Jervbekken" />
		<tag k="ssr:date" v="2018-01-09" />
		<tag k="ssr:stedsnr" v="770416" />
		<tag k="waterway" v="stream" />
	</node>
	<node id="-29434" lat="63.4251833329" lon="10.3572194349">
		<tag k="ssr:gml_id" v="GEOMETRY_eb1c097e-6312-4f8e-be7e-af4d3af7a4f5" />
		<tag k="ssr:gml_nr" v="10" />
	</node>
	<node id="-29433" lat="63.4251500028" lon="10.3522277717">
		<tag k="ssr:gml_id" v="GEOMETRY_73309413-8939-47bb-a3ed-d09f2a03c7e4" />
		<tag k="ssr:gml_nr" v="9" />
	</node>
	<node id="-29432" lat="63.4283805521" lon="10.3591138944">
		<tag k="ssr:gml_id" v="GEOMETRY_073ed97c-2ecd-46f0-8c20-94065e2169c1" />
		<tag k="ssr:gml_nr" v="8" />
	</node>
	<node id="-29431" lat="63.4277666677" lon="10.3582833351">
		<tag k="ssr:gml_id" v="GEOMETRY_fa2027b4-d365-4d87-aab0-1a3729ae2678" />
		<tag k="ssr:gml_nr" v="7" />
	</node>
	<node id="-29430" lat="63.4183583313" lon="10.3356194459">
		<tag k="ssr:gml_id" v="GEOMETRY_766e1fa2-5eb5-4257-b44a-30e4a8e4f585" />
		<tag k="ssr:gml_nr" v="6" />
	</node>
	<node id="-33525" lat="63.3720805572" lon="10.4156472187">
		<tag k="ssr:gml_id" v="GEOMETRY_ac8b9bf5-6bc3-4cd7-9ddb-0667355aa578" />
		<tag k="ssr:gml_nr" v="2" />
	</node>
	<node id="-31476" lat="63.4298749965" lon="10.2126861106">
		<tag k="ssr:gml_id" v="GEOMETRY_0398519e-0f6d-497e-8247-e8c5e6dd64df" />
		<tag k="ssr:gml_nr" v="1" />
	</node>
	<node id="-33523" lat="63.3720944425" lon="10.4156527824">
		<tag k="ssr:gml_id" v="GEOMETRY_8e868a7e-ccdc-4224-8850-d6cd0aabf1e1" />
		<tag k="ssr:gml_nr" v="0" />
	</node>
	<node id="-29426" lat="63.4285416626" lon="10.3601027857">
		<tag k="ssr:gml_id" v="GEOMETRY_db030da5-f060-48f6-ac92-63344f22f028" />
		<tag k="ssr:gml_nr" v="2" />
	</node>
	<node id="-29425" lat="63.4251722228" lon="10.3507249961">
		<tag k="ssr:gml_id" v="GEOMETRY_c2608886-13d7-4732-982a-b7bc64bd696b" />
		<tag k="ssr:gml_nr" v="1" />
	</node>
	<node id="-29424" lat="63.4253027799" lon="10.3560027835">
		<tag k="ssr:gml_id" v="GEOMETRY_6d65bb70-4dda-4c7b-b47c-26a8587130bb" />
		<tag k="ssr:gml_nr" v="0" />
	</node>
	<node id="-29418" lat="63.4419500038" lon="10.3110555588">
		<tag k="fixme" v="consider water=pond" />
		<tag k="name" v="Tiendalsdammen" />
		<tag k="natural" v="water" />
		<tag k="ssr:date" v="2018-01-09" />
		<tag k="ssr:stedsnr" v="878915" />
		<tag k="water" v="lake" />
	</node>
	<node id="-29415" lat="63.39144722" lon="10.4819472174">
		<tag k="ssr:gml_id" v="GEOMETRY_e424d4fa-2191-4c8e-a353-e5718ac23970" />
		<tag k="ssr:gml_nr" v="2" />
	</node>
	<node id="-29414" lat="63.3905361123" lon="10.4775861067">
		<tag k="ssr:gml_id" v="GEOMETRY_d12d6a5d-1ab3-46e3-ab08-6bee1f29d33c" />
		<tag k="ssr:gml_nr" v="1" />
	</node>
	<node id="-29413" lat="63.3914583363" lon="10.4819555564">
		<tag k="ssr:gml_id" v="GEOMETRY_c27c5a0e-714b-4237-a7f2-37fb93a5aeb3" />
		<tag k="ssr:gml_nr" v="0" />
	</node>
	<node id="-29411" lat="63.3466611077" lon="10.4858638971">
		<tag k="ssr:gml_id" v="GEOMETRY_36e2c832-fa1a-4231-98a8-d8d540a228c6" />
		<tag k="ssr:gml_nr" v="1" />
	</node>
	<node id="-29410" lat="63.341697223" lon="10.479913894">
		<tag k="ssr:gml_id" v="GEOMETRY_8d139118-b988-4b3a-8cd3-dc36115a1c4e" />
		<tag k="ssr:gml_nr" v="0" />
	</node>
	<node id="-33504" lat="63.3106222252" lon="10.7135388862">
		<tag k="ssr:gml_id" v="GEOMETRY_d82a510a-6ae4-4fc1-91db-37b46bf80c4f" />
		<tag k="ssr:gml_nr" v="2" />
	</node>
	<node id="-33503" lat="63.3106194423" lon="10.7135388805">
		<tag k="ssr:gml_id" v="GEOMETRY_4cc11cf0-939e-49c9-bfba-e1f95f599e5f" />
		<tag k="ssr:gml_nr" v="1" />
	</node>
	<node id="-33502" lat="63.3106222267" lon="10.7137388854">
		<tag k="ssr:gml_id" v="GEOMETRY_b6d95e68-ea66-4ae2-8d23-455915939a0d" />
		<tag k="ssr:gml_nr" v="0" />
	</node>
	<node id="-29403" lat="63.3709944461" lon="10.5551638856">
		<tag k="name" v="Kårodden" />
		<tag k="natural" v="cape" />
		<tag k="place" v="locality" />
		<tag k="ssr:date" v="2018-01-09" />
		<tag k="ssr:stedsnr" v="587406" />
	</node>
	<node id="-33495" lat="63.393086115" lon="10.2016333359">
		<tag k="fixme" v="consider water=pond" />
		<tag k="name" v="Bykleivvatnet" />
		<tag k="natural" v="water" />
		<tag k="ssr:date" v="2018-01-09" />
		<tag k="ssr:stedsnr" v="691869" />
		<tag k="water" v="lake" />
	</node>
	<node id="-33492" lat="63.3629972244" lon="10.5633694477">
		<tag k="ssr:gml_id" v="GEOMETRY_40b0848f-7450-4b57-9354-b0e199e0d56e" />
		<tag k="ssr:gml_nr" v="1" />
	</node>
	<node id="-33491" lat="63.3647750015" lon="10.5641472266">
		<tag k="ssr:gml_id" v="GEOMETRY_1499dbe6-2870-4dc1-8ddf-d234f1f44257" />
		<tag k="ssr:gml_nr" v="0" />
	</node>
	<node id="-27344" lat="63.3984249966" lon="10.4478222317">
		<tag k="name" v="Steinan høydebasseng" />
		<tag k="ssr:date" v="2018-01-09" />
		<tag k="ssr:stedsnr" v="476740" />
		<tag k="waterway" v="dam" />
	</node>
	<node id="-27343" lat="63.3919055531" lon="10.330908324">
		<tag k="name" v="Stolpstubekken" />
		<tag k="ssr:date" v="2018-01-09" />
		<tag k="ssr:stedsnr" v="89225" />
		<tag k="waterway" v="stream" />
	</node>
	<node id="-29387" lat="63.3881055567" lon="10.1981388837">
		<tag k="ssr:gml_id" v="GEOMETRY_f9763fc2-4277-4eb9-8c5e-19f223a0f985" />
		<tag k="ssr:gml_nr" v="3" />
	</node>
	<node id="-29386" lat="63.3881249982" lon="10.1979944539">
		<tag k="ssr:gml_id" v="GEOMETRY_245fbd39-4b60-4eab-b9aa-08969ee3a709" />
		<tag k="ssr:gml_nr" v="2" />
	</node>
	<node id="-29385" lat="63.388125002" lon="10.1979972156">
		<tag k="ssr:gml_id" v="GEOMETRY_09774b66-e0f2-4cea-82bb-04c31ce8d1d9" />
		<tag k="ssr:gml_nr" v="1" />
	</node>
	<node id="-29384" lat="63.3881250036" lon="10.1979916726">
		<tag k="ssr:gml_id" v="GEOMETRY_bd297da1-f83f-48d9-a916-ddeefb526832" />
		<tag k="ssr:gml_nr" v="0" />
	</node>
	<node id="-33477" lat="63.3476250016" lon="10.2506037255">
		<tag k="name" v="Lerfallbekken" />
		<tag k="ssr:date" v="2018-01-09" />
		<tag k="ssr:stedsnr" v="779276" />
		<tag k="waterway" v="stream" />
	</node>
	<node id="-33474" lat="63.4219638917" lon="10.3175361197">
		<tag k="fixme" v="multiple name tags, choose one and add the other to alt_name" />
		<tag k="name" v="Kaldvelta;Kilden" />
		<tag k="natural" v="spring" />
		<tag k="ssr:date" v="2018-01-09" />
		<tag k="ssr:stedsnr" v="878150" />
	</node>
	<node id="-34251" lat="63.4041916633" lon="10.199811107">
		<tag k="fixme" v="consider water=pond" />
		<tag k="name" v="Lomtjønnan" />
		<tag k="natural" v="water" />
		<tag k="ssr:date" v="2018-01-09" />
		<tag k="ssr:stedsnr" v="569085" />
		<tag k="water" v="lake" />
	</node>
	<node id="-27316" lat="63.3937111129" lon="10.3277499963">
		<tag k="name" v="Haukvassbekken" />
		<tag k="ssr:date" v="2018-01-09" />
		<tag k="ssr:stedsnr" v="89227" />
		<tag k="waterway" v="stream" />
	</node>
	<node id="-29356" lat="63.3598222225" lon="10.6087083272">
		<tag k="ssr:gml_id" v="GEOMETRY_0f82b33a-006f-4d5a-a030-d409e1b1a7d7" />
		<tag k="ssr:gml_nr" v="1" />
	</node>
	<node id="-29355" lat="63.3598250014" lon="10.6087222181">
		<tag k="ssr:gml_id" v="GEOMETRY_2cb11461-d7ca-4ee0-8be6-302f3d8df08f" />
		<tag k="ssr:gml_nr" v="0" />
	</node>
	<node id="-31402" lat="63.36457697" lon="10.6099334">
		<tag k="name" v="Midtøya" />
		<tag k="place" v="islet" />
		<tag k="ssr:date" v="2018-02-07" />
		<tag k="ssr:stedsnr" v="680991" />
	</node>
	<node id="-29350" lat="63.3622361105" lon="10.6273722212">
		<tag k="name" v="Kvernodden" />
		<tag k="natural" v="cape" />
		<tag k="place" v="locality" />
		<tag k="ssr:date" v="2018-01-09" />
		<tag k="ssr:stedsnr" v="586094" />
	</node>
	<node id="-27298" lat="63.4222222206" lon="10.1273083245">
		<tag k="ssr:gml_id" v="GEOMETRY_8d647702-1c0d-4aeb-bf82-11d085c29906" />
		<tag k="ssr:gml_nr" v="1" />
	</node>
	<node id="-27297" lat="63.4199777777" lon="10.1271388952">
		<tag k="ssr:gml_id" v="GEOMETRY_cc189517-6ecc-42b2-ad1d-5e12d7895b38" />
		<tag k="ssr:gml_nr" v="0" />
	</node>
	<node id="-27296" lat="63.3553861071" lon="10.6687250052">
		<tag k="alt_name" v="Hovdalstjørna" />
		<tag k="fixme" v="consider water=pond" />
		<tag k="name" v="Hovdalstjønna" />
		<tag k="natural" v="water" />
		<tag k="ssr:date" v="2018-01-09" />
		<tag k="ssr:stedsnr" v="172282" />
		<tag k="water" v="lake" />
	</node>
	<node id="-33438" lat="63.3694277811" lon="10.5207611059">
		<tag k="name" v="Greistadbekken" />
		<tag k="ssr:date" v="2018-01-09" />
		<tag k="ssr:stedsnr" v="779269" />
		<tag k="waterway" v="stream" />
	</node>
	<node id="-27287" lat="63.3485638891" lon="10.5292499963">
		<tag k="fixme" v="consider water=pond" />
		<tag k="name" v="Litltjønna" />
		<tag k="natural" v="water" />
		<tag k="ssr:date" v="2018-01-09" />
		<tag k="ssr:stedsnr" v="172280" />
		<tag k="water" v="lake" />
	</node>
	<node id="-27280" lat="63.3419805526" lon="10.4722972223">
		<tag k="name" v="Kvålsbekken" />
		<tag k="ssr:date" v="2018-01-09" />
		<tag k="ssr:stedsnr" v="172273" />
		<tag k="waterway" v="stream" />
	</node>
	<node id="-33415" lat="63.4369777799" lon="10.2253499951">
		<tag k="ssr:gml_id" v="GEOMETRY_d927e895-338f-4b41-a1c2-6f1f6a3d45ed" />
		<tag k="ssr:gml_nr" v="2" />
	</node>
	<node id="-33414" lat="63.4372805515" lon="10.2263916653">
		<tag k="ssr:gml_id" v="GEOMETRY_63b37f43-c2b3-4188-800e-8bbaa0a161e2" />
		<tag k="ssr:gml_nr" v="1" />
	</node>
	<node id="-33413" lat="63.4369916629" lon="10.2253555595">
		<tag k="ssr:gml_id" v="GEOMETRY_ea606080-28e0-48d6-b0ac-308a960e96e2" />
		<tag k="ssr:gml_nr" v="0" />
	</node>
	<node id="-30846" lat="63.4374083315" lon="10.2653833292">
		<tag k="ssr:gml_id" v="GEOMETRY_0e02ddfb-dd5f-4d16-b863-3f6c402590d7" />
		<tag k="ssr:gml_nr" v="3" />
	</node>
	<node id="-27243" lat="63.3780222225" lon="10.3111222161">
		<tag k="alt_name" v="Hallantjørna;Stryptjønna" />
		<tag k="fixme" v="consider water=pond" />
		<tag k="name" v="Hallatjønna" />
		<tag k="natural" v="water" />
		<tag k="ssr:date" v="2018-01-09" />
		<tag k="ssr:stedsnr" v="632171" />
		<tag k="water" v="lake" />
	</node>
	<node id="-31337" lat="63.365627781" lon="10.3656444541">
		<tag k="name" v="Søra" />
		<tag k="ssr:date" v="2018-01-09" />
		<tag k="ssr:stedsnr" v="778843" />
		<tag k="waterway" v="river" />
	</node>
	<node id="-33381" lat="63.3741749992" lon="10.2860805576">
		<tag k="ssr:gml_id" v="GEOMETRY_a7e6c0fb-84f6-4509-a80e-df5ae8b2ebe0" />
		<tag k="ssr:gml_nr" v="2" />
	</node>
	<node id="-33380" lat="63.3740638849" lon="10.2864361187">
		<tag k="ssr:gml_id" v="GEOMETRY_129d0992-4a28-4303-937c-6ed2d48ac313" />
		<tag k="ssr:gml_nr" v="1" />
	</node>
	<node id="-33379" lat="63.374175001" lon="10.2860833379">
		<tag k="ssr:gml_id" v="GEOMETRY_822411b8-6f83-4dbc-817a-27f8eea12204" />
		<tag k="ssr:gml_nr" v="0" />
	</node>
	<node id="-31330" lat="63.4061833357" lon="10.5543250066">
		<tag k="ssr:gml_id" v="GEOMETRY_e88bb5b1-23af-4cbc-8464-feabcda91fb1" />
		<tag k="ssr:gml_nr" v="2" />
	</node>
	<node id="-31329" lat="63.4060250026" lon="10.5549250061">
		<tag k="ssr:gml_id" v="GEOMETRY_e10178a5-e041-4686-b22d-8b00db28f025" />
		<tag k="ssr:gml_nr" v="1" />
	</node>
	<node id="-33376" lat="63.3164527803" lon="10.6944611032">
		<tag k="alt_name" v="Store Bjørnstadtjørna" />
		<tag k="fixme" v="consider water=pond" />
		<tag k="name" v="Store Bjørnstadtjønna" />
		<tag k="natural" v="water" />
		<tag k="ssr:date" v="2018-01-09" />
		<tag k="ssr:stedsnr" v="779285" />
		<tag k="water" v="lake" />
	</node>
	<node id="-27231" lat="63.3510166668" lon="10.5688138889">
		<tag k="name" v="Krossvika" />
		<tag k="natural" v="bay" />
		<tag k="ssr:date" v="2018-01-09" />
		<tag k="ssr:stedsnr" v="172265" />
	</node>
	<node id="-29276" lat="63.4014611068" lon="10.388952784">
		<tag k="name" v="Nydalsdammen" />
		<tag k="place" v="locality" />
		<tag k="ssr:date" v="2018-01-09" />
		<tag k="ssr:stedsnr" v="50854" />
	</node>
	<node id="-31323" lat="63.433669446" lon="10.1861916591">
		<tag k="name" v="Kubekken" />
		<tag k="ssr:date" v="2018-01-09" />
		<tag k="ssr:stedsnr" v="88398" />
		<tag k="waterway" v="stream" />
	</node>
	<node id="-33368" lat="63.4412833357" lon="10.3384722208">
		<tag k="name" v="Garnisonsbekken" />
		<tag k="ssr:date" v="2018-01-09" />
		<tag k="ssr:stedsnr" v="59072" />
		<tag k="waterway" v="stream" />
	</node>
	<node id="-31731" lat="63.3558305585" lon="10.2452472137">
		<tag k="ssr:gml_id" v="GEOMETRY_da83fd5e-d1a8-4704-98d6-58afa61c8301" />
		<tag k="ssr:gml_nr" v="1" />
	</node>
	<node id="-31306" lat="63.3929833346" lon="10.2472972276">
		<tag k="name" v="Sommarfjøsbukta" />
		<tag k="natural" v="bay" />
		<tag k="ssr:date" v="2018-01-09" />
		<tag k="ssr:stedsnr" v="756021" />
	</node>
	<node id="-29257" lat="63.3603222226" lon="10.6077305535">
		<tag k="name" v="Storøya" />
		<tag k="place" v="island" />
		<tag k="ssr:date" v="2018-01-09" />
		<tag k="ssr:stedsnr" v="354254" />
	</node>
	<node id="-30119" lat="63.4405055526" lon="10.2196694422">
		<tag k="ssr:gml_id" v="GEOMETRY_9e8114ad-4ecd-4e5f-b24b-674e39294e75" />
		<tag k="ssr:gml_nr" v="0" />
	</node>
	<node id="-27061" lat="63.3956444473" lon="10.1544666579">
		<tag k="ssr:gml_id" v="GEOMETRY_86bf9c13-1314-4072-8148-ac42c5d1b408" />
		<tag k="ssr:gml_nr" v="2" />
	</node>
	<node id="-33337" lat="63.3732472179" lon="10.4098916652">
		<tag k="ssr:gml_id" v="GEOMETRY_97414f3d-ed2d-444f-bab1-44417374f56f" />
		<tag k="ssr:gml_nr" v="2" />
	</node>
	<node id="-33336" lat="63.3724722203" lon="10.4094333268">
		<tag k="ssr:gml_id" v="GEOMETRY_e011abb1-b450-4447-afae-f5babad6a961" />
		<tag k="ssr:gml_nr" v="1" />
	</node>
	<node id="-33335" lat="63.3728638847" lon="10.4098111078">
		<tag k="ssr:gml_id" v="GEOMETRY_18d998f9-857d-4551-8c6a-4ffe7283e9e6" />
		<tag k="ssr:gml_nr" v="0" />
	</node>
	<node id="-33334" lat="63.449438886" lon="10.2792722189">
		<tag k="name" v="Isrenna" />
		<tag k="place" v="locality" />
		<tag k="ssr:date" v="2018-01-09" />
		<tag k="ssr:stedsnr" v="28852" />
	</node>
	<node id="-31155" lat="63.3617666692" lon="10.2885666715">
		<tag k="ssr:gml_id" v="GEOMETRY_f647bdb3-f9ac-4e1d-9e75-e8848204a86e" />
		<tag k="ssr:gml_nr" v="1" />
	</node>
	<node id="-29228" lat="63.3351444464" lon="10.6716472149">
		<tag k="fixme" v="consider water=pond" />
		<tag k="name" v="Brattstitjønna" />
		<tag k="natural" v="water" />
		<tag k="ssr:date" v="2018-01-09" />
		<tag k="ssr:stedsnr" v="960281" />
		<tag k="water" v="lake" />
	</node>
	<node id="-27175" lat="63.3857055595" lon="10.5644055469">
		<tag k="ssr:gml_id" v="GEOMETRY_82e64422-3a2a-4389-bb2f-edea59bd41bd" />
		<tag k="ssr:gml_nr" v="1" />
	</node>
	<node id="-27174" lat="63.3866027764" lon="10.5652138948">
		<tag k="ssr:gml_id" v="GEOMETRY_31fef30b-7c83-43cb-a346-27c04f478855" />
		<tag k="ssr:gml_nr" v="0" />
	</node>
	<node id="-31153" lat="63.4441305518" lon="10.2724777793">
		<tag k="fixme" v="consider water=pond" />
		<tag k="name" v="Litltjønna" />
		<tag k="natural" v="water" />
		<tag k="ssr:date" v="2018-01-09" />
		<tag k="ssr:stedsnr" v="695950" />
		<tag k="water" v="lake" />
	</node>
	<node id="-29215" lat="63.4284166702" lon="10.3332027752">
		<tag k="name" v="Øvre Skardbekken" />
		<tag k="ssr:date" v="2018-01-09" />
		<tag k="ssr:stedsnr" v="878893" />
		<tag k="waterway" v="stream" />
	</node>
	<node id="-29214" lat="63.4189750017" lon="10.3203833283">
		<tag k="ssr:gml_id" v="GEOMETRY_7a4b2f72-214a-423e-9553-b17064c7c4b4" />
		<tag k="ssr:gml_nr" v="2" />
	</node>
	<node id="-29213" lat="63.419224998" lon="10.3209749938">
		<tag k="ssr:gml_id" v="GEOMETRY_2195b55f-8b51-4ba4-8c55-522ab5756bee" />
		<tag k="ssr:gml_nr" v="1" />
	</node>
	<node id="-29212" lat="63.4192388932" lon="10.3209749923">
		<tag k="ssr:gml_id" v="GEOMETRY_c416e2a2-988c-48f0-8e11-35a3d2435ed6" />
		<tag k="ssr:gml_nr" v="0" />
	</node>
	<node id="-31249" lat="63.3381333366" lon="10.6078999986">
		<tag k="ssr:gml_id" v="GEOMETRY_bc868ddf-4a95-47cf-9a9e-046bf5e204e0" />
		<tag k="ssr:gml_nr" v="2" />
	</node>
	<node id="-31248" lat="63.3382750006" lon="10.6069194509">
		<tag k="ssr:gml_id" v="GEOMETRY_86d77201-b905-40f9-ad7b-0e83c3bcaddf" />
		<tag k="ssr:gml_nr" v="1" />
	</node>
	<node id="-31247" lat="63.3381472199" lon="10.6079083255">
		<tag k="ssr:gml_id" v="GEOMETRY_f3532393-99f6-4b8d-a301-18ba99ed6b56" />
		<tag k="ssr:gml_nr" v="0" />
	</node>
	<node id="-33287" lat="63.3549722187" lon="10.24496944">
		<tag k="name" v="Vadet" />
		<tag k="place" v="locality" />
		<tag k="ssr:date" v="2018-01-09" />
		<tag k="ssr:stedsnr" v="633315" />
	</node>
	<node id="-29441" lat="63.4383888887" lon="10.2910861072">
		<tag k="ssr:gml_id" v="GEOMETRY_f5de35cd-eb46-44d4-b406-bce24c18c9f8" />
		<tag k="ssr:gml_nr" v="0" />
	</node>
	<node id="-31488" lat="63.4251833371" lon="10.3496249935">
		<tag k="name" v="Reservedammen" />
		<tag k="ssr:date" v="2018-01-09" />
		<tag k="ssr:stedsnr" v="241728" />
		<tag k="waterway" v="dam" />
	</node>
	<node id="-31229" lat="63.3488944459" lon="10.4064583355">
		<tag k="ssr:gml_id" v="GEOMETRY_0ccbb146-8ffa-4b49-aa0e-2b76789ffb3e" />
		<tag k="ssr:gml_nr" v="2" />
	</node>
	<node id="-31228" lat="63.3520222188" lon="10.3922611162">
		<tag k="ssr:gml_id" v="GEOMETRY_e58b5a4e-68bd-41b3-86b1-64d4570d5958" />
		<tag k="ssr:gml_nr" v="1" />
	</node>
	<node id="-31227" lat="63.3491805517" lon="10.3937444425">
		<tag k="ssr:gml_id" v="GEOMETRY_6ab6d52b-8d04-4ed1-802d-19a319279ffb" />
		<tag k="ssr:gml_nr" v="0" />
	</node>
	<node id="-29178" lat="63.3350361068" lon="10.6545416629">
		<tag k="ssr:gml_id" v="GEOMETRY_0afff70d-bee0-45d5-b3d5-6bc60e907166" />
		<tag k="ssr:gml_nr" v="0" />
	</node>
	<node id="-29780" lat="63.3925555563" lon="10.3177277681">
		<tag k="ssr:gml_id" v="GEOMETRY_c77c2660-b9f5-497f-9e28-65e75d515212" />
		<tag k="ssr:gml_nr" v="2" />
	</node>
	<node id="-27119" lat="63.365197222" lon="10.2365527764">
		<tag k="name" v="Storgrasmyrbekken" />
		<tag k="ssr:date" v="2018-01-09" />
		<tag k="ssr:stedsnr" v="24554" />
		<tag k="waterway" v="stream" />
	</node>
	<node id="-27114" lat="63.3570555566" lon="10.2764972211">
		<tag k="ssr:gml_id" v="GEOMETRY_5038fde1-bef7-4684-ad54-fe19c9bd0f76" />
		<tag k="ssr:gml_nr" v="1" />
	</node>
	<node id="-34215" lat="63.3853638846" lon="10.5061138932">
		<tag k="fixme" v="consider water=pond" />
		<tag k="name" v="Austlitjønna" />
		<tag k="natural" v="water" />
		<tag k="ssr:date" v="2018-01-09" />
		<tag k="ssr:stedsnr" v="202809" />
		<tag k="water" v="lake" />
	</node>
	<node id="-29159" lat="63.3737777779" lon="10.3999749927">
		<tag k="name" v="Leirfossan" />
		<tag k="natural" v="waterfall" />
		<tag k="ssr:date" v="2018-01-09" />
		<tag k="ssr:stedsnr" v="81780" />
	</node>
	<node id="-33254" lat="63.3367722182" lon="10.6786749904">
		<tag k="ssr:gml_id" v="GEOMETRY_e52d3b1b-72f8-43e9-be0d-0a7de79cb695" />
		<tag k="ssr:gml_nr" v="1" />
	</node>
	<node id="-29777" lat="63.4058055512" lon="10.3421500037">
		<tag k="ssr:gml_id" v="GEOMETRY_5561530d-42ff-4c85-8e89-4d54003d62d3" />
		<tag k="ssr:gml_nr" v="3" />
	</node>
	<node id="-31202" lat="63.3480638911" lon="10.2958083367">
		<tag k="name" v="Storbekken" />
		<tag k="ssr:date" v="2018-01-09" />
		<tag k="ssr:stedsnr" v="327213" />
		<tag k="waterway" v="stream" />
	</node>
	<node id="-33249" lat="63.4073000007" lon="10.1816527758">
		<tag k="ssr:gml_id" v="GEOMETRY_f3cf3311-9752-43d0-8c16-a6710d36d776" />
		<tag k="ssr:gml_nr" v="4" />
	</node>
	<node id="-33248" lat="63.4074722256" lon="10.1863222229">
		<tag k="ssr:gml_id" v="GEOMETRY_ea5d7eb7-6d24-4102-8f02-d9cbfd10ada4" />
		<tag k="ssr:gml_nr" v="3" />
	</node>
	<node id="-33247" lat="63.4045444486" lon="10.15946945">
		<tag k="ssr:gml_id" v="GEOMETRY_6309245a-02f3-4f2c-8927-3897c0c4d6c1" />
		<tag k="ssr:gml_nr" v="2" />
	</node>
	<node id="-33246" lat="63.4072999956" lon="10.1816555589">
		<tag k="ssr:gml_id" v="GEOMETRY_504ef2bb-50c4-4097-81ea-1d2c9805754e" />
		<tag k="ssr:gml_nr" v="1" />
	</node>
	<node id="-27101" lat="63.4179916673" lon="10.162030563">
		<tag k="name" v="Bosbergbekken" />
		<tag k="ssr:date" v="2018-01-09" />
		<tag k="ssr:stedsnr" v="266093" />
		<tag k="waterway" v="stream" />
	</node>
	<node id="-29775" lat="63.4058194417" lon="10.3421638888">
		<tag k="ssr:gml_id" v="GEOMETRY_09b0555e-941e-4d50-8116-517732595338" />
		<tag k="ssr:gml_nr" v="1" />
	</node>
	<node id="-27091" lat="63.3461972178" lon="10.5645555553">
		<tag k="name" v="Smalholmen" />
		<tag k="place" v="islet" />
		<tag k="ssr:date" v="2018-01-09" />
		<tag k="ssr:stedsnr" v="172245" />
	</node>
	<node id="-27078" lat="63.3842138918" lon="10.5595416676">
		<tag k="name" v="Valsettangen" />
		<tag k="natural" v="cape" />
		<tag k="place" v="locality" />
		<tag k="ssr:date" v="2018-01-09" />
		<tag k="ssr:stedsnr" v="172243" />
	</node>
	<node id="-33221" lat="63.3601972243" lon="10.5680972206">
		<tag k="name" v="Svartvika" />
		<tag k="natural" v="bay" />
		<tag k="ssr:date" v="2018-01-09" />
		<tag k="ssr:stedsnr" v="779258" />
	</node>
	<node id="-27073" lat="63.3541055563" lon="10.6191972222">
		<tag k="name" v="Kroksbergnebben" />
		<tag k="natural" v="cape" />
		<tag k="place" v="locality" />
		<tag k="ssr:date" v="2018-01-09" />
		<tag k="ssr:stedsnr" v="172244" />
	</node>
	<node id="-29429" lat="63.4202916628" lon="10.3061999971">
		<tag k="ssr:gml_id" v="GEOMETRY_2d6fa6d9-c02f-4960-aba8-afae539dac51" />
		<tag k="ssr:gml_nr" v="5" />
	</node>
	<node id="-33211" lat="63.3234277758" lon="10.2727166728">
		<tag k="name" v="Gaula" />
		<tag k="ssr:date" v="2018-01-09" />
		<tag k="ssr:stedsnr" v="300635" />
		<tag k="waterway" v="river" />
	</node>
	<node id="-29428" lat="63.4252166651" lon="10.3565777823">
		<tag k="ssr:gml_id" v="GEOMETRY_899ed383-3bb8-4eef-9963-9e0f6d64aab3" />
		<tag k="ssr:gml_nr" v="4" />
	</node>
	<node id="-29109" lat="63.3972250031" lon="10.5951000099">
		<tag k="ssr:gml_id" v="GEOMETRY_39e0d3a8-8e6c-4a47-9ab1-d599d8f90cfe" />
		<tag k="ssr:gml_nr" v="1" />
	</node>
	<node id="-29108" lat="63.3972750022" lon="10.5961250001">
		<tag k="ssr:gml_id" v="GEOMETRY_a18883ab-4d95-4b11-8b3a-51dfc2231148" />
		<tag k="ssr:gml_nr" v="0" />
	</node>
	<node id="-33203" lat="63.400527775" lon="10.5117749916">
		<tag k="fixme" v="consider water=pond" />
		<tag k="name" v="Vikarauntjønna" />
		<tag k="natural" v="water" />
		<tag k="ssr:date" v="2018-01-09" />
		<tag k="ssr:stedsnr" v="445769" />
		<tag k="water" v="lake" />
	</node>
	<node id="-31154" lat="63.3679666666" lon="10.2928055507">
		<tag k="ssr:gml_id" v="GEOMETRY_19ea6992-61c9-44d0-94e8-098d9945a0ad" />
		<tag k="ssr:gml_nr" v="0" />
	</node>
	<node id="-29427" lat="63.4218388893" lon="10.294008337">
		<tag k="ssr:gml_id" v="GEOMETRY_805d1677-ce0a-4a4d-94e3-90a1c3991d56" />
		<tag k="ssr:gml_nr" v="3" />
	</node>
	<node id="-33193" lat="63.3831027797" lon="10.2745583249">
		<tag k="name" v="Skjefstadbukta" />
		<tag k="natural" v="bay" />
		<tag k="ssr:date" v="2018-01-09" />
		<tag k="ssr:stedsnr" v="87215" />
	</node>
	<node id="-29092" lat="63.3691805524" lon="10.5468861106">
		<tag k="name" v="Almannaunbukta" />
		<tag k="natural" v="strait" />
		<tag k="place" v="locality" />
		<tag k="ssr:date" v="2018-01-09" />
		<tag k="ssr:stedsnr" v="960255" />
	</node>
	<node id="-33185" lat="63.3962861156" lon="10.6130472235">
		<tag k="alt_name" v="Vasseltjørna" />
		<tag k="fixme" v="consider water=pond" />
		<tag k="name" v="Vasseltjønna" />
		<tag k="natural" v="water" />
		<tag k="ssr:date" v="2018-01-09" />
		<tag k="ssr:stedsnr" v="536275" />
		<tag k="water" v="lake" />
	</node>
	<node id="-33184" lat="63.4436000012" lon="10.3074222284">
		<tag k="name" v="Tiendalsbekken" />
		<tag k="ssr:date" v="2018-01-09" />
		<tag k="ssr:stedsnr" v="817930" />
		<tag k="waterway" v="stream" />
	</node>
	<node id="-33175" lat="63.3906638895" lon="10.3311499988">
		<tag k="ssr:gml_id" v="GEOMETRY_b93ba1cd-5281-48b4-9a16-5f5ff2599ceb" />
		<tag k="ssr:gml_nr" v="2" />
	</node>
	<node id="-33174" lat="63.3884833369" lon="10.336297231">
		<tag k="ssr:gml_id" v="GEOMETRY_95c681b0-64b2-4487-9be2-e4f79f45fe90" />
		<tag k="ssr:gml_nr" v="1" />
	</node>
	<node id="-33173" lat="63.3884972191" lon="10.3363111044">
		<tag k="ssr:gml_id" v="GEOMETRY_91678883-04c5-4409-a4d6-2b3a4f8b992f" />
		<tag k="ssr:gml_nr" v="0" />
	</node>
	<node id="-27028" lat="63.4243638856" lon="10.390180552">
		<tag k="ssr:gml_id" v="GEOMETRY_a82a560c-b222-4164-9ce7-c8a1f99a7f85" />
		<tag k="ssr:gml_nr" v="22" />
	</node>
	<node id="-27027" lat="63.4308527803" lon="10.4040222271">
		<tag k="ssr:gml_id" v="GEOMETRY_9132e645-dc39-4cea-ba3f-09dfe9b389e2" />
		<tag k="ssr:gml_nr" v="21" />
	</node>
	<node id="-27026" lat="63.393430558" lon="10.3912666678">
		<tag k="ssr:gml_id" v="GEOMETRY_199e62d6-5a33-4a48-b3a7-a1469edeaffc" />
		<tag k="ssr:gml_nr" v="20" />
	</node>
	<node id="-27025" lat="63.4019611136" lon="10.3899777834">
		<tag k="ssr:gml_id" v="GEOMETRY_df3f056e-5325-4f95-90ae-f7d453b38953" />
		<tag k="ssr:gml_nr" v="19" />
	</node>
	<node id="-27024" lat="63.25031111" lon="10.4717138917">
		<tag k="ssr:gml_id" v="GEOMETRY_d32a71a4-2c7f-4cdd-ae94-00c6747ffa33" />
		<tag k="ssr:gml_nr" v="18" />
	</node>
	<node id="-27023" lat="63.2896222253" lon="10.4516222262">
		<tag k="ssr:gml_id" v="GEOMETRY_43ca0670-2b93-44d5-968e-9fe46983d1d3" />
		<tag k="ssr:gml_nr" v="17" />
	</node>
	<node id="-27022" lat="63.3153166676" lon="10.4544611154">
		<tag k="ssr:gml_id" v="GEOMETRY_2d7a88a7-78ff-4bcd-a865-6ce0b55ef4eb" />
		<tag k="ssr:gml_nr" v="16" />
	</node>
	<node id="-27021" lat="63.2749499961" lon="10.455105557">
		<tag k="ssr:gml_id" v="GEOMETRY_e00a969a-9764-4c75-9fcc-639abcd63926" />
		<tag k="ssr:gml_nr" v="15" />
	</node>
	<node id="-27020" lat="63.2758555565" lon="10.4650888874">
		<tag k="ssr:gml_id" v="GEOMETRY_06f6feb6-9bd5-48cd-9c65-e5c84104dffd" />
		<tag k="ssr:gml_nr" v="14" />
	</node>
	<node id="-27019" lat="63.3601500008" lon="10.4251972297">
		<tag k="ssr:gml_id" v="GEOMETRY_4be54125-473f-4954-a8d9-65e7e66a7f09" />
		<tag k="ssr:gml_nr" v="13" />
	</node>
	<node id="-27018" lat="63.4111000032" lon="10.3908999977">
		<tag k="ssr:gml_id" v="GEOMETRY_49234e24-4bce-456e-b6b8-d45348190576" />
		<tag k="ssr:gml_nr" v="12" />
	</node>
	<node id="-27017" lat="63.4251638925" lon="10.4010999928">
		<tag k="ssr:gml_id" v="GEOMETRY_4c6f96f1-32fe-4e95-9745-2ba250de3aa1" />
		<tag k="ssr:gml_nr" v="11" />
	</node>
	<node id="-27016" lat="63.3342777737" lon="10.4362472161">
		<tag k="ssr:gml_id" v="GEOMETRY_db16abc6-16e6-45e6-b13c-6cfeba044b24" />
		<tag k="ssr:gml_nr" v="10" />
	</node>
	<node id="-27015" lat="63.333997223" lon="10.4639583269">
		<tag k="ssr:gml_id" v="GEOMETRY_b41f3aa5-95fc-4616-91ac-18d5922d71dc" />
		<tag k="ssr:gml_nr" v="9" />
	</node>
	<node id="-27014" lat="63.3728722238" lon="10.4124333283">
		<tag k="ssr:gml_id" v="GEOMETRY_159d9544-10e2-497b-a883-afcc465d7e36" />
		<tag k="ssr:gml_nr" v="8" />
	</node>
	<node id="-27713" lat="63.3723999961" lon="10.2445111067">
		<tag k="ssr:gml_id" v="GEOMETRY_cd5955e2-284f-4e82-bc80-8b8e745be019" />
		<tag k="ssr:gml_nr" v="3" />
	</node>
	<node id="-29060" lat="63.3954055535" lon="10.2382333382">
		<tag k="name" v="Litlholmen" />
		<tag k="place" v="islet" />
		<tag k="ssr:date" v="2018-01-09" />
		<tag k="ssr:stedsnr" v="574200" />
	</node>
	<node id="-27011" lat="63.3646444453" lon="10.4200999955">
		<tag k="ssr:gml_id" v="GEOMETRY_7d32a4d3-fe0d-489f-ba5b-06980f3ca62e" />
		<tag k="ssr:gml_nr" v="5" />
	</node>
	<node id="-27010" lat="63.4201972236" lon="10.3831055458">
		<tag k="ssr:gml_id" v="GEOMETRY_136086ee-1177-47a0-9132-8c7f5ce2dde2" />
		<tag k="ssr:gml_nr" v="4" />
	</node>
	<node id="-27009" lat="63.3679944487" lon="10.4204388852">
		<tag k="ssr:gml_id" v="GEOMETRY_057bea95-8e6c-4b15-9351-475e23030a87" />
		<tag k="ssr:gml_nr" v="3" />
	</node>
	<node id="-27564" lat="63.3564194481" lon="10.5986777733">
		<tag k="ssr:gml_id" v="GEOMETRY_2192c5a8-f4b6-4cd5-9ee9-4a423a422773" />
		<tag k="ssr:gml_nr" v="2" />
	</node>
	<node id="-27712" lat="63.3724000024" lon="10.244508327">
		<tag k="ssr:gml_id" v="GEOMETRY_e8c7b81c-a580-451d-b0fa-0df1051a4a3f" />
		<tag k="ssr:gml_nr" v="2" />
	</node>
	<node id="-27006" lat="63.425313889" lon="10.3866194379">
		<tag k="ssr:gml_id" v="GEOMETRY_31cc245e-6431-4667-97b4-60bac1fb6bd9" />
		<tag k="ssr:gml_nr" v="0" />
	</node>
	<node id="-27029" lat="63.3506444432" lon="10.4326861022">
		<tag k="ssr:gml_id" v="GEOMETRY_c12a0462-8a88-47bd-8fd0-10eed6f2dd8f" />
		<tag k="ssr:gml_nr" v="23" />
	</node>
	<node id="-31096" lat="63.4187111106" lon="10.3421888896">
		<tag k="fixme" v="multiple name tags, choose one and add the other to alt_name; consider water=pond" />
		<tag k="name" v="Stokkedammen;Vullumsgårdsdammen" />
		<tag k="natural" v="water" />
		<tag k="ssr:date" v="2018-01-09" />
		<tag k="ssr:stedsnr" v="89963" />
		<tag k="water" v="lake" />
	</node>
	<node id="-26999" lat="63.3942749962" lon="10.2731388877">
		<tag k="ssr:gml_id" v="GEOMETRY_b327b1ae-9193-4045-87e3-59b02807eb3c" />
		<tag k="ssr:gml_nr" v="2" />
	</node>
	<node id="-26998" lat="63.3942194415" lon="10.2739305469">
		<tag k="ssr:gml_id" v="GEOMETRY_98f7bac6-a4d8-4c29-8a1f-7715e1098c48" />
		<tag k="ssr:gml_nr" v="1" />
	</node>
	<node id="-33141" lat="63.3806250002" lon="10.396933333">
		<tag k="ssr:gml_id" v="GEOMETRY_888c8ff2-ddfa-46bc-b154-f6692006333f" />
		<tag k="ssr:gml_nr" v="1" />
	</node>
	<node id="-33140" lat="63.3806277818" lon="10.3969472128">
		<tag k="ssr:gml_id" v="GEOMETRY_fcf5b9ad-0a28-42f4-9c76-349950174a80" />
		<tag k="ssr:gml_nr" v="0" />
	</node>
	<node id="-29613" lat="63.4084388889" lon="10.212822229">
		<tag k="ssr:gml_id" v="GEOMETRY_064b8e93-da26-4633-8627-335a6cb3ea97" />
		<tag k="ssr:gml_nr" v="3" />
	</node>
	<node id="-31088" lat="63.3412833377" lon="10.6725055595">
		<tag k="fixme" v="consider water=pond" />
		<tag k="name" v="Bispentjønna" />
		<tag k="natural" v="water" />
		<tag k="ssr:date" v="2018-01-09" />
		<tag k="ssr:stedsnr" v="968081" />
		<tag k="water" v="lake" />
	</node>
	<node id="-31082" lat="63.3604055596" lon="10.2373277687">
		<tag k="name" v="Sagbekken" />
		<tag k="ssr:date" v="2018-01-09" />
		<tag k="ssr:stedsnr" v="694280" />
		<tag k="waterway" v="stream" />
	</node>
	<node id="-31080" lat="63.3799583318" lon="10.1463138826">
		<tag k="ssr:gml_id" v="GEOMETRY_e74e2658-ad92-4d2e-b201-90c8b859e23d" />
		<tag k="ssr:gml_nr" v="1" />
	</node>
	<node id="-31079" lat="63.383577778" lon="10.1695138905">
		<tag k="ssr:gml_id" v="GEOMETRY_3f83eb4d-9eed-485f-9e06-06402b2932c8" />
		<tag k="ssr:gml_nr" v="0" />
	</node>
	<node id="-27563" lat="63.3561750025" lon="10.5989722133">
		<tag k="ssr:gml_id" v="GEOMETRY_532287e3-6a2b-4e43-ade8-5ebe0d509697" />
		<tag k="ssr:gml_nr" v="1" />
	</node>
	<node id="-33116" lat="63.3813166645" lon="10.2833222153">
		<tag k="alt_name" v="Sølvskakkeltjørna" />
		<tag k="fixme" v="consider water=pond" />
		<tag k="name" v="Sølvskakkeltjønna" />
		<tag k="natural" v="water" />
		<tag k="ssr:date" v="2018-01-09" />
		<tag k="ssr:stedsnr" v="87207" />
		<tag k="water" v="lake" />
	</node>
	<node id="-31066" lat="63.3591027757" lon="10.2722555538">
		<tag k="name" v="Vadbekken" />
		<tag k="ssr:date" v="2018-01-09" />
		<tag k="ssr:stedsnr" v="874618" />
		<tag k="waterway" v="stream" />
	</node>
	<node id="-33104" lat="63.3802861078" lon="10.5402000013">
		<tag k="name" v="Mobekken" />
		<tag k="ssr:date" v="2018-01-09" />
		<tag k="ssr:stedsnr" v="405425" />
		<tag k="waterway" v="stream" />
	</node>
	<node id="-26954" lat="63.3916083374" lon="10.1440944356">
		<tag k="name" v="Brenselbekken" />
		<tag k="ssr:date" v="2018-01-09" />
		<tag k="ssr:stedsnr" v="812073" />
		<tag k="waterway" v="stream" />
	</node>
	<node id="-26950" lat="63.3257416711" lon="10.64484167">
		<tag k="name" v="Svarttjønnbekken" />
		<tag k="ssr:date" v="2018-01-09" />
		<tag k="ssr:stedsnr" v="119540" />
		<tag k="waterway" v="stream" />
	</node>
	<node id="-27562" lat="63.3561833294" lon="10.5989805524">
		<tag k="ssr:gml_id" v="GEOMETRY_b350e2e8-cada-42a4-96f5-5f6909efb5b0" />
		<tag k="ssr:gml_nr" v="0" />
	</node>
	<node id="-31038" lat="63.3436694435" lon="10.5601833404">
		<tag k="ssr:gml_id" v="GEOMETRY_607004d5-d723-46cf-8645-acd78db827cd" />
		<tag k="ssr:gml_nr" v="4" />
	</node>
	<node id="-31037" lat="63.3447583368" lon="10.5566055479">
		<tag k="ssr:gml_id" v="GEOMETRY_da8101c7-d5e7-4fbd-999e-bb9e161fb205" />
		<tag k="ssr:gml_nr" v="3" />
	</node>
	<node id="-31036" lat="63.343650004" lon="10.5618722224">
		<tag k="ssr:gml_id" v="GEOMETRY_a96b04ea-8227-40dd-b315-d181b57319f2" />
		<tag k="ssr:gml_nr" v="2" />
	</node>
	<node id="-31035" lat="63.343649997" lon="10.561877777">
		<tag k="ssr:gml_id" v="GEOMETRY_71f064aa-d882-46db-bb65-9df21645cce0" />
		<tag k="ssr:gml_nr" v="1" />
	</node>
	<node id="-31034" lat="63.3437111157" lon="10.5602833304">
		<tag k="ssr:gml_id" v="GEOMETRY_92c8f2a4-e212-44bb-8459-42911e7e4eac" />
		<tag k="ssr:gml_nr" v="0" />
	</node>
	<node id="-28975" lat="63.4150805596" lon="10.1377722164">
		<tag k="name" v="Siklet" />
		<tag k="ssr:date" v="2018-01-09" />
		<tag k="ssr:stedsnr" v="423122" />
		<tag k="waterway" v="stream" />
	</node>
	<node id="-31022" lat="63.4145027813" lon="10.2518555513">
		<tag k="ssr:gml_id" v="GEOMETRY_24cf2fc4-3e2d-4b42-9fe0-9fa0adb59df4" />
		<tag k="ssr:gml_nr" v="0" />
	</node>
	<node id="-26922" lat="63.3501749969" lon="10.2676444516">
		<tag k="ssr:gml_id" v="GEOMETRY_75488932-a022-4bdb-9f5e-4c3fa8a24ec3" />
		<tag k="ssr:gml_nr" v="1" />
	</node>
	<node id="-26921" lat="63.341666668" lon="10.2625333267">
		<tag k="ssr:gml_id" v="GEOMETRY_5efbc816-9cb3-4ac7-9864-bb3f525f0771" />
		<tag k="ssr:gml_nr" v="0" />
	</node>
	<node id="-26913" lat="63.4217722245" lon="10.3451777748">
		<tag k="ssr:gml_id" v="GEOMETRY_d81d70e9-b826-4a5f-a727-0cb7df69e20e" />
		<tag k="ssr:gml_nr" v="2" />
	</node>
	<node id="-26912" lat="63.421774999" lon="10.3451805495">
		<tag k="ssr:gml_id" v="GEOMETRY_d1647fa0-bd8c-4a20-afea-bcfcbfd8a745" />
		<tag k="ssr:gml_nr" v="1" />
	</node>
	<node id="-26911" lat="63.4217777765" lon="10.3451944439">
		<tag k="ssr:gml_id" v="GEOMETRY_4b52bf39-b05a-4a2b-b1ff-d01c72776210" />
		<tag k="ssr:gml_nr" v="0" />
	</node>
	<node id="-27013" lat="63.3845361139" lon="10.3910166693">
		<tag k="ssr:gml_id" v="GEOMETRY_9825a810-c927-4836-b6a4-0bbef5297cde" />
		<tag k="ssr:gml_nr" v="7" />
	</node>
	<node id="-33049" lat="63.3698999993" lon="10.2862722245">
		<tag k="fixme" v="multiple name tags, choose one and add the other to alt_name" />
		<tag k="name" v="Kåttåtjønnbekken;Rørdalsbekken" />
		<tag k="ssr:date" v="2018-01-09" />
		<tag k="ssr:stedsnr" v="935149" />
		<tag k="waterway" v="stream" />
	</node>
	<node id="-27012" lat="63.3363750026" lon="10.4368111018">
		<tag k="ssr:gml_id" v="GEOMETRY_31a8322c-11c8-4bc9-8abc-463e49143ecd" />
		<tag k="ssr:gml_nr" v="6" />
	</node>
	<node id="-33044" lat="63.3777444458" lon="10.4502222305">
		<tag k="ssr:gml_id" v="GEOMETRY_02f5ff0f-02c3-4c9f-b606-9758b198fabc" />
		<tag k="ssr:gml_nr" v="1" />
	</node>
	<node id="-33043" lat="63.376819448" lon="10.4652388886">
		<tag k="ssr:gml_id" v="GEOMETRY_e74c56cc-4667-4a12-b2e0-c8e32409b87f" />
		<tag k="ssr:gml_nr" v="0" />
	</node>
	<node id="-28515" lat="63.3363333343" lon="10.5495361057">
		<tag k="ssr:gml_id" v="GEOMETRY_90608eec-a485-4449-ab77-e3e73bf33a10" />
		<tag k="ssr:gml_nr" v="0" />
	</node>
	<node id="-27008" lat="63.2868555527" lon="10.4519527699">
		<tag k="ssr:gml_id" v="GEOMETRY_7139463b-e962-4a90-8431-ca10fe4cae2e" />
		<tag k="ssr:gml_nr" v="2" />
	</node>
	<node id="-30972" lat="63.4369805599" lon="10.2133027848">
		<tag k="ssr:gml_id" v="GEOMETRY_99a05463-de60-435d-9817-9041289a84a2" />
		<tag k="ssr:gml_nr" v="2" />
	</node>
	<node id="-30971" lat="63.4369833369" lon="10.2133055483">
		<tag k="ssr:gml_id" v="GEOMETRY_a4ad3227-a985-429a-9725-c6728ef8e937" />
		<tag k="ssr:gml_nr" v="1" />
	</node>
	<node id="-30970" lat="63.4369861138" lon="10.2133083317">
		<tag k="ssr:gml_id" v="GEOMETRY_411fb0bb-f643-449e-a15e-a3a9b763eeff" />
		<tag k="ssr:gml_nr" v="0" />
	</node>
	<node id="-27007" lat="63.3601611122" lon="10.4252027782">
		<tag k="ssr:gml_id" v="GEOMETRY_c2c38cd5-31ec-4e80-8ae7-0d908641ef9f" />
		<tag k="ssr:gml_nr" v="1" />
	</node>
	<node id="-28914" lat="63.4512611099" lon="10.2920694405">
		<tag k="ssr:gml_id" v="GEOMETRY_6e5a98ba-e4d0-4bb2-b1dc-de170afe6ca1" />
		<tag k="ssr:gml_nr" v="2" />
	</node>
	<node id="-28913" lat="63.4532277747" lon="10.293961105">
		<tag k="ssr:gml_id" v="GEOMETRY_4fc70d00-542e-4a03-9abb-1327eac390cd" />
		<tag k="ssr:gml_nr" v="1" />
	</node>
	<node id="-28912" lat="63.4481472255" lon="10.2869944481">
		<tag k="ssr:gml_id" v="GEOMETRY_31350045-e900-4e67-9b20-bcfeb4686a4c" />
		<tag k="ssr:gml_nr" v="0" />
	</node>
	<node id="-28900" lat="63.3418027788" lon="10.400938892">
		<tag k="name" v="Rønningsbekken" />
		<tag k="ssr:date" v="2018-01-09" />
		<tag k="ssr:stedsnr" v="960244" />
		<tag k="waterway" v="stream" />
	</node>
	<node id="-30941" lat="63.4001277743" lon="10.2305888891">
		<tag k="name" v="Fossbekken" />
		<tag k="ssr:date" v="2018-01-09" />
		<tag k="ssr:stedsnr" v="877583" />
		<tag k="waterway" v="stream" />
	</node>
	<node id="-32988" lat="63.3554749962" lon="10.6742222206">
		<tag k="ssr:gml_id" v="GEOMETRY_517aa6ce-561b-44e7-aee4-fd870e8aa31d" />
		<tag k="ssr:gml_nr" v="1" />
	</node>
	<node id="-32987" lat="63.3554888903" lon="10.6742277868">
		<tag k="ssr:gml_id" v="GEOMETRY_2a054759-cb56-4142-9d9c-8eda5f03e656" />
		<tag k="ssr:gml_nr" v="0" />
	</node>
	<node id="-30926" lat="63.3459861128" lon="10.5747972304">
		<tag k="name" v="Vinterholet" />
		<tag k="natural" v="bay" />
		<tag k="ssr:date" v="2018-01-09" />
		<tag k="ssr:stedsnr" v="111245" />
	</node>
	<node id="-30917" lat="63.3396222221" lon="10.2685583279">
		<tag k="ssr:gml_id" v="GEOMETRY_3286b6dc-1460-4cb5-8dd9-d17be0bb2ec4" />
		<tag k="ssr:gml_nr" v="1" />
	</node>
	<node id="-30916" lat="63.3337805539" lon="10.2804055607">
		<tag k="ssr:gml_id" v="GEOMETRY_238ef527-59b1-4877-8b0a-a6d1256bdfd9" />
		<tag k="ssr:gml_nr" v="0" />
	</node>
	<node id="-26997" lat="63.3942888931" lon="10.2731527739">
		<tag k="ssr:gml_id" v="GEOMETRY_89ed42ec-3278-4fed-ab81-6d0a01b468b0" />
		<tag k="ssr:gml_nr" v="0" />
	</node>
	<node id="-30898" lat="63.4166527822" lon="10.1041055496">
		<tag k="name" v="Naustbekken" />
		<tag k="ssr:date" v="2018-01-09" />
		<tag k="ssr:stedsnr" v="812947" />
		<tag k="waterway" v="stream" />
	</node>
	<node id="-32941" lat="63.3393277769" lon="10.6523722218">
		<tag k="name" v="Kaldbudalsbekken" />
		<tag k="ssr:date" v="2018-01-09" />
		<tag k="ssr:stedsnr" v="240539" />
		<tag k="waterway" v="stream" />
	</node>
	<node id="-33217" lat="63.3394111103" lon="10.6467416723">
		<tag k="name" v="Jervbukta" />
		<tag k="natural" v="bay" />
		<tag k="ssr:date" v="2018-01-09" />
		<tag k="ssr:stedsnr" v="779260" />
	</node>
	<node id="-32933" lat="63.4421499977" lon="10.2862305576">
		<tag k="ssr:gml_id" v="GEOMETRY_5a4f40c0-d7ab-401f-a7d7-b9b4133f784f" />
		<tag k="ssr:gml_nr" v="1" />
	</node>
	<node id="-32932" lat="63.4421583373" lon="10.2862444449">
		<tag k="ssr:gml_id" v="GEOMETRY_d85c165a-199f-4f97-a657-a85fb34789db" />
		<tag k="ssr:gml_nr" v="0" />
	</node>
	<node id="-28833" lat="63.3432749999" lon="10.6583472138">
		<tag k="ssr:gml_id" v="GEOMETRY_251f6825-63b2-49be-8fd8-3cb80bff44c9" />
		<tag k="ssr:gml_nr" v="1" />
	</node>
	<node id="-28832" lat="63.343277781" lon="10.6583527692">
		<tag k="ssr:gml_id" v="GEOMETRY_df4c5f17-9b54-4766-ad9a-d1b41ce081c2" />
		<tag k="ssr:gml_nr" v="0" />
	</node>
	<node id="-28831" lat="63.4329055512" lon="10.3389222164">
		<tag k="name" v="Kudalsbekken" />
		<tag k="ssr:date" v="2018-01-09" />
		<tag k="ssr:stedsnr" v="423085" />
		<tag k="waterway" v="stream" />
	</node>
	<node id="-28827" lat="63.3561805555" lon="10.6391749982">
		<tag k="ssr:gml_id" v="GEOMETRY_97525b90-40c9-4848-9540-55a326b253e9" />
		<tag k="ssr:gml_nr" v="2" />
	</node>
	<node id="-28826" lat="63.3565388883" lon="10.6389861195">
		<tag k="ssr:gml_id" v="GEOMETRY_13b32f02-7965-4130-90ce-aec2f2eacb71" />
		<tag k="ssr:gml_nr" v="1" />
	</node>
	<node id="-28825" lat="63.3561944461" lon="10.639183326">
		<tag k="ssr:gml_id" v="GEOMETRY_21ddcb54-0bb5-4ebb-a77c-29deedf07e19" />
		<tag k="ssr:gml_nr" v="0" />
	</node>
	<node id="-33253" lat="63.336775001" lon="10.6786749927">
		<tag k="ssr:gml_id" v="GEOMETRY_36b8df6d-2e0e-4418-8d32-61775fbecd12" />
		<tag k="ssr:gml_nr" v="0" />
	</node>
	<node id="-32894" lat="63.4489972245" lon="10.275402779">
		<tag k="name" v="Løftbekken" />
		<tag k="ssr:date" v="2018-01-09" />
		<tag k="ssr:stedsnr" v="271856" />
		<tag k="waterway" v="stream" />
	</node>
	<node id="-30845" lat="63.4500166627" lon="10.3065111037">
		<tag k="ssr:gml_id" v="GEOMETRY_c82f07df-9f9d-46af-9e81-555bced98e66" />
		<tag k="ssr:gml_nr" v="2" />
	</node>
	<node id="-30844" lat="63.4476944457" lon="10.3024361061">
		<tag k="ssr:gml_id" v="GEOMETRY_aa8f9c12-56b1-4207-b83a-9f92a58ac45d" />
		<tag k="ssr:gml_nr" v="1" />
	</node>
	<node id="-30843" lat="63.4476861128" lon="10.3022944533">
		<tag k="ssr:gml_id" v="GEOMETRY_57821faf-5a08-42c5-b41e-3e96300d8367" />
		<tag k="ssr:gml_nr" v="0" />
	</node>
	<node id="-33761" lat="63.3572916646" lon="10.6241333247">
		<tag k="ssr:gml_id" v="GEOMETRY_238ad67b-73c2-4368-8d8a-980b4be2f700" />
		<tag k="ssr:gml_nr" v="3" />
	</node>
	<node id="-30827" lat="63.3811277792" lon="10.0771388798">
		<tag k="fixme" v="consider water=pond" />
		<tag k="name" v="Baua" />
		<tag k="natural" v="water" />
		<tag k="ssr:date" v="2018-01-09" />
		<tag k="ssr:stedsnr" v="629808" />
		<tag k="water" v="lake" />
	</node>
	<node id="-29713" lat="63.3980999959" lon="10.2701250003">
		<tag k="ssr:gml_id" v="GEOMETRY_a3f8e523-a999-44b8-a3f8-4d60bd70b721" />
		<tag k="ssr:gml_nr" v="1" />
	</node>
	<node id="-32864" lat="63.3446805571" lon="10.5471083327">
		<tag k="name" v="Gortjørnbekken" />
		<tag k="ssr:date" v="2018-01-09" />
		<tag k="ssr:stedsnr" v="119091" />
		<tag k="waterway" v="stream" />
	</node>
	<node id="-32861" lat="63.3785500002" lon="10.5611555617">
		<tag k="name" v="Leirøya" />
		<tag k="place" v="island" />
		<tag k="ssr:date" v="2018-01-09" />
		<tag k="ssr:stedsnr" v="536216" />
	</node>
	<node id="-28741" lat="63.3301277813" lon="10.6085083235">
		<tag k="ssr:gml_id" v="GEOMETRY_38ab04e9-6134-4b16-9b8e-c6ce28e033a2" />
		<tag k="ssr:gml_nr" v="2" />
	</node>
	<node id="-28740" lat="63.3310249979" lon="10.6083527704">
		<tag k="ssr:gml_id" v="GEOMETRY_3c46b86d-41a4-4a2b-8682-32e550f4d320" />
		<tag k="ssr:gml_nr" v="1" />
	</node>
	<node id="-28739" lat="63.3301416645" lon="10.6085222208">
		<tag k="ssr:gml_id" v="GEOMETRY_89336cb7-e4f2-49d7-b8dd-282a7d3e6cfa" />
		<tag k="ssr:gml_nr" v="0" />
	</node>
	<node id="-32830" lat="63.3651972259" lon="10.5542916623">
		<tag k="name" v="Væresaunbekken" />
		<tag k="ssr:date" v="2018-01-09" />
		<tag k="ssr:stedsnr" v="223523" />
		<tag k="waterway" v="stream" />
	</node>
	<node id="-34861" lat="63.3959361156" lon="10.237977772">
		<tag k="name" v="Storholmen" />
		<tag k="place" v="islet" />
		<tag k="ssr:date" v="2018-01-09" />
		<tag k="ssr:stedsnr" v="270569" />
	</node>
	<node id="-32801" lat="63.3987944437" lon="10.2548750055">
		<tag k="name" v="Kvitsandbekken" />
		<tag k="ssr:date" v="2018-01-09" />
		<tag k="ssr:stedsnr" v="328983" />
		<tag k="waterway" v="stream" />
	</node>
	<node id="-32799" lat="63.4380472208" lon="10.3439944537">
		<tag k="name" v="Skarhaugbekken" />
		<tag k="ssr:date" v="2018-01-09" />
		<tag k="ssr:stedsnr" v="848090" />
		<tag k="waterway" v="stream" />
	</node>
	<node id="-34099" lat="63.3237000043" lon="10.5880944357">
		<tag k="ssr:gml_id" v="GEOMETRY_4ef259af-04b5-4643-8698-02f1644a02e9" />
		<tag k="ssr:gml_nr" v="2" />
	</node>
	<node id="-34845" lat="63.3221893254" lon="10.3173895531">
		<tag k="name" v="Søra" />
		<tag k="ssr:date" v="2018-01-09" />
		<tag k="ssr:stedsnr" v="13892" />
		<tag k="waterway" v="stream" />
	</node>
	<node id="-32787" lat="63.4471972226" lon="10.2505972191">
		<tag k="name" v="Svartdalsbekken" />
		<tag k="ssr:date" v="2018-01-09" />
		<tag k="ssr:stedsnr" v="451822" />
		<tag k="waterway" v="stream" />
	</node>
	<node id="-30738" lat="63.3831444486" lon="10.5573611063">
		<tag k="name" v="Valen" />
		<tag k="natural" v="strait" />
		<tag k="place" v="locality" />
		<tag k="ssr:date" v="2018-01-09" />
		<tag k="ssr:stedsnr" v="657291" />
	</node>
	<node id="-28687" lat="63.4379805535" lon="10.4726722242">
		<tag k="name" v="Leangenbekken" />
		<tag k="ssr:date" v="2018-01-09" />
		<tag k="ssr:stedsnr" v="969130" />
		<tag k="waterway" v="stream" />
	</node>
	<node id="-27347" lat="63.43523056" lon="10.3464277714">
		<tag k="name" v="Killingdalsbekken" />
		<tag k="ssr:date" v="2018-01-09" />
		<tag k="ssr:stedsnr" v="544081" />
		<tag k="waterway" v="stream" />
	</node>
	<node id="-32778" lat="63.3451416637" lon="10.650386112">
		<tag k="name" v="Jervbukta" />
		<tag k="natural" v="bay" />
		<tag k="ssr:date" v="2018-01-09" />
		<tag k="ssr:stedsnr" v="768102" />
	</node>
	<node id="-30723" lat="63.4351888899" lon="10.192347228">
		<tag k="name" v="Myrbekken" />
		<tag k="ssr:date" v="2018-01-09" />
		<tag k="ssr:stedsnr" v="271361" />
		<tag k="waterway" v="stream" />
	</node>
	<way id="-7166">
		<tag k="name" v="Hestsjøen" />
		<tag k="natural" v="water" />
		<tag k="ssr:date" v="2018-01-09" />
		<tag k="ssr:stedsnr" v="559894" />
		<tag k="water" v="lake" />
		<nd ref="-33692" />
		<nd ref="-33693" />
		<nd ref="-33694" />
		<nd ref="-33695" />
	</way>
	<way id="-6652">
		<tag k="name" v="Jovatnet" />
		<tag k="natural" v="water" />
		<tag k="ssr:date" v="2018-01-09" />
		<tag k="ssr:stedsnr" v="863864" />
		<tag k="water" v="lake" />
		<nd ref="-30204" />
		<nd ref="-30205" />
		<nd ref="-30206" />
		<nd ref="-30207" />
	</way>
	<way id="-7082">
		<tag k="name" v="Nedre Leirfossen" />
		<tag k="natural" v="waterfall" />
		<tag k="ssr:date" v="2018-01-09" />
		<tag k="ssr:stedsnr" v="195547" />
		<nd ref="-33140" />
		<nd ref="-33141" />
	</way>
	<way id="-6642">
		<tag k="name" v="Langodden" />
		<tag k="natural" v="cape" />
		<tag k="place" v="locality" />
		<tag k="ssr:date" v="2018-01-09" />
		<tag k="ssr:stedsnr" v="134996" />
		<nd ref="-30159" />
		<nd ref="-30160" />
		<nd ref="-30161" />
	</way>
	<way id="-6640">
		<tag k="fixme" v="multiple name tags, choose one and add the other to alt_name" />
		<tag k="name" v="Klefstadbekken;Klefstadelva" />
		<tag k="ssr:date" v="2018-01-09" />
		<tag k="ssr:stedsnr" v="498112" />
		<tag k="waterway" v="stream" />
		<nd ref="-30144" />
		<nd ref="-30145" />
		<nd ref="-30146" />
		<nd ref="-30147" />
		<nd ref="-30148" />
		<nd ref="-30149" />
	</way>
	<way id="-6633">
		<tag k="fixme" v="consider water=pond" />
		<tag k="name" v="Svartvatnet" />
		<tag k="natural" v="water" />
		<tag k="ssr:date" v="2018-01-09" />
		<tag k="ssr:stedsnr" v="930266" />
		<tag k="water" v="lake" />
		<nd ref="-30119" />
		<nd ref="-30120" />
	</way>
	<way id="-7141">
		<tag k="name" v="Skjellbreia" />
		<tag k="natural" v="water" />
		<tag k="ssr:date" v="2018-01-09" />
		<tag k="ssr:stedsnr" v="195596" />
		<tag k="water" v="lake" />
		<nd ref="-33558" />
		<nd ref="-33559" />
		<nd ref="-33560" />
	</way>
	<way id="-7137">
		<tag k="name" v="Øvre Leirfossen" />
		<tag k="natural" v="waterfall" />
		<tag k="ssr:date" v="2018-01-09" />
		<tag k="ssr:stedsnr" v="498564" />
		<nd ref="-33523" />
		<nd ref="-33524" />
		<nd ref="-33525" />
	</way>
	<way id="-7133">
		<tag k="fixme" v="consider water=pond" />
		<tag k="name" v="Hevilltjønna" />
		<tag k="natural" v="water" />
		<tag k="ssr:date" v="2018-01-09" />
		<tag k="ssr:stedsnr" v="779278" />
		<tag k="water" v="lake" />
		<nd ref="-33502" />
		<nd ref="-33503" />
		<nd ref="-33504" />
	</way>
	<way id="-7132">
		<tag k="alt_name" v="Løkstadbukta" />
		<tag k="name" v="Løkkstadbukta" />
		<tag k="natural" v="bay" />
		<tag k="ssr:date" v="2018-01-09" />
		<tag k="ssr:stedsnr" v="596253" />
		<nd ref="-33491" />
		<nd ref="-33492" />
	</way>
	<way id="-7121">
		<tag k="fixme" v="consider water=pond" />
		<tag k="name" v="Kongensåsvatnet" />
		<tag k="natural" v="water" />
		<tag k="ssr:date" v="2018-01-09" />
		<tag k="ssr:stedsnr" v="13698" />
		<tag k="water" v="lake" />
		<nd ref="-33413" />
		<nd ref="-33414" />
		<nd ref="-33415" />
	</way>
	<way id="-7118">
		<tag k="fixme" v="consider water=pond" />
		<tag k="name" v="Kåttåtjønna" />
		<tag k="natural" v="water" />
		<tag k="ssr:date" v="2018-01-09" />
		<tag k="ssr:stedsnr" v="195570" />
		<tag k="water" v="lake" />
		<nd ref="-33379" />
		<nd ref="-33380" />
		<nd ref="-33381" />
	</way>
	<way id="-7111">
		<tag k="loc_name" v="Øvre Leirfossdammen" />
		<tag k="name" v="Dam Øvre Lerfoss" />
		<tag k="ssr:date" v="2018-01-09" />
		<tag k="ssr:stedsnr" v="474855" />
		<tag k="waterway" v="dam" />
		<nd ref="-33335" />
		<nd ref="-33336" />
		<nd ref="-33337" />
	</way>
	<way id="-7099">
		<tag k="fixme" v="consider water=pond" />
		<tag k="name" v="Lomtjønna" />
		<tag k="natural" v="water" />
		<tag k="ssr:date" v="2018-01-09" />
		<tag k="ssr:stedsnr" v="316941" />
		<tag k="water" v="lake" />
		<nd ref="-33253" />
		<nd ref="-33254" />
		<nd ref="-33255" />
	</way>
	<way id="-7098">
		<tag k="name" v="Skirna" />
		<tag k="old_name" v="Skinnbekken" />
		<tag k="ssr:date" v="2018-01-09" />
		<tag k="ssr:stedsnr" v="741465" />
		<tag k="waterway" v="stream" />
		<nd ref="-33245" />
		<nd ref="-33246" />
		<nd ref="-33247" />
		<nd ref="-33248" />
		<nd ref="-33249" />
	</way>
	<way id="-6585">
		<tag k="name" v="Stokkbekken" />
		<tag k="ssr:date" v="2018-01-09" />
		<tag k="ssr:stedsnr" v="863640" />
		<tag k="waterway" v="stream" />
		<nd ref="-29817" />
		<nd ref="-29818" />
		<nd ref="-29819" />
		<nd ref="-29820" />
		<nd ref="-29821" />
		<nd ref="-29822" />
	</way>
	<way id="-6580">
		<tag k="name" v="Haukvatnet" />
		<tag k="natural" v="water" />
		<tag k="ssr:date" v="2018-01-09" />
		<tag k="ssr:stedsnr" v="74592" />
		<tag k="water" v="lake" />
		<nd ref="-29778" />
		<nd ref="-29779" />
		<nd ref="-29780" />
	</way>
	<way id="-6579">
		<tag k="fixme" v="consider water=pond" />
		<tag k="name" v="Kyvatnet" />
		<tag k="natural" v="water" />
		<tag k="ssr:date" v="2018-01-09" />
		<tag k="ssr:stedsnr" v="317529" />
		<tag k="water" v="lake" />
		<nd ref="-29774" />
		<nd ref="-29775" />
		<nd ref="-29776" />
		<nd ref="-29777" />
	</way>
	<way id="-7317">
		<tag k="fixme" v="consider water=pond" />
		<tag k="name" v="Jervtjønna" />
		<tag k="natural" v="water" />
		<tag k="ssr:date" v="2018-01-09" />
		<tag k="ssr:stedsnr" v="741632" />
		<tag k="water" v="lake" />
		<nd ref="-34734" />
		<nd ref="-34735" />
		<nd ref="-34736" />
		<nd ref="-34737" />
	</way>
	<way id="-7087">
		<tag k="name" v="Kystadbekken" />
		<tag k="ssr:date" v="2018-01-09" />
		<tag k="ssr:stedsnr" v="438524" />
		<tag k="waterway" v="stream" />
		<nd ref="-33173" />
		<nd ref="-33174" />
		<nd ref="-33175" />
	</way>
	<way id="-6570">
		<tag k="fixme" v="consider water=pond" />
		<tag k="name" v="Bangtjønna" />
		<tag k="natural" v="water" />
		<tag k="ssr:date" v="2018-01-09" />
		<tag k="ssr:stedsnr" v="74585" />
		<tag k="water" v="lake" />
		<nd ref="-29712" />
		<nd ref="-29713" />
		<nd ref="-29714" />
	</way>
	<way id="-6564">
		<tag k="name" v="Brandseggnebben" />
		<tag k="natural" v="cape" />
		<tag k="place" v="locality" />
		<tag k="ssr:date" v="2018-01-09" />
		<tag k="ssr:stedsnr" v="646042" />
		<nd ref="-29670" />
		<nd ref="-29671" />
	</way>
	<way id="-7072">
		<tag k="name" v="Ramdalsbekken" />
		<tag k="ssr:date" v="2018-01-09" />
		<tag k="ssr:stedsnr" v="40520" />
		<tag k="waterway" v="stream" />
		<nd ref="-33043" />
		<nd ref="-33044" />
	</way>
	<way id="-6553">
		<tag k="fixme" v="consider water=pond" />
		<tag k="name" v="Kvistingen" />
		<tag k="natural" v="water" />
		<tag k="ssr:date" v="2018-01-09" />
		<tag k="ssr:stedsnr" v="316456" />
		<tag k="water" v="lake" />
		<nd ref="-29610" />
		<nd ref="-29611" />
		<nd ref="-29612" />
		<nd ref="-29613" />
	</way>
	<way id="-6552">
		<tag k="alt_name" v="Vassdammen" />
		<tag k="fixme" v="consider water=pond" />
		<tag k="name" v="Bosbergdammen" />
		<tag k="natural" v="water" />
		<tag k="ssr:date" v="2018-01-09" />
		<tag k="ssr:stedsnr" v="208007" />
		<tag k="water" v="lake" />
		<nd ref="-29601" />
		<nd ref="-29602" />
	</way>
	<way id="-7062">
		<tag k="fixme" v="consider water=pond" />
		<tag k="name" v="Midtidammen" />
		<tag k="natural" v="water" />
		<tag k="ssr:date" v="2018-01-09" />
		<tag k="ssr:stedsnr" v="620977" />
		<tag k="water" v="lake" />
		<nd ref="-32987" />
		<nd ref="-32988" />
		<nd ref="-32989" />
	</way>
	<way id="-6547">
		<tag k="name" v="Valen" />
		<tag k="natural" v="strait" />
		<tag k="place" v="locality" />
		<tag k="ssr:date" v="2018-01-09" />
		<tag k="ssr:stedsnr" v="862539" />
		<nd ref="-29560" />
		<nd ref="-29561" />
	</way>
	<way id="-6543">
		<tag k="name" v="Litlvatnet" />
		<tag k="natural" v="water" />
		<tag k="ssr:date" v="2018-01-09" />
		<tag k="ssr:stedsnr" v="317499" />
		<tag k="water" v="lake" />
		<nd ref="-29523" />
		<nd ref="-29524" />
		<nd ref="-29525" />
		<nd ref="-29526" />
		<nd ref="-29527" />
		<nd ref="-29528" />
		<nd ref="-29529" />
		<nd ref="-29530" />
	</way>
	<way id="-7053">
		<tag k="fixme" v="consider water=pond" />
		<tag k="name" v="Holstdammen" />
		<tag k="natural" v="water" />
		<tag k="ssr:date" v="2018-01-09" />
		<tag k="ssr:stedsnr" v="802721" />
		<tag k="water" v="lake" />
		<nd ref="-32932" />
		<nd ref="-32933" />
	</way>
	<way id="-6530">
		<tag k="fixme" v="multiple name tags, choose one and add the other to alt_name; consider water=pond" />
		<tag k="name" v="Langdammen;Nydammen" />
		<tag k="natural" v="water" />
		<tag k="ssr:date" v="2018-01-09" />
		<tag k="ssr:stedsnr" v="376676" />
		<tag k="water" v="lake" />
		<nd ref="-29441" />
		<nd ref="-29442" />
		<nd ref="-29443" />
		<nd ref="-29444" />
	</way>
	<way id="-6529">
		<tag k="alt_name" v="Ilelva" />
		<tag k="name" v="Ilabekken" />
		<tag k="ssr:date" v="2018-01-09" />
		<tag k="ssr:stedsnr" v="207980" />
		<tag k="waterway" v="stream" />
		<nd ref="-29424" />
		<nd ref="-29425" />
		<nd ref="-29426" />
		<nd ref="-29427" />
		<nd ref="-29428" />
		<nd ref="-29429" />
		<nd ref="-29430" />
		<nd ref="-29431" />
		<nd ref="-29432" />
		<nd ref="-29433" />
		<nd ref="-29434" />
	</way>
	<way id="-6526">
		<tag k="fixme" v="consider water=pond" />
		<tag k="name" v="Estenstaddamman" />
		<tag k="natural" v="water" />
		<tag k="ssr:date" v="2018-01-09" />
		<tag k="ssr:stedsnr" v="863592" />
		<tag k="water" v="lake" />
		<nd ref="-29413" />
		<nd ref="-29414" />
		<nd ref="-29415" />
	</way>
	<way id="-6525">
		<tag k="name" v="Røstadbekken" />
		<tag k="ssr:date" v="2018-01-09" />
		<tag k="ssr:stedsnr" v="414272" />
		<tag k="waterway" v="stream" />
		<nd ref="-29410" />
		<nd ref="-29411" />
	</way>
	<way id="-6520">
		<tag k="fixme" v="multiple name tags, choose one and add the other to alt_name; consider water=pond" />
		<tag k="name" v="Svartvatnet;Svarttjønna" />
		<tag k="natural" v="water" />
		<tag k="ssr:date" v="2018-01-09" />
		<tag k="ssr:stedsnr" v="559413" />
		<tag k="water" v="lake" />
		<nd ref="-29384" />
		<nd ref="-29385" />
		<nd ref="-29386" />
		<nd ref="-29387" />
	</way>
	<way id="-6517">
		<tag k="name" v="Storøya" />
		<tag k="place" v="islet" />
		<tag k="ssr:date" v="2018-01-09" />
		<tag k="ssr:stedsnr" v="923989" />
		<nd ref="-29355" />
		<nd ref="-29356" />
	</way>
	<way id="-7020">
		<tag k="name" v="Strypbekken" />
		<tag k="ssr:date" v="2018-01-09" />
		<tag k="ssr:stedsnr" v="817871" />
		<tag k="waterway" v="stream" />
		<nd ref="-32717" />
		<nd ref="-32718" />
	</way>
	<way id="-6499">
		<tag k="fixme" v="consider water=pond" />
		<tag k="name" v="Baklidammen" />
		<tag k="natural" v="water" />
		<tag k="ssr:date" v="2018-01-09" />
		<tag k="ssr:stedsnr" v="680697" />
		<tag k="water" v="lake" />
		<nd ref="-29212" />
		<nd ref="-29213" />
		<nd ref="-29214" />
	</way>
	<way id="-7008">
		<tag k="name" v="Våddabekken" />
		<tag k="ssr:date" v="2018-01-09" />
		<tag k="ssr:stedsnr" v="633183" />
		<tag k="waterway" v="stream" />
		<nd ref="-32626" />
		<nd ref="-32627" />
	</way>
	<way id="-6494">
		<tag k="name" v="Trøbekken" />
		<tag k="ssr:date" v="2018-01-09" />
		<tag k="ssr:stedsnr" v="741961" />
		<tag k="waterway" v="stream" />
		<nd ref="-29178" />
		<nd ref="-29179" />
		<nd ref="-29180" />
	</way>
	<way id="-7002">
		<tag k="fixme" v="consider water=pond" />
		<tag k="name" v="Kobberdammen" />
		<tag k="natural" v="water" />
		<tag k="ssr:date" v="2018-01-09" />
		<tag k="ssr:stedsnr" v="802699" />
		<tag k="water" v="lake" />
		<nd ref="-32581" />
		<nd ref="-32582" />
		<nd ref="-32583" />
		<nd ref="-32584" />
	</way>
	<way id="-7001">
		<tag k="fixme" v="consider water=pond" />
		<tag k="name" v="Ramnåsvatnet" />
		<tag k="natural" v="water" />
		<tag k="ssr:date" v="2018-01-09" />
		<tag k="ssr:stedsnr" v="134138" />
		<tag k="water" v="lake" />
		<nd ref="-32578" />
		<nd ref="-32579" />
		<nd ref="-32580" />
	</way>
	<way id="-6487">
		<tag k="fixme" v="consider water=pond" />
		<tag k="name" v="Metjønna" />
		<tag k="natural" v="water" />
		<tag k="ssr:date" v="2018-01-09" />
		<tag k="ssr:stedsnr" v="863581" />
		<tag k="water" v="lake" />
		<nd ref="-29108" />
		<nd ref="-29109" />
	</way>
	<way id="-6459">
		<tag k="alt_name" v="Faua" />
		<tag k="name" v="Faubekken" />
		<tag k="ssr:date" v="2018-01-09" />
		<tag k="ssr:stedsnr" v="149795" />
		<tag k="waterway" v="stream" />
		<nd ref="-28912" />
		<nd ref="-28913" />
		<nd ref="-28914" />
	</way>
	<way id="-6965">
		<tag k="fixme" v="consider water=pond" />
		<tag k="name" v="Heisjøen" />
		<tag k="natural" v="water" />
		<tag k="ssr:date" v="2018-01-09" />
		<tag k="ssr:stedsnr" v="195448" />
		<tag k="water" v="lake" />
		<nd ref="-32360" />
		<nd ref="-32361" />
		<nd ref="-32362" />
		<nd ref="-32363" />
	</way>
	<way id="-6447">
		<tag k="name" v="Storbekken" />
		<tag k="ssr:date" v="2018-01-09" />
		<tag k="ssr:stedsnr" v="437935" />
		<tag k="waterway" v="stream" />
		<nd ref="-28832" />
		<nd ref="-28833" />
	</way>
	<way id="-6446">
		<tag k="name" v="Øydalsvika" />
		<tag k="natural" v="bay" />
		<tag k="ssr:date" v="2018-01-09" />
		<tag k="ssr:stedsnr" v="195989" />
		<nd ref="-28825" />
		<nd ref="-28826" />
		<nd ref="-28827" />
	</way>
	<way id="-6956">
		<tag k="name" v="Elgneset" />
		<tag k="natural" v="cape" />
		<tag k="place" v="locality" />
		<tag k="ssr:date" v="2018-01-09" />
		<tag k="ssr:stedsnr" v="74945" />
		<nd ref="-32278" />
		<nd ref="-32279" />
		<nd ref="-32280" />
	</way>
	<way id="-6954">
		<tag k="alt_name" v="Steindalsbekken" />
		<tag k="name" v="Steinsdalsbekken" />
		<tag k="ssr:date" v="2018-01-09" />
		<tag k="ssr:stedsnr" v="414854" />
		<tag k="waterway" v="stream" />
		<nd ref="-32269" />
		<nd ref="-32270" />
		<nd ref="-32271" />
		<nd ref="-32272" />
	</way>
	<way id="-6953">
		<tag k="fixme" v="consider water=pond" />
		<tag k="name" v="Lauglovatnet" />
		<tag k="natural" v="water" />
		<tag k="ssr:date" v="2018-01-09" />
		<tag k="ssr:stedsnr" v="863993" />
		<tag k="water" v="lake" />
		<nd ref="-32266" />
		<nd ref="-32267" />
		<nd ref="-32268" />
	</way>
	<way id="-6620">
		<tag k="fixme" v="consider water=pond" />
		<tag k="name" v="Stokkdalstjønna" />
		<tag k="natural" v="water" />
		<tag k="ssr:date" v="2018-01-09" />
		<tag k="ssr:stedsnr" v="620549" />
		<tag k="water" v="lake" />
		<nd ref="-30025" />
		<nd ref="-30026" />
		<nd ref="-30027" />
	</way>
	<way id="-6433">
		<tag k="fixme" v="consider water=pond" />
		<tag k="name" v="Steintjønna" />
		<tag k="natural" v="water" />
		<tag k="ssr:date" v="2018-01-09" />
		<tag k="ssr:stedsnr" v="741920" />
		<tag k="water" v="lake" />
		<nd ref="-28739" />
		<nd ref="-28740" />
		<nd ref="-28741" />
	</way>
	<way id="-6921">
		<tag k="alt_name" v="Stor-Leirsjøen" />
		<tag k="name" v="Leirsjøen" />
		<tag k="natural" v="water" />
		<tag k="ssr:date" v="2018-01-09" />
		<tag k="ssr:stedsnr" v="802601" />
		<tag k="water" v="lake" />
		<nd ref="-32048" />
		<nd ref="-32049" />
		<nd ref="-32050" />
		<nd ref="-32051" />
		<nd ref="-32052" />
	</way>
	<way id="-6408">
		<tag k="alt_name" v="Ristelva" />
		<tag k="name" v="Ristbekken" />
		<tag k="ssr:date" v="2018-01-09" />
		<tag k="ssr:stedsnr" v="74444" />
		<tag k="waterway" v="stream" />
		<nd ref="-28562" />
		<nd ref="-28563" />
		<nd ref="-28564" />
	</way>
	<way id="-6915">
		<tag k="name" v="Bergsbekken" />
		<tag k="ssr:date" v="2018-01-09" />
		<tag k="ssr:stedsnr" v="23999" />
		<tag k="waterway" v="stream" />
		<nd ref="-32019" />
		<nd ref="-32020" />
	</way>
	<way id="-6402">
		<tag k="fixme" v="consider water=pond" />
		<tag k="name" v="Spillertjønna" />
		<tag k="natural" v="water" />
		<tag k="ssr:date" v="2018-01-09" />
		<tag k="ssr:stedsnr" v="437911" />
		<tag k="water" v="lake" />
		<nd ref="-28523" />
		<nd ref="-28524" />
		<nd ref="-28525" />
	</way>
	<way id="-6400">
		<tag k="fixme" v="consider water=pond" />
		<tag k="name" v="Gortjønna" />
		<tag k="natural" v="water" />
		<tag k="ssr:date" v="2018-01-09" />
		<tag k="ssr:stedsnr" v="437914" />
		<tag k="water" v="lake" />
		<nd ref="-28515" />
		<nd ref="-28516" />
		<nd ref="-28517" />
	</way>
	<way id="-6907">
		<tag k="fixme" v="consider water=pond" />
		<tag k="name" v="Gjeddvatnet" />
		<tag k="natural" v="water" />
		<tag k="ssr:date" v="2018-01-09" />
		<tag k="ssr:stedsnr" v="802608" />
		<tag k="water" v="lake" />
		<nd ref="-31983" />
		<nd ref="-31984" />
		<nd ref="-31985" />
	</way>
	<way id="-6904">
		<tag k="name" v="Kusetbukta" />
		<tag k="natural" v="bay" />
		<tag k="ssr:date" v="2018-01-09" />
		<tag k="ssr:stedsnr" v="802607" />
		<nd ref="-31975" />
		<nd ref="-31976" />
		<nd ref="-31977" />
	</way>
	<way id="-6387">
		<tag k="name" v="Espåa" />
		<tag k="ssr:date" v="2018-01-09" />
		<tag k="ssr:stedsnr" v="195948" />
		<tag k="waterway" v="stream" />
		<nd ref="-28427" />
		<nd ref="-28428" />
		<nd ref="-28429" />
		<nd ref="-28430" />
	</way>
	<way id="-6385">
		<tag k="name" v="Dalvika" />
		<tag k="natural" v="bay" />
		<tag k="ssr:date" v="2018-01-09" />
		<tag k="ssr:stedsnr" v="438942" />
		<nd ref="-28421" />
		<nd ref="-28422" />
		<nd ref="-28423" />
	</way>
	<way id="-6383">
		<tag k="name" v="Rønningsbekken" />
		<tag k="ssr:date" v="2018-01-09" />
		<tag k="ssr:stedsnr" v="839843" />
		<tag k="waterway" v="stream" />
		<nd ref="-28408" />
		<nd ref="-28409" />
	</way>
	<way id="-6381">
		<tag k="alt_name" v="Kvetabekken" />
		<tag k="name" v="Kveitabekken" />
		<tag k="ssr:date" v="2018-01-09" />
		<tag k="ssr:stedsnr" v="656867" />
		<tag k="waterway" v="stream" />
		<nd ref="-28385" />
		<nd ref="-28386" />
		<nd ref="-28387" />
	</way>
	<way id="-6886">
		<tag k="fixme" v="multiple name tags, choose one and add the other to alt_name" />
		<tag k="name" v="Gunnarslættbekken;Holbekken;Markabekken" />
		<tag k="ssr:date" v="2018-01-09" />
		<tag k="ssr:stedsnr" v="210077" />
		<tag k="waterway" v="stream" />
		<nd ref="-31834" />
		<nd ref="-31835" />
		<nd ref="-31836" />
	</way>
	<way id="-6884">
		<tag k="fixme" v="consider water=pond" />
		<tag k="name" v="Hammertjønna" />
		<tag k="natural" v="water" />
		<tag k="ssr:date" v="2018-01-09" />
		<tag k="ssr:stedsnr" v="863926" />
		<tag k="water" v="lake" />
		<nd ref="-31823" />
		<nd ref="-31824" />
		<nd ref="-31825" />
	</way>
	<way id="-6876">
		<tag k="fixme" v="multiple name tags, choose one and add the other to alt_name; consider water=pond" />
		<tag k="name" v="Rongsvatnet;Rognstjønna" />
		<tag k="natural" v="water" />
		<tag k="ssr:date" v="2018-01-09" />
		<tag k="ssr:stedsnr" v="13482" />
		<tag k="water" v="lake" />
		<nd ref="-31792" />
		<nd ref="-31793" />
		<nd ref="-31794" />
	</way>
	<way id="-6873">
		<tag k="fixme" v="consider water=pond" />
		<tag k="name" v="Svartvatnet" />
		<tag k="natural" v="water" />
		<tag k="ssr:date" v="2018-01-09" />
		<tag k="ssr:stedsnr" v="558575" />
		<tag k="water" v="lake" />
		<nd ref="-31775" />
		<nd ref="-31776" />
		<nd ref="-31777" />
	</way>
	<way id="-6871">
		<tag k="name" v="Odden" />
		<tag k="natural" v="cape" />
		<tag k="place" v="locality" />
		<tag k="ssr:date" v="2018-01-09" />
		<tag k="ssr:stedsnr" v="863934" />
		<nd ref="-31768" />
		<nd ref="-31769" />
		<nd ref="-31770" />
	</way>
	<way id="-6354">
		<tag k="name" v="Damtjønnbekken" />
		<tag k="ssr:date" v="2018-01-09" />
		<tag k="ssr:stedsnr" v="924845" />
		<tag k="waterway" v="stream" />
		<nd ref="-28246" />
		<nd ref="-28247" />
		<nd ref="-28248" />
	</way>
	<way id="-6864">
		<tag k="name" v="Vadbekken" />
		<tag k="ssr:date" v="2018-01-09" />
		<tag k="ssr:stedsnr" v="390291" />
		<tag k="waterway" v="stream" />
		<nd ref="-31730" />
		<nd ref="-31731" />
	</way>
	<way id="-6346">
		<tag k="fixme" v="consider water=pond" />
		<tag k="name" v="Bjørnstadtjønnin" />
		<tag k="natural" v="water" />
		<tag k="ssr:date" v="2018-01-09" />
		<tag k="ssr:stedsnr" v="498901" />
		<tag k="water" v="lake" />
		<nd ref="-28191" />
		<nd ref="-28192" />
	</way>
	<way id="-6857">
		<tag k="fixme" v="consider water=pond" />
		<tag k="name" v="Bjørktjønna" />
		<tag k="natural" v="water" />
		<tag k="ssr:date" v="2018-01-09" />
		<tag k="ssr:stedsnr" v="558573" />
		<tag k="water" v="lake" />
		<nd ref="-31680" />
		<nd ref="-31681" />
		<nd ref="-31682" />
	</way>
	<way id="-6338">
		<tag k="fixme" v="consider water=pond" />
		<tag k="name" v="Lomtjønna" />
		<tag k="natural" v="water" />
		<tag k="ssr:date" v="2018-01-09" />
		<tag k="ssr:stedsnr" v="870780" />
		<tag k="water" v="lake" />
		<nd ref="-28132" />
		<nd ref="-28133" />
	</way>
	<way id="-6844">
		<tag k="name" v="Nedre Skardbekken" />
		<tag k="ssr:date" v="2018-01-09" />
		<tag k="ssr:stedsnr" v="934882" />
		<tag k="waterway" v="stream" />
		<nd ref="-31587" />
		<nd ref="-31588" />
	</way>
	<way id="-6325">
		<tag k="fixme" v="consider water=pond" />
		<tag k="name" v="Sandtjønna" />
		<tag k="natural" v="water" />
		<tag k="ssr:date" v="2018-01-09" />
		<tag k="ssr:stedsnr" v="438885" />
		<tag k="water" v="lake" />
		<nd ref="-28061" />
		<nd ref="-28062" />
		<nd ref="-28063" />
	</way>
	<way id="-6599">
		<tag k="name" v="Kvisetbekken" />
		<tag k="ssr:date" v="2018-01-09" />
		<tag k="ssr:stedsnr" v="559368" />
		<tag k="waterway" v="stream" />
		<nd ref="-29920" />
		<nd ref="-29921" />
		<nd ref="-29922" />
		<nd ref="-29923" />
		<nd ref="-29924" />
		<nd ref="-29925" />
	</way>
	<way id="-6824">
		<tag k="name" v="Krokåtåa" />
		<tag k="ssr:date" v="2018-01-09" />
		<tag k="ssr:stedsnr" v="511461" />
		<tag k="waterway" v="stream" />
		<nd ref="-31475" />
		<nd ref="-31476" />
	</way>
	<way id="-6309">
		<tag k="name" v="Litl-Leirsjøen" />
		<tag k="natural" v="water" />
		<tag k="ssr:date" v="2018-01-09" />
		<tag k="ssr:stedsnr" v="134576" />
		<tag k="water" v="lake" />
		<nd ref="-27954" />
		<nd ref="-27955" />
	</way>
	<way id="-6307">
		<tag k="name" v="Mølmannsøya" />
		<tag k="place" v="islet" />
		<tag k="ssr:date" v="2018-01-09" />
		<tag k="ssr:stedsnr" v="134574" />
		<nd ref="-27948" />
		<nd ref="-27949" />
	</way>
	<way id="-7325">
		<tag k="fixme" v="consider water=pond" />
		<tag k="name" v="Herbernsdammen" />
		<tag k="natural" v="water" />
		<tag k="ssr:date" v="2018-01-09" />
		<tag k="ssr:stedsnr" v="437672" />
		<tag k="water" v="lake" />
		<nd ref="-34794" />
		<nd ref="-34795" />
		<nd ref="-34796" />
	</way>
	<way id="-7318">
		<tag k="name" v="Dalabekken" />
		<tag k="ssr:date" v="2018-01-09" />
		<tag k="ssr:stedsnr" v="270552" />
		<tag k="waterway" v="stream" />
		<nd ref="-34739" />
		<nd ref="-34740" />
	</way>
	<way id="-6805">
		<tag k="fixme" v="consider water=pond" />
		<tag k="name" v="Glennsettjønna" />
		<tag k="natural" v="water" />
		<tag k="ssr:date" v="2018-01-09" />
		<tag k="ssr:stedsnr" v="559560" />
		<tag k="water" v="lake" />
		<nd ref="-31328" />
		<nd ref="-31329" />
		<nd ref="-31330" />
	</way>
	<way id="-7312">
		<tag k="name" v="Grautøya" />
		<tag k="place" v="islet" />
		<tag k="ssr:date" v="2018-01-09" />
		<tag k="ssr:stedsnr" v="741623" />
		<nd ref="-34693" />
		<nd ref="-34694" />
	</way>
	<way id="-6286">
		<tag k="fixme" v="consider water=pond" />
		<tag k="name" v="Damtjønna" />
		<tag k="natural" v="water" />
		<tag k="ssr:date" v="2018-01-09" />
		<tag k="ssr:stedsnr" v="498857" />
		<tag k="water" v="lake" />
		<nd ref="-27826" />
		<nd ref="-27827" />
		<nd ref="-27828" />
		<nd ref="-27829" />
	</way>
	<way id="-6796">
		<tag k="fixme" v="consider water=pond" />
		<tag k="name" v="Kroktjønna" />
		<tag k="natural" v="water" />
		<tag k="ssr:date" v="2018-01-09" />
		<tag k="ssr:stedsnr" v="680959" />
		<tag k="water" v="lake" />
		<nd ref="-31247" />
		<nd ref="-31248" />
		<nd ref="-31249" />
	</way>
	<way id="-6794">
		<tag k="name" v="Hårstadbekken" />
		<tag k="ssr:date" v="2018-01-09" />
		<tag k="ssr:stedsnr" v="778846" />
		<tag k="waterway" v="stream" />
		<nd ref="-31227" />
		<nd ref="-31228" />
		<nd ref="-31229" />
	</way>
	<way id="-7295">
		<tag k="name" v="Leirelva" />
		<tag k="ssr:date" v="2018-01-09" />
		<tag k="ssr:stedsnr" v="741627" />
		<tag k="waterway" v="river" />
		<nd ref="-34577" />
		<nd ref="-34578" />
		<nd ref="-34579" />
		<nd ref="-34580" />
		<nd ref="-34581" />
		<nd ref="-34582" />
		<nd ref="-34583" />
		<nd ref="-34584" />
		<nd ref="-34585" />
		<nd ref="-34586" />
	</way>
	<way id="-6781">
		<tag k="name" v="Holbekken" />
		<tag k="ssr:date" v="2018-01-09" />
		<tag k="ssr:stedsnr" v="328683" />
		<tag k="waterway" v="stream" />
		<nd ref="-31154" />
		<nd ref="-31155" />
	</way>
	<way id="-6265">
		<tag k="fixme" v="consider water=pond" />
		<tag k="name" v="Velikvatnet" />
		<tag k="natural" v="water" />
		<tag k="ssr:date" v="2018-01-09" />
		<tag k="ssr:stedsnr" v="377514" />
		<tag k="water" v="lake" />
		<nd ref="-27710" />
		<nd ref="-27711" />
		<nd ref="-27712" />
		<nd ref="-27713" />
	</way>
	<way id="-6773">
		<tag k="name" v="Hafellbekken" />
		<tag k="ssr:date" v="2018-01-09" />
		<tag k="ssr:stedsnr" v="266947" />
		<tag k="waterway" v="stream" />
		<nd ref="-31079" />
		<nd ref="-31080" />
	</way>
	<way id="-6768">
		<tag k="name" v="Kilvatnet" />
		<tag k="natural" v="water" />
		<tag k="ssr:date" v="2018-01-09" />
		<tag k="ssr:stedsnr" v="134949" />
		<tag k="water" v="lake" />
		<nd ref="-31034" />
		<nd ref="-31035" />
		<nd ref="-31036" />
		<nd ref="-31037" />
		<nd ref="-31038" />
	</way>
	<way id="-6767">
		<tag k="name" v="Vintervatnet" />
		<tag k="natural" v="water" />
		<tag k="ssr:date" v="2018-01-09" />
		<tag k="ssr:stedsnr" v="316637" />
		<tag k="water" v="lake" />
		<nd ref="-31022" />
		<nd ref="-31023" />
	</way>
	<way id="-6253">
		<tag k="name" v="Landøya" />
		<tag k="place" v="islet" />
		<tag k="ssr:date" v="2018-01-09" />
		<tag k="ssr:stedsnr" v="13990" />
		<nd ref="-27627" />
		<nd ref="-27628" />
	</way>
	<way id="-6251">
		<tag k="name" v="Gravabekken" />
		<tag k="ssr:date" v="2018-01-09" />
		<tag k="ssr:stedsnr" v="680490" />
		<tag k="waterway" v="stream" />
		<nd ref="-27614" />
		<nd ref="-27615" />
		<nd ref="-27616" />
		<nd ref="-27617" />
	</way>
	<way id="-6759">
		<tag k="fixme" v="consider water=pond" />
		<tag k="name" v="Damvatnet" />
		<tag k="natural" v="water" />
		<tag k="ssr:date" v="2018-01-09" />
		<tag k="ssr:stedsnr" v="437131" />
		<tag k="water" v="lake" />
		<nd ref="-30970" />
		<nd ref="-30971" />
		<nd ref="-30972" />
	</way>
	<way id="-6246">
		<tag k="fixme" v="consider water=pond" />
		<tag k="name" v="Langtjønna" />
		<tag k="natural" v="water" />
		<tag k="ssr:date" v="2018-01-09" />
		<tag k="ssr:stedsnr" v="13981" />
		<tag k="water" v="lake" />
		<nd ref="-27585" />
		<nd ref="-27586" />
		<nd ref="-27587" />
	</way>
	<way id="-6241">
		<tag k="name" v="Hestøya" />
		<tag k="place" v="islet" />
		<tag k="ssr:date" v="2018-01-09" />
		<tag k="ssr:stedsnr" v="13980" />
		<nd ref="-27562" />
		<nd ref="-27563" />
		<nd ref="-27564" />
	</way>
	<way id="-6752">
		<tag k="name" v="Eggbekken" />
		<tag k="ssr:date" v="2018-01-09" />
		<tag k="ssr:stedsnr" v="111250" />
		<tag k="waterway" v="stream" />
		<nd ref="-30916" />
		<nd ref="-30917" />
	</way>
	<way id="-7262">
		<tag k="alt_name" v="Svarttjønn" />
		<tag k="fixme" v="consider water=pond" />
		<tag k="name" v="Svarttjønna" />
		<tag k="natural" v="water" />
		<tag k="ssr:date" v="2018-01-09" />
		<tag k="ssr:stedsnr" v="802909" />
		<tag k="water" v="lake" />
		<nd ref="-34359" />
		<nd ref="-34360" />
		<nd ref="-34361" />
	</way>
	<way id="-6742">
		<tag k="alt_name" v="Trollabekken" />
		<tag k="name" v="Trollbekken" />
		<tag k="ssr:date" v="2018-01-09" />
		<tag k="ssr:stedsnr" v="815762" />
		<tag k="waterway" v="stream" />
		<nd ref="-30843" />
		<nd ref="-30844" />
		<nd ref="-30845" />
		<nd ref="-30846" />
	</way>
	<way id="-7253">
		<tag k="name" v="Vikelva" />
		<tag k="ssr:date" v="2018-01-09" />
		<tag k="ssr:stedsnr" v="498662" />
		<tag k="waterway" v="stream" />
		<nd ref="-34299" />
		<nd ref="-34300" />
		<nd ref="-34301" />
		<nd ref="-34302" />
		<nd ref="-34303" />
		<nd ref="-34304" />
		<nd ref="-34305" />
		<nd ref="-34306" />
		<nd ref="-34307" />
	</way>
	<way id="-7248">
		<tag k="fixme" v="consider water=pond" />
		<tag k="name" v="Svarttjønna" />
		<tag k="natural" v="water" />
		<tag k="ssr:date" v="2018-01-09" />
		<tag k="ssr:stedsnr" v="195677" />
		<tag k="water" v="lake" />
		<nd ref="-34283" />
		<nd ref="-34284" />
	</way>
	<way id="-6156">
		<tag k="name" v="Nidelva" />
		<tag k="ssr:date" v="2018-01-09" />
		<tag k="ssr:stedsnr" v="256969" />
		<tag k="waterway" v="river" />
		<nd ref="-27006" />
		<nd ref="-27007" />
		<nd ref="-27008" />
		<nd ref="-27009" />
		<nd ref="-27010" />
		<nd ref="-27011" />
		<nd ref="-27012" />
		<nd ref="-27013" />
		<nd ref="-27014" />
		<nd ref="-27015" />
		<nd ref="-27016" />
		<nd ref="-27017" />
		<nd ref="-27018" />
		<nd ref="-27019" />
		<nd ref="-27020" />
		<nd ref="-27021" />
		<nd ref="-27022" />
		<nd ref="-27023" />
		<nd ref="-27024" />
		<nd ref="-27025" />
		<nd ref="-27026" />
		<nd ref="-27027" />
		<nd ref="-27028" />
		<nd ref="-27029" />
	</way>
	<way id="-6722">
		<tag k="name" v="Jervbukta" />
		<tag k="natural" v="bay" />
		<tag k="ssr:date" v="2018-01-09" />
		<tag k="ssr:stedsnr" v="657288" />
		<nd ref="-30712" />
		<nd ref="-30713" />
	</way>
	<way id="-7229">
		<tag k="alt_name" v="Amundsbekken" />
		<tag k="name" v="Amundbekken" />
		<tag k="ssr:date" v="2018-01-09" />
		<tag k="ssr:stedsnr" v="50243" />
		<tag k="waterway" v="stream" />
		<nd ref="-34145" />
		<nd ref="-34146" />
	</way>
	<way id="-6713">
		<tag k="name" v="Sagelva" />
		<tag k="ssr:date" v="2018-01-09" />
		<tag k="ssr:stedsnr" v="377884" />
		<tag k="waterway" v="stream" />
		<nd ref="-30654" />
		<nd ref="-30655" />
		<nd ref="-30656" />
		<nd ref="-30657" />
	</way>
	<way id="-7224">
		<tag k="fixme" v="consider water=pond" />
		<tag k="name" v="Kjerringtjønna" />
		<tag k="natural" v="water" />
		<tag k="ssr:date" v="2018-01-09" />
		<tag k="ssr:stedsnr" v="256858" />
		<tag k="water" v="lake" />
		<nd ref="-34097" />
		<nd ref="-34098" />
		<nd ref="-34099" />
	</way>
	<way id="-6199">
		<tag k="name" v="Bjøra" />
		<tag k="ssr:date" v="2018-01-09" />
		<tag k="ssr:stedsnr" v="144901" />
		<tag k="waterway" v="stream" />
		<nd ref="-27297" />
		<nd ref="-27298" />
	</way>
	<way id="-6181">
		<tag k="name" v="Valsetbukta" />
		<tag k="natural" v="bay" />
		<tag k="ssr:date" v="2018-01-09" />
		<tag k="ssr:stedsnr" v="172262" />
		<nd ref="-27174" />
		<nd ref="-27175" />
	</way>
	<way id="-7201">
		<tag k="fixme" v="consider water=pond" />
		<tag k="name" v="Lianvatnet" />
		<tag k="natural" v="water" />
		<tag k="ssr:date" v="2018-01-09" />
		<tag k="ssr:stedsnr" v="498613" />
		<tag k="water" v="lake" />
		<nd ref="-33922" />
		<nd ref="-33923" />
	</way>
	<way id="-6172">
		<tag k="name" v="Hestsjøen" />
		<tag k="natural" v="water" />
		<tag k="ssr:date" v="2018-01-09" />
		<tag k="ssr:stedsnr" v="802997" />
		<tag k="water" v="lake" />
		<nd ref="-27113" />
		<nd ref="-27114" />
	</way>
	<way id="-6163">
		<tag k="name" v="Trødalsbekken" />
		<tag k="ssr:date" v="2018-01-09" />
		<tag k="ssr:stedsnr" v="266071" />
		<tag k="waterway" v="stream" />
		<nd ref="-27059" />
		<nd ref="-27060" />
		<nd ref="-27061" />
	</way>
	<way id="-7185">
		<tag k="name" v="Siklbekken" />
		<tag k="ssr:date" v="2018-01-09" />
		<tag k="ssr:stedsnr" v="751994" />
		<tag k="waterway" v="stream" />
		<nd ref="-33796" />
		<nd ref="-33797" />
		<nd ref="-33798" />
	</way>
	<way id="-6672">
		<tag k="fixme" v="multiple name tags, choose one and add the other to alt_name" />
		<tag k="name" v="Langbekken;Åsbekken" />
		<tag k="ssr:date" v="2018-01-09" />
		<tag k="ssr:stedsnr" v="268215" />
		<tag k="waterway" v="stream" />
		<nd ref="-30370" />
		<nd ref="-30371" />
	</way>
	<way id="-7182">
		<tag k="name" v="Litløya" />
		<tag k="place" v="islet" />
		<tag k="ssr:date" v="2018-01-09" />
		<tag k="ssr:stedsnr" v="498599" />
		<nd ref="-33782" />
		<nd ref="-33783" />
	</way>
	<way id="-7180">
		<tag k="name" v="Jonsvatnet" />
		<tag k="natural" v="water" />
		<tag k="ssr:date" v="2018-01-09" />
		<tag k="ssr:stedsnr" v="316996" />
		<tag k="water" v="lake" />
		<nd ref="-33758" />
		<nd ref="-33759" />
		<nd ref="-33760" />
		<nd ref="-33761" />
		<nd ref="-33762" />
		<nd ref="-33763" />
		<nd ref="-33764" />
		<nd ref="-33765" />
		<nd ref="-33766" />
	</way>
	<way id="-7179">
		<tag k="name" v="Gretetangen" />
		<tag k="natural" v="cape" />
		<tag k="place" v="locality" />
		<tag k="ssr:date" v="2018-01-09" />
		<tag k="ssr:stedsnr" v="316995" />
		<nd ref="-33756" />
		<nd ref="-33757" />
	</way>
	<way id="-6154">
		<tag k="fixme" v="consider water=pond" />
		<tag k="name" v="Klokktjønna" />
		<tag k="natural" v="water" />
		<tag k="ssr:date" v="2018-01-09" />
		<tag k="ssr:stedsnr" v="741666" />
		<tag k="water" v="lake" />
		<nd ref="-26997" />
		<nd ref="-26998" />
		<nd ref="-26999" />
	</way>
	<way id="-6148">
		<tag k="name" v="Buskleinbekken" />
		<tag k="ssr:date" v="2018-01-09" />
		<tag k="ssr:stedsnr" v="475262" />
		<tag k="waterway" v="stream" />
		<nd ref="-26921" />
		<nd ref="-26922" />
	</way>
	<way id="-6146">
		<tag k="fixme" v="consider water=pond" />
		<tag k="name" v="Theisendammen" />
		<tag k="natural" v="water" />
		<tag k="ssr:date" v="2018-01-09" />
		<tag k="ssr:stedsnr" v="741723" />
		<tag k="water" v="lake" />
		<nd ref="-26911" />
		<nd ref="-26912" />
		<nd ref="-26913" />
	</way>
	<way id="-7169">
		<tag k="fixme" v="consider water=pond" />
		<tag k="name" v="Solemstjønna" />
		<tag k="natural" v="water" />
		<tag k="ssr:date" v="2018-01-09" />
		<tag k="ssr:stedsnr" v="195612" />
		<tag k="water" v="lake" />
		<nd ref="-33711" />
		<nd ref="-33712" />
		<nd ref="-33713" />
		<nd ref="-33714" />
	</way>
</osm>
