<?xml version="1.0" encoding="UTF-8"?>
<osm generator="osmapis" version="0.6">
	<node id="-30711" lat="63.4115222237" lon="10.1111722228">
		<tag k="landuse" v="farmland" />
		<tag k="name" v="Engelsholet" />
		<tag k="ssr:date" v="2018-01-09" />
		<tag k="ssr:stedsnr" v="266858" />
	</node>
	<node id="-34802" lat="63.4112611076" lon="10.1724527851">
		<tag k="alt_name" v="Setermyra" />
		<tag k="name" v="Sætermyra" />
		<tag k="natural" v="wetland" />
		<tag k="ssr:date" v="2018-01-09" />
		<tag k="ssr:stedsnr" v="873892" />
	</node>
	<node id="-30699" lat="63.3900722208" lon="10.1939111024">
		<tag k="name" v="Sætermyran" />
		<tag k="natural" v="wetland" />
		<tag k="ssr:date" v="2018-01-09" />
		<tag k="ssr:stedsnr" v="387087" />
	</node>
	<node id="-30698" lat="63.3538583299" lon="10.1677277748">
		<tag k="landuse" v="farmland" />
		<tag k="name" v="Myraplassen" />
		<tag k="ssr:date" v="2018-01-09" />
		<tag k="ssr:stedsnr" v="812877" />
	</node>
	<node id="-32324" lat="63.3624444425" lon="10.2079638826">
		<tag k="name" v="Nedre Vintermyra" />
		<tag k="natural" v="wetland" />
		<tag k="ssr:date" v="2018-01-09" />
		<tag k="ssr:stedsnr" v="207164" />
	</node>
	<node id="-34786" lat="63.3993222178" lon="10.1752027865">
		<tag k="name" v="Gammelraudmyra" />
		<tag k="natural" v="wetland" />
		<tag k="ssr:date" v="2018-01-09" />
		<tag k="ssr:stedsnr" v="327938" />
	</node>
	<node id="-34782" lat="63.4127944428" lon="10.2583499918">
		<tag k="name" v="Vintervassmyra" />
		<tag k="natural" v="wetland" />
		<tag k="ssr:date" v="2018-01-09" />
		<tag k="ssr:stedsnr" v="390847" />
	</node>
	<node id="-28633" lat="63.3804083308" lon="10.4819055566">
		<tag k="name" v="Sellesmyra" />
		<tag k="natural" v="wetland" />
		<tag k="ssr:date" v="2018-01-09" />
		<tag k="ssr:stedsnr" v="960197" />
	</node>
	<node id="-30680" lat="63.3869722249" lon="10.1780333389">
		<tag k="name" v="Raudmyra" />
		<tag k="natural" v="wetland" />
		<tag k="ssr:date" v="2018-01-09" />
		<tag k="ssr:stedsnr" v="387085" />
	</node>
	<node id="-30675" lat="63.4404222191" lon="10.3210694357">
		<tag k="name" v="Garnisonsmyra" />
		<tag k="natural" v="wetland" />
		<tag k="ssr:date" v="2018-01-09" />
		<tag k="ssr:stedsnr" v="89889" />
	</node>
	<node id="-30673" lat="63.3938777742" lon="10.2237972161">
		<tag k="name" v="Markamyran" />
		<tag k="place" v="locality" />
		<tag k="ssr:date" v="2018-01-09" />
		<tag k="ssr:stedsnr" v="241551" />
	</node>
	<node id="-30667" lat="63.377602782" lon="10.3246055651">
		<tag k="landuse" v="farmland" />
		<tag k="name" v="Smiloftstykket" />
		<tag k="ssr:date" v="2018-01-09" />
		<tag k="ssr:stedsnr" v="390054" />
	</node>
	<node id="-34807" lat="63.3626305567" lon="10.1575527841">
		<tag k="landuse" v="farmland" />
		<tag k="name" v="Kneppet" />
		<tag k="ssr:date" v="2018-01-09" />
		<tag k="ssr:stedsnr" v="327952" />
	</node>
	<node id="-30645" lat="63.3304500032" lon="10.6789972199">
		<tag k="ssr:gml_id" v="GEOMETRY_4ece347d-356c-4cf7-8047-620e812143d4" />
		<tag k="ssr:gml_nr" v="2" />
	</node>
	<node id="-28596" lat="63.4284194423" lon="10.2848861102">
		<tag k="name" v="Tømmerdalsmyran" />
		<tag k="natural" v="wetland" />
		<tag k="ssr:date" v="2018-01-09" />
		<tag k="ssr:stedsnr" v="392894" />
	</node>
	<node id="-30643" lat="63.3304583346" lon="10.679005555">
		<tag k="ssr:gml_id" v="GEOMETRY_eb1954cf-69f5-48f9-bf3c-6a7dbb7112e3" />
		<tag k="ssr:gml_nr" v="0" />
	</node>
	<node id="-32682" lat="63.3347972203" lon="10.3548555539">
		<tag k="name" v="Heggstadmyra" />
		<tag k="natural" v="wetland" />
		<tag k="ssr:date" v="2018-01-09" />
		<tag k="ssr:stedsnr" v="180699" />
	</node>
	<node id="-34722" lat="63.3876944421" lon="10.1770222251">
		<tag k="name" v="Heisjømyran" />
		<tag k="natural" v="wetland" />
		<tag k="ssr:date" v="2018-01-09" />
		<tag k="ssr:stedsnr" v="387980" />
	</node>
	<node id="-34717" lat="63.4231916698" lon="10.1393750017">
		<tag k="name" v="Slottet" />
		<tag k="place" v="locality" />
		<tag k="ssr:date" v="2018-01-09" />
		<tag k="ssr:stedsnr" v="873875" />
	</node>
	<node id="-32662" lat="63.3577027747" lon="10.2082444529">
		<tag k="name" v="Langmyra" />
		<tag k="natural" v="wetland" />
		<tag k="ssr:date" v="2018-01-09" />
		<tag k="ssr:stedsnr" v="691738" />
	</node>
	<node id="-32660" lat="63.3338388877" lon="10.5935277745">
		<tag k="name" v="Hammermyran" />
		<tag k="natural" v="wetland" />
		<tag k="ssr:date" v="2018-01-09" />
		<tag k="ssr:stedsnr" v="726529" />
	</node>
	<node id="-34683" lat="63.4203611076" lon="10.1156388794">
		<tag k="landuse" v="farmland" />
		<tag k="name" v="Sebillaholet" />
		<tag k="ssr:date" v="2018-01-09" />
		<tag k="ssr:stedsnr" v="873831" />
	</node>
	<node id="-32633" lat="63.3378277823" lon="10.6249138797">
		<tag k="name" v="Luddumyra" />
		<tag k="natural" v="wetland" />
		<tag k="ssr:date" v="2018-01-09" />
		<tag k="ssr:stedsnr" v="726528" />
	</node>
	<node id="-28536" lat="63.3826527788" lon="10.2000305493">
		<tag k="name" v="Elimyra" />
		<tag k="natural" v="wetland" />
		<tag k="ssr:date" v="2018-01-09" />
		<tag k="ssr:stedsnr" v="512469" />
	</node>
	<node id="-32630" lat="63.4347027816" lon="10.1872361073">
		<tag k="fixme" v="multiple name tags, choose one and add the other to alt_name" />
		<tag k="name" v="Langåsmyra;Myra" />
		<tag k="natural" v="wetland" />
		<tag k="ssr:date" v="2018-01-09" />
		<tag k="ssr:stedsnr" v="756310" />
	</node>
	<node id="-28532" lat="63.4386000029" lon="10.3056111125">
		<tag k="name" v="Langdalsmyra" />
		<tag k="natural" v="wetland" />
		<tag k="ssr:date" v="2018-01-09" />
		<tag k="ssr:stedsnr" v="392885" />
	</node>
	<node id="-34672" lat="63.3541194472" lon="10.3002388866">
		<tag k="name" v="Gammeltrøa" />
		<tag k="place" v="locality" />
		<tag k="ssr:date" v="2018-01-09" />
		<tag k="ssr:stedsnr" v="875231" />
	</node>
	<node id="-30573" lat="63.381449999" lon="10.4750166723">
		<tag k="name" v="Lomtjønnmyra" />
		<tag k="natural" v="wetland" />
		<tag k="ssr:date" v="2018-01-09" />
		<tag k="ssr:stedsnr" v="840224" />
	</node>
	<node id="-28228" lat="63.3546888915" lon="10.1745777746">
		<tag k="landuse" v="farmland" />
		<tag k="name" v="Geilan" />
		<tag k="ssr:date" v="2018-01-09" />
		<tag k="ssr:stedsnr" v="84899" />
	</node>
	<node id="-30564" lat="63.4006499967" lon="10.4585861085">
		<tag k="name" v="Steintrø" />
		<tag k="place" v="locality" />
		<tag k="ssr:date" v="2018-01-09" />
		<tag k="ssr:stedsnr" v="535758" />
	</node>
	<node id="-30563" lat="63.381619441" lon="10.1851027726">
		<tag k="name" v="Litlbjørnaråsmyra" />
		<tag k="natural" v="wetland" />
		<tag k="ssr:date" v="2018-01-09" />
		<tag k="ssr:stedsnr" v="875927" />
	</node>
	<node id="-28512" lat="63.3935055595" lon="10.145683337">
		<tag k="landuse" v="farmland" />
		<tag k="name" v="Kjerkmyra" />
		<tag k="ssr:date" v="2018-01-09" />
		<tag k="ssr:stedsnr" v="84971" />
	</node>
	<node id="-28507" lat="63.3688750013" lon="10.2104333288">
		<tag k="fixme" v="multiple name tags, choose one and add the other to alt_name" />
		<tag k="name" v="Fagerlimyra;Sætermyra" />
		<tag k="natural" v="wetland" />
		<tag k="ssr:date" v="2018-01-09" />
		<tag k="ssr:stedsnr" v="877116" />
	</node>
	<node id="-30553" lat="63.3781694415" lon="10.3262527729">
		<tag k="landuse" v="farmland" />
		<tag k="name" v="Skiftesgjerdet" />
		<tag k="ssr:date" v="2018-01-09" />
		<tag k="ssr:stedsnr" v="390032" />
	</node>
	<node id="-30542" lat="63.3469083324" lon="10.1713055614">
		<tag k="landuse" v="farmland" />
		<tag k="name" v="Kleiva" />
		<tag k="ssr:date" v="2018-01-09" />
		<tag k="ssr:stedsnr" v="812873" />
	</node>
	<node id="-30532" lat="63.3682166677" lon="10.2850166734">
		<tag k="name" v="Sætermarka" />
		<tag k="place" v="locality" />
		<tag k="ssr:date" v="2018-01-09" />
		<tag k="ssr:stedsnr" v="25165" />
	</node>
	<node id="-34625" lat="63.3765611127" lon="10.322655558">
		<tag k="landuse" v="meadow" />
		<tag k="name" v="Låvekra" />
		<tag k="ssr:date" v="2018-01-09" />
		<tag k="ssr:stedsnr" v="815005" />
	</node>
	<node id="-30520" lat="63.3521138895" lon="10.1368972211">
		<tag k="landuse" v="farmland" />
		<tag k="name" v="Kristenstu" />
		<tag k="ssr:date" v="2018-01-09" />
		<tag k="ssr:stedsnr" v="266830" />
	</node>
	<node id="-32567" lat="63.3190888922" lon="10.6834361195">
		<tag k="name" v="Slåttmyrin" />
		<tag k="natural" v="wetland" />
		<tag k="ssr:date" v="2018-01-09" />
		<tag k="ssr:stedsnr" v="665069" />
	</node>
	<node id="-32565" lat="63.3789361102" lon="10.0871944373">
		<tag k="name" v="Våttåmyra" />
		<tag k="natural" v="wetland" />
		<tag k="ssr:date" v="2018-01-09" />
		<tag k="ssr:stedsnr" v="448849" />
	</node>
	<node id="-32390" lat="63.3610222178" lon="10.2580666657">
		<tag k="ssr:gml_id" v="GEOMETRY_8b89ec21-3fba-4636-91de-1f56db831710" />
		<tag k="ssr:gml_nr" v="1" />
	</node>
	<node id="-32389" lat="63.3610666649" lon="10.2591277724">
		<tag k="ssr:gml_id" v="GEOMETRY_534f02e0-9cb4-4edc-9796-05ef7e1c1da7" />
		<tag k="ssr:gml_nr" v="0" />
	</node>
	<node id="-32539" lat="63.3547805561" lon="10.2928111087">
		<tag k="name" v="Skoglykkja" />
		<tag k="place" v="locality" />
		<tag k="ssr:date" v="2018-01-09" />
		<tag k="ssr:stedsnr" v="630232" />
	</node>
	<node id="-28435" lat="63.3771555544" lon="10.2415083235">
		<tag k="name" v="Stabbursmyra" />
		<tag k="natural" v="wetland" />
		<tag k="ssr:date" v="2018-01-09" />
		<tag k="ssr:stedsnr" v="209353" />
	</node>
	<node id="-34575" lat="63.4311416663" lon="10.1835611076">
		<tag k="name" v="Haugatrøa" />
		<tag k="place" v="locality" />
		<tag k="ssr:date" v="2018-01-09" />
		<tag k="ssr:stedsnr" v="632057" />
	</node>
	<node id="-30478" lat="63.3728333361" lon="10.1085416629">
		<tag k="landuse" v="farmland" />
		<tag k="name" v="Ospan" />
		<tag k="ssr:date" v="2018-01-09" />
		<tag k="ssr:stedsnr" v="266806" />
	</node>
	<node id="-32520" lat="63.3554583321" lon="10.2703166599">
		<tag k="name" v="Betmyra" />
		<tag k="natural" v="wetland" />
		<tag k="ssr:date" v="2018-01-09" />
		<tag k="ssr:stedsnr" v="631684" />
	</node>
	<node id="-32517" lat="63.3721083356" lon="10.2396499987">
		<tag k="name" v="Velikvassmyra" />
		<tag k="natural" v="wetland" />
		<tag k="ssr:date" v="2018-01-09" />
		<tag k="ssr:stedsnr" v="876333" />
	</node>
	<node id="-34562" lat="63.4040500011" lon="10.172133338">
		<tag k="name" v="Brentmyra" />
		<tag k="natural" v="wetland" />
		<tag k="ssr:date" v="2018-01-09" />
		<tag k="ssr:stedsnr" v="387958" />
	</node>
	<node id="-30464" lat="63.4096111075" lon="10.0898861035">
		<tag k="landuse" v="farmland" />
		<tag k="name" v="Skåren" />
		<tag k="ssr:date" v="2018-01-09" />
		<tag k="ssr:stedsnr" v="812821" />
	</node>
	<node id="-30462" lat="63.4031861084" lon="10.1689749993">
		<tag k="name" v="Småmyran" />
		<tag k="natural" v="wetland" />
		<tag k="ssr:date" v="2018-01-09" />
		<tag k="ssr:stedsnr" v="875902" />
	</node>
	<node id="-28406" lat="63.3856750018" lon="10.3114694437">
		<tag k="name" v="Elgmyra" />
		<tag k="natural" v="wetland" />
		<tag k="ssr:date" v="2018-01-09" />
		<tag k="ssr:stedsnr" v="451000" />
	</node>
	<node id="-34548" lat="63.3862277815" lon="10.1662027696">
		<tag k="landuse" v="farmland" />
		<tag k="name" v="Teigan" />
		<tag k="ssr:date" v="2018-01-09" />
		<tag k="ssr:stedsnr" v="208940" />
	</node>
	<node id="-30448" lat="63.3917527766" lon="10.1819194404">
		<tag k="name" v="Skogmyran" />
		<tag k="natural" v="wetland" />
		<tag k="ssr:date" v="2018-01-09" />
		<tag k="ssr:stedsnr" v="569979" />
	</node>
	<node id="-28399" lat="63.3706944423" lon="10.3173861119">
		<tag k="name" v="Nordtrøa" />
		<tag k="place" v="locality" />
		<tag k="ssr:date" v="2018-01-09" />
		<tag k="ssr:stedsnr" v="571014" />
	</node>
	<node id="-30446" lat="63.3887249975" lon="10.2921583236">
		<tag k="name" v="Nordmyra" />
		<tag k="natural" v="wetland" />
		<tag k="ssr:date" v="2018-01-09" />
		<tag k="ssr:stedsnr" v="452966" />
	</node>
	<node id="-28392" lat="63.3485222179" lon="10.1682222131">
		<tag k="name" v="Hesthåggån" />
		<tag k="place" v="locality" />
		<tag k="ssr:date" v="2018-01-09" />
		<tag k="ssr:stedsnr" v="630968" />
	</node>
	<node id="-34531" lat="63.3814305577" lon="10.1997472179">
		<tag k="ssr:gml_id" v="GEOMETRY_f65530d4-f07f-4e2d-8179-b211f46092a6" />
		<tag k="ssr:gml_nr" v="1" />
	</node>
	<node id="-34530" lat="63.3816222254" lon="10.200688882">
		<tag k="ssr:gml_id" v="GEOMETRY_43a1e220-d63b-46ce-9a62-99d64d909cda" />
		<tag k="ssr:gml_nr" v="0" />
	</node>
	<node id="-34520" lat="63.4313361139" lon="10.1884388886">
		<tag k="name" v="Dikan" />
		<tag k="natural" v="wetland" />
		<tag k="ssr:date" v="2018-01-09" />
		<tag k="ssr:stedsnr" v="632024" />
	</node>
	<node id="-28375" lat="63.3786361122" lon="10.1313555551">
		<tag k="landuse" v="farmland" />
		<tag k="name" v="Østegga" />
		<tag k="ssr:date" v="2018-01-09" />
		<tag k="ssr:stedsnr" v="84943" />
	</node>
	<node id="-32454" lat="63.3498555587" lon="10.6628333356">
		<tag k="ssr:gml_id" v="GEOMETRY_c6dc8d7d-ab27-4009-86bc-900ff77237e7" />
		<tag k="ssr:gml_nr" v="2" />
	</node>
	<node id="-32453" lat="63.3503583365" lon="10.662577782">
		<tag k="ssr:gml_id" v="GEOMETRY_c4b53231-9a33-4d5c-8554-d41a9694f782" />
		<tag k="ssr:gml_nr" v="1" />
	</node>
	<node id="-32452" lat="63.3498694459" lon="10.6628472292">
		<tag k="ssr:gml_id" v="GEOMETRY_e9f936dc-6c85-4c4c-af55-11844741f363" />
		<tag k="ssr:gml_nr" v="0" />
	</node>
	<node id="-32449" lat="63.3641138911" lon="10.4265999969">
		<tag k="landuse" v="meadow" />
		<tag k="name" v="Brattengan" />
		<tag k="ssr:date" v="2018-01-09" />
		<tag k="ssr:stedsnr" v="723540" />
	</node>
	<node id="-34473" lat="63.4319722256" lon="10.2037166669">
		<tag k="name" v="Knutmyra" />
		<tag k="natural" v="wetland" />
		<tag k="ssr:date" v="2018-01-09" />
		<tag k="ssr:stedsnr" v="632039" />
	</node>
	<node id="-30373" lat="63.4224166707" lon="10.1956416713">
		<tag k="name" v="Hafellmyra" />
		<tag k="natural" v="wetland" />
		<tag k="ssr:date" v="2018-01-09" />
		<tag k="ssr:stedsnr" v="390014" />
	</node>
	<node id="-30372" lat="63.4382638893" lon="10.1830722192">
		<tag k="name" v="Flakkmarka" />
		<tag k="place" v="locality" />
		<tag k="ssr:date" v="2018-01-09" />
		<tag k="ssr:stedsnr" v="936038" />
	</node>
	<node id="-34461" lat="63.35852222" lon="10.2798277808">
		<tag k="name" v="Hestsjøtrøa" />
		<tag k="place" v="locality" />
		<tag k="ssr:date" v="2018-01-09" />
		<tag k="ssr:stedsnr" v="813587" />
	</node>
	<node id="-34457" lat="63.4343333354" lon="10.1895444497">
		<tag k="landuse" v="farmland" />
		<tag k="name" v="Nylandet" />
		<tag k="ssr:date" v="2018-01-09" />
		<tag k="ssr:stedsnr" v="938417" />
	</node>
	<node id="-34454" lat="63.3658194429" lon="10.3203638811">
		<tag k="name" v="Sørtrøa" />
		<tag k="place" v="locality" />
		<tag k="ssr:date" v="2018-01-09" />
		<tag k="ssr:stedsnr" v="632033" />
	</node>
	<node id="-34451" lat="63.3848083357" lon="10.5870472253">
		<tag k="name" v="Jervtrøa" />
		<tag k="place" v="locality" />
		<tag k="ssr:date" v="2018-01-09" />
		<tag k="ssr:stedsnr" v="891526" />
	</node>
	<node id="-34448" lat="63.4035111119" lon="10.3077388799">
		<tag k="name" v="Lianmarka" />
		<tag k="place" v="locality" />
		<tag k="ssr:date" v="2018-01-09" />
		<tag k="ssr:stedsnr" v="449194" />
	</node>
	<node id="-30347" lat="63.3799694413" lon="10.1771138974">
		<tag k="name" v="Kleivmyra" />
		<tag k="natural" v="wetland" />
		<tag k="ssr:date" v="2018-01-09" />
		<tag k="ssr:stedsnr" v="875885" />
	</node>
	<node id="-30342" lat="63.3999" lon="10.1426749914">
		<tag k="name" v="Trefaltmyra" />
		<tag k="natural" v="wetland" />
		<tag k="ssr:date" v="2018-01-09" />
		<tag k="ssr:stedsnr" v="569945" />
	</node>
	<node id="-30341" lat="63.3946388932" lon="10.252833338">
		<tag k="name" v="Markaløkka" />
		<tag k="place" v="locality" />
		<tag k="ssr:date" v="2018-01-09" />
		<tag k="ssr:stedsnr" v="694138" />
	</node>
	<node id="-30315" lat="63.3615027779" lon="10.2275777684">
		<tag k="name" v="Kjølåsmyra" />
		<tag k="natural" v="wetland" />
		<tag k="ssr:date" v="2018-01-09" />
		<tag k="ssr:stedsnr" v="328541" />
	</node>
	<node id="-30334" lat="63.3746250029" lon="10.2350388879">
		<tag k="name" v="Hestknekkmyra" />
		<tag k="natural" v="wetland" />
		<tag k="ssr:date" v="2018-01-09" />
		<tag k="ssr:stedsnr" v="331573" />
	</node>
	<node id="-30331" lat="63.3694250037" lon="10.2292972287">
		<tag k="name" v="Bråvollmyra" />
		<tag k="natural" v="wetland" />
		<tag k="ssr:date" v="2018-01-09" />
		<tag k="ssr:stedsnr" v="88190" />
	</node>
	<node id="-30327" lat="63.3629694414" lon="10.6259944433">
		<tag k="landuse" v="farmland" />
		<tag k="name" v="Sanden" />
		<tag k="ssr:date" v="2018-01-09" />
		<tag k="ssr:stedsnr" v="283082" />
	</node>
	<node id="-30324" lat="63.3667222236" lon="10.2684138886">
		<tag k="fixme" v="multiple name tags, choose one and add the other to alt_name" />
		<tag k="name" v="Buskleinmyran;Langmyran" />
		<tag k="natural" v="wetland" />
		<tag k="ssr:date" v="2018-01-09" />
		<tag k="ssr:stedsnr" v="571312" />
	</node>
	<node id="-28273" lat="63.3552777803" lon="10.2334083318">
		<tag k="name" v="Småmyran" />
		<tag k="natural" v="wetland" />
		<tag k="ssr:date" v="2018-01-09" />
		<tag k="ssr:stedsnr" v="449540" />
	</node>
	<node id="-28271" lat="63.3760972242" lon="10.2454222237">
		<tag k="name" v="Slåttmyra" />
		<tag k="natural" v="wetland" />
		<tag k="ssr:date" v="2018-01-09" />
		<tag k="ssr:stedsnr" v="815333" />
	</node>
	<node id="-28270" lat="63.360658333" lon="10.2524527764">
		<tag k="name" v="Ringvålsmyran" />
		<tag k="natural" v="wetland" />
		<tag k="ssr:date" v="2018-01-09" />
		<tag k="ssr:stedsnr" v="449545" />
	</node>
	<node id="-27922" lat="63.3947833322" lon="10.2852833427">
		<tag k="name" v="Korsmyra" />
		<tag k="natural" v="wetland" />
		<tag k="ssr:date" v="2018-01-09" />
		<tag k="ssr:stedsnr" v="525733" />
	</node>
	<node id="-28263" lat="63.4021277815" lon="10.1131222135">
		<tag k="ssr:gml_id" v="GEOMETRY_4c772365-c905-45f2-9871-a111887e896e" />
		<tag k="ssr:gml_nr" v="2" />
	</node>
	<node id="-28262" lat="63.4062250017" lon="10.1109305591">
		<tag k="ssr:gml_id" v="GEOMETRY_f44436a4-820f-46c8-962e-799b0d017100" />
		<tag k="ssr:gml_nr" v="1" />
	</node>
	<node id="-28261" lat="63.4063249969" lon="10.1090888929">
		<tag k="ssr:gml_id" v="GEOMETRY_8030ede2-db63-41fd-863b-13915a2a149e" />
		<tag k="ssr:gml_nr" v="0" />
	</node>
	<node id="-34402" lat="63.3727944471" lon="10.1230972191">
		<tag k="landuse" v="farmland" />
		<tag k="name" v="Mjølkvollen" />
		<tag k="ssr:date" v="2018-01-09" />
		<tag k="ssr:stedsnr" v="387922" />
	</node>
	<node id="-34398" lat="63.3601777797" lon="10.3400972177">
		<tag k="name" v="Saupstadmyra" />
		<tag k="natural" v="wetland" />
		<tag k="ssr:date" v="2018-01-09" />
		<tag k="ssr:stedsnr" v="299349" />
	</node>
	<node id="-28245" lat="63.3903111129" lon="10.2498805533">
		<tag k="name" v="Møllemarka" />
		<tag k="place" v="locality" />
		<tag k="ssr:date" v="2018-01-09" />
		<tag k="ssr:stedsnr" v="574034" />
	</node>
	<node id="-30292" lat="63.3906055576" lon="10.3211611204">
		<tag k="ssr:gml_id" v="GEOMETRY_0ae7b1cc-7c18-46a2-869d-68567903596e" />
		<tag k="ssr:gml_nr" v="2" />
	</node>
	<node id="-30291" lat="63.3982249988" lon="10.3221138841">
		<tag k="ssr:gml_id" v="GEOMETRY_00fc5874-8e9d-449f-9b23-209eed84ebfc" />
		<tag k="ssr:gml_nr" v="1" />
	</node>
	<node id="-30290" lat="63.3926916679" lon="10.3078083259">
		<tag k="ssr:gml_id" v="GEOMETRY_56bf50a4-a37e-41ba-b850-b336653ac2de" />
		<tag k="ssr:gml_nr" v="0" />
	</node>
	<node id="-34376" lat="63.3789388891" lon="10.1061361019">
		<tag k="name" v="Åkertrøa" />
		<tag k="place" v="locality" />
		<tag k="ssr:date" v="2018-01-09" />
		<tag k="ssr:stedsnr" v="873790" />
	</node>
	<node id="-27233" lat="63.3567138921" lon="10.1864444366">
		<tag k="landuse" v="farmland" />
		<tag k="name" v="Hattan" />
		<tag k="ssr:date" v="2018-01-09" />
		<tag k="ssr:stedsnr" v="144882" />
	</node>
	<node id="-30276" lat="63.3499404431" lon="10.5966646103">
		<tag k="name" v="Langmyra" />
		<tag k="natural" v="wetland" />
		<tag k="ssr:date" v="2018-02-07" />
		<tag k="ssr:stedsnr" v="586100" />
	</node>
	<node id="-30275" lat="63.4089416697" lon="10.0932944433">
		<tag k="landuse" v="farmland" />
		<tag k="name" v="Myrtrøa" />
		<tag k="ssr:date" v="2018-01-09" />
		<tag k="ssr:stedsnr" v="812819" />
	</node>
	<node id="-34362" lat="63.3774916667" lon="10.3258000009">
		<tag k="landuse" v="farmland" />
		<tag k="name" v="Flatåsekra" />
		<tag k="ssr:date" v="2018-01-09" />
		<tag k="ssr:stedsnr" v="572017" />
	</node>
	<node id="-30644" lat="63.3268500036" lon="10.6822499997">
		<tag k="ssr:gml_id" v="GEOMETRY_138506b1-7f3f-409e-a87f-afc1642d3beb" />
		<tag k="ssr:gml_nr" v="1" />
	</node>
	<node id="-34342" lat="63.3749166654" lon="10.3265611099">
		<tag k="landuse" v="meadow" />
		<tag k="name" v="Myran" />
		<tag k="ssr:date" v="2018-01-09" />
		<tag k="ssr:stedsnr" v="572019" />
	</node>
	<node id="-34014" lat="63.3537472198" lon="10.2687805575">
		<tag k="name" v="Buskleinmyra" />
		<tag k="natural" v="wetland" />
		<tag k="ssr:date" v="2018-01-09" />
		<tag k="ssr:stedsnr" v="50211" />
	</node>
	<node id="-32289" lat="63.4477611132" lon="10.2759083238">
		<tag k="name" v="Løftmyra" />
		<tag k="natural" v="wetland" />
		<tag k="ssr:date" v="2018-01-09" />
		<tag k="ssr:stedsnr" v="574854" />
	</node>
	<node id="-30231" lat="63.4166444413" lon="10.1176333378">
		<tag k="name" v="Kolsåsmyra" />
		<tag k="natural" v="wetland" />
		<tag k="ssr:date" v="2018-01-09" />
		<tag k="ssr:stedsnr" v="629951" />
	</node>
	<node id="-30214" lat="63.3709638867" lon="10.104969454">
		<tag k="name" v="Langlomyra" />
		<tag k="natural" v="wetland" />
		<tag k="ssr:date" v="2018-01-09" />
		<tag k="ssr:stedsnr" v="23831" />
	</node>
	<node id="-34298" lat="63.3618749962" lon="10.2762777729">
		<tag k="ssr:gml_id" v="GEOMETRY_b712e21c-c137-479b-b3c0-6a804fe561f7" />
		<tag k="ssr:gml_nr" v="1" />
	</node>
	<node id="-34297" lat="63.3582583306" lon="10.2812944346">
		<tag k="ssr:gml_id" v="GEOMETRY_c9ea8993-11b9-4009-81c3-dd94824470c6" />
		<tag k="ssr:gml_nr" v="0" />
	</node>
	<node id="-28148" lat="63.3793472214" lon="10.0924249957">
		<tag k="name" v="Brandhaugmyra" />
		<tag k="natural" v="wetland" />
		<tag k="ssr:date" v="2018-01-09" />
		<tag k="ssr:stedsnr" v="84878" />
	</node>
	<node id="-30193" lat="63.3592666627" lon="10.1549805524">
		<tag k="landuse" v="farmland" />
		<tag k="name" v="Haugsgjerdet" />
		<tag k="ssr:date" v="2018-01-09" />
		<tag k="ssr:stedsnr" v="934837" />
	</node>
	<node id="-28141" lat="63.3988611073" lon="10.2718333302">
		<tag k="name" v="Bangtjønnmyra" />
		<tag k="natural" v="wetland" />
		<tag k="ssr:date" v="2018-01-09" />
		<tag k="ssr:stedsnr" v="147951" />
	</node>
	<node id="-32233" lat="63.3669861107" lon="10.2361305572">
		<tag k="name" v="Raudmyra" />
		<tag k="natural" v="wetland" />
		<tag k="ssr:date" v="2018-01-09" />
		<tag k="ssr:stedsnr" v="813214" />
	</node>
	<node id="-28136" lat="63.4295861119" lon="10.3194694492">
		<tag k="landuse" v="meadow" />
		<tag k="name" v="Småslættan" />
		<tag k="ssr:date" v="2018-01-09" />
		<tag k="ssr:stedsnr" v="331125" />
	</node>
	<node id="-32219" lat="63.3688861121" lon="10.5417694462">
		<tag k="name" v="Botnmyra" />
		<tag k="natural" v="wetland" />
		<tag k="ssr:date" v="2018-01-09" />
		<tag k="ssr:stedsnr" v="223417" />
	</node>
	<node id="-27556" lat="63.4314611136" lon="10.2108888947">
		<tag k="name" v="Kjeklstykket" />
		<tag k="place" v="locality" />
		<tag k="ssr:date" v="2018-01-09" />
		<tag k="ssr:stedsnr" v="270708" />
	</node>
	<node id="-30162" lat="63.3496178259" lon="10.5880117978">
		<tag k="name" v="Stormyra" />
		<tag k="natural" v="wetland" />
		<tag k="ssr:date" v="2018-02-07" />
		<tag k="ssr:stedsnr" v="951118" />
	</node>
	<node id="-32204" lat="63.4455027744" lon="10.2816222191">
		<tag k="landuse" v="farmland" />
		<tag k="name" v="Midtiekra" />
		<tag k="ssr:date" v="2018-01-09" />
		<tag k="ssr:stedsnr" v="574850" />
	</node>
	<node id="-30153" lat="63.3695055512" lon="10.6424638808">
		<tag k="name" v="Starrmyra" />
		<tag k="natural" v="wetland" />
		<tag k="ssr:date" v="2018-01-09" />
		<tag k="ssr:stedsnr" v="587530" />
	</node>
	<node id="-30140" lat="63.3294416666" lon="10.6322305536">
		<tag k="name" v="Raudkjølen" />
		<tag k="natural" v="wetland" />
		<tag k="ssr:date" v="2018-01-09" />
		<tag k="ssr:stedsnr" v="241450" />
	</node>
	<node id="-26918" lat="63.3795472252" lon="10.2865833309">
		<tag k="name" v="Rørmarka" />
		<tag k="place" v="locality" />
		<tag k="ssr:date" v="2018-01-09" />
		<tag k="ssr:stedsnr" v="512225" />
	</node>
	<node id="-32182" lat="63.3878666657" lon="10.3024861053">
		<tag k="name" v="Enrumskogen" />
		<tag k="place" v="locality" />
		<tag k="ssr:date" v="2018-01-09" />
		<tag k="ssr:stedsnr" v="26946" />
	</node>
	<node id="-34223" lat="63.3622305553" lon="10.1642138983">
		<tag k="name" v="Stormyra" />
		<tag k="natural" v="wetland" />
		<tag k="ssr:date" v="2018-01-09" />
		<tag k="ssr:stedsnr" v="205977" />
	</node>
	<node id="-34218" lat="63.3276555562" lon="10.6457972123">
		<tag k="ssr:gml_id" v="GEOMETRY_7d31d4df-f66f-4d6a-97b7-01778faeb15a" />
		<tag k="ssr:gml_nr" v="1" />
	</node>
	<node id="-34217" lat="63.3276694411" lon="10.6458083306">
		<tag k="ssr:gml_id" v="GEOMETRY_163a2bca-4b05-4e57-bfa4-8bbe529568a0" />
		<tag k="ssr:gml_nr" v="0" />
	</node>
	<node id="-32152" lat="63.4189249972" lon="10.1871222308">
		<tag k="name" v="Malimyra" />
		<tag k="natural" v="wetland" />
		<tag k="ssr:date" v="2018-01-09" />
		<tag k="ssr:stedsnr" v="87016" />
	</node>
	<node id="-30103" lat="63.3632416645" lon="10.2739972269">
		<tag k="name" v="Litlsætermyra" />
		<tag k="natural" v="wetland" />
		<tag k="ssr:date" v="2018-01-09" />
		<tag k="ssr:stedsnr" v="268153" />
	</node>
	<node id="-32150" lat="63.3477694407" lon="10.3873000021">
		<tag k="name" v="Hårstadmarka" />
		<tag k="place" v="locality" />
		<tag k="ssr:date" v="2018-01-09" />
		<tag k="ssr:stedsnr" v="586478" />
	</node>
	<node id="-28049" lat="63.4145305546" lon="10.0888472244">
		<tag k="landuse" v="farmland" />
		<tag k="name" v="Seibergan" />
		<tag k="ssr:date" v="2018-01-09" />
		<tag k="ssr:stedsnr" v="84857" />
	</node>
	<node id="-30095" lat="63.4306055571" lon="10.2188111099">
		<tag k="name" v="Byvikskogen" />
		<tag k="place" v="locality" />
		<tag k="ssr:date" v="2018-01-09" />
		<tag k="ssr:stedsnr" v="695711" />
	</node>
	<node id="-34190" lat="63.3532944404" lon="10.1685527758">
		<tag k="landuse" v="farmland" />
		<tag k="name" v="Torestu" />
		<tag k="ssr:date" v="2018-01-09" />
		<tag k="ssr:stedsnr" v="205982" />
	</node>
	<node id="-32134" lat="63.4295999995" lon="10.1781472302">
		<tag k="landuse" v="meadow" />
		<tag k="name" v="Dalekra" />
		<tag k="ssr:date" v="2018-01-09" />
		<tag k="ssr:stedsnr" v="693044" />
	</node>
	<node id="-30079" lat="63.4011111139" lon="10.194624994">
		<tag k="name" v="Heilimyra" />
		<tag k="natural" v="wetland" />
		<tag k="ssr:date" v="2018-01-09" />
		<tag k="ssr:stedsnr" v="508065" />
	</node>
	<node id="-34173" lat="63.3224833344" lon="10.6537000017">
		<tag k="ssr:gml_id" v="GEOMETRY_e716d5bd-7f36-43d3-9c62-27491a8e9ac2" />
		<tag k="ssr:gml_nr" v="2" />
	</node>
	<node id="-34172" lat="63.3232361136" lon="10.6519888986">
		<tag k="ssr:gml_id" v="GEOMETRY_8c8d1885-649d-41d5-950b-64ed2f68549b" />
		<tag k="ssr:gml_nr" v="1" />
	</node>
	<node id="-34171" lat="63.322497222" lon="10.6536999999">
		<tag k="ssr:gml_id" v="GEOMETRY_dda3babc-02d4-45d8-981a-80583fdc7b9c" />
		<tag k="ssr:gml_nr" v="0" />
	</node>
	<node id="-34169" lat="63.3838555534" lon="10.1473250032">
		<tag k="name" v="Raumyra" />
		<tag k="natural" v="wetland" />
		<tag k="ssr:date" v="2018-01-09" />
		<tag k="ssr:stedsnr" v="205973" />
	</node>
	<node id="-32114" lat="63.3521138854" lon="10.6443305477">
		<tag k="name" v="Plassmyra" />
		<tag k="natural" v="wetland" />
		<tag k="ssr:date" v="2018-01-09" />
		<tag k="ssr:stedsnr" v="465097" />
	</node>
	<node id="-30054" lat="63.4331194451" lon="10.210319443">
		<tag k="name" v="Damvassmyra" />
		<tag k="natural" v="wetland" />
		<tag k="ssr:date" v="2018-01-09" />
		<tag k="ssr:stedsnr" v="632669" />
	</node>
	<node id="-30042" lat="63.3457861149" lon="10.1915694491">
		<tag k="landuse" v="farmland" />
		<tag k="name" v="Bråleiret" />
		<tag k="ssr:date" v="2018-01-09" />
		<tag k="ssr:stedsnr" v="326990" />
	</node>
	<node id="-27990" lat="63.3654611132" lon="10.2329666758">
		<tag k="ssr:gml_id" v="GEOMETRY_9b351410-7bef-4094-bc70-d267a66cee84" />
		<tag k="ssr:gml_nr" v="1" />
	</node>
	<node id="-27989" lat="63.3626694475" lon="10.2320249932">
		<tag k="ssr:gml_id" v="GEOMETRY_27765305-03c2-4580-901c-c7ca38cd70e8" />
		<tag k="ssr:gml_nr" v="0" />
	</node>
	<node id="-32082" lat="63.4378861128" lon="10.1939416702">
		<tag k="name" v="Nonstrøa" />
		<tag k="place" v="locality" />
		<tag k="ssr:date" v="2018-01-09" />
		<tag k="ssr:stedsnr" v="453321" />
	</node>
	<node id="-27985" lat="63.336863893" lon="10.4155805602">
		<tag k="name" v="Nonsmyra" />
		<tag k="natural" v="wetland" />
		<tag k="ssr:date" v="2018-01-09" />
		<tag k="ssr:stedsnr" v="718229" />
	</node>
	<node id="-34123" lat="63.3223388933" lon="10.3133583237">
		<tag k="landuse" v="farmland" />
		<tag k="name" v="Klettrøa" />
		<tag k="ssr:date" v="2018-01-09" />
		<tag k="ssr:stedsnr" v="50239" />
	</node>
	<node id="-34121" lat="63.3828666688" lon="10.1700083317">
		<tag k="name" v="Bergstrøa" />
		<tag k="place" v="locality" />
		<tag k="ssr:date" v="2018-01-09" />
		<tag k="ssr:stedsnr" v="268879" />
	</node>
	<node id="-34109" lat="63.4090500013" lon="10.1752194468">
		<tag k="name" v="Tislakleivmyra" />
		<tag k="natural" v="wetland" />
		<tag k="ssr:date" v="2018-01-09" />
		<tag k="ssr:stedsnr" v="875142" />
	</node>
	<node id="-34105" lat="63.4478527761" lon="10.224636106">
		<tag k="name" v="Hesttrøa" />
		<tag k="place" v="locality" />
		<tag k="ssr:date" v="2018-01-09" />
		<tag k="ssr:stedsnr" v="28989" />
	</node>
	<node id="-30003" lat="63.3642861122" lon="10.4435638801">
		<tag k="landuse" v="meadow" />
		<tag k="name" v="Håggån" />
		<tag k="ssr:date" v="2018-01-09" />
		<tag k="ssr:stedsnr" v="601520" />
	</node>
	<node id="-27952" lat="63.3897444425" lon="10.4609527793">
		<tag k="ssr:gml_id" v="GEOMETRY_35e5b0f5-d6d2-4f84-bd55-c8afc02de9b3" />
		<tag k="ssr:gml_nr" v="1" />
	</node>
	<node id="-27951" lat="63.3894416662" lon="10.4635000049">
		<tag k="ssr:gml_id" v="GEOMETRY_7b2c0219-b04b-4a61-be7b-b5fcfbb137af" />
		<tag k="ssr:gml_nr" v="0" />
	</node>
	<node id="-27950" lat="63.4177638859" lon="10.0954333252">
		<tag k="name" v="Svahylla" />
		<tag k="place" v="locality" />
		<tag k="ssr:date" v="2018-01-09" />
		<tag k="ssr:stedsnr" v="84837" />
	</node>
	<node id="-32045" lat="63.3516249963" lon="10.2683666625">
		<tag k="landuse" v="meadow" />
		<tag k="name" v="Slåttbakken" />
		<tag k="ssr:date" v="2018-01-09" />
		<tag k="ssr:stedsnr" v="353270" />
	</node>
	<node id="-27937" lat="63.431416667" lon="10.3048833252">
		<tag k="name" v="Geitfjellmyran" />
		<tag k="natural" v="wetland" />
		<tag k="ssr:date" v="2018-01-09" />
		<tag k="ssr:stedsnr" v="210886" />
	</node>
	<node id="-32018" lat="63.3567277772" lon="10.1689944491">
		<tag k="landuse" v="farmland" />
		<tag k="name" v="Klokkarvollen" />
		<tag k="ssr:date" v="2018-01-09" />
		<tag k="ssr:stedsnr" v="23995" />
	</node>
	<node id="-29967" lat="63.3661666656" lon="10.2682500007">
		<tag k="name" v="Langmyran" />
		<tag k="natural" v="wetland" />
		<tag k="ssr:date" v="2018-01-09" />
		<tag k="ssr:stedsnr" v="900252" />
	</node>
	<node id="-34062" lat="63.3979472191" lon="10.2787388846">
		<tag k="name" v="Orrhanmyra" />
		<tag k="natural" v="wetland" />
		<tag k="ssr:date" v="2018-01-09" />
		<tag k="ssr:stedsnr" v="754953" />
	</node>
	<node id="-27911" lat="63.3162222265" lon="10.3996555617">
		<tag k="name" v="Ulriksdals gruve" />
		<tag k="place" v="quarry" />
		<tag k="ssr:date" v="2018-01-09" />
		<tag k="ssr:stedsnr" v="112235" />
	</node>
	<node id="-31997" lat="63.3577138894" lon="10.2289749935">
		<tag k="name" v="Aunmyra" />
		<tag k="natural" v="wetland" />
		<tag k="ssr:date" v="2018-01-09" />
		<tag k="ssr:stedsnr" v="330330" />
	</node>
	<node id="-34038" lat="63.3806499957" lon="10.1003277688">
		<tag k="name" v="Gammelvollen" />
		<tag k="natural" v="wood" />
		<tag k="ssr:date" v="2018-01-09" />
		<tag k="ssr:stedsnr" v="387828" />
	</node>
	<node id="-34037" lat="63.4363111118" lon="10.1936749962">
		<tag k="name" v="Bakkmyra" />
		<tag k="natural" v="wetland" />
		<tag k="ssr:date" v="2018-01-09" />
		<tag k="ssr:stedsnr" v="938304" />
	</node>
	<node id="-27891" lat="63.3817138872" lon="10.3127499984">
		<tag k="name" v="Leirbrumyran" />
		<tag k="natural" v="wetland" />
		<tag k="ssr:date" v="2018-01-09" />
		<tag k="ssr:stedsnr" v="328146" />
	</node>
	<node id="-34027" lat="63.4005555557" lon="10.301858341">
		<tag k="ssr:gml_id" v="GEOMETRY_eaad3a6e-8a00-4ce6-8ab3-2385fd72e2ec" />
		<tag k="ssr:gml_nr" v="1" />
	</node>
	<node id="-34026" lat="63.400469449" lon="10.302416664">
		<tag k="ssr:gml_id" v="GEOMETRY_ed11859b-d83a-4890-a5dd-60c226313c82" />
		<tag k="ssr:gml_nr" v="0" />
	</node>
	<node id="-34024" lat="63.3858222225" lon="10.2201333428">
		<tag k="name" v="Høgmyran" />
		<tag k="natural" v="wetland" />
		<tag k="ssr:date" v="2018-01-09" />
		<tag k="ssr:stedsnr" v="756573" />
	</node>
	<node id="-33660" lat="63.3574527756" lon="10.2196499932">
		<tag k="ssr:gml_id" v="GEOMETRY_8761bae9-24b8-4b72-9634-5aa4e987f3ab" />
		<tag k="ssr:gml_nr" v="1" />
	</node>
	<node id="-34019" lat="63.389572221" lon="10.1442083345">
		<tag k="landuse" v="farmland" />
		<tag k="name" v="Sørliplassen" />
		<tag k="ssr:date" v="2018-01-09" />
		<tag k="ssr:stedsnr" v="508965" />
	</node>
	<node id="-29918" lat="63.3763583345" lon="10.3269472139">
		<tag k="landuse" v="farmland" />
		<tag k="name" v="Søbekkstykket" />
		<tag k="ssr:date" v="2018-01-09" />
		<tag k="ssr:stedsnr" v="208054" />
	</node>
	<node id="-34012" lat="63.3803833296" lon="10.0984194442">
		<tag k="alt_name" v="Setervollen" />
		<tag k="name" v="Sætervollen" />
		<tag k="natural" v="wood" />
		<tag k="ssr:date" v="2018-01-09" />
		<tag k="ssr:stedsnr" v="327788" />
	</node>
	<node id="-31961" lat="63.430747223" lon="10.2031027805">
		<tag k="name" v="Gorkleivmyra" />
		<tag k="natural" v="wetland" />
		<tag k="ssr:date" v="2018-01-09" />
		<tag k="ssr:stedsnr" v="693034" />
	</node>
	<node id="-31959" lat="63.3520416665" lon="10.2235777874">
		<tag k="name" v="Lykkja" />
		<tag k="place" v="locality" />
		<tag k="ssr:date" v="2018-01-09" />
		<tag k="ssr:stedsnr" v="353238" />
	</node>
	<node id="-33995" lat="63.3975749961" lon="10.1712277743">
		<tag k="name" v="Trøan" />
		<tag k="place" v="locality" />
		<tag k="ssr:date" v="2018-01-09" />
		<tag k="ssr:stedsnr" v="511941" />
	</node>
	<node id="-31944" lat="63.3774611141" lon="10.3173972247">
		<tag k="name" v="Sautrøa" />
		<tag k="place" v="locality" />
		<tag k="ssr:date" v="2018-01-09" />
		<tag k="ssr:stedsnr" v="693007" />
	</node>
	<node id="-33990" lat="63.3362305595" lon="10.4015277813">
		<tag k="name" v="Bjørnmyra" />
		<tag k="natural" v="wetland" />
		<tag k="ssr:date" v="2018-01-09" />
		<tag k="ssr:stedsnr" v="50209" />
	</node>
	<node id="-31947" lat="63.3731194432" lon="10.2170333257">
		<tag k="name" v="Tjurruvassmyra" />
		<tag k="natural" v="wetland" />
		<tag k="ssr:date" v="2018-01-09" />
		<tag k="ssr:stedsnr" v="513140" />
	</node>
	<node id="-29885" lat="63.4084861081" lon="10.1551111043">
		<tag k="name" v="Golosmyra" />
		<tag k="natural" v="wetland" />
		<tag k="ssr:date" v="2018-01-09" />
		<tag k="ssr:stedsnr" v="569861" />
	</node>
	<node id="-29881" lat="63.3753027773" lon="10.2104055641">
		<tag k="name" v="Sætermyra" />
		<tag k="natural" v="wetland" />
		<tag k="ssr:date" v="2018-01-09" />
		<tag k="ssr:stedsnr" v="88101" />
	</node>
	<node id="-27831" lat="63.3918763986" lon="10.4921598958">
		<tag k="alt_name" v="Aunemarka" />
		<tag k="name" v="Aunmarka" />
		<tag k="place" v="locality" />
		<tag k="ssr:date" v="2018-01-09" />
		<tag k="ssr:stedsnr" v="681584" />
	</node>
	<node id="-31920" lat="63.3899944435" lon="10.1429583367">
		<tag k="landuse" v="farmland" />
		<tag k="name" v="Fallet" />
		<tag k="ssr:date" v="2018-01-09" />
		<tag k="ssr:stedsnr" v="934950" />
	</node>
	<node id="-31918" lat="63.3768151485" lon="10.2895016138">
		<tag k="name" v="Lokmyra" />
		<tag k="natural" v="wetland" />
		<tag k="ssr:date" v="2018-01-09" />
		<tag k="ssr:stedsnr" v="383359" />
	</node>
	<node id="-29842" lat="63.3973055559" lon="10.0885666614">
		<tag k="ssr:gml_id" v="GEOMETRY_d7c7ee4b-70b3-4fc0-90e7-936cf919906e" />
		<tag k="ssr:gml_nr" v="2" />
	</node>
	<node id="-29841" lat="63.3970638902" lon="10.0854249919">
		<tag k="ssr:gml_id" v="GEOMETRY_baba5f5c-5130-4374-a427-36e2eac64cf0" />
		<tag k="ssr:gml_nr" v="1" />
	</node>
	<node id="-29840" lat="63.3975944451" lon="10.0891750007">
		<tag k="ssr:gml_id" v="GEOMETRY_09caf770-cdd0-42aa-bb8b-b86689e0343a" />
		<tag k="ssr:gml_nr" v="0" />
	</node>
	<node id="-33930" lat="63.378738893" lon="10.1785833375">
		<tag k="name" v="Gruva" />
		<tag k="place" v="quarry" />
		<tag k="ssr:date" v="2018-01-09" />
		<tag k="ssr:stedsnr" v="511927" />
	</node>
	<node id="-27781" lat="63.3729944434" lon="10.1893083247">
		<tag k="alt_name" v="Hokkelåsmyra" />
		<tag k="name" v="Grostadaunmyran" />
		<tag k="natural" v="wetland" />
		<tag k="ssr:date" v="2018-01-09" />
		<tag k="ssr:stedsnr" v="513903" />
	</node>
	<node id="-30863" lat="63.3832833305" lon="10.1242472268">
		<tag k="landuse" v="farmland" />
		<tag k="name" v="Rabben" />
		<tag k="ssr:date" v="2018-01-09" />
		<tag k="ssr:stedsnr" v="629815" />
	</node>
	<node id="-33920" lat="63.3359277765" lon="10.6396916733">
		<tag k="name" v="Jervlandet" />
		<tag k="place" v="locality" />
		<tag k="ssr:date" v="2018-01-09" />
		<tag k="ssr:stedsnr" v="362475" />
	</node>
	<node id="-27774" lat="63.445224999" lon="10.2846777699">
		<tag k="name" v="Hesthaggan" />
		<tag k="place" v="locality" />
		<tag k="ssr:date" v="2018-01-09" />
		<tag k="ssr:stedsnr" v="210854" />
	</node>
	<node id="-29793" lat="63.3940500007" lon="10.1144944495">
		<tag k="landuse" v="farmland" />
		<tag k="name" v="Joplassen" />
		<tag k="ssr:date" v="2018-01-09" />
		<tag k="ssr:stedsnr" v="326926" />
	</node>
	<node id="-27744" lat="63.3748388923" lon="10.2850138869">
		<tag k="ssr:gml_id" v="GEOMETRY_65ef776b-2254-4f2a-af21-8f65cf1f2743" />
		<tag k="ssr:gml_nr" v="1" />
	</node>
	<node id="-27743" lat="63.3747861081" lon="10.2851111191">
		<tag k="ssr:gml_id" v="GEOMETRY_567bfc22-1ffd-47c7-8a88-6fb9957adf8d" />
		<tag k="ssr:gml_nr" v="0" />
	</node>
	<node id="-27737" lat="63.4422583356" lon="10.2034472161">
		<tag k="name" v="Rønningsmyra" />
		<tag k="natural" v="wetland" />
		<tag k="ssr:date" v="2018-01-09" />
		<tag k="ssr:stedsnr" v="89321" />
	</node>
	<node id="-29784" lat="63.3595999968" lon="10.1600861111">
		<tag k="name" v="Oksbeljen" />
		<tag k="place" v="locality" />
		<tag k="ssr:date" v="2018-01-09" />
		<tag k="ssr:stedsnr" v="239905" />
	</node>
	<node id="-29773" lat="63.307944443" lon="10.394324997">
		<tag k="name" v="Tømmerdalsmyran" />
		<tag k="natural" v="wetland" />
		<tag k="ssr:date" v="2018-01-09" />
		<tag k="ssr:stedsnr" v="900247" />
	</node>
	<node id="-31820" lat="63.3668694475" lon="10.1983916727">
		<tag k="name" v="Grasmyran" />
		<tag k="natural" v="wetland" />
		<tag k="ssr:date" v="2018-01-09" />
		<tag k="ssr:stedsnr" v="331890" />
	</node>
	<node id="-27723" lat="63.3510472225" lon="10.470722224">
		<tag k="alt_name" v="Seterplassen" />
		<tag k="historic" v="summer_mountain_farm" />
		<tag k="landuse" v="meadow" />
		<tag k="name" v="Sæterplassen" />
		<tag k="place" v="locality" />
		<tag k="ssr:date" v="2018-01-09" />
		<tag k="ssr:stedsnr" v="59485" />
	</node>
	<node id="-29766" lat="63.3242333351" lon="10.3326555536">
		<tag k="name" v="Bekkenget" />
		<tag k="place" v="locality" />
		<tag k="ssr:date" v="2018-01-09" />
		<tag k="ssr:stedsnr" v="900249" />
	</node>
	<node id="-29765" lat="63.3467111077" lon="10.1805166761">
		<tag k="landuse" v="farmland" />
		<tag k="name" v="Undlendet" />
		<tag k="ssr:date" v="2018-01-09" />
		<tag k="ssr:stedsnr" v="569835" />
	</node>
	<node id="-33859" lat="63.4298249981" lon="10.1735666577">
		<tag k="landuse" v="farmland" />
		<tag k="name" v="Øverbylykkja" />
		<tag k="ssr:date" v="2018-01-09" />
		<tag k="ssr:stedsnr" v="540830" />
	</node>
	<node id="-33852" lat="63.3972361126" lon="10.1666666728">
		<tag k="landuse" v="farmland" />
		<tag k="name" v="Myra" />
		<tag k="ssr:date" v="2018-01-09" />
		<tag k="ssr:stedsnr" v="751980" />
	</node>
	<node id="-33848" lat="63.4239666689" lon="10.1365666599">
		<tag k="landuse" v="farmland" />
		<tag k="name" v="Litlrønningen" />
		<tag k="ssr:date" v="2018-01-09" />
		<tag k="ssr:stedsnr" v="205905" />
	</node>
	<node id="-29748" lat="63.3668944483" lon="10.1709277856">
		<tag k="name" v="Stormyra" />
		<tag k="natural" v="wetland" />
		<tag k="ssr:date" v="2018-01-09" />
		<tag k="ssr:stedsnr" v="691085" />
	</node>
	<node id="-27699" lat="63.3615499982" lon="10.2908749961">
		<tag k="ssr:gml_id" v="GEOMETRY_a2bcc8b9-3740-409c-8ba5-6906ea25efa6" />
		<tag k="ssr:gml_nr" v="2" />
	</node>
	<node id="-27698" lat="63.3615527807" lon="10.2908750009">
		<tag k="ssr:gml_id" v="GEOMETRY_08a4fa34-5fb7-4021-8652-6163cc85404a" />
		<tag k="ssr:gml_nr" v="1" />
	</node>
	<node id="-27697" lat="63.3615638861" lon="10.2908777784">
		<tag k="ssr:gml_id" v="GEOMETRY_cdc27fbb-da37-4cb5-ae79-1064462f0ff1" />
		<tag k="ssr:gml_nr" v="0" />
	</node>
	<node id="-31791" lat="63.3584555576" lon="10.2324444454">
		<tag k="name" v="Klovningmyra" />
		<tag k="natural" v="wetland" />
		<tag k="ssr:date" v="2018-01-09" />
		<tag k="ssr:stedsnr" v="390303" />
	</node>
	<node id="-33816" lat="63.3898777773" lon="10.295711121">
		<tag k="landuse" v="farmland" />
		<tag k="name" v="Nergjerdet" />
		<tag k="ssr:date" v="2018-01-09" />
		<tag k="ssr:stedsnr" v="571932" />
	</node>
	<node id="-31760" lat="63.413599996" lon="10.5258027875">
		<tag k="name" v="Ranheimsskogen" />
		<tag k="natural" v="wood" />
		<tag k="ssr:date" v="2018-01-09" />
		<tag k="ssr:stedsnr" v="414739" />
	</node>
	<node id="-31757" lat="63.4156027778" lon="10.1246111163">
		<tag k="landuse" v="farmland" />
		<tag k="name" v="Krokan" />
		<tag k="ssr:date" v="2018-01-09" />
		<tag k="ssr:stedsnr" v="23941" />
	</node>
	<node id="-31753" lat="63.3971027747" lon="10.4552416682">
		<tag k="name" v="Fuglmyra" />
		<tag k="natural" v="wetland" />
		<tag k="ssr:date" v="2018-01-09" />
		<tag k="ssr:stedsnr" v="414741" />
	</node>
	<node id="-31751" lat="63.4242833365" lon="10.2367555462">
		<tag k="ssr:gml_id" v="GEOMETRY_cd7a13ff-1076-4521-ab5d-086a0e329452" />
		<tag k="ssr:gml_nr" v="1" />
	</node>
	<node id="-31750" lat="63.4245250015" lon="10.2388277703">
		<tag k="ssr:gml_id" v="GEOMETRY_684eb6ce-7415-470a-aae4-9afdfc8c1ed1" />
		<tag k="ssr:gml_nr" v="0" />
	</node>
	<node id="-29693" lat="63.3564027814" lon="10.2154666763">
		<tag k="name" v="Heimmarka" />
		<tag k="place" v="locality" />
		<tag k="ssr:date" v="2018-01-09" />
		<tag k="ssr:stedsnr" v="509696" />
	</node>
	<node id="-33786" lat="63.353349996" lon="10.1524999972">
		<tag k="name" v="Høyemsmyran" />
		<tag k="natural" v="wetland" />
		<tag k="ssr:date" v="2018-01-09" />
		<tag k="ssr:stedsnr" v="691958" />
	</node>
	<node id="-28267" lat="63.3531944483" lon="10.2745138974">
		<tag k="name" v="Torvmyra" />
		<tag k="natural" v="wetland" />
		<tag k="ssr:date" v="2018-01-09" />
		<tag k="ssr:stedsnr" v="934215" />
	</node>
	<node id="-29686" lat="63.3789416642" lon="10.1789916608">
		<tag k="name" v="Bergshåggån" />
		<tag k="place" v="locality" />
		<tag k="ssr:date" v="2018-01-09" />
		<tag k="ssr:stedsnr" v="389890" />
	</node>
	<node id="-29675" lat="63.3707166692" lon="10.2006722318">
		<tag k="name" v="Løftabergbrottet" />
		<tag k="place" v="quarry" />
		<tag k="ssr:date" v="2018-01-09" />
		<tag k="ssr:stedsnr" v="935902" />
	</node>
	<node id="-33768" lat="63.378780559" lon="10.5054694387">
		<tag k="historic" v="summer_mountain_farm" />
		<tag k="landuse" v="meadow" />
		<tag k="name" v="Røstadvollen" />
		<tag k="place" v="locality" />
		<tag k="ssr:date" v="2018-01-09" />
		<tag k="ssr:stedsnr" v="293295" />
	</node>
	<node id="-29648" lat="63.4001138911" lon="10.4895888837">
		<tag k="ssr:gml_id" v="GEOMETRY_68579360-9bd1-4a43-a769-f3e9ae76a063" />
		<tag k="ssr:gml_nr" v="4" />
	</node>
	<node id="-29647" lat="63.3986583319" lon="10.4943972248">
		<tag k="ssr:gml_id" v="GEOMETRY_4215a141-8237-49c7-91f6-060997006395" />
		<tag k="ssr:gml_nr" v="3" />
	</node>
	<node id="-29646" lat="63.3998722211" lon="10.48861666">
		<tag k="ssr:gml_id" v="GEOMETRY_b7d76516-f4e7-4a2e-bc95-538aa7c2b100" />
		<tag k="ssr:gml_nr" v="2" />
	</node>
	<node id="-29645" lat="63.3986722255" lon="10.4944000096">
		<tag k="ssr:gml_id" v="GEOMETRY_b4d6ceb4-95dc-4ae1-b3e1-6d6d5bb8645e" />
		<tag k="ssr:gml_nr" v="1" />
	</node>
	<node id="-29644" lat="63.4033583321" lon="10.4934833413">
		<tag k="ssr:gml_id" v="GEOMETRY_9b5691e3-7b99-4223-865e-b87e1864cbba" />
		<tag k="ssr:gml_nr" v="0" />
	</node>
	<node id="-27581" lat="63.4356694478" lon="10.3418388882">
		<tag k="name" v="Killingsteinen" />
		<tag k="natural" v="stone" />
		<tag k="ssr:date" v="2018-01-09" />
		<tag k="ssr:stedsnr" v="756909" />
	</node>
	<node id="-27579" lat="63.3578249992" lon="10.5260833258">
		<tag k="ssr:gml_id" v="GEOMETRY_abc804f7-9b4d-464c-85bf-e6816a6b41ae" />
		<tag k="ssr:gml_nr" v="2" />
	</node>
	<node id="-27578" lat="63.3581333351" lon="10.5261250074">
		<tag k="ssr:gml_id" v="GEOMETRY_7dbd9923-ed35-4d2d-9933-ce5eeb497c89" />
		<tag k="ssr:gml_nr" v="1" />
	</node>
	<node id="-27577" lat="63.3581472262" lon="10.5261388987">
		<tag k="ssr:gml_id" v="GEOMETRY_eba56189-dbde-4ad9-b2b0-827069145e3b" />
		<tag k="ssr:gml_nr" v="0" />
	</node>
	<node id="-27561" lat="63.431650001" lon="10.1828999931">
		<tag k="name" v="Nordmyra" />
		<tag k="natural" v="wetland" />
		<tag k="ssr:date" v="2018-01-09" />
		<tag k="ssr:stedsnr" v="26055" />
	</node>
	<node id="-31653" lat="63.3966416674" lon="10.2239333418">
		<tag k="name" v="Langmyran" />
		<tag k="natural" v="wetland" />
		<tag k="ssr:date" v="2018-01-09" />
		<tag k="ssr:stedsnr" v="88483" />
	</node>
	<node id="-33700" lat="63.4304472259" lon="10.1884611045">
		<tag k="name" v="Trøan" />
		<tag k="place" v="locality" />
		<tag k="ssr:date" v="2018-01-09" />
		<tag k="ssr:stedsnr" v="936646" />
	</node>
	<node id="-31647" lat="63.4120055527" lon="10.1400555561">
		<tag k="name" v="Kilen" />
		<tag k="natural" v="wood" />
		<tag k="ssr:date" v="2018-01-09" />
		<tag k="ssr:stedsnr" v="23911" />
	</node>
	<node id="-27545" lat="63.4335916659" lon="10.2734944364">
		<tag k="name" v="Torvhusmyra" />
		<tag k="natural" v="wetland" />
		<tag k="ssr:date" v="2018-01-09" />
		<tag k="ssr:stedsnr" v="756877" />
	</node>
	<node id="-31636" lat="63.4197722236" lon="10.12841667">
		<tag k="landuse" v="farmland" />
		<tag k="name" v="Langørjhåggån" />
		<tag k="ssr:date" v="2018-01-09" />
		<tag k="ssr:stedsnr" v="934909" />
	</node>
	<node id="-31632" lat="63.4233472232" lon="10.1323138863">
		<tag k="landuse" v="farmland" />
		<tag k="name" v="Bengtplassen" />
		<tag k="ssr:date" v="2018-01-09" />
		<tag k="ssr:stedsnr" v="23907" />
	</node>
	<node id="-29580" lat="63.3777694475" lon="10.3231111101">
		<tag k="landuse" v="farmland" />
		<tag k="name" v="Nordgjerdet" />
		<tag k="ssr:date" v="2018-01-09" />
		<tag k="ssr:stedsnr" v="208001" />
	</node>
	<node id="-31616" lat="63.3714138887" lon="10.221161117">
		<tag k="ssr:gml_id" v="GEOMETRY_cefc336b-1cdd-482b-9e0d-c5e7af0a1fad" />
		<tag k="ssr:gml_nr" v="1" />
	</node>
	<node id="-31615" lat="63.3693333292" lon="10.2211333428">
		<tag k="ssr:gml_id" v="GEOMETRY_eb1fe2bd-8823-4e22-b1e7-331ecc40f649" />
		<tag k="ssr:gml_nr" v="0" />
	</node>
	<node id="-31612" lat="63.4105944414" lon="10.1753249963">
		<tag k="name" v="Sætermyra" />
		<tag k="natural" v="wetland" />
		<tag k="ssr:date" v="2018-01-09" />
		<tag k="ssr:stedsnr" v="147124" />
	</node>
	<node id="-33659" lat="63.3574222255" lon="10.2209083363">
		<tag k="ssr:gml_id" v="GEOMETRY_a13c5f42-6339-4f7b-880f-d8825a430580" />
		<tag k="ssr:gml_nr" v="0" />
	</node>
	<node id="-31610" lat="63.4207888888" lon="10.2098388844">
		<tag k="name" v="Korsmyra" />
		<tag k="natural" v="wetland" />
		<tag k="ssr:date" v="2018-01-09" />
		<tag k="ssr:stedsnr" v="513087" />
	</node>
	<node id="-33656" lat="63.4481333313" lon="10.2315666641">
		<tag k="name" v="Stormyra" />
		<tag k="natural" v="wetland" />
		<tag k="ssr:date" v="2018-01-09" />
		<tag k="ssr:stedsnr" v="271977" />
	</node>
	<node id="-33645" lat="63.3842249967" lon="10.1836305553">
		<tag k="name" v="Dammyra" />
		<tag k="natural" v="wetland" />
		<tag k="ssr:date" v="2018-01-09" />
		<tag k="ssr:stedsnr" v="751965" />
	</node>
	<node id="-31593" lat="63.4449416663" lon="10.2164333234">
		<tag k="fixme" v="multiple name tags, choose one and add the other to alt_name" />
		<tag k="name" v="Ormsetmyran;Tjurruveltmyran" />
		<tag k="natural" v="wetland" />
		<tag k="ssr:date" v="2018-01-09" />
		<tag k="ssr:stedsnr" v="88475" />
	</node>
	<node id="-33639" lat="63.3671083355" lon="10.6408277687">
		<tag k="name" v="Langmyra" />
		<tag k="natural" v="wetland" />
		<tag k="ssr:date" v="2018-01-09" />
		<tag k="ssr:stedsnr" v="405524" />
	</node>
	<node id="-31586" lat="63.4140805527" lon="10.1364138823">
		<tag k="landuse" v="farmland" />
		<tag k="name" v="Hallet" />
		<tag k="ssr:date" v="2018-01-09" />
		<tag k="ssr:stedsnr" v="934871" />
	</node>
	<node id="-31585" lat="63.3593250023" lon="10.2106333284">
		<tag k="fixme" v="multiple name tags, choose one and add the other to alt_name" />
		<tag k="name" v="Langmyra;Vintermyra" />
		<tag k="natural" v="wetland" />
		<tag k="ssr:date" v="2018-01-09" />
		<tag k="ssr:stedsnr" v="145730" />
	</node>
	<node id="-31579" lat="63.3821499989" lon="10.5027250096">
		<tag k="ssr:gml_id" v="GEOMETRY_8a26cfc3-0b78-4ba7-b78f-4768ccd64e35" />
		<tag k="ssr:gml_nr" v="2" />
	</node>
	<node id="-31578" lat="63.3818277748" lon="10.5019722245">
		<tag k="ssr:gml_id" v="GEOMETRY_c30cbcef-7883-4420-a3b5-14a3b522bafa" />
		<tag k="ssr:gml_nr" v="1" />
	</node>
	<node id="-31577" lat="63.3818416682" lon="10.5019861158">
		<tag k="ssr:gml_id" v="GEOMETRY_fa5b5404-eed2-46a2-a97d-9c57751cc3af" />
		<tag k="ssr:gml_nr" v="0" />
	</node>
	<node id="-33624" lat="63.4242361129" lon="10.1319694394">
		<tag k="landuse" v="farmland" />
		<tag k="name" v="Markaplassen" />
		<tag k="ssr:date" v="2018-01-09" />
		<tag k="ssr:stedsnr" v="508900" />
	</node>
	<node id="-27473" lat="63.3530777801" lon="10.5452611146">
		<tag k="name" v="Langmyra" />
		<tag k="natural" v="wetland" />
		<tag k="ssr:date" v="2018-01-09" />
		<tag k="ssr:stedsnr" v="232221" />
	</node>
	<node id="-33611" lat="63.3642944473" lon="10.2066027694">
		<tag k="name" v="Klokkmyra" />
		<tag k="natural" v="wetland" />
		<tag k="ssr:date" v="2018-01-09" />
		<tag k="ssr:stedsnr" v="27246" />
	</node>
	<node id="-33601" lat="63.3643833371" lon="10.2162444373">
		<tag k="fixme" v="multiple name tags, choose one and add the other to alt_name" />
		<tag k="name" v="Vintermyra;Dammyra" />
		<tag k="natural" v="wetland" />
		<tag k="ssr:date" v="2018-01-09" />
		<tag k="ssr:stedsnr" v="27243" />
	</node>
	<node id="-27439" lat="63.3659166708" lon="10.3009916757">
		<tag k="alt_name" v="Kjeklstykket" />
		<tag k="name" v="Stykkestrøa" />
		<tag k="place" v="locality" />
		<tag k="ssr:date" v="2018-01-09" />
		<tag k="ssr:stedsnr" v="815187" />
	</node>
	<node id="-33582" lat="63.3436555576" lon="10.3691777874">
		<tag k="ssr:gml_id" v="GEOMETRY_be570cdc-1544-4722-878a-ecc6361d3a06" />
		<tag k="ssr:gml_nr" v="1" />
	</node>
	<node id="-33581" lat="63.3406611103" lon="10.3685583283">
		<tag k="ssr:gml_id" v="GEOMETRY_e5629f05-1cee-4394-b3a6-a128d2cc8731" />
		<tag k="ssr:gml_nr" v="0" />
	</node>
	<node id="-29483" lat="63.3766749985" lon="10.3200416573">
		<tag k="landuse" v="farmland" />
		<tag k="name" v="Såmmårfjøsstykket" />
		<tag k="ssr:date" v="2018-01-09" />
		<tag k="ssr:stedsnr" v="754070" />
	</node>
	<node id="-33576" lat="63.3612361146" lon="10.3344888878">
		<tag k="name" v="Nordmyra" />
		<tag k="natural" v="wetland" />
		<tag k="ssr:date" v="2018-01-09" />
		<tag k="ssr:stedsnr" v="293262" />
	</node>
	<node id="-33572" lat="63.4181027783" lon="10.1687694382">
		<tag k="name" v="Raumyra" />
		<tag k="natural" v="wetland" />
		<tag k="ssr:date" v="2018-01-09" />
		<tag k="ssr:stedsnr" v="751920" />
	</node>
	<node id="-27427" lat="63.4016138896" lon="10.3049916759">
		<tag k="name" v="Solemsmarka" />
		<tag k="place" v="locality" />
		<tag k="ssr:date" v="2018-01-09" />
		<tag k="ssr:stedsnr" v="89255" />
	</node>
	<node id="-29474" lat="63.376997221" lon="10.2994111181">
		<tag k="name" v="Smistadskogen" />
		<tag k="place" v="locality" />
		<tag k="ssr:date" v="2018-01-09" />
		<tag k="ssr:stedsnr" v="451182" />
	</node>
	<node id="-27423" lat="63.3648111102" lon="10.4571888857">
		<tag k="landuse" v="quarry" />
		<tag k="name" v="Lia pukkverk" />
		<tag k="ssr:date" v="2018-01-09" />
		<tag k="ssr:stedsnr" v="658215" />
	</node>
	<node id="-31518" lat="63.446711115" lon="10.2779666614">
		<tag k="landuse" v="farmland" />
		<tag k="name" v="Borti natta" />
		<tag k="ssr:date" v="2018-01-09" />
		<tag k="ssr:stedsnr" v="331839" />
	</node>
	<node id="-33583" lat="63.3406000007" lon="10.3685750036">
		<tag k="ssr:gml_id" v="GEOMETRY_bc43170c-96f1-48bd-861f-41029dbf6412" />
		<tag k="ssr:gml_nr" v="2" />
	</node>
	<node id="-31511" lat="63.4412916627" lon="10.2245972226">
		<tag k="name" v="Kongensåsmyra" />
		<tag k="natural" v="wetland" />
		<tag k="ssr:date" v="2018-01-09" />
		<tag k="ssr:stedsnr" v="877757" />
	</node>
	<node id="-33551" lat="63.4061749962" lon="10.1132527865">
		<tag k="name" v="Strokkjen" />
		<tag k="natural" v="wetland" />
		<tag k="ssr:date" v="2018-01-09" />
		<tag k="ssr:stedsnr" v="508864" />
	</node>
	<node id="-27406" lat="63.3660722182" lon="10.2265333235">
		<tag k="name" v="Korsmyra" />
		<tag k="natural" v="wetland" />
		<tag k="ssr:date" v="2018-01-09" />
		<tag k="ssr:stedsnr" v="755237" />
	</node>
	<node id="-29445" lat="63.43157778" lon="10.1894722307">
		<tag k="fixme" v="multiple name tags, choose one and add the other to alt_name" />
		<tag k="name" v="Haugamyra;Orrmyra" />
		<tag k="natural" v="wetland" />
		<tag k="ssr:date" v="2018-01-09" />
		<tag k="ssr:stedsnr" v="268052" />
	</node>
	<node id="-27396" lat="63.4285694426" lon="10.2291249908">
		<tag k="name" v="Sætermyra" />
		<tag k="natural" v="wetland" />
		<tag k="ssr:date" v="2018-01-09" />
		<tag k="ssr:stedsnr" v="270713" />
	</node>
	<node id="-27391" lat="63.3843333378" lon="10.1034388841">
		<tag k="ssr:gml_id" v="GEOMETRY_aa36ea19-3641-40cb-88a5-58c4da31a348" />
		<tag k="ssr:gml_nr" v="1" />
	</node>
	<node id="-27390" lat="63.3849055542" lon="10.1041833335">
		<tag k="ssr:gml_id" v="GEOMETRY_31f95de0-1ade-433a-a2b0-71d10d99c0e0" />
		<tag k="ssr:gml_nr" v="0" />
	</node>
	<node id="-33527" lat="63.4109611101" lon="10.1612194352">
		<tag k="name" v="Kleivgjerdet" />
		<tag k="place" v="locality" />
		<tag k="ssr:date" v="2018-01-09" />
		<tag k="ssr:stedsnr" v="329114" />
	</node>
	<node id="-31471" lat="63.3733499978" lon="10.4941277845">
		<tag k="ssr:gml_id" v="GEOMETRY_b88ae77c-7d22-4694-8c1a-05c85697ad93" />
		<tag k="ssr:gml_nr" v="1" />
	</node>
	<node id="-31470" lat="63.3733499962" lon="10.494141666">
		<tag k="ssr:gml_id" v="GEOMETRY_149a6122-ab59-468f-bc44-6d8c3dd18911" />
		<tag k="ssr:gml_nr" v="0" />
	</node>
	<node id="-27373" lat="63.3949194405" lon="10.2708194515">
		<tag k="name" v="Klokktjønnmyra" />
		<tag k="natural" v="wetland" />
		<tag k="ssr:date" v="2018-01-09" />
		<tag k="ssr:stedsnr" v="390963" />
	</node>
	<node id="-27369" lat="63.4451694436" lon="10.2967055551">
		<tag k="landuse" v="meadow" />
		<tag k="name" v="Trollykkja" />
		<tag k="ssr:date" v="2018-01-09" />
		<tag k="ssr:stedsnr" v="210783" />
	</node>
	<node id="-31454" lat="63.38285" lon="10.1730888939">
		<tag k="name" v="Steinstutrøa" />
		<tag k="place" v="locality" />
		<tag k="ssr:date" v="2018-01-09" />
		<tag k="ssr:stedsnr" v="86884" />
	</node>
	<node id="-29390" lat="63.4053638904" lon="10.2634305503">
		<tag k="name" v="Harramyra" />
		<tag k="natural" v="wetland" />
		<tag k="ssr:date" v="2018-01-09" />
		<tag k="ssr:stedsnr" v="935989" />
	</node>
	<node id="-31434" lat="63.3717166705" lon="10.3026749987">
		<tag k="alt_name" v="Lilletrøa" />
		<tag k="name" v="Litltrøa" />
		<tag k="place" v="locality" />
		<tag k="ssr:date" v="2018-01-09" />
		<tag k="ssr:stedsnr" v="584887" />
	</node>
	<node id="-27337" lat="63.3493138869" lon="10.5903250063">
		<tag k="ssr:gml_id" v="GEOMETRY_13792673-adaf-4150-af69-1cc1d9b06d93" />
		<tag k="ssr:gml_nr" v="0" />
	</node>
	<node id="-33476" lat="63.3810027769" lon="10.5303944474">
		<tag k="landuse" v="farmland" />
		<tag k="name" v="Mokråa" />
		<tag k="ssr:date" v="2018-01-09" />
		<tag k="ssr:stedsnr" v="951498" />
	</node>
	<node id="-31407" lat="63.3761916694" lon="10.0742638824">
		<tag k="landuse" v="farmland" />
		<tag k="name" v="Skogan" />
		<tag k="ssr:date" v="2018-01-09" />
		<tag k="ssr:stedsnr" v="23851" />
	</node>
	<node id="-29354" lat="63.4012583319" lon="10.1798472259">
		<tag k="name" v="Stortrømyran" />
		<tag k="natural" v="wetland" />
		<tag k="ssr:date" v="2018-01-09" />
		<tag k="ssr:stedsnr" v="205077" />
	</node>
	<node id="-27303" lat="63.4472027809" lon="10.2711916578">
		<tag k="name" v="Holstvollmyra" />
		<tag k="natural" v="wetland" />
		<tag k="ssr:date" v="2018-01-09" />
		<tag k="ssr:stedsnr" v="453950" />
	</node>
	<node id="-29332" lat="63.4123027762" lon="10.109486111">
		<tag k="landuse" v="farmland" />
		<tag k="name" v="Hoemsøret" />
		<tag k="ssr:date" v="2018-01-09" />
		<tag k="ssr:stedsnr" v="569904" />
	</node>
	<node id="-27283" lat="63.4202027808" lon="10.1668333343">
		<tag k="name" v="Trøa" />
		<tag k="place" v="locality" />
		<tag k="ssr:date" v="2018-01-09" />
		<tag k="ssr:stedsnr" v="144900" />
	</node>
	<node id="-27282" lat="63.3475361142" lon="10.157058336">
		<tag k="landuse" v="farmland" />
		<tag k="name" v="Smedgjerdet" />
		<tag k="ssr:date" v="2018-01-09" />
		<tag k="ssr:stedsnr" v="873965" />
	</node>
	<node id="-33424" lat="63.3700805583" lon="10.2355027719">
		<tag k="name" v="Sæteråsmyra" />
		<tag k="natural" v="wetland" />
		<tag k="ssr:date" v="2018-01-09" />
		<tag k="ssr:stedsnr" v="570485" />
	</node>
	<node id="-31375" lat="63.3945444434" lon="10.2011888912">
		<tag k="name" v="Krogstadmyra" />
		<tag k="natural" v="wetland" />
		<tag k="ssr:date" v="2018-01-09" />
		<tag k="ssr:stedsnr" v="23906" />
	</node>
	<node id="-31371" lat="63.4213944459" lon="10.1472666749">
		<tag k="landuse" v="farmland" />
		<tag k="name" v="Heggsnipen" />
		<tag k="ssr:date" v="2018-01-09" />
		<tag k="ssr:stedsnr" v="144080" />
	</node>
	<node id="-29306" lat="63.3953500036" lon="10.1844083277">
		<tag k="name" v="Kalvmyra" />
		<tag k="natural" v="wetland" />
		<tag k="ssr:date" v="2018-01-09" />
		<tag k="ssr:stedsnr" v="508069" />
	</node>
	<node id="-31350" lat="63.3752694443" lon="10.1994416647">
		<tag k="name" v="Tråddåmyra" />
		<tag k="natural" v="wetland" />
		<tag k="ssr:date" v="2018-01-09" />
		<tag k="ssr:stedsnr" v="266997" />
	</node>
	<node id="-29292" lat="63.43765278" lon="10.2981111037">
		<tag k="name" v="Kumyra" />
		<tag k="natural" v="wetland" />
		<tag k="ssr:date" v="2018-01-09" />
		<tag k="ssr:stedsnr" v="875741" />
	</node>
	<node id="-27238" lat="63.3980305532" lon="10.1889027813">
		<tag k="name" v="Meismyran" />
		<tag k="natural" v="wetland" />
		<tag k="ssr:date" v="2018-01-09" />
		<tag k="ssr:stedsnr" v="144884" />
	</node>
	<node id="-33377" lat="63.3637888896" lon="10.2363916765">
		<tag k="name" v="Vassåsmyrstrypet" />
		<tag k="natural" v="wetland" />
		<tag k="ssr:date" v="2018-01-09" />
		<tag k="ssr:stedsnr" v="570492" />
	</node>
	<node id="-31326" lat="63.3474722218" lon="10.2013861168">
		<tag k="landuse" v="farmland" />
		<tag k="name" v="Fallet" />
		<tag k="ssr:date" v="2018-01-09" />
		<tag k="ssr:stedsnr" v="934803" />
	</node>
	<node id="-31322" lat="63.4252249965" lon="10.2716805505">
		<tag k="landuse" v="meadow" />
		<tag k="name" v="Djupslættet" />
		<tag k="ssr:date" v="2018-01-09" />
		<tag k="ssr:stedsnr" v="570120" />
	</node>
	<node id="-33369" lat="63.3438499958" lon="10.3132027683">
		<tag k="historic" v="summer_mountain_farm" />
		<tag k="landuse" v="meadow" />
		<tag k="name" v="Småbruket" />
		<tag k="place" v="locality" />
		<tag k="ssr:date" v="2018-01-09" />
		<tag k="ssr:stedsnr" v="596248" />
	</node>
	<node id="-33362" lat="63.3808833335" lon="10.1828916599">
		<tag k="name" v="Merramyra" />
		<tag k="natural" v="wetland" />
		<tag k="ssr:date" v="2018-01-09" />
		<tag k="ssr:stedsnr" v="451937" />
	</node>
	<node id="-31309" lat="63.3763999974" lon="10.3245305545">
		<tag k="landuse" v="farmland" />
		<tag k="name" v="Fjøslia" />
		<tag k="ssr:date" v="2018-01-09" />
		<tag k="ssr:stedsnr" v="147036" />
	</node>
	<node id="-33340" lat="63.38722222" lon="10.2241944419">
		<tag k="landuse" v="meadow" />
		<tag k="name" v="Gunnarslætta" />
		<tag k="ssr:date" v="2018-01-09" />
		<tag k="ssr:stedsnr" v="938174" />
	</node>
	<node id="-33339" lat="63.3758500015" lon="10.3208833407">
		<tag k="name" v="Grustaket" />
		<tag k="place" v="quarry" />
		<tag k="ssr:date" v="2018-01-09" />
		<tag k="ssr:stedsnr" v="875016" />
	</node>
	<node id="-27188" lat="63.3350543817" lon="10.3593553957">
		<tag k="name" v="Kvenildsskogen" />
		<tag k="place" v="locality" />
		<tag k="ssr:date" v="2018-01-09" />
		<tag k="ssr:stedsnr" v="362676" />
	</node>
	<node id="-29234" lat="63.3985138873" lon="10.2923972211">
		<tag k="landuse" v="quarry" />
		<tag k="name" v="Solemsbruddet" />
		<tag k="ssr:date" v="2018-01-09" />
		<tag k="ssr:stedsnr" v="693941" />
	</node>
	<node id="-33325" lat="63.3798888932" lon="10.2985027874">
		<tag k="name" v="Strupen" />
		<tag k="natural" v="wetland" />
		<tag k="ssr:date" v="2018-01-09" />
		<tag k="ssr:stedsnr" v="389154" />
	</node>
	<node id="-29226" lat="63.361072224" lon="10.1282805476">
		<tag k="landuse" v="farmland" />
		<tag k="name" v="Steinstrøa" />
		<tag k="ssr:date" v="2018-01-09" />
		<tag k="ssr:stedsnr" v="326830" />
	</node>
	<node id="-31272" lat="63.3735083301" lon="10.0820888882">
		<tag k="landuse" v="farmland" />
		<tag k="name" v="Alhusen" />
		<tag k="ssr:date" v="2018-01-09" />
		<tag k="ssr:stedsnr" v="629937" />
	</node>
	<node id="-27166" lat="63.4083555521" lon="10.1779749907">
		<tag k="name" v="Raudmyra" />
		<tag k="natural" v="wetland" />
		<tag k="ssr:date" v="2018-01-09" />
		<tag k="ssr:stedsnr" v="632134" />
	</node>
	<node id="-27163" lat="63.3772444463" lon="10.3234277813">
		<tag k="landuse" v="farmland" />
		<tag k="name" v="Stuekra" />
		<tag k="ssr:date" v="2018-01-09" />
		<tag k="ssr:stedsnr" v="269051" />
	</node>
	<node id="-29103" lat="63.3645055555" lon="10.2228472241">
		<tag k="name" v="Øvermarka" />
		<tag k="place" v="locality" />
		<tag k="ssr:date" v="2018-01-09" />
		<tag k="ssr:stedsnr" v="449716" />
	</node>
	<node id="-27149" lat="63.3802722263" lon="10.3230861066">
		<tag k="name" v="Flatåsmarka" />
		<tag k="place" v="locality" />
		<tag k="ssr:date" v="2018-01-09" />
		<tag k="ssr:stedsnr" v="269048" />
	</node>
	<node id="-33286" lat="63.3685972197" lon="10.3324694481">
		<tag k="name" v="Moltmyra" />
		<tag k="natural" v="wetland" />
		<tag k="ssr:date" v="2018-01-09" />
		<tag k="ssr:stedsnr" v="875012" />
	</node>
	<node id="-27135" lat="63.312538889" lon="10.4019111116">
		<tag k="name" v="Portmyra" />
		<tag k="place" v="quarry" />
		<tag k="ssr:date" v="2018-01-09" />
		<tag k="ssr:stedsnr" v="299490" />
	</node>
	<node id="-27132" lat="63.3790194438" lon="10.1682388864">
		<tag k="landuse" v="farmland" />
		<tag k="name" v="Bergs Minde" />
		<tag k="ssr:date" v="2018-01-09" />
		<tag k="ssr:stedsnr" v="327999" />
	</node>
	<node id="-33258" lat="63.3508777753" lon="10.1942833344">
		<tag k="landuse" v="farmland" />
		<tag k="name" v="Nestingan" />
		<tag k="ssr:date" v="2018-01-09" />
		<tag k="ssr:stedsnr" v="448987" />
	</node>
	<node id="-27110" lat="63.3733944454" lon="10.1059666745">
		<tag k="alt_name" v="Hangerås søndre" />
		<tag k="landuse" v="farmland" />
		<tag k="name" v="Søndre Hangerås" />
		<tag k="ssr:date" v="2018-01-09" />
		<tag k="ssr:stedsnr" v="873947" />
	</node>
	<node id="-29155" lat="63.4323805553" lon="10.2665055464">
		<tag k="name" v="Strypan" />
		<tag k="natural" v="wetland" />
		<tag k="ssr:date" v="2018-01-09" />
		<tag k="ssr:stedsnr" v="392984" />
	</node>
	<node id="-33242" lat="63.4406805552" lon="10.1861805586">
		<tag k="name" v="Flakkhåggån" />
		<tag k="place" v="locality" />
		<tag k="ssr:date" v="2018-01-09" />
		<tag k="ssr:stedsnr" v="875028" />
	</node>
	<node id="-27089" lat="63.3761249993" lon="10.3240777751">
		<tag k="landuse" v="farmland" />
		<tag k="name" v="Vinterledbakken" />
		<tag k="ssr:date" v="2018-01-09" />
		<tag k="ssr:stedsnr" v="269039" />
	</node>
	<node id="-33229" lat="63.4410694411" lon="10.2745888921">
		<tag k="name" v="Bestfarmyra" />
		<tag k="natural" v="wetland" />
		<tag k="ssr:date" v="2018-01-09" />
		<tag k="ssr:stedsnr" v="817962" />
	</node>
	<node id="-27081" lat="63.3971083294" lon="10.3157166677">
		<tag k="name" v="Kystadliskogen" />
		<tag k="place" v="locality" />
		<tag k="ssr:date" v="2018-01-09" />
		<tag k="ssr:stedsnr" v="509187" />
	</node>
	<node id="-27079" lat="63.3785527815" lon="10.2155638977">
		<tag k="name" v="Bjørndalsmyra" />
		<tag k="natural" v="wetland" />
		<tag k="ssr:date" v="2018-01-09" />
		<tag k="ssr:stedsnr" v="938555" />
	</node>
	<node id="-27077" lat="63.3957249958" lon="10.3294638979">
		<tag k="name" v="Kystadtrøa" />
		<tag k="place" v="locality" />
		<tag k="ssr:date" v="2018-01-09" />
		<tag k="ssr:stedsnr" v="509185" />
	</node>
	<node id="-33216" lat="63.3774638864" lon="10.2775888816">
		<tag k="name" v="Skjefstadmarka" />
		<tag k="place" v="locality" />
		<tag k="ssr:date" v="2018-01-09" />
		<tag k="ssr:stedsnr" v="87219" />
	</node>
	<node id="-27071" lat="63.3693333349" lon="10.4600972281">
		<tag k="name" v="Stortrøa" />
		<tag k="place" v="locality" />
		<tag k="ssr:date" v="2018-01-09" />
		<tag k="ssr:stedsnr" v="662566" />
	</node>
	<node id="-31160" lat="63.3753888906" lon="10.3279833299">
		<tag k="landuse" v="farmland" />
		<tag k="name" v="Brattreinflata" />
		<tag k="ssr:date" v="2018-01-09" />
		<tag k="ssr:stedsnr" v="147010" />
	</node>
	<node id="-33206" lat="63.3938777742" lon="10.2237972161">
		<tag k="name" v="Markamarka" />
		<tag k="place" v="locality" />
		<tag k="ssr:date" v="2018-01-09" />
		<tag k="ssr:stedsnr" v="392208" />
	</node>
	<node id="-31157" lat="63.3754888896" lon="10.3260472302">
		<tag k="landuse" v="farmland" />
		<tag k="name" v="Sørgjerdet" />
		<tag k="ssr:date" v="2018-01-09" />
		<tag k="ssr:stedsnr" v="876048" />
	</node>
	<node id="-29107" lat="63.4461555512" lon="10.279786111">
		<tag k="landuse" v="farmland" />
		<tag k="name" v="Midtimyra" />
		<tag k="ssr:date" v="2018-01-09" />
		<tag k="ssr:stedsnr" v="149828" />
	</node>
	<node id="-27055" lat="63.3709916656" lon="10.2897416679">
		<tag k="ssr:gml_id" v="GEOMETRY_c36f5384-3a55-431c-8e0d-60ef24f76bf0" />
		<tag k="ssr:gml_nr" v="1" />
	</node>
	<node id="-27054" lat="63.365344442" lon="10.2938472208">
		<tag k="ssr:gml_id" v="GEOMETRY_873e40e9-ac08-4997-94e1-895d437b89b7" />
		<tag k="ssr:gml_nr" v="0" />
	</node>
	<node id="-31130" lat="63.4158138885" lon="10.519450001">
		<tag k="name" v="Åstrøa" />
		<tag k="place" v="locality" />
		<tag k="ssr:date" v="2018-01-09" />
		<tag k="ssr:stedsnr" v="232741" />
	</node>
	<node id="-27033" lat="63.4477416703" lon="10.2962805561">
		<tag k="landuse" v="quarry" />
		<tag k="name" v="Ålbugruva" />
		<tag k="ssr:date" v="2018-01-09" />
		<tag k="ssr:stedsnr" v="756782" />
	</node>
	<node id="-31108" lat="63.3958861084" lon="10.1770833306">
		<tag k="name" v="Hallguttumyra" />
		<tag k="natural" v="wetland" />
		<tag k="ssr:date" v="2018-01-09" />
		<tag k="ssr:stedsnr" v="812965" />
	</node>
	<node id="-33150" lat="63.4022444401" lon="10.0935833416">
		<tag k="name" v="Lausetmyra" />
		<tag k="natural" v="wetland" />
		<tag k="ssr:date" v="2018-01-09" />
		<tag k="ssr:stedsnr" v="691808" />
	</node>
	<node id="-27005" lat="63.3295750029" lon="10.2759055529">
		<tag k="name" v="Eggtrøa" />
		<tag k="place" v="locality" />
		<tag k="ssr:date" v="2018-01-09" />
		<tag k="ssr:stedsnr" v="172228" />
	</node>
	<node id="-33138" lat="63.3752722184" lon="10.1852222122">
		<tag k="name" v="Langmyra" />
		<tag k="natural" v="wetland" />
		<tag k="ssr:date" v="2018-01-09" />
		<tag k="ssr:stedsnr" v="634887" />
	</node>
	<node id="-29041" lat="63.3724444437" lon="10.4925777765">
		<tag k="name" v="Fåtengmyran" />
		<tag k="natural" v="wetland" />
		<tag k="ssr:date" v="2018-01-09" />
		<tag k="ssr:stedsnr" v="414230" />
	</node>
	<node id="-26977" lat="63.3624805522" lon="10.2789638803">
		<tag k="name" v="Heimmarka" />
		<tag k="place" v="locality" />
		<tag k="ssr:date" v="2018-01-09" />
		<tag k="ssr:stedsnr" v="813681" />
	</node>
	<node id="-26961" lat="63.4060777759" lon="10.1708944511">
		<tag k="name" v="Kalvmyra" />
		<tag k="natural" v="wetland" />
		<tag k="ssr:date" v="2018-01-09" />
		<tag k="ssr:stedsnr" v="327979" />
	</node>
	<node id="-33096" lat="63.410980553" lon="10.0932805548">
		<tag k="landuse" v="farmland" />
		<tag k="name" v="Lausetgjerdet" />
		<tag k="ssr:date" v="2018-01-09" />
		<tag k="ssr:stedsnr" v="691828" />
	</node>
	<node id="-26947" lat="63.4137166679" lon="10.2879750028">
		<tag k="name" v="Fjellsætermyran" />
		<tag k="natural" v="wetland" />
		<tag k="ssr:date" v="2018-01-09" />
		<tag k="ssr:stedsnr" v="923621" />
	</node>
	<node id="-33089" lat="63.4472055534" lon="10.2949138822">
		<tag k="name" v="Ålbumyra" />
		<tag k="natural" v="wetland" />
		<tag k="ssr:date" v="2018-01-09" />
		<tag k="ssr:stedsnr" v="28819" />
	</node>
	<node id="-28725" lat="63.3845055514" lon="10.3117777716">
		<tag k="name" v="Alfheimskogen" />
		<tag k="place" v="locality" />
		<tag k="ssr:date" v="2018-01-09" />
		<tag k="ssr:stedsnr" v="145192" />
	</node>
	<node id="-33082" lat="63.4052333341" lon="10.1461166725">
		<tag k="name" v="Høgmyra" />
		<tag k="natural" v="wetland" />
		<tag k="ssr:date" v="2018-01-09" />
		<tag k="ssr:stedsnr" v="448966" />
	</node>
	<node id="-26934" lat="63.3679666657" lon="10.1868916656">
		<tag k="name" v="Auntrøa" />
		<tag k="place" v="locality" />
		<tag k="ssr:date" v="2018-01-09" />
		<tag k="ssr:stedsnr" v="873989" />
	</node>
	<node id="-26929" lat="63.3788277783" lon="10.2857111078">
		<tag k="name" v="Ratåsstrypet" />
		<tag k="natural" v="wetland" />
		<tag k="ssr:date" v="2018-01-09" />
		<tag k="ssr:stedsnr" v="512222" />
	</node>
	<node id="-31014" lat="63.4077500037" lon="10.5146583333">
		<tag k="name" v="Teslifarmen" />
		<tag k="place" v="locality" />
		<tag k="ssr:date" v="2018-01-09" />
		<tag k="ssr:stedsnr" v="595760" />
	</node>
	<node id="-31003" lat="63.3445595838" lon="10.6231191165">
		<tag k="name" v="Bakmarka" />
		<tag k="place" v="locality" />
		<tag k="ssr:date" v="2018-02-14" />
		<tag k="ssr:stedsnr" v="40134" />
	</node>
	<node id="-26903" lat="63.4294083342" lon="10.1870555614">
		<tag k="name" v="Stiamyra" />
		<tag k="natural" v="wetland" />
		<tag k="ssr:date" v="2018-01-09" />
		<tag k="ssr:stedsnr" v="26018" />
	</node>
	<node id="-28946" lat="63.4185277789" lon="10.1698194404">
		<tag k="name" v="Raudmyra" />
		<tag k="natural" v="wetland" />
		<tag k="ssr:date" v="2018-01-09" />
		<tag k="ssr:stedsnr" v="511003" />
	</node>
	<node id="-28939" lat="63.3684888864" lon="10.292488898">
		<tag k="name" v="Bekkmyra" />
		<tag k="natural" v="wetland" />
		<tag k="ssr:date" v="2018-01-09" />
		<tag k="ssr:stedsnr" v="571102" />
	</node>
	<node id="-28938" lat="63.3763888869" lon="10.4494499968">
		<tag k="ssr:gml_id" v="GEOMETRY_467c0bf7-0215-42e1-8bd5-3db914bc6917" />
		<tag k="ssr:gml_nr" v="2" />
	</node>
	<node id="-28937" lat="63.381572223" lon="10.4853916672">
		<tag k="ssr:gml_id" v="GEOMETRY_894ba825-bf3d-4f27-bc4f-360fc5f42fbf" />
		<tag k="ssr:gml_nr" v="1" />
	</node>
	<node id="-28936" lat="63.3828138886" lon="10.4871138959">
		<tag k="ssr:gml_id" v="GEOMETRY_7f611e79-63d4-44b3-91b7-51b1f4ccf178" />
		<tag k="ssr:gml_nr" v="0" />
	</node>
	<node id="-30967" lat="63.4493416675" lon="10.2161777766">
		<tag k="name" v="Kleivahåggån" />
		<tag k="place" v="locality" />
		<tag k="ssr:date" v="2018-01-09" />
		<tag k="ssr:stedsnr" v="877589" />
	</node>
	<node id="-28917" lat="63.3874111148" lon="10.1641500082">
		<tag k="landuse" v="farmland" />
		<tag k="name" v="Lia" />
		<tag k="ssr:date" v="2018-01-09" />
		<tag k="ssr:stedsnr" v="87936" />
	</node>
	<node id="-30964" lat="63.4438222191" lon="10.2129972175">
		<tag k="landuse" v="meadow" />
		<tag k="name" v="Ormsetan" />
		<tag k="ssr:date" v="2018-01-09" />
		<tag k="ssr:stedsnr" v="815785" />
	</node>
	<node id="-28909" lat="63.3602333359" lon="10.2303638888">
		<tag k="loc_name" v="Kalvskinnmyra" />
		<tag k="name" v="Kalvkinnmyra" />
		<tag k="natural" v="wetland" />
		<tag k="ssr:date" v="2018-01-09" />
		<tag k="ssr:stedsnr" v="26326" />
	</node>
	<node id="-30953" lat="63.3583361147" lon="10.2379583302">
		<tag k="name" v="Lauvåsmyra" />
		<tag k="natural" v="wetland" />
		<tag k="ssr:date" v="2018-01-09" />
		<tag k="ssr:stedsnr" v="694260" />
	</node>
	<node id="-32999" lat="63.3543777751" lon="10.2656305555">
		<tag k="historic" v="summer_mountain_farm" />
		<tag k="landuse" v="meadow" />
		<tag k="name" v="Nytrøa" />
		<tag k="place" v="locality" />
		<tag k="ssr:date" v="2018-01-09" />
		<tag k="ssr:stedsnr" v="536239" />
	</node>
	<node id="-32997" lat="63.3760861097" lon="10.3272555643">
		<tag k="landuse" v="farmland" />
		<tag k="name" v="Søbekkbakken" />
		<tag k="ssr:date" v="2018-01-09" />
		<tag k="ssr:stedsnr" v="329015" />
	</node>
	<node id="-28898" lat="63.3595527795" lon="10.3200333304">
		<tag k="ssr:gml_id" v="GEOMETRY_afad8a2d-60a5-4c34-8ac1-d2279bd456ec" />
		<tag k="ssr:gml_nr" v="1" />
	</node>
	<node id="-28897" lat="63.3595555543" lon="10.3200361166">
		<tag k="ssr:gml_id" v="GEOMETRY_0f5cd44b-1e27-4733-b898-83066f485878" />
		<tag k="ssr:gml_nr" v="0" />
	</node>
	<node id="-32962" lat="63.4110138908" lon="10.1262416713">
		<tag k="landuse" v="farmland" />
		<tag k="name" v="Vorsethåggån" />
		<tag k="ssr:date" v="2018-01-09" />
		<tag k="ssr:stedsnr" v="448942" />
	</node>
	<node id="-30913" lat="63.3762611142" lon="10.2917777797">
		<tag k="name" v="Fålåtjønnmyra" />
		<tag k="natural" v="wetland" />
		<tag k="ssr:date" v="2018-01-09" />
		<tag k="ssr:stedsnr" v="936137" />
	</node>
	<node id="-30910" lat="63.386880556" lon="10.2795888912">
		<tag k="name" v="Frøsetmarka" />
		<tag k="place" v="locality" />
		<tag k="ssr:date" v="2018-01-09" />
		<tag k="ssr:stedsnr" v="755957" />
	</node>
	<node id="-27338" lat="63.3493000038" lon="10.5903222208">
		<tag k="ssr:gml_id" v="GEOMETRY_8c4a110e-ad67-4ffb-b2d0-3afcb4a4086c" />
		<tag k="ssr:gml_nr" v="1" />
	</node>
	<node id="-28854" lat="63.3548944446" lon="10.3783472235">
		<tag k="name" v="Sjetnmyra" />
		<tag k="natural" v="wetland" />
		<tag k="ssr:date" v="2018-01-09" />
		<tag k="ssr:stedsnr" v="499000" />
	</node>
	<node id="-30900" lat="63.4241555519" lon="10.1214388883">
		<tag k="landuse" v="farmland" />
		<tag k="name" v="Plassen" />
		<tag k="ssr:date" v="2018-01-09" />
		<tag k="ssr:stedsnr" v="266908" />
	</node>
	<node id="-32939" lat="63.3682055534" lon="10.3302916607">
		<tag k="name" v="Husbyråa" />
		<tag k="place" v="locality" />
		<tag k="ssr:date" v="2018-01-09" />
		<tag k="ssr:stedsnr" v="146014" />
	</node>
	<node id="-28840" lat="63.3927694402" lon="10.2500500073">
		<tag k="name" v="Skjellbreimarka" />
		<tag k="place" v="locality" />
		<tag k="ssr:date" v="2018-01-09" />
		<tag k="ssr:stedsnr" v="634027" />
	</node>
	<node id="-32929" lat="63.4466333311" lon="10.283858341">
		<tag k="name" v="Stormyra" />
		<tag k="natural" v="wetland" />
		<tag k="ssr:date" v="2018-01-09" />
		<tag k="ssr:stedsnr" v="634847" />
	</node>
	<node id="-32924" lat="63.4008499971" lon="10.2691194365">
		<tag k="landuse" v="farmland" />
		<tag k="name" v="Pinstidåkeren" />
		<tag k="ssr:date" v="2018-01-09" />
		<tag k="ssr:stedsnr" v="87166" />
	</node>
	<node id="-32912" lat="63.392038891" lon="10.1249722297">
		<tag k="landuse" v="farmland" />
		<tag k="name" v="Grinåkeren" />
		<tag k="ssr:date" v="2018-01-09" />
		<tag k="ssr:stedsnr" v="448923" />
	</node>
	<node id="-29720" lat="63.3761444478" lon="10.3277777833">
		<tag k="landuse" v="farmland" />
		<tag k="name" v="Brattreina" />
		<tag k="ssr:date" v="2018-01-09" />
		<tag k="ssr:stedsnr" v="208019" />
	</node>
	<node id="-32892" lat="63.4233833373" lon="10.1698361091">
		<tag k="name" v="Ryestrøa" />
		<tag k="place" v="locality" />
		<tag k="ssr:date" v="2018-01-09" />
		<tag k="ssr:stedsnr" v="329009" />
	</node>
	<node id="-30841" lat="63.3365583289" lon="10.3678638934">
		<tag k="name" v="Kvenildsmyra" />
		<tag k="natural" v="wetland" />
		<tag k="ssr:date" v="2018-01-09" />
		<tag k="ssr:stedsnr" v="778743" />
	</node>
	<node id="-28792" lat="63.3771777739" lon="10.3249249944">
		<tag k="landuse" v="farmland" />
		<tag k="name" v="Mastuekra" />
		<tag k="ssr:date" v="2018-01-09" />
		<tag k="ssr:stedsnr" v="451060" />
	</node>
	<node id="-30835" lat="63.3729111155" lon="10.2121055549">
		<tag k="historic" v="summer_mountain_farm" />
		<tag k="landuse" v="meadow" />
		<tag k="name" v="Lusvollen" />
		<tag k="place" v="locality" />
		<tag k="ssr:date" v="2018-01-09" />
		<tag k="ssr:stedsnr" v="952477" />
	</node>
	<node id="-32874" lat="63.4387722251" lon="10.1704250081">
		<tag k="name" v="Sjøtrøa" />
		<tag k="place" v="locality" />
		<tag k="ssr:date" v="2018-01-09" />
		<tag k="ssr:stedsnr" v="448929" />
	</node>
	<node id="-32873" lat="63.4463333296" lon="10.2752638894">
		<tag k="name" v="Gruva" />
		<tag k="place" v="quarry" />
		<tag k="ssr:date" v="2018-01-09" />
		<tag k="ssr:stedsnr" v="634835" />
	</node>
	<node id="-30796" lat="63.3630388872" lon="10.2483361197">
		<tag k="alt_name" v="Legda" />
		<tag k="name" v="Lægda" />
		<tag k="natural" v="wetland" />
		<tag k="ssr:date" v="2018-01-09" />
		<tag k="ssr:stedsnr" v="657328" />
	</node>
	<node id="-32839" lat="63.4197638893" lon="10.1142527763">
		<tag k="landuse" v="farmland" />
		<tag k="name" v="Skardet" />
		<tag k="ssr:date" v="2018-01-09" />
		<tag k="ssr:stedsnr" v="448915" />
	</node>
	<node id="-32836" lat="63.3742811933" lon="10.2501392723">
		<tag k="name" v="Brumyra" />
		<tag k="natural" v="wetland" />
		<tag k="ssr:date" v="2018-01-09" />
		<tag k="ssr:stedsnr" v="542147" />
	</node>
	<node id="-32832" lat="63.4187833336" lon="10.1159361081">
		<tag k="landuse" v="farmland" />
		<tag k="name" v="Hølløplassen" />
		<tag k="ssr:date" v="2018-01-09" />
		<tag k="ssr:stedsnr" v="448914" />
	</node>
	<node id="-34869" lat="63.4362916641" lon="10.2937388957">
		<tag k="name" v="Harramyra" />
		<tag k="natural" v="wetland" />
		<tag k="ssr:date" v="2018-01-09" />
		<tag k="ssr:stedsnr" v="453875" />
	</node>
	<node id="-32820" lat="63.3687666645" lon="10.2766638946">
		<tag k="name" v="Storsætermyra" />
		<tag k="natural" v="wetland" />
		<tag k="ssr:date" v="2018-01-09" />
		<tag k="ssr:stedsnr" v="693185" />
	</node>
	<node id="-28721" lat="63.3773999981" lon="10.185127783">
		<tag k="name" v="Isdammyra" />
		<tag k="natural" v="wetland" />
		<tag k="ssr:date" v="2018-01-09" />
		<tag k="ssr:stedsnr" v="938870" />
	</node>
	<node id="-34860" lat="63.3784833295" lon="10.3184833359">
		<tag k="landuse" v="farmland" />
		<tag k="name" v="Myran" />
		<tag k="ssr:date" v="2018-01-09" />
		<tag k="ssr:stedsnr" v="269004" />
	</node>
	<node id="-32802" lat="63.3922555532" lon="10.2636361092">
		<tag k="name" v="Stormyra" />
		<tag k="natural" v="wetland" />
		<tag k="ssr:date" v="2018-01-09" />
		<tag k="ssr:stedsnr" v="87143" />
	</node>
	<node id="-30748" lat="63.3298305593" lon="10.2772138806">
		<tag k="ssr:gml_id" v="GEOMETRY_1c407c85-d607-4869-b4eb-d066cf9bf173" />
		<tag k="ssr:gml_nr" v="1" />
	</node>
	<node id="-30747" lat="63.3298805524" lon="10.2779999967">
		<tag k="ssr:gml_id" v="GEOMETRY_40b1f5d0-52c0-4891-8aad-314bb9a70889" />
		<tag k="ssr:gml_nr" v="0" />
	</node>
	<node id="-34826" lat="63.3755972229" lon="10.3239916642">
		<tag k="ssr:gml_id" v="GEOMETRY_05f00afc-416b-4d6c-9c64-0c3672335f17" />
		<tag k="ssr:gml_nr" v="1" />
	</node>
	<node id="-34825" lat="63.3766749985" lon="10.3200416573">
		<tag k="ssr:gml_id" v="GEOMETRY_258a84ac-01d2-4fd5-840c-1ab1c97b2626" />
		<tag k="ssr:gml_nr" v="0" />
	</node>
	<node id="-32775" lat="63.3566972236" lon="10.2499222193">
		<tag k="name" v="Ringvålsmyra" />
		<tag k="natural" v="wetland" />
		<tag k="ssr:date" v="2018-01-09" />
		<tag k="ssr:stedsnr" v="633212" />
	</node>
	<node id="-32773" lat="63.3717611098" lon="10.6359138885">
		<tag k="name" v="Rømyra" />
		<tag k="natural" v="wetland" />
		<tag k="ssr:date" v="2018-01-09" />
		<tag k="ssr:stedsnr" v="223520" />
	</node>
	<node id="-32769" lat="63.3677222179" lon="10.2546388897">
		<tag k="name" v="Gurumyra" />
		<tag k="natural" v="wetland" />
		<tag k="ssr:date" v="2018-01-09" />
		<tag k="ssr:stedsnr" v="147331" />
	</node>
	<way id="-6267">
		<tag k="name" v="Kåttåtjønnmyra" />
		<tag k="natural" v="wetland" />
		<tag k="ssr:date" v="2018-01-09" />
		<tag k="ssr:stedsnr" v="632243" />
		<nd ref="-27743" />
		<nd ref="-27744" />
	</way>
	<way id="-7289">
		<tag k="landuse" v="meadow" />
		<tag k="name" v="Hønvaldsslåttan" />
		<tag k="ssr:date" v="2018-01-09" />
		<tag k="ssr:stedsnr" v="268936" />
		<nd ref="-34530" />
		<nd ref="-34531" />
	</way>
	<way id="-7158">
		<tag k="name" v="Våttåmyra" />
		<tag k="natural" v="wetland" />
		<tag k="ssr:date" v="2018-01-09" />
		<tag k="ssr:stedsnr" v="573485" />
		<nd ref="-33659" />
		<nd ref="-33660" />
	</way>
	<way id="-6261">
		<tag k="alt_name" v="Rørmyran" />
		<tag k="name" v="Rørmyra" />
		<tag k="natural" v="wetland" />
		<tag k="ssr:date" v="2018-01-09" />
		<tag k="ssr:stedsnr" v="14000" />
		<nd ref="-27697" />
		<nd ref="-27698" />
		<nd ref="-27699" />
	</way>
	<way id="-7144">
		<tag k="name" v="Løvåsmyra" />
		<tag k="natural" v="wetland" />
		<tag k="ssr:date" v="2018-01-09" />
		<tag k="ssr:stedsnr" v="717762" />
		<nd ref="-33581" />
		<nd ref="-33582" />
		<nd ref="-33583" />
	</way>
	<way id="-6244">
		<tag k="name" v="Digresmyra" />
		<tag k="natural" v="wetland" />
		<tag k="ssr:date" v="2018-01-09" />
		<tag k="ssr:stedsnr" v="13982" />
		<nd ref="-27577" />
		<nd ref="-27578" />
		<nd ref="-27579" />
	</way>
	<way id="-6587">
		<tag k="alt_name" v="Hangerslettmyran" />
		<tag k="name" v="Hangerslettmyra" />
		<tag k="natural" v="wetland" />
		<tag k="ssr:date" v="2018-01-09" />
		<tag k="ssr:stedsnr" v="619439" />
		<nd ref="-29840" />
		<nd ref="-29841" />
		<nd ref="-29842" />
	</way>
	<way id="-6357">
		<tag k="name" v="Høstadmyra" />
		<tag k="natural" v="wetland" />
		<tag k="ssr:date" v="2018-01-09" />
		<tag k="ssr:stedsnr" v="74397" />
		<nd ref="-28261" />
		<nd ref="-28262" />
		<nd ref="-28263" />
	</way>
	<way id="-7252">
		<tag k="name" v="Benbergtrøa" />
		<tag k="place" v="locality" />
		<tag k="ssr:date" v="2018-01-09" />
		<tag k="ssr:stedsnr" v="570644" />
		<nd ref="-34297" />
		<nd ref="-34298" />
	</way>
	<way id="-6867">
		<tag k="name" v="Klefstadmyran" />
		<tag k="natural" v="wetland" />
		<tag k="ssr:date" v="2018-01-09" />
		<tag k="ssr:stedsnr" v="28533" />
		<nd ref="-31750" />
		<nd ref="-31751" />
	</way>
	<way id="-6727">
		<tag k="landuse" v="farmland" />
		<tag k="name" v="Eggtrøa" />
		<tag k="ssr:date" v="2018-01-09" />
		<tag k="ssr:stedsnr" v="134918" />
		<nd ref="-30747" />
		<nd ref="-30748" />
	</way>
	<way id="-7238">
		<tag k="name" v="Hokmyra" />
		<tag k="natural" v="wetland" />
		<tag k="ssr:date" v="2018-01-09" />
		<tag k="ssr:stedsnr" v="256864" />
		<nd ref="-34217" />
		<nd ref="-34218" />
	</way>
	<way id="-6213">
		<tag k="historic" v="summer_mountain_farm" />
		<tag k="landuse" v="meadow" />
		<tag k="name" v="Hangervollen" />
		<tag k="place" v="locality" />
		<tag k="ssr:date" v="2018-01-09" />
		<tag k="ssr:stedsnr" v="144946" />
		<nd ref="-27390" />
		<nd ref="-27391" />
	</way>
	<way id="-7232">
		<tag k="name" v="Tuvmyra" />
		<tag k="natural" v="wetland" />
		<tag k="ssr:date" v="2018-01-09" />
		<tag k="ssr:stedsnr" v="256860" />
		<nd ref="-34171" />
		<nd ref="-34172" />
		<nd ref="-34173" />
	</way>
	<way id="-6847">
		<tag k="name" v="Småvassmyran" />
		<tag k="natural" v="wetland" />
		<tag k="ssr:date" v="2018-01-09" />
		<tag k="ssr:stedsnr" v="634594" />
		<nd ref="-31615" />
		<nd ref="-31616" />
	</way>
	<way id="-6462">
		<tag k="name" v="Strindmarka" />
		<tag k="place" v="locality" />
		<tag k="ssr:date" v="2018-01-09" />
		<tag k="ssr:stedsnr" v="203243" />
		<nd ref="-28936" />
		<nd ref="-28937" />
		<nd ref="-28938" />
	</way>
	<way id="-6204">
		<tag k="name" v="Sætermyra" />
		<tag k="natural" v="wetland" />
		<tag k="ssr:date" v="2018-01-09" />
		<tag k="ssr:stedsnr" v="13945" />
		<nd ref="-27337" />
		<nd ref="-27338" />
	</way>
	<way id="-6971">
		<tag k="alt_name" v="Skardslættmyra;Skarslættet;Skardsleitet" />
		<tag k="name" v="Skardslættet" />
		<tag k="natural" v="wetland" />
		<tag k="ssr:date" v="2018-01-09" />
		<tag k="ssr:stedsnr" v="267213" />
		<nd ref="-32389" />
		<nd ref="-32390" />
	</way>
	<way id="-6842">
		<tag k="name" v="Austlimyra" />
		<tag k="natural" v="wetland" />
		<tag k="ssr:date" v="2018-01-09" />
		<tag k="ssr:stedsnr" v="256523" />
		<nd ref="-31577" />
		<nd ref="-31578" />
		<nd ref="-31579" />
	</way>
	<way id="-6456">
		<tag k="name" v="Nordmyra" />
		<tag k="natural" v="wetland" />
		<tag k="ssr:date" v="2018-01-09" />
		<tag k="ssr:stedsnr" v="196000" />
		<nd ref="-28897" />
		<nd ref="-28898" />
	</way>
	<way id="-6711">
		<tag k="name" v="Fjellmyra" />
		<tag k="natural" v="wetland" />
		<tag k="ssr:date" v="2018-01-09" />
		<tag k="ssr:stedsnr" v="377886" />
		<nd ref="-30643" />
		<nd ref="-30644" />
		<nd ref="-30645" />
	</way>
	<way id="-7215">
		<tag k="landuse" v="meadow" />
		<tag k="name" v="Slåttet" />
		<tag k="ssr:date" v="2018-01-09" />
		<tag k="ssr:stedsnr" v="511932" />
		<nd ref="-34026" />
		<nd ref="-34027" />
	</way>
	<way id="-6315">
		<tag k="name" v="Storgrasmyra" />
		<tag k="natural" v="wetland" />
		<tag k="ssr:date" v="2018-01-09" />
		<tag k="ssr:stedsnr" v="572349" />
		<nd ref="-27989" />
		<nd ref="-27990" />
	</way>
	<way id="-6983">
		<tag k="name" v="Raudmyra" />
		<tag k="natural" v="wetland" />
		<tag k="ssr:date" v="2018-01-09" />
		<tag k="ssr:stedsnr" v="317919" />
		<nd ref="-32452" />
		<nd ref="-32453" />
		<nd ref="-32454" />
	</way>
	<way id="-6822">
		<tag k="name" v="Fåfengmyran" />
		<tag k="natural" v="wetland" />
		<tag k="ssr:date" v="2018-01-09" />
		<tag k="ssr:stedsnr" v="558533" />
		<nd ref="-31470" />
		<nd ref="-31471" />
	</way>
	<way id="-6308">
		<tag k="name" v="Tomsetmyra" />
		<tag k="natural" v="wetland" />
		<tag k="ssr:date" v="2018-01-09" />
		<tag k="ssr:stedsnr" v="718224" />
		<nd ref="-27951" />
		<nd ref="-27952" />
	</way>
	<way id="-6561">
		<tag k="name" v="Stokkmarka" />
		<tag k="natural" v="wood" />
		<tag k="ssr:date" v="2018-01-09" />
		<tag k="ssr:stedsnr" v="74576" />
		<nd ref="-29644" />
		<nd ref="-29645" />
		<nd ref="-29646" />
		<nd ref="-29647" />
		<nd ref="-29648" />
	</way>
	<way id="-7327">
		<tag k="landuse" v="farmland" />
		<tag k="name" v="Vinterledstykket" />
		<tag k="ssr:date" v="2018-01-09" />
		<tag k="ssr:stedsnr" v="815063" />
		<nd ref="-34825" />
		<nd ref="-34826" />
	</way>
	<way id="-6162">
		<tag k="name" v="Rørskogen" />
		<tag k="place" v="locality" />
		<tag k="ssr:date" v="2018-01-09" />
		<tag k="ssr:stedsnr" v="692155" />
		<nd ref="-27054" />
		<nd ref="-27055" />
	</way>
	<way id="-6665">
		<tag k="name" v="Kystadskogen" />
		<tag k="place" v="locality" />
		<tag k="ssr:date" v="2018-01-09" />
		<tag k="ssr:stedsnr" v="271272" />
		<nd ref="-30290" />
		<nd ref="-30291" />
		<nd ref="-30292" />
	</way>
</osm>
