<?xml version="1.0" encoding="UTF-8"?>
<osm generator="osmapis" version="0.6">
	<node id="-32768" lat="63.4511361148" lon="10.4477166746">
		<tag k="name" v="Moen" />
		<tag k="place" v="locality" />
		<tag k="ssr:date" v="2018-01-09" />
		<tag k="ssr:stedsnr" v="40480" />
	</node>
	<node id="-29181" lat="63.450872222" lon="10.3835249951">
		<tag k="name" v="Lavetthuset" />
		<tag k="ssr:date" v="2018-01-09" />
		<tag k="ssr:stedsnr" v="172672" />
		<tag k="tourism" v="museum" />
	</node>
	<node id="-28156" lat="63.4254833328" lon="10.4421527723">
		<tag k="amenity" v="place_of_worship" />
		<tag k="denomination" v="lutheran" />
		<tag k="name" v="Bromstad kirke" />
		<tag k="religion" v="christian" />
		<tag k="ssr:date" v="2018-01-09" />
		<tag k="ssr:stedsnr" v="239628" />
	</node>
	<node id="-32246" lat="63.3647055568" lon="10.3464666569">
		<tag k="alt_name" v="Kolstad" />
		<tag k="amenity" v="place_of_worship" />
		<tag k="denomination" v="lutheran" />
		<tag k="name" v="Kolstad kirke" />
		<tag k="religion" v="christian" />
		<tag k="ssr:date" v="2018-01-09" />
		<tag k="ssr:stedsnr" v="141349" />
	</node>
	<node id="-30195" lat="63.4085805517" lon="10.5461444365">
		<tag k="name" v="Reppesåsen" />
		<tag k="place" v="locality" />
		<tag k="ssr:date" v="2018-01-09" />
		<tag k="ssr:stedsnr" v="723304" />
	</node>
	<node id="-27634" lat="63.4260888875" lon="10.3956333361">
		<tag k="name" v="Erkebispegården" />
		<tag k="ssr:date" v="2018-01-09" />
		<tag k="ssr:stedsnr" v="536743" />
		<tag k="tourism" v="museum" />
	</node>
	<node id="-33777" lat="63.4236111067" lon="10.5408222258">
		<tag k="name" v="Ranheim" />
		<tag k="place" v="locality" />
		<tag k="ssr:date" v="2018-01-09" />
		<tag k="ssr:stedsnr" v="908438" />
	</node>
	<node id="-30824" lat="63.436905554" lon="10.4300388922">
		<tag k="ssr:gml_id" v="GEOMETRY_c9a3e33d-ddac-4f18-a572-fe4f13660c5e" />
		<tag k="ssr:gml_nr" v="1" />
	</node>
	<node id="-28642" lat="63.3472777804" lon="10.4800611184">
		<tag k="ssr:gml_id" v="GEOMETRY_b0e25f20-56aa-4605-a6a8-ea75ddf9012d" />
		<tag k="ssr:gml_nr" v="6" />
	</node>
	<node id="-32422" lat="63.4185083354" lon="10.3586861202">
		<tag k="ssr:gml_id" v="GEOMETRY_48a1baf3-2196-43a3-a533-4291546246e3" />
		<tag k="ssr:gml_nr" v="3" />
	</node>
	<node id="-30690" lat="63.4380277777" lon="10.4355083288">
		<tag k="alt_name" v="Mosaiske Trossamfunds kirkegård" />
		<tag k="cemetery" v="grave" />
		<tag k="name" v="Mosaiske kirkegård" />
		<tag k="place" v="locality" />
		<tag k="ssr:date" v="2018-01-09" />
		<tag k="ssr:stedsnr" v="778713" />
	</node>
	<node id="-28641" lat="63.3474944406" lon="10.4811666711">
		<tag k="ssr:gml_id" v="GEOMETRY_a5d239ab-2dfe-473d-92c7-29540c5d5837" />
		<tag k="ssr:gml_nr" v="5" />
	</node>
	<node id="-28640" lat="63.3474916688" lon="10.4811638906">
		<tag k="ssr:gml_id" v="GEOMETRY_37525167-b501-4f8a-9043-aa1eff6565fe" />
		<tag k="ssr:gml_nr" v="4" />
	</node>
	<node id="-28639" lat="63.3475250007" lon="10.4810305521">
		<tag k="ssr:gml_id" v="GEOMETRY_e0db39d7-31be-4a77-8c95-252874996230" />
		<tag k="ssr:gml_nr" v="3" />
	</node>
	<node id="-28638" lat="63.3474861071" lon="10.4811583287">
		<tag k="ssr:gml_id" v="GEOMETRY_d1a14781-bc34-4a47-8753-4076b609031b" />
		<tag k="ssr:gml_nr" v="2" />
	</node>
	<node id="-28637" lat="63.3474972214" lon="10.4811694521">
		<tag k="ssr:gml_id" v="GEOMETRY_ab533d58-bb1a-48f7-b53c-818fde83654c" />
		<tag k="ssr:gml_nr" v="1" />
	</node>
	<node id="-28636" lat="63.3475277815" lon="10.4810333331">
		<tag k="ssr:gml_id" v="GEOMETRY_12b62504-b9e0-4746-bfd0-beef91b714ce" />
		<tag k="ssr:gml_nr" v="0" />
	</node>
	<node id="-28634" lat="63.4471472222" lon="10.4532888914">
		<tag k="name" v="Ringve Museum" />
		<tag k="ssr:date" v="2018-01-09" />
		<tag k="ssr:stedsnr" v="415693" />
		<tag k="tourism" v="museum" />
	</node>
	<node id="-31192" lat="63.406800003" lon="10.3771138797">
		<tag k="name" v="Havstein" />
		<tag k="place" v="locality" />
		<tag k="ssr:date" v="2018-01-09" />
		<tag k="ssr:stedsnr" v="844783" />
	</node>
	<node id="-28118" lat="63.4131583369" lon="10.3851305647">
		<tag k="cemetery" v="grave" />
		<tag k="name" v="Stavne  gravlund" />
		<tag k="old_name" v="Stavne kirkegård" />
		<tag k="place" v="locality" />
		<tag k="ssr:date" v="2018-01-09" />
		<tag k="ssr:stedsnr" v="293738" />
	</node>
	<node id="-30676" lat="63.4153611096" lon="10.3900861055">
		<tag k="cemetery" v="grave" />
		<tag k="name" v="Tilfredshet gravlund" />
		<tag k="old_name" v="Tilfredshet kirkegård" />
		<tag k="place" v="locality" />
		<tag k="ssr:date" v="2018-01-09" />
		<tag k="ssr:stedsnr" v="778715" />
	</node>
	<node id="-31697" lat="63.4144361081" lon="10.451713886">
		<tag k="name" v="Austflata" />
		<tag k="place" v="locality" />
		<tag k="ssr:date" v="2018-01-09" />
		<tag k="ssr:stedsnr" v="179035" />
	</node>
	<node id="-30823" lat="63.4371000027" lon="10.430327774">
		<tag k="ssr:gml_id" v="GEOMETRY_ca8406b7-f863-43e0-b60f-abde2e3d413e" />
		<tag k="ssr:gml_nr" v="0" />
	</node>
	<node id="-34040" lat="63.4348472236" lon="10.4059416638">
		<tag k="name" v="Krigsseilermonumentet" />
		<tag k="place" v="locality" />
		<tag k="ssr:date" v="2018-01-09" />
		<tag k="ssr:stedsnr" v="239243" />
	</node>
	<node id="-30158" lat="63.3267138929" lon="10.6084499944">
		<tag k="name" v="Klumpen" />
		<tag k="place" v="locality" />
		<tag k="ssr:date" v="2018-01-09" />
		<tag k="ssr:stedsnr" v="587528" />
	</node>
	<node id="-28617" lat="63.3987333354" lon="10.3672194471">
		<tag k="name" v="Munkvoll" />
		<tag k="place" v="locality" />
		<tag k="ssr:date" v="2018-01-09" />
		<tag k="ssr:stedsnr" v="224230" />
	</node>
	<node id="-31172" lat="63.4472361115" lon="10.4266444404">
		<tag k="name" v="Ladehammeren" />
		<tag k="place" v="locality" />
		<tag k="ssr:date" v="2018-01-09" />
		<tag k="ssr:stedsnr" v="423483" />
	</node>
	<node id="-27638" lat="63.3770361089" lon="10.3534444483">
		<tag k="name" v="Flatåsen" />
		<tag k="place" v="locality" />
		<tag k="ssr:date" v="2018-01-09" />
		<tag k="ssr:stedsnr" v="709982" />
	</node>
	<node id="-33099" lat="63.4137444486" lon="10.3977972295">
		<tag k="name" v="H.M.V. 1" />
		<tag k="place" v="locality" />
		<tag k="ssr:date" v="2018-01-09" />
		<tag k="ssr:stedsnr" v="603620" />
	</node>
	<node id="-31167" lat="63.3558305555" lon="10.1158000002">
		<tag k="ssr:gml_id" v="GEOMETRY_db0050ca-439e-4914-a2c8-8c8cdd56b9a3" />
		<tag k="ssr:gml_nr" v="1" />
	</node>
	<node id="-31166" lat="63.355833329" lon="10.1158000078">
		<tag k="ssr:gml_id" v="GEOMETRY_3bd4b6d7-b5ba-49e7-837c-f8b06380d217" />
		<tag k="ssr:gml_nr" v="0" />
	</node>
	<node id="-32927" lat="63.3608166698" lon="10.370294448">
		<tag k="alt_name" v="Rosten" />
		<tag k="name" v="Rosta" />
		<tag k="place" v="locality" />
		<tag k="ssr:date" v="2018-01-09" />
		<tag k="ssr:stedsnr" v="40503" />
	</node>
	<node id="-31669" lat="63.4056333338" lon="10.4146833247">
		<tag k="name" v="Nardo Søndre" />
		<tag k="place" v="locality" />
		<tag k="ssr:date" v="2018-01-09" />
		<tag k="ssr:stedsnr" v="787796" />
	</node>
	<node id="-32179" lat="63.350575002" lon="10.3514000079">
		<tag k="amenity" v="place_of_worship" />
		<tag k="denomination" v="lutheran" />
		<tag k="name" v="Kapellet" />
		<tag k="religion" v="christian" />
		<tag k="ssr:date" v="2018-01-09" />
		<tag k="ssr:stedsnr" v="283431" />
	</node>
	<node id="-27565" lat="63.4235944474" lon="10.5087027865">
		<tag k="name" v="Overvik" />
		<tag k="place" v="locality" />
		<tag k="ssr:date" v="2018-01-09" />
		<tag k="ssr:stedsnr" v="664144" />
	</node>
	<node id="-33708" lat="63.3951888882" lon="10.3996972264">
		<tag k="name" v="Nidarvoll" />
		<tag k="place" v="locality" />
		<tag k="ssr:date" v="2018-01-09" />
		<tag k="ssr:stedsnr" v="163902" />
	</node>
	<node id="-27804" lat="63.3311222186" lon="10.4153583428">
		<tag k="name" v="Tillerås" />
		<tag k="place" v="locality" />
		<tag k="ssr:date" v="2018-01-09" />
		<tag k="ssr:stedsnr" v="787109" />
	</node>
	<node id="-28737" lat="63.4307694459" lon="10.4687750084">
		<tag k="ssr:gml_id" v="GEOMETRY_1ebe4a65-a2e6-4ba3-8fc3-ae99c74e0f72" />
		<tag k="ssr:gml_nr" v="0" />
	</node>
	<node id="-28578" lat="63.4247750016" lon="10.4570861162">
		<tag k="name" v="Brøset" />
		<tag k="place" v="locality" />
		<tag k="ssr:date" v="2018-01-09" />
		<tag k="ssr:stedsnr" v="360034" />
	</node>
	<node id="-34721" lat="63.421377774" lon="10.3955861199">
		<tag k="cemetery" v="grave" />
		<tag k="name" v="Elgeseter kirkegård" />
		<tag k="place" v="locality" />
		<tag k="ssr:date" v="2018-01-09" />
		<tag k="ssr:stedsnr" v="353746" />
	</node>
	<node id="-30111" lat="63.4272305569" lon="10.4110805652">
		<tag k="ssr:gml_id" v="GEOMETRY_6171ac0e-a182-426c-a728-d73e775e5d24" />
		<tag k="ssr:gml_nr" v="2" />
	</node>
	<node id="-30110" lat="63.426947218" lon="10.4105055537">
		<tag k="ssr:gml_id" v="GEOMETRY_514341b7-a25e-4606-97ce-4f72f48c78d1" />
		<tag k="ssr:gml_nr" v="1" />
	</node>
	<node id="-30109" lat="63.4269444448" lon="10.4105027722">
		<tag k="ssr:gml_id" v="GEOMETRY_74c0a665-c86b-4cca-a72b-fe648e34b8f5" />
		<tag k="ssr:gml_nr" v="0" />
	</node>
	<node id="-33176" lat="63.4295333297" lon="10.3948194414">
		<tag k="amenity" v="community_centre" />
		<tag k="fixme" v="multiple name tags, choose one and add the other to alt_name" />
		<tag k="name" v="Tinghuset;Trondheim tinghus" />
		<tag k="ssr:date" v="2018-01-09" />
		<tag k="ssr:stedsnr" v="845178" />
	</node>
	<node id="-32151" lat="63.4293402558" lon="10.3917195326">
		<tag k="amenity" v="community_centre" />
		<tag k="name" v="Trøndelag Teater" />
		<tag k="ssr:date" v="2018-01-09" />
		<tag k="ssr:stedsnr" v="900711" />
	</node>
	<node id="-31638" lat="63.4049055521" lon="10.3704972315">
		<tag k="name" v="Havstein kirke" />
		<tag k="place" v="locality" />
		<tag k="ssr:date" v="2018-01-09" />
		<tag k="ssr:stedsnr" v="709278" />
	</node>
	<node id="-31635" lat="63.4369083375" lon="10.3485527744">
		<tag k="name" v="Fjellstua" />
		<tag k="place" v="locality" />
		<tag k="ssr:date" v="2018-01-09" />
		<tag k="ssr:stedsnr" v="362088" />
	</node>
	<node id="-32653" lat="63.3712055573" lon="10.319430547">
		<tag k="name" v="Sørem" />
		<tag k="place" v="locality" />
		<tag k="ssr:date" v="2018-01-09" />
		<tag k="ssr:stedsnr" v="709456" />
	</node>
	<node id="-31627" lat="63.4306666652" lon="10.3769972204">
		<tag k="name" v="Kongens bastion" />
		<tag k="place" v="locality" />
		<tag k="ssr:date" v="2018-01-09" />
		<tag k="ssr:stedsnr" v="965257" />
	</node>
	<node id="-29575" lat="63.4343527754" lon="10.446547216">
		<tag k="name" v="Pineberg" />
		<tag k="place" v="locality" />
		<tag k="ssr:date" v="2018-01-09" />
		<tag k="ssr:stedsnr" v="361676" />
	</node>
	<node id="-30597" lat="63.3932000026" lon="10.6033055571">
		<tag k="name" v="Blåberga" />
		<tag k="place" v="locality" />
		<tag k="ssr:date" v="2018-01-09" />
		<tag k="ssr:stedsnr" v="952438" />
	</node>
	<node id="-29059" lat="63.425308333" lon="10.3956166698">
		<tag k="name" v="Kongens bastion" />
		<tag k="place" v="locality" />
		<tag k="ssr:date" v="2018-01-09" />
		<tag k="ssr:stedsnr" v="241286" />
	</node>
	<node id="-31614" lat="63.3742388879" lon="10.0898972189">
		<tag k="amenity" v="community_centre" />
		<tag k="name" v="Folkets hus" />
		<tag k="ssr:date" v="2018-01-09" />
		<tag k="ssr:stedsnr" v="934912" />
	</node>
	<node id="-27003" lat="63.413283333" lon="10.3551333274">
		<tag k="name" v="Valset" />
		<tag k="place" v="locality" />
		<tag k="ssr:date" v="2018-01-09" />
		<tag k="ssr:stedsnr" v="665463" />
	</node>
	<node id="-30585" lat="63.421883332" lon="10.4938666577">
		<tag k="amenity" v="place_of_worship" />
		<tag k="denomination" v="lutheran" />
		<tag k="name" v="Charlottenlund" />
		<tag k="religion" v="christian" />
		<tag k="ssr:date" v="2018-01-09" />
		<tag k="ssr:stedsnr" v="202367" />
	</node>
	<node id="-34168" lat="63.3781249986" lon="10.3868638927">
		<tag k="name" v="Østre Okstad" />
		<tag k="place" v="locality" />
		<tag k="ssr:date" v="2018-01-09" />
		<tag k="ssr:stedsnr" v="466907" />
	</node>
	<node id="-30579" lat="63.4461833289" lon="10.4376416702">
		<tag k="ssr:gml_id" v="GEOMETRY_8d9ac75a-9165-4974-85f2-578589c58030" />
		<tag k="ssr:gml_nr" v="1" />
	</node>
	<node id="-26994" lat="63.3575472207" lon="10.3371361181">
		<tag k="name" v="Lundåsen" />
		<tag k="place" v="locality" />
		<tag k="ssr:date" v="2018-01-09" />
		<tag k="ssr:stedsnr" v="708399" />
	</node>
	<node id="-32113" lat="63.4541611106" lon="10.4407083416">
		<tag k="name" v="Østmarka" />
		<tag k="place" v="locality" />
		<tag k="ssr:date" v="2018-01-09" />
		<tag k="ssr:stedsnr" v="586466" />
	</node>
	<node id="-29549" lat="63.4180888854" lon="10.3548999982">
		<tag k="amenity" v="place_of_worship" />
		<tag k="denomination" v="lutheran" />
		<tag k="name" v="Haltdalen stavkirke" />
		<tag k="religion" v="christian" />
		<tag k="ssr:date" v="2018-01-09" />
		<tag k="ssr:stedsnr" v="700703" />
	</node>
	<node id="-32620" lat="63.3841555529" lon="10.3293694383">
		<tag k="name" v="Alvheim" />
		<tag k="place" v="locality" />
		<tag k="ssr:date" v="2018-01-09" />
		<tag k="ssr:stedsnr" v="709451" />
	</node>
	<node id="-30059" lat="63.4107972266" lon="10.4008388865">
		<tag k="ssr:gml_id" v="GEOMETRY_239484e5-0dc5-4349-864b-aa51009eccde" />
		<tag k="ssr:gml_nr" v="1" />
	</node>
	<node id="-30058" lat="63.4108416628" lon="10.4006388934">
		<tag k="ssr:gml_id" v="GEOMETRY_17441293-e306-49ef-964b-d0483d0972b2" />
		<tag k="ssr:gml_nr" v="0" />
	</node>
	<node id="-30569" lat="63.4132361121" lon="10.4442611151">
		<tag k="name" v="Moholt kirke" />
		<tag k="place" v="locality" />
		<tag k="ssr:date" v="2018-01-09" />
		<tag k="ssr:stedsnr" v="847641" />
	</node>
	<node id="-26983" lat="63.4000722227" lon="10.3774722164">
		<tag k="name" v="Rognheim" />
		<tag k="place" v="locality" />
		<tag k="ssr:date" v="2018-01-09" />
		<tag k="ssr:stedsnr" v="419776" />
	</node>
	<node id="-28511" lat="63.4269166671" lon="10.3969138795">
		<tag k="ssr:gml_id" v="GEOMETRY_cd6ee55f-dfe0-45c5-9ef8-eaa806b61b16" />
		<tag k="ssr:gml_nr" v="1" />
	</node>
	<node id="-32094" lat="63.355316667" lon="10.6391361076">
		<tag k="name" v="Saga" />
		<tag k="place" v="locality" />
		<tag k="ssr:date" v="2018-01-09" />
		<tag k="ssr:stedsnr" v="465105" />
	</node>
	<node id="-32092" lat="63.413149996" lon="10.4430555621">
		<tag k="cemetery" v="grave" />
		<tag k="name" v="Moholt kirkegård" />
		<tag k="place" v="locality" />
		<tag k="ssr:date" v="2018-01-09" />
		<tag k="ssr:stedsnr" v="900727" />
	</node>
	<node id="-30551" lat="63.3933027807" lon="10.2882194372">
		<tag k="name" v="Saga" />
		<tag k="place" v="locality" />
		<tag k="ssr:date" v="2018-01-09" />
		<tag k="ssr:stedsnr" v="875940" />
	</node>
	<node id="-34133" lat="63.412638891" lon="10.3868499917">
		<tag k="cemetery" v="grave" />
		<tag k="name" v="RAF krigskirkegård" />
		<tag k="place" v="locality" />
		<tag k="ssr:date" v="2018-01-09" />
		<tag k="ssr:stedsnr" v="119309" />
	</node>
	<node id="-29011" lat="63.4210999965" lon="10.4300722152">
		<tag k="name" v="Blusuvoll" />
		<tag k="place" v="locality" />
		<tag k="ssr:date" v="2018-01-09" />
		<tag k="ssr:stedsnr" v="527379" />
	</node>
	<node id="-34365" lat="63.3922611138" lon="10.3691722288">
		<tag k="name" v="Hallset eks." />
		<tag k="place" v="locality" />
		<tag k="ssr:date" v="2018-01-09" />
		<tag k="ssr:stedsnr" v="482466" />
	</node>
	<node id="-32141" lat="63.4115222183" lon="10.3381055627">
		<tag k="name" v="Torshaug" />
		<tag k="place" v="locality" />
		<tag k="ssr:date" v="2018-01-09" />
		<tag k="ssr:stedsnr" v="726431" />
	</node>
	<node id="-26955" lat="63.4266361133" lon="10.4002111022">
		<tag k="name" v="Prins Carls bastion" />
		<tag k="place" v="locality" />
		<tag k="ssr:date" v="2018-01-09" />
		<tag k="ssr:stedsnr" v="179633" />
	</node>
	<node id="-27618" lat="63.3491361117" lon="10.3647444362">
		<tag k="amenity" v="community_centre" />
		<tag k="name" v="Heimdal samfunnshus" />
		<tag k="ssr:date" v="2018-01-09" />
		<tag k="ssr:stedsnr" v="656704" />
	</node>
	<node id="-32066" lat="63.4520500027" lon="10.4372916704">
		<tag k="name" v="Kjerringberget" />
		<tag k="place" v="locality" />
		<tag k="ssr:date" v="2018-01-09" />
		<tag k="ssr:stedsnr" v="586454" />
	</node>
	<node id="-29732" lat="63.4299388849" lon="10.3754611107">
		<tag k="ssr:gml_id" v="GEOMETRY_71e4bd7f-6213-4024-8f19-c246276abe36" />
		<tag k="ssr:gml_nr" v="1" />
	</node>
	<node id="-29504" lat="63.4091472225" lon="10.5828444383">
		<tag k="name" v="Solemsvåttan" />
		<tag k="place" v="locality" />
		<tag k="ssr:date" v="2018-01-09" />
		<tag k="ssr:stedsnr" v="966320" />
	</node>
	<node id="-31541" lat="63.3828250373" lon="10.4131645379">
		<tag k="cemetery" v="grave" />
		<tag k="name" v="Leira gravlund" />
		<tag k="place" v="locality" />
		<tag k="ssr:date" v="2018-01-09" />
		<tag k="ssr:stedsnr" v="975648" />
	</node>
	<node id="-33595" lat="63.3833777804" lon="10.4131888902">
		<tag k="amenity" v="place_of_worship" />
		<tag k="denomination" v="lutheran" />
		<tag k="name" v="Leira kapell" />
		<tag k="religion" v="christian" />
		<tag k="ssr:date" v="2018-01-09" />
		<tag k="ssr:stedsnr" v="578507" />
	</node>
	<node id="-28738" lat="63.4307666632" lon="10.4687750062">
		<tag k="ssr:gml_id" v="GEOMETRY_4355c08f-2e37-49d5-836b-9a666adba1cb" />
		<tag k="ssr:gml_nr" v="1" />
	</node>
	<node id="-29493" lat="63.4369666693" lon="10.334583332">
		<tag k="name" v="Våttakammen" />
		<tag k="place" v="locality" />
		<tag k="ssr:date" v="2018-01-09" />
		<tag k="ssr:stedsnr" v="180090" />
	</node>
	<node id="-28979" lat="63.4225388856" lon="10.3951222129">
		<tag k="amenity" v="community_centre" />
		<tag k="name" v="Studentersamfundet" />
		<tag k="ssr:date" v="2018-01-09" />
		<tag k="ssr:stedsnr" v="241275" />
	</node>
	<node id="-32561" lat="63.3606888926" lon="10.2389583371">
		<tag k="name" v="Lauglosaga" />
		<tag k="place" v="locality" />
		<tag k="ssr:date" v="2018-01-09" />
		<tag k="ssr:stedsnr" v="147290" />
	</node>
	<node id="-30504" lat="63.4289777797" lon="10.38651666">
		<tag k="name" v="Vitenskapsmuseet" />
		<tag k="old_name" v="Videnskapsmuseet" />
		<tag k="ssr:date" v="2018-01-09" />
		<tag k="ssr:stedsnr" v="783161" />
		<tag k="tourism" v="museum" />
	</node>
	<node id="-28451" lat="63.366624997" lon="10.2801666738">
		<tag k="name" v="Skardberget" />
		<tag k="place" v="locality" />
		<tag k="ssr:date" v="2018-01-09" />
		<tag k="ssr:stedsnr" v="301230" />
	</node>
	<node id="-34594" lat="63.4254277769" lon="10.5412416688">
		<tag k="name" v="Hanshaugen" />
		<tag k="place" v="locality" />
		<tag k="ssr:date" v="2018-01-09" />
		<tag k="ssr:stedsnr" v="848409" />
	</node>
	<node id="-27936" lat="63.4048499981" lon="10.4113416608">
		<tag k="alt_name" v="Sundland" />
		<tag k="name" v="Sunnland" />
		<tag k="place" v="locality" />
		<tag k="ssr:date" v="2018-01-09" />
		<tag k="ssr:stedsnr" v="362828" />
	</node>
	<node id="-33051" lat="63.4308000034" lon="10.4275083327">
		<tag k="name" v="Kuhaugen" />
		<tag k="place" v="locality" />
		<tag k="ssr:date" v="2018-01-09" />
		<tag k="ssr:stedsnr" v="239076" />
	</node>
	<node id="-27926" lat="63.4133055535" lon="10.4445249961">
		<tag k="ssr:gml_id" v="GEOMETRY_475719f1-cace-4e0c-9c9a-ef2ab4db669d" />
		<tag k="ssr:gml_nr" v="3" />
	</node>
	<node id="-27925" lat="63.4133333307" lon="10.4433250052">
		<tag k="ssr:gml_id" v="GEOMETRY_511ac511-e587-4ab1-88b8-ab3673b9ecf2" />
		<tag k="ssr:gml_nr" v="2" />
	</node>
	<node id="-27924" lat="63.4133277743" lon="10.4433250063">
		<tag k="ssr:gml_id" v="GEOMETRY_b62f0313-d63c-4920-9e59-28add994c7de" />
		<tag k="ssr:gml_nr" v="1" />
	</node>
	<node id="-29459" lat="63.4185027753" lon="10.54754167">
		<tag k="name" v="Reppe" />
		<tag k="place" v="locality" />
		<tag k="ssr:date" v="2018-01-09" />
		<tag k="ssr:stedsnr" v="238366" />
	</node>
	<node id="-29343" lat="63.4169333292" lon="10.3899194378">
		<tag k="amenity" v="place_of_worship" />
		<tag k="denomination" v="lutheran" />
		<tag k="name" v="Tilfredshet kapell" />
		<tag k="religion" v="christian" />
		<tag k="ssr:date" v="2018-01-09" />
		<tag k="ssr:stedsnr" v="535686" />
	</node>
	<node id="-28432" lat="63.336958332" lon="10.3755916706">
		<tag k="name" v="Lauvås" />
		<tag k="place" v="locality" />
		<tag k="ssr:date" v="2018-01-09" />
		<tag k="ssr:stedsnr" v="665739" />
	</node>
	<node id="-26895" lat="63.4187611102" lon="10.3558333237">
		<tag k="alt_name" v="Lo" />
		<tag k="amenity" v="place_of_worship" />
		<tag k="denomination" v="lutheran" />
		<tag k="name" v="Lo kirke" />
		<tag k="religion" v="christian" />
		<tag k="ssr:date" v="2018-01-09" />
		<tag k="ssr:stedsnr" v="943679" />
	</node>
	<node id="-29454" lat="63.42250833" lon="10.3637638967">
		<tag k="name" v="Steinberget" />
		<tag k="place" v="locality" />
		<tag k="ssr:date" v="2018-01-09" />
		<tag k="ssr:stedsnr" v="787372" />
	</node>
	<node id="-32524" lat="63.4274777791" lon="10.4104305586">
		<tag k="name" v="Kristiansten" />
		<tag k="place" v="locality" />
		<tag k="ssr:date" v="2018-01-09" />
		<tag k="ssr:stedsnr" v="951334" />
	</node>
	<node id="-30982" lat="63.3947444419" lon="10.3928305536">
		<tag k="name" v="Sluppenbanen" />
		<tag k="place" v="locality" />
		<tag k="ssr:date" v="2018-01-09" />
		<tag k="ssr:stedsnr" v="181770" />
	</node>
	<node id="-33541" lat="63.4191111086" lon="10.3671666617">
		<tag k="name" v="Sverresmyr" />
		<tag k="place" v="locality" />
		<tag k="ssr:date" v="2018-01-09" />
		<tag k="ssr:stedsnr" v="908384" />
	</node>
	<node id="-31489" lat="63.3614277774" lon="10.4052333247">
		<tag k="alt_name" v="Tiller kirke" />
		<tag k="amenity" v="place_of_worship" />
		<tag k="denomination" v="lutheran" />
		<tag k="name" v="Tiller" />
		<tag k="religion" v="christian" />
		<tag k="ssr:date" v="2018-01-09" />
		<tag k="ssr:stedsnr" v="680983" />
	</node>
	<node id="-30463" lat="63.384727781" lon="10.3703138923">
		<tag k="name" v="Selsbakk stasjon" />
		<tag k="place" v="locality" />
		<tag k="ssr:date" v="2018-01-09" />
		<tag k="ssr:stedsnr" v="892242" />
	</node>
	<node id="-30461" lat="63.4078277793" lon="10.5166861205">
		<tag k="name" v="Vikåsen" />
		<tag k="place" v="locality" />
		<tag k="ssr:date" v="2018-01-09" />
		<tag k="ssr:stedsnr" v="846134" />
	</node>
	<node id="-30460" lat="63.3976583354" lon="10.4293666606">
		<tag k="alt_name" v="Hoeggen kirke" />
		<tag k="amenity" v="place_of_worship" />
		<tag k="denomination" v="lutheran" />
		<tag k="name" v="Hoeggen" />
		<tag k="old_name" v="Hoegga" />
		<tag k="religion" v="christian" />
		<tag k="ssr:date" v="2018-01-09" />
		<tag k="ssr:stedsnr" v="202355" />
	</node>
	<node id="-29944" lat="63.3853166466" lon="10.3509306744">
		<tag k="name" v="Kystadli" />
		<tag k="place" v="locality" />
		<tag k="ssr:date" v="2018-02-14" />
		<tag k="ssr:stedsnr" v="119993" />
	</node>
	<node id="-32503" lat="63.4210444418" lon="10.3714277681">
		<tag k="name" v="Utsikten" />
		<tag k="ssr:date" v="2018-01-09" />
		<tag k="ssr:stedsnr" v="423765" />
		<tag k="tourism" v="viewpoint" />
	</node>
	<node id="-28371" lat="63.4049055521" lon="10.3704972315">
		<tag k="name" v="Havstein nye" />
		<tag k="place" v="locality" />
		<tag k="ssr:date" v="2018-01-09" />
		<tag k="ssr:stedsnr" v="527257" />
	</node>
	<node id="-31528" lat="63.4181103271" lon="10.5017037238">
		<tag k="cemetery" v="grave" />
		<tag k="name" v="Charlottenlund gravlund" />
		<tag k="place" v="locality" />
		<tag k="ssr:date" v="2018-01-09" />
		<tag k="ssr:stedsnr" v="975647" />
	</node>
	<node id="-33001" lat="63.3288472208" lon="10.4056222203">
		<tag k="name" v="Bakkgrinda" />
		<tag k="place" v="locality" />
		<tag k="ssr:date" v="2018-01-09" />
		<tag k="ssr:stedsnr" v="605066" />
	</node>
	<node id="-33505" lat="63.3902416662" lon="10.3428000058">
		<tag k="name" v="Kystad" />
		<tag k="place" v="locality" />
		<tag k="ssr:date" v="2018-01-09" />
		<tag k="ssr:stedsnr" v="180843" />
	</node>
	<node id="-33304" lat="63.3282277786" lon="10.3065388818">
		<tag k="ssr:gml_id" v="GEOMETRY_c776b41a-8687-4a7f-b65d-a96f3836eefe" />
		<tag k="ssr:gml_nr" v="1" />
	</node>
	<node id="-27866" lat="63.4314805542" lon="10.3951555533">
		<tag k="name" v="Stiftsgården" />
		<tag k="ssr:date" v="2018-01-09" />
		<tag k="ssr:stedsnr" v="233677" />
		<tag k="tourism" v="museum" />
	</node>
	<node id="-29913" lat="63.42564722" lon="10.392266663">
		<tag k="amenity" v="place_of_worship" />
		<tag k="fixme" v="specify religion=*, denomination=*, building=* etc" />
		<tag k="name" v="St. Olavs kirke" />
		<tag k="ssr:date" v="2018-01-09" />
		<tag k="ssr:stedsnr" v="475726" />
	</node>
	<node id="-31448" lat="63.4363777761" lon="10.4326777707">
		<tag k="amenity" v="community_centre" />
		<tag k="name" v="Rosendal teater" />
		<tag k="ssr:date" v="2018-01-09" />
		<tag k="ssr:stedsnr" v="180457" />
	</node>
	<node id="-32983" lat="63.4172833311" lon="10.4453277837">
		<tag k="name" v="Bukkhaug" />
		<tag k="place" v="locality" />
		<tag k="ssr:date" v="2018-01-09" />
		<tag k="ssr:stedsnr" v="603598" />
	</node>
	<node id="-31446" lat="63.399680558" lon="10.3488472216">
		<tag k="name" v="Ferstad" />
		<tag k="place" v="locality" />
		<tag k="ssr:date" v="2018-01-09" />
		<tag k="ssr:stedsnr" v="103211" />
	</node>
	<node id="-33401" lat="63.3860694417" lon="10.4526222242">
		<tag k="name" v="Kastbrekkåsen" />
		<tag k="place" v="locality" />
		<tag k="ssr:date" v="2018-01-09" />
		<tag k="ssr:stedsnr" v="180826" />
	</node>
	<node id="-28884" lat="63.4512583371" lon="10.3835416684">
		<tag k="name" v="Falkenskioldmuseet" />
		<tag k="ssr:date" v="2018-01-09" />
		<tag k="ssr:stedsnr" v="50784" />
		<tag k="tourism" v="museum" />
	</node>
	<node id="-30931" lat="63.4039527791" lon="10.367947222">
		<tag k="cemetery" v="grave" />
		<tag k="name" v="Havstein kirkegård" />
		<tag k="place" v="locality" />
		<tag k="ssr:date" v="2018-01-09" />
		<tag k="ssr:stedsnr" v="232698" />
	</node>
	<node id="-34002" lat="63.4253000018" lon="10.442666674">
		<tag k="ssr:gml_id" v="GEOMETRY_48fc5de0-cf1a-46a3-9376-88c4ccde3644" />
		<tag k="ssr:gml_nr" v="1" />
	</node>
	<node id="-34001" lat="63.4254611071" lon="10.4424722276">
		<tag k="ssr:gml_id" v="GEOMETRY_73c3f68d-049b-4cdc-8964-300d202bf003" />
		<tag k="ssr:gml_nr" v="0" />
	</node>
	<node id="-27342" lat="63.4317638901" lon="10.4325083304">
		<tag k="name" v="Klingenbergmarka" />
		<tag k="place" v="locality" />
		<tag k="ssr:date" v="2018-01-09" />
		<tag k="ssr:stedsnr" v="118050" />
	</node>
	<node id="-34822" lat="63.4284722252" lon="10.5327666602">
		<tag k="cemetery" v="grave" />
		<tag k="name" v="Ranheim kirkegård" />
		<tag k="place" v="locality" />
		<tag k="ssr:date" v="2018-01-09" />
		<tag k="ssr:stedsnr" v="665459" />
	</node>
	<node id="-33991" lat="63.4063472264" lon="10.374669451">
		<tag k="cemetery" v="grave" />
		<tag k="name" v="Havstein krigskirkegård" />
		<tag k="place" v="locality" />
		<tag k="ssr:date" v="2018-01-09" />
		<tag k="ssr:stedsnr" v="285234" />
	</node>
	<node id="-27334" lat="63.4466277793" lon="10.3381611029">
		<tag k="name" v="Høvringen" />
		<tag k="place" v="locality" />
		<tag k="ssr:date" v="2018-01-09" />
		<tag k="ssr:stedsnr" v="544063" />
	</node>
	<node id="-27842" lat="63.4257611115" lon="10.3989250068">
		<tag k="name" v="General von Hüths bastion" />
		<tag k="place" v="locality" />
		<tag k="ssr:date" v="2018-01-09" />
		<tag k="ssr:stedsnr" v="785633" />
	</node>
	<node id="-27839" lat="63.4393833349" lon="10.4391027695">
		<tag k="cemetery" v="grave" />
		<tag k="name" v="Lademoen gravlund" />
		<tag k="old_name" v="Lademoen kirkegård" />
		<tag k="place" v="locality" />
		<tag k="ssr:date" v="2018-01-09" />
		<tag k="ssr:stedsnr" v="596699" />
	</node>
	<node id="-33982" lat="63.4049250001" lon="10.3709861142">
		<tag k="ssr:gml_id" v="GEOMETRY_8439b12f-8808-4631-8321-f0943d82577d" />
		<tag k="ssr:gml_nr" v="4" />
	</node>
	<node id="-33981" lat="63.404936114" lon="10.3709972172">
		<tag k="ssr:gml_id" v="GEOMETRY_8d0fb61e-eeb0-4dc2-8346-6b612f6bdd4f" />
		<tag k="ssr:gml_nr" v="3" />
	</node>
	<node id="-33980" lat="63.4049388869" lon="10.3699583257">
		<tag k="ssr:gml_id" v="GEOMETRY_a99fcf82-eeb0-4c70-8701-242be75e7161" />
		<tag k="ssr:gml_nr" v="2" />
	</node>
	<node id="-28347" lat="63.4365722235" lon="10.391072213">
		<tag k="name" v="St. Olavs pir" />
		<tag k="place" v="locality" />
		<tag k="ssr:date" v="2018-01-09" />
		<tag k="ssr:stedsnr" v="50685" />
	</node>
	<node id="-33978" lat="63.4048750038" lon="10.3709138853">
		<tag k="ssr:gml_id" v="GEOMETRY_55ec0291-1d54-4a97-91c8-ee64fb952aa1" />
		<tag k="ssr:gml_nr" v="0" />
	</node>
	<node id="-31416" lat="63.4273333338" lon="10.3941111043">
		<tag k="name" v="Kunstforeningen" />
		<tag k="ssr:date" v="2018-01-09" />
		<tag k="ssr:stedsnr" v="604770" />
		<tag k="tourism" v="museum" />
	</node>
	<node id="-32951" lat="63.4345277736" lon="10.4056055544">
		<tag k="name" v="Sjøfartsmuseet" />
		<tag k="ssr:date" v="2018-01-09" />
		<tag k="ssr:stedsnr" v="482244" />
		<tag k="tourism" v="museum" />
	</node>
	<node id="-31926" lat="63.3974527789" lon="10.4499555595">
		<tag k="name" v="Steinåsen" />
		<tag k="place" v="locality" />
		<tag k="ssr:date" v="2018-01-09" />
		<tag k="ssr:stedsnr" v="727832" />
	</node>
	<node id="-29871" lat="63.3847555351" lon="10.3702971268">
		<tag k="name" v="Selsbakk" />
		<tag k="place" v="locality" />
		<tag k="ssr:date" v="2018-02-14" />
		<tag k="ssr:stedsnr" v="848990" />
	</node>
	<node id="-29358" lat="63.4263500043" lon="10.3410416762">
		<tag k="name" v="Fagerlia" />
		<tag k="place" v="locality" />
		<tag k="ssr:date" v="2018-01-09" />
		<tag k="ssr:stedsnr" v="969376" />
	</node>
	<node id="-28844" lat="63.3627583343" lon="10.3472555505">
		<tag k="cemetery" v="grave" />
		<tag k="name" v="Saupstad gravlund" />
		<tag k="place" v="locality" />
		<tag k="ssr:date" v="2018-01-09" />
		<tag k="ssr:stedsnr" v="343124" />
	</node>
	<node id="-30578" lat="63.4462194409" lon="10.4386444351">
		<tag k="ssr:gml_id" v="GEOMETRY_f190bf46-0645-417f-9bb4-3ff0efd35c49" />
		<tag k="ssr:gml_nr" v="0" />
	</node>
	<node id="-32859" lat="63.4295361132" lon="10.3771833235">
		<tag k="name" v="Dronningens bastion" />
		<tag k="place" v="locality" />
		<tag k="ssr:date" v="2018-01-09" />
		<tag k="ssr:stedsnr" v="662175" />
	</node>
	<node id="-32934" lat="63.3615638921" lon="10.4050194433">
		<tag k="name" v="Tiller kirke" />
		<tag k="place" v="locality" />
		<tag k="ssr:date" v="2018-01-09" />
		<tag k="ssr:stedsnr" v="848112" />
	</node>
	<node id="-32421" lat="63.4199027797" lon="10.3632583371">
		<tag k="ssr:gml_id" v="GEOMETRY_0e1e0909-2745-4681-aa0f-99fcab032173" />
		<tag k="ssr:gml_nr" v="2" />
	</node>
	<node id="-32420" lat="63.4196138896" lon="10.3566944527">
		<tag k="ssr:gml_id" v="GEOMETRY_c1cf1845-1b3a-4f75-870d-1bcfb02ec01f" />
		<tag k="ssr:gml_nr" v="1" />
	</node>
	<node id="-32419" lat="63.4205250026" lon="10.3573388959">
		<tag k="ssr:gml_id" v="GEOMETRY_ae999f0a-de74-4625-984a-2f0af1fb45eb" />
		<tag k="ssr:gml_nr" v="0" />
	</node>
	<node id="-33954" lat="63.4259361153" lon="10.3928416751">
		<tag k="amenity" v="place_of_worship" />
		<tag k="fixme" v="specify religion=*, denomination=*, building=* etc" />
		<tag k="name" v="Baptistkirken" />
		<tag k="ssr:date" v="2018-01-09" />
		<tag k="ssr:stedsnr" v="119273" />
	</node>
	<node id="-26907" lat="63.4315583362" lon="10.2132194465">
		<tag k="name" v="Gammelsaga" />
		<tag k="place" v="locality" />
		<tag k="ssr:date" v="2018-01-09" />
		<tag k="ssr:stedsnr" v="816741" />
	</node>
	<node id="-33951" lat="63.4262722184" lon="10.3925972291">
		<tag k="amenity" v="place_of_worship" />
		<tag k="fixme" v="specify religion=*, denomination=*, building=* etc" />
		<tag k="name" v="Misjonskirken" />
		<tag k="ssr:date" v="2018-01-09" />
		<tag k="ssr:stedsnr" v="726763" />
	</node>
	<node id="-31388" lat="63.4392083299" lon="10.4349249949">
		<tag k="alt_name" v="Lademoen" />
		<tag k="amenity" v="place_of_worship" />
		<tag k="denomination" v="lutheran" />
		<tag k="name" v="Lademoen kapell" />
		<tag k="old_name" v="Lademoen krematorium" />
		<tag k="religion" v="christian" />
		<tag k="ssr:date" v="2018-01-09" />
		<tag k="ssr:stedsnr" v="93477" />
	</node>
	<node id="-27803" lat="63.4266111073" lon="10.4001888811">
		<tag k="name" v="Prins Carls bastion" />
		<tag k="ssr:date" v="2018-01-09" />
		<tag k="ssr:stedsnr" v="719726" />
		<tag k="tourism" v="museum" />
	</node>
	<node id="-28835" lat="63.4070833329" lon="10.3774499917">
		<tag k="name" v="Havstein" />
		<tag k="place" v="locality" />
		<tag k="ssr:date" v="2018-01-09" />
		<tag k="ssr:stedsnr" v="787285" />
	</node>
	<node id="-27800" lat="63.4249777786" lon="10.3944777797">
		<tag k="name" v="St. Olavs kilde" />
		<tag k="ssr:date" v="2018-01-09" />
		<tag k="ssr:stedsnr" v="908798" />
		<tag k="tourism" v="attraction" />
	</node>
	<node id="-31382" lat="63.4298333334" lon="10.535644442">
		<tag k="alt_name" v="Ranheim" />
		<tag k="amenity" v="place_of_worship" />
		<tag k="denomination" v="lutheran" />
		<tag k="name" v="Ranheim kirke" />
		<tag k="old_name" v="Raneim" />
		<tag k="religion" v="christian" />
		<tag k="ssr:date" v="2018-01-09" />
		<tag k="ssr:stedsnr" v="396835" />
	</node>
	<node id="-31378" lat="63.4262027813" lon="10.3930944416">
		<tag k="amenity" v="community_centre" />
		<tag k="name" v="Det mosaiske trossamfunn" />
		<tag k="ssr:date" v="2018-01-09" />
		<tag k="ssr:stedsnr" v="787737" />
	</node>
	<node id="-33937" lat="63.4262027813" lon="10.3930944416">
		<tag k="amenity" v="community_centre" />
		<tag k="name" v="Frelsesarmeen" />
		<tag k="ssr:date" v="2018-01-09" />
		<tag k="ssr:stedsnr" v="726757" />
	</node>
	<node id="-30232" lat="63.4089444463" lon="10.4310888914">
		<tag k="name" v="Moholt" />
		<tag k="place" v="locality" />
		<tag k="ssr:date" v="2018-01-09" />
		<tag k="ssr:stedsnr" v="603295" />
	</node>
	<node id="-28814" lat="63.4042722249" lon="10.3501833373">
		<tag k="name" v="Storhaugen" />
		<tag k="place" v="locality" />
		<tag k="ssr:date" v="2018-01-09" />
		<tag k="ssr:stedsnr" v="224257" />
	</node>
	<node id="-28812" lat="63.347450003" lon="10.3757333419">
		<tag k="alt_name" v="Sjetnemyra" />
		<tag k="name" v="Sjetnmyra" />
		<tag k="place" v="locality" />
		<tag k="ssr:date" v="2018-01-09" />
		<tag k="ssr:stedsnr" v="890508" />
	</node>
	<node id="-33303" lat="63.3280250014" lon="10.3066333309">
		<tag k="ssr:gml_id" v="GEOMETRY_4cb37ae6-25a3-4292-b7d9-51e644b2e558" />
		<tag k="ssr:gml_nr" v="0" />
	</node>
	<node id="-30060" lat="63.4108305512" lon="10.4006277767">
		<tag k="ssr:gml_id" v="GEOMETRY_84d8f91a-1365-4b5a-9aeb-5ef2ad012ecd" />
		<tag k="ssr:gml_nr" v="2" />
	</node>
	<node id="-30850" lat="63.4257750008" lon="10.3984833392">
		<tag k="name" v="General von Huths bastion" />
		<tag k="ssr:date" v="2018-01-09" />
		<tag k="ssr:stedsnr" v="232688" />
		<tag k="tourism" v="museum" />
	</node>
	<node id="-30911" lat="63.3248916625" lon="10.2665527679">
		<tag k="cemetery" v="grave" />
		<tag k="name" v="Serbisk krigskirkegård" />
		<tag k="place" v="locality" />
		<tag k="ssr:date" v="2018-01-09" />
		<tag k="ssr:stedsnr" v="657348" />
	</node>
	<node id="-28277" lat="63.3998638917" lon="10.4483750077">
		<tag k="name" v="Steinan" />
		<tag k="place" v="locality" />
		<tag k="ssr:date" v="2018-01-09" />
		<tag k="ssr:stedsnr" v="907433" />
	</node>
	<node id="-27923" lat="63.4131194412" lon="10.4443361053">
		<tag k="ssr:gml_id" v="GEOMETRY_0df7a2aa-13c2-41f6-b33a-a5154de6e1d4" />
		<tag k="ssr:gml_nr" v="0" />
	</node>
	<node id="-27759" lat="63.4516361098" lon="10.4602555497">
		<tag k="name" v="Solstrand" />
		<tag k="place" v="locality" />
		<tag k="ssr:date" v="2018-01-09" />
		<tag k="ssr:stedsnr" v="404434" />
	</node>
	<node id="-32877" lat="63.3896027771" lon="10.491266673">
		<tag k="ssr:gml_id" v="GEOMETRY_8dd22af4-f542-4a0d-bed4-a0c8b08dae9c" />
		<tag k="ssr:gml_nr" v="1" />
	</node>
	<node id="-32876" lat="63.3894611081" lon="10.4945416658">
		<tag k="ssr:gml_id" v="GEOMETRY_44301523-3f17-47fe-9869-246f1f772cd6" />
		<tag k="ssr:gml_nr" v="0" />
	</node>
	<node id="-34409" lat="63.4091833336" lon="10.4842333249">
		<tag k="name" v="Stokkan" />
		<tag k="place" v="locality" />
		<tag k="ssr:date" v="2018-01-09" />
		<tag k="ssr:stedsnr" v="421159" />
	</node>
	<node id="-31336" lat="63.4337777753" lon="10.4032250075">
		<tag k="amenity" v="community_centre" />
		<tag k="name" v="Olavskvartalet" />
		<tag k="ssr:date" v="2018-01-09" />
		<tag k="ssr:stedsnr" v="960676" />
	</node>
	<node id="-27239" lat="63.3640083293" lon="10.345213893">
		<tag k="name" v="Saupstad" />
		<tag k="place" v="locality" />
		<tag k="ssr:date" v="2018-01-09" />
		<tag k="ssr:stedsnr" v="785512" />
	</node>
	<node id="-33894" lat="63.432819442" lon="10.4104527759">
		<tag k="ssr:gml_id" v="GEOMETRY_ae0618ee-52cd-4603-b954-fdfcfd5ae7e7" />
		<tag k="ssr:gml_nr" v="0" />
	</node>
	<node id="-31331" lat="63.4300888927" lon="10.3997361045">
		<tag k="amenity" v="community_centre" />
		<tag k="name" v="Frimurerlogen" />
		<tag k="ssr:date" v="2018-01-09" />
		<tag k="ssr:stedsnr" v="960678" />
	</node>
	<node id="-33979" lat="63.404875004" lon="10.3709166686">
		<tag k="ssr:gml_id" v="GEOMETRY_cf9895fd-40e5-4882-9808-4f37c92dafdf" />
		<tag k="ssr:gml_nr" v="1" />
	</node>
	<node id="-27229" lat="63.4301777764" lon="10.3977777724">
		<tag k="alt_name" v="Vår Frue" />
		<tag k="amenity" v="place_of_worship" />
		<tag k="denomination" v="lutheran" />
		<tag k="name" v="Vår Frue kirke" />
		<tag k="religion" v="christian" />
		<tag k="ssr:date" v="2018-01-09" />
		<tag k="ssr:stedsnr" v="262260" />
	</node>
	<node id="-29882" lat="63.4208364643" lon="10.1433942247">
		<tag k="amenity" v="place_of_worship" />
		<tag k="fixme" v="specify religion=*, denomination=*, building=* etc" />
		<tag k="name" v="Rye kapell" />
		<tag k="ssr:date" v="2018-02-15" />
		<tag k="ssr:stedsnr" v="283006" />
	</node>
	<node id="-31316" lat="63.433122226" lon="10.4878777704">
		<tag k="name" v="St. Hanshaugen" />
		<tag k="place" v="locality" />
		<tag k="ssr:date" v="2018-01-09" />
		<tag k="ssr:stedsnr" v="180412" />
	</node>
	<node id="-32014" lat="63.4304444415" lon="10.3843027812">
		<tag k="alt_name" v="Hospitalskirken" />
		<tag k="amenity" v="place_of_worship" />
		<tag k="denomination" v="lutheran" />
		<tag k="name" v="Hospitalskirka" />
		<tag k="old_name" v="Hospitalets kirke" />
		<tag k="religion" v="christian" />
		<tag k="ssr:date" v="2018-01-09" />
		<tag k="ssr:stedsnr" v="93612" />
	</node>
	<node id="-33872" lat="63.381499997" lon="10.3625777706">
		<tag k="ssr:gml_id" v="GEOMETRY_1dba4e70-61fa-4817-bb39-13485103662d" />
		<tag k="ssr:gml_nr" v="1" />
	</node>
	<node id="-33871" lat="63.3847277779" lon="10.3693333265">
		<tag k="ssr:gml_id" v="GEOMETRY_df01edeb-e9a2-4865-b131-e65555f42ac1" />
		<tag k="ssr:gml_nr" v="0" />
	</node>
	<node id="-33870" lat="63.4272555569" lon="10.5223027844">
		<tag k="amenity" v="community_centre" />
		<tag k="name" v="Folkets hus" />
		<tag k="ssr:date" v="2018-01-09" />
		<tag k="ssr:stedsnr" v="967149" />
	</node>
	<node id="-28748" lat="63.4217472182" lon="10.3926583366">
		<tag k="amenity" v="place_of_worship" />
		<tag k="fixme" v="specify religion=*, denomination=*, building=* etc" />
		<tag k="name" v="Jesu Kristi kirke" />
		<tag k="ssr:date" v="2018-01-09" />
		<tag k="ssr:stedsnr" v="604298" />
	</node>
	<node id="-30795" lat="63.4173444431" lon="10.3985333287">
		<tag k="amenity" v="place_of_worship" />
		<tag k="denomination" v="lutheran" />
		<tag k="name" v="Døvekirken" />
		<tag k="religion" v="christian" />
		<tag k="ssr:date" v="2018-01-09" />
		<tag k="ssr:stedsnr" v="882622" />
	</node>
	<node id="-31811" lat="63.3928277764" lon="10.3690583237">
		<tag k="ssr:gml_id" v="GEOMETRY_417d9ebb-2d1e-46a0-8eb6-535fe16d17a4" />
		<tag k="ssr:gml_nr" v="2" />
	</node>
	<node id="-31810" lat="63.3925361078" lon="10.3696250003">
		<tag k="ssr:gml_id" v="GEOMETRY_3a39a3cd-e80c-4ab3-b9ad-2c452bb45453" />
		<tag k="ssr:gml_nr" v="1" />
	</node>
	<node id="-31809" lat="63.3925333341" lon="10.3696250082">
		<tag k="ssr:gml_id" v="GEOMETRY_4174dc58-3ad5-4e4c-8500-ba6e3a0e3f74" />
		<tag k="ssr:gml_nr" v="0" />
	</node>
	<node id="-28051" lat="63.3524111088" lon="10.4009944516">
		<tag k="name" v="Hårstad" />
		<tag k="place" v="locality" />
		<tag k="ssr:date" v="2018-01-09" />
		<tag k="ssr:stedsnr" v="241104" />
	</node>
	<node id="-33384" lat="63.4037888927" lon="10.4376194405">
		<tag k="name" v="Steindal" />
		<tag k="place" v="locality" />
		<tag k="ssr:date" v="2018-01-09" />
		<tag k="ssr:stedsnr" v="180818" />
	</node>
	<node id="-32181" lat="63.3883888928" lon="10.3938444511">
		<tag k="name" v="Reitansvingen" />
		<tag k="place" v="locality" />
		<tag k="ssr:date" v="2018-01-09" />
		<tag k="ssr:stedsnr" v="969752" />
	</node>
	<node id="-28510" lat="63.4269277796" lon="10.3969166649">
		<tag k="ssr:gml_id" v="GEOMETRY_4ac82129-104e-4a45-98dc-2e19b63f6a9d" />
		<tag k="ssr:gml_nr" v="0" />
	</node>
	<node id="-28083" lat="63.3438555582" lon="10.4248361067">
		<tag k="name" v="Tillerflata" />
		<tag k="place" v="locality" />
		<tag k="ssr:date" v="2018-01-09" />
		<tag k="ssr:stedsnr" v="241111" />
	</node>
	<node id="-33895" lat="63.4327027816" lon="10.4103666663">
		<tag k="ssr:gml_id" v="GEOMETRY_6c036123-da23-4eb5-82db-71491d4f90e3" />
		<tag k="ssr:gml_nr" v="1" />
	</node>
	<node id="-34397" lat="63.4053750013" lon="10.3351166695">
		<tag k="name" v="Kyvannet" />
		<tag k="place" v="locality" />
		<tag k="ssr:date" v="2018-01-09" />
		<tag k="ssr:stedsnr" v="42226" />
	</node>
	<node id="-27178" lat="63.36643889" lon="10.3386472316">
		<tag k="name" v="Huseby" />
		<tag k="place" v="locality" />
		<tag k="ssr:date" v="2018-01-09" />
		<tag k="ssr:stedsnr" v="725482" />
	</node>
	<node id="-27689" lat="63.4396722218" lon="10.2910638979">
		<tag k="name" v="Friskjøtten" />
		<tag k="place" v="locality" />
		<tag k="ssr:date" v="2018-01-09" />
		<tag k="ssr:stedsnr" v="513897" />
	</node>
	<node id="-30248" lat="63.4194666704" lon="10.4016833329">
		<tag k="name" v="Vestre tårn" />
		<tag k="old_name" v="NTH vestre tårn" />
		<tag k="place" v="locality" />
		<tag k="ssr:date" v="2018-01-09" />
		<tag k="ssr:stedsnr" v="664623" />
	</node>
	<node id="-31580" lat="63.4393055563" lon="10.4344083338">
		<tag k="amenity" v="place_of_worship" />
		<tag k="fixme" v="specify religion=*, denomination=*, building=* etc" />
		<tag k="name" v="Lademoen krematorium" />
		<tag k="ssr:date" v="2018-01-09" />
		<tag k="ssr:stedsnr" v="414714" />
	</node>
	<node id="-34852" lat="63.3503305514" lon="10.3516083328">
		<tag k="alt_name" v="Heimdal" />
		<tag k="amenity" v="place_of_worship" />
		<tag k="denomination" v="lutheran" />
		<tag k="name" v="Heimdal kirke" />
		<tag k="old_name" v="Kapellet" />
		<tag k="religion" v="christian" />
		<tag k="ssr:date" v="2018-01-09" />
		<tag k="ssr:stedsnr" v="275663" />
	</node>
	<node id="-29731" lat="63.4298944444" lon="10.3763388814">
		<tag k="ssr:gml_id" v="GEOMETRY_4973e119-1d7c-4dbc-a65a-170b8aaae67b" />
		<tag k="ssr:gml_nr" v="0" />
	</node>
	<node id="-30242" lat="63.442066664" lon="10.3468083263">
		<tag k="name" v="Bellevue" />
		<tag k="place" v="locality" />
		<tag k="ssr:date" v="2018-01-09" />
		<tag k="ssr:stedsnr" v="666070" />
	</node>
	<node id="-29729" lat="63.4537000003" lon="10.4567527857">
		<tag k="name" v="Spannet" />
		<tag k="place" v="locality" />
		<tag k="ssr:date" v="2018-01-09" />
		<tag k="ssr:stedsnr" v="647480" />
	</node>
	<node id="-34844" lat="63.4303257513" lon="10.3580452633">
		<tag k="cemetery" v="grave" />
		<tag k="name" v="Ila gravlund" />
		<tag k="old_name" v="Ila kirkegård" />
		<tag k="place" v="locality" />
		<tag k="ssr:date" v="2018-01-09" />
		<tag k="ssr:stedsnr" v="484032" />
	</node>
	<node id="-34843" lat="63.403208335" lon="10.3846111149">
		<tag k="alt_name" v="Hoem Søndre" />
		<tag k="name" v="Søndre Hoem" />
		<tag k="place" v="locality" />
		<tag k="ssr:date" v="2018-01-09" />
		<tag k="ssr:stedsnr" v="785433" />
	</node>
	<node id="-33305" lat="63.3280750032" lon="10.3066916736">
		<tag k="ssr:gml_id" v="GEOMETRY_0c593d05-79de-4b59-b7f9-9aaca009e6b8" />
		<tag k="ssr:gml_nr" v="2" />
	</node>
	<node id="-34840" lat="63.3396833338" lon="10.3354472318">
		<tag k="name" v="Kattem" />
		<tag k="place" v="locality" />
		<tag k="ssr:date" v="2018-01-09" />
		<tag k="ssr:stedsnr" v="951750" />
	</node>
	<node id="-29719" lat="63.4525944483" lon="10.4474083332">
		<tag k="name" v="Spannet II" />
		<tag k="place" v="locality" />
		<tag k="ssr:date" v="2018-01-09" />
		<tag k="ssr:stedsnr" v="830468" />
	</node>
	<node id="-32788" lat="63.3549166641" lon="10.1587388945">
		<tag k="amenity" v="community_centre" />
		<tag k="name" v="Folkvang" />
		<tag k="ssr:date" v="2018-01-09" />
		<tag k="ssr:stedsnr" v="438468" />
	</node>
	<node id="-33809" lat="63.4062083332" lon="10.3011944434">
		<tag k="name" v="Solemåsen" />
		<tag k="place" v="locality" />
		<tag k="ssr:date" v="2018-01-09" />
		<tag k="ssr:stedsnr" v="829804" />
	</node>
	<node id="-34733" lat="63.3497361086" lon="10.3527416571">
		<tag k="amenity" v="community_centre" />
		<tag k="name" v="Sanitetens hus" />
		<tag k="ssr:date" v="2018-01-09" />
		<tag k="ssr:stedsnr" v="768457" />
	</node>
	<node id="-33803" lat="63.4191583322" lon="10.1465999984">
		<tag k="ssr:gml_id" v="GEOMETRY_3027bd03-264d-41a0-9426-2ab1098cac50" />
		<tag k="ssr:gml_nr" v="2" />
	</node>
	<node id="-33802" lat="63.4191611147" lon="10.1466000094">
		<tag k="ssr:gml_id" v="GEOMETRY_a4617749-b06e-4b17-9535-6879c2419db5" />
		<tag k="ssr:gml_nr" v="1" />
	</node>
	<node id="-33801" lat="63.4191638883" lon="10.1466">
		<tag k="ssr:gml_id" v="GEOMETRY_6055e77d-87bd-4ba6-817c-14b3b84f4e9c" />
		<tag k="ssr:gml_nr" v="0" />
	</node>
	<node id="-29702" lat="63.4226027814" lon="10.4250777863">
		<tag k="amenity" v="place_of_worship" />
		<tag k="denomination" v="lutheran" />
		<tag k="name" v="Berg" />
		<tag k="old_name" v="Berg arbeidskirke" />
		<tag k="religion" v="christian" />
		<tag k="ssr:date" v="2018-01-09" />
		<tag k="ssr:stedsnr" v="760684" />
	</node>
	<node id="-28847" lat="63.4168083356" lon="10.2765361139">
		<tag k="amenity" v="place_of_worship" />
		<tag k="denomination" v="lutheran" />
		<tag k="name" v="Fjellseter kapell" />
		<tag k="religion" v="christian" />
		<tag k="ssr:date" v="2018-01-09" />
		<tag k="ssr:stedsnr" v="700572" />
	</node>
	<way id="-6784">
		<tag k="alt_name" v="Byneset" />
		<tag k="amenity" v="place_of_worship" />
		<tag k="denomination" v="lutheran" />
		<tag k="name" v="Byneset kirke" />
		<tag k="religion" v="christian" />
		<tag k="ssr:date" v="2018-01-09" />
		<tag k="ssr:stedsnr" v="390151" />
		<nd ref="-31166" />
		<nd ref="-31167" />
	</way>
	<way id="-7199">
		<tag k="alt_name" v="Bakke" />
		<tag k="amenity" v="place_of_worship" />
		<tag k="denomination" v="lutheran" />
		<tag k="name" v="Bakke kirke" />
		<tag k="religion" v="christian" />
		<tag k="ssr:date" v="2018-01-09" />
		<tag k="ssr:stedsnr" v="335707" />
		<nd ref="-33894" />
		<nd ref="-33895" />
	</way>
	<way id="-6304">
		<tag k="alt_name" v="Strinda;Strinda hovedkirke" />
		<tag k="amenity" v="place_of_worship" />
		<tag k="denomination" v="lutheran" />
		<tag k="name" v="Strinda kirke" />
		<tag k="old_name" v="Moholt" />
		<tag k="religion" v="christian" />
		<tag k="ssr:date" v="2018-01-09" />
		<tag k="ssr:stedsnr" v="681602" />
		<nd ref="-27923" />
		<nd ref="-27924" />
		<nd ref="-27925" />
		<nd ref="-27926" />
	</way>
	<way id="-7194">
		<tag k="name" v="Buenget" />
		<tag k="place" v="locality" />
		<tag k="ssr:date" v="2018-01-09" />
		<tag k="ssr:stedsnr" v="423995" />
		<nd ref="-33871" />
		<nd ref="-33872" />
	</way>
	<way id="-6399">
		<tag k="alt_name" v="Domkirken;Nidarosdomen" />
		<tag k="amenity" v="place_of_worship" />
		<tag k="denomination" v="lutheran" />
		<tag k="name" v="Nidaros domkirke" />
		<tag k="religion" v="christian" />
		<tag k="ssr:date" v="2018-01-09" />
		<tag k="ssr:stedsnr" v="377631" />
		<nd ref="-28510" />
		<nd ref="-28511" />
	</way>
	<way id="-6738">
		<tag k="alt_name" v="Lademoen" />
		<tag k="amenity" v="place_of_worship" />
		<tag k="denomination" v="lutheran" />
		<tag k="name" v="Lademoen kirke" />
		<tag k="religion" v="christian" />
		<tag k="ssr:date" v="2018-01-09" />
		<tag k="ssr:stedsnr" v="882605" />
		<nd ref="-30823" />
		<nd ref="-30824" />
	</way>
	<way id="-7186">
		<tag k="amenity" v="community_centre" />
		<tag k="name" v="Vonheim" />
		<tag k="ssr:date" v="2018-01-09" />
		<tag k="ssr:stedsnr" v="326069" />
		<nd ref="-33801" />
		<nd ref="-33802" />
		<nd ref="-33803" />
	</way>
	<way id="-6703">
		<tag k="alt_name" v="Lade" />
		<tag k="amenity" v="place_of_worship" />
		<tag k="denomination" v="lutheran" />
		<tag k="name" v="Lade kirke" />
		<tag k="religion" v="christian" />
		<tag k="ssr:date" v="2018-01-09" />
		<tag k="ssr:stedsnr" v="396655" />
		<nd ref="-30578" />
		<nd ref="-30579" />
	</way>
	<way id="-7212">
		<tag k="alt_name" v="Strindheim" />
		<tag k="amenity" v="place_of_worship" />
		<tag k="denomination" v="lutheran" />
		<tag k="name" v="Strindheim kirke" />
		<tag k="old_name" v="Bromstad" />
		<tag k="religion" v="christian" />
		<tag k="ssr:date" v="2018-01-09" />
		<tag k="ssr:stedsnr" v="323367" />
		<nd ref="-34001" />
		<nd ref="-34002" />
	</way>
	<way id="-6418">
		<tag k="alt_name" v="Bratsberg" />
		<tag k="amenity" v="place_of_worship" />
		<tag k="denomination" v="lutheran" />
		<tag k="name" v="Bratsberg kirke" />
		<tag k="old_name" v="Brattsberg" />
		<tag k="religion" v="christian" />
		<tag k="ssr:date" v="2018-01-09" />
		<tag k="ssr:stedsnr" v="438965" />
		<nd ref="-28636" />
		<nd ref="-28637" />
		<nd ref="-28638" />
		<nd ref="-28639" />
		<nd ref="-28640" />
		<nd ref="-28641" />
		<nd ref="-28642" />
	</way>
	<way id="-7209">
		<tag k="alt_name" v="Havstein" />
		<tag k="amenity" v="place_of_worship" />
		<tag k="denomination" v="lutheran" />
		<tag k="name" v="Havstein kirke" />
		<tag k="old_name" v="Byåsen" />
		<tag k="religion" v="christian" />
		<tag k="ssr:date" v="2018-01-09" />
		<tag k="ssr:stedsnr" v="498610" />
		<nd ref="-33978" />
		<nd ref="-33979" />
		<nd ref="-33980" />
		<nd ref="-33981" />
		<nd ref="-33982" />
	</way>
	<way id="-6632">
		<tag k="alt_name" v="Kristiansten festning" />
		<tag k="name" v="Kristiansten" />
		<tag k="ssr:date" v="2018-01-09" />
		<tag k="ssr:stedsnr" v="74635" />
		<tag k="tourism" v="attraction" />
		<nd ref="-30109" />
		<nd ref="-30110" />
		<nd ref="-30111" />
	</way>
	<way id="-6572">
		<tag k="alt_name" v="Ila;Ilen;Ila kirke" />
		<tag k="amenity" v="place_of_worship" />
		<tag k="denomination" v="lutheran" />
		<tag k="name" v="Ilen kirke" />
		<tag k="religion" v="christian" />
		<tag k="ssr:date" v="2018-01-09" />
		<tag k="ssr:stedsnr" v="760685" />
		<nd ref="-29731" />
		<nd ref="-29732" />
	</way>
	<way id="-6626">
		<tag k="amenity" v="place_of_worship" />
		<tag k="denomination" v="lutheran" />
		<tag k="name" v="Tempe" />
		<tag k="old_name" v="Tempe og Valene småkirke" />
		<tag k="religion" v="christian" />
		<tag k="ssr:date" v="2018-01-09" />
		<tag k="ssr:stedsnr" v="505367" />
		<nd ref="-30058" />
		<nd ref="-30059" />
		<nd ref="-30060" />
	</way>
	<way id="-7045">
		<tag k="name" v="Månen" />
		<tag k="place" v="locality" />
		<tag k="ssr:date" v="2018-01-09" />
		<tag k="ssr:stedsnr" v="646630" />
		<nd ref="-32876" />
		<nd ref="-32877" />
	</way>
	<way id="-7108">
		<tag k="alt_name" v="Leinstrand" />
		<tag k="amenity" v="place_of_worship" />
		<tag k="denomination" v="lutheran" />
		<tag k="name" v="Leinstrand kirke" />
		<tag k="religion" v="christian" />
		<tag k="ssr:date" v="2018-01-09" />
		<tag k="ssr:stedsnr" v="619923" />
		<nd ref="-33303" />
		<nd ref="-33304" />
		<nd ref="-33305" />
	</way>
	<way id="-6432">
		<tag k="name" v="Leangen Travbane" />
		<tag k="old_name" v="Trøndelag Traverbane" />
		<tag k="place" v="locality" />
		<tag k="ssr:date" v="2018-01-09" />
		<tag k="ssr:stedsnr" v="457697" />
		<nd ref="-28737" />
		<nd ref="-28738" />
	</way>
	<way id="-6882">
		<tag k="amenity" v="place_of_worship" />
		<tag k="denomination" v="lutheran" />
		<tag k="name" v="Byåsen" />
		<tag k="old_name" v="Hallset;Hallset kirke" />
		<tag k="religion" v="christian" />
		<tag k="ssr:date" v="2018-01-09" />
		<tag k="ssr:stedsnr" v="256554" />
		<nd ref="-31809" />
		<nd ref="-31810" />
		<nd ref="-31811" />
	</way>
	<way id="-6977">
		<tag k="alt_name" v="Folkemuseet for Trondheim og Trøndelag;Sverresborg" />
		<tag k="name" v="Trøndelag Folkemuseum" />
		<tag k="ssr:date" v="2018-01-09" />
		<tag k="ssr:stedsnr" v="840657" />
		<tag k="tourism" v="museum" />
		<nd ref="-32419" />
		<nd ref="-32420" />
		<nd ref="-32421" />
		<nd ref="-32422" />
	</way>
</osm>
