<?xml version="1.0" encoding="UTF-8"?>
<osm generator="osmapis" version="0.6">
	<node id="-16384" lat="59.7228249969" lon="10.8119055525">
		<tag k="name" v="Myrsletta" />
		<tag k="place" v="locality" />
		<tag k="ssr:date" v="2016-05-10" />
		<tag k="ssr:stedsnr" v="22576" />
	</node>
	<node id="-17920" lat="59.6991249968" lon="10.9391305555">
		<tag k="ssr:gml_id" v="GEOMETRY_b579efc4-20b9-4256-8b85-bca28c1ebce7" />
		<tag k="ssr:gml_nr" v="0" />
	</node>
	<node id="-17482" lat="59.807094449" lon="10.9017722152">
		<tag k="ssr:gml_id" v="GEOMETRY_9c6ed3e2-a06d-47d5-8118-a32c1479a5be" />
		<tag k="ssr:gml_nr" v="0" />
	</node>
	<node id="-16892" lat="59.7249333301" lon="10.8459305535">
		<tag k="name" v="Haugerbakken" />
		<tag k="natural" v="slope" />
		<tag k="place" v="locality" />
		<tag k="ssr:date" v="2016-05-10" />
		<tag k="ssr:stedsnr" v="264457" />
	</node>
	<node id="-16889" lat="59.7412749975" lon="10.9340138911">
		<tag k="name" v="Stubberudåsen" />
		<tag k="natural" v="hill" />
		<tag k="place" v="locality" />
		<tag k="ssr:date" v="2016-05-10" />
		<tag k="ssr:stedsnr" v="264443" />
	</node>
	<node id="-17400" lat="59.7267611116" lon="10.9278444379">
		<tag k="name" v="Bekkevaråsen" />
		<tag k="natural" v="hill" />
		<tag k="place" v="locality" />
		<tag k="ssr:date" v="2016-05-10" />
		<tag k="ssr:stedsnr" v="628436" />
	</node>
	<node id="-16887" lat="59.7415972262" lon="10.84049444">
		<tag k="name" v="Bjerkås" />
		<tag k="natural" v="hill" />
		<tag k="place" v="locality" />
		<tag k="ssr:date" v="2016-05-10" />
		<tag k="ssr:stedsnr" v="264434" />
	</node>
	<node id="-16883" lat="59.7334333348" lon="10.9722583296">
		<tag k="name" v="Kollerøysåsen" />
		<tag k="natural" v="hill" />
		<tag k="place" v="locality" />
		<tag k="ssr:date" v="2016-05-10" />
		<tag k="ssr:stedsnr" v="264424" />
	</node>
	<node id="-16370" lat="59.7546083296" lon="10.8734499978">
		<tag k="name" v="Rudåsen" />
		<tag k="natural" v="hill" />
		<tag k="place" v="locality" />
		<tag k="ssr:date" v="2016-05-10" />
		<tag k="ssr:stedsnr" v="22467" />
	</node>
	<node id="-16369" lat="59.76149722" lon="10.8674138812">
		<tag k="name" v="Lille Gampehue" />
		<tag k="natural" v="hill" />
		<tag k="place" v="locality" />
		<tag k="ssr:date" v="2016-05-10" />
		<tag k="ssr:stedsnr" v="22462" />
	</node>
	<node id="-16368" lat="59.7498555512" lon="10.9051972288">
		<tag k="name" v="Pettersgrinda" />
		<tag k="natural" v="hill" />
		<tag k="place" v="locality" />
		<tag k="ssr:date" v="2016-05-10" />
		<tag k="ssr:stedsnr" v="22449" />
	</node>
	<node id="-16366" lat="59.7428444406" lon="10.8834111183">
		<tag k="name" v="Nordliåsen" />
		<tag k="natural" v="hill" />
		<tag k="place" v="locality" />
		<tag k="ssr:date" v="2016-05-10" />
		<tag k="ssr:stedsnr" v="22437" />
	</node>
	<node id="-16365" lat="59.7299388909" lon="10.9550083354">
		<tag k="name" v="Kleiva" />
		<tag k="natural" v="slope" />
		<tag k="place" v="locality" />
		<tag k="ssr:date" v="2016-05-10" />
		<tag k="ssr:stedsnr" v="22405" />
	</node>
	<node id="-16876" lat="59.8098861108" lon="10.8520083376">
		<tag k="name" v="Teigenåsen" />
		<tag k="natural" v="hill" />
		<tag k="place" v="locality" />
		<tag k="ssr:date" v="2016-05-10" />
		<tag k="ssr:stedsnr" v="264303" />
	</node>
	<node id="-17386" lat="59.726505559" lon="10.9357861028">
		<tag k="name" v="Trolldalen" />
		<tag k="natural" v="valley" />
		<tag k="place" v="locality" />
		<tag k="ssr:date" v="2016-05-10" />
		<tag k="ssr:stedsnr" v="628303" />
	</node>
	<node id="-17148" lat="59.8037361075" lon="10.8791916667">
		<tag k="name" v="Galteryggen" />
		<tag k="natural" v="hill" />
		<tag k="place" v="locality" />
		<tag k="ssr:date" v="2016-05-10" />
		<tag k="ssr:stedsnr" v="507281" />
	</node>
	<node id="-17381" lat="59.7680305591" lon="10.852083327">
		<tag k="name" v="Damplassen" />
		<tag k="place" v="locality" />
		<tag k="ssr:date" v="2016-05-10" />
		<tag k="ssr:stedsnr" v="628261" />
	</node>
	<node id="-16354" lat="59.7569250021" lon="10.9582000083">
		<tag k="name" v="Østli" />
		<tag k="natural" v="slope" />
		<tag k="place" v="locality" />
		<tag k="ssr:date" v="2016-05-10" />
		<tag k="ssr:stedsnr" v="22290" />
	</node>
	<node id="-16352" lat="59.8090416661" lon="10.8978861032">
		<tag k="name" v="Lauvdalen" />
		<tag k="natural" v="valley" />
		<tag k="place" v="locality" />
		<tag k="ssr:date" v="2016-05-10" />
		<tag k="ssr:stedsnr" v="22274" />
	</node>
	<node id="-16351" lat="59.796652777" lon="10.9195416605">
		<tag k="name" v="Holeveien" />
		<tag k="natural" v="valley" />
		<tag k="place" v="locality" />
		<tag k="ssr:date" v="2016-05-10" />
		<tag k="ssr:stedsnr" v="22271" />
	</node>
	<node id="-17886" lat="59.6852333368" lon="10.9199388808">
		<tag k="name" v="Kølabonn" />
		<tag k="place" v="locality" />
		<tag k="ssr:date" v="2016-05-11" />
		<tag k="ssr:stedsnr" v="871504" />
	</node>
	<node id="-16861" lat="59.8077805523" lon="10.9582416748">
		<tag k="ssr:gml_id" v="GEOMETRY_13bb30c7-f7b1-4037-a153-75b655ac39a6" />
		<tag k="ssr:gml_nr" v="1" />
	</node>
	<node id="-16860" lat="59.8077777733" lon="10.9582388907">
		<tag k="ssr:gml_id" v="GEOMETRY_387b6462-2369-472d-b591-2bf62449852e" />
		<tag k="ssr:gml_nr" v="0" />
	</node>
	<node id="-16346" lat="59.8184361135" lon="10.8952861183">
		<tag k="name" v="Sagåsen" />
		<tag k="natural" v="hill" />
		<tag k="place" v="locality" />
		<tag k="ssr:date" v="2016-05-10" />
		<tag k="ssr:stedsnr" v="22234" />
	</node>
	<node id="-17133" lat="59.7978638917" lon="10.8895166724">
		<tag k="ssr:gml_id" v="GEOMETRY_ad5b7301-d5c6-4db2-9914-b0f3bb90c3e2" />
		<tag k="ssr:gml_nr" v="1" />
	</node>
	<node id="-16341" lat="59.7506583302" lon="10.9476000056">
		<tag k="ssr:gml_id" v="GEOMETRY_40a28f00-acad-43d8-bf96-20e155bac468" />
		<tag k="ssr:gml_nr" v="1" />
	</node>
	<node id="-16340" lat="59.7506555547" lon="10.9476000042">
		<tag k="ssr:gml_id" v="GEOMETRY_2508bacb-03e8-41d6-a1ad-540bea168656" />
		<tag k="ssr:gml_nr" v="0" />
	</node>
	<node id="-16847" lat="59.7962861138" lon="10.9244249915">
		<tag k="ssr:gml_id" v="GEOMETRY_40316ca9-19b0-4bb7-896d-fe246fec8794" />
		<tag k="ssr:gml_nr" v="2" />
	</node>
	<node id="-16846" lat="59.794849996" lon="10.9239416671">
		<tag k="ssr:gml_id" v="GEOMETRY_d4352bb4-50a5-4ae6-a13b-b216406db810" />
		<tag k="ssr:gml_nr" v="1" />
	</node>
	<node id="-16845" lat="59.7948472253" lon="10.9239388875">
		<tag k="ssr:gml_id" v="GEOMETRY_63028d80-5621-48e6-9819-4ef87ed61448" />
		<tag k="ssr:gml_nr" v="0" />
	</node>
	<node id="-17356" lat="59.7909388895" lon="10.9360694442">
		<tag k="ssr:gml_id" v="GEOMETRY_786a9fb7-dfcd-4a36-9a97-d8aba7ae4f22" />
		<tag k="ssr:gml_nr" v="2" />
	</node>
	<node id="-17355" lat="59.790249998" lon="10.9396416644">
		<tag k="ssr:gml_id" v="GEOMETRY_d70a2fc3-ee4b-4a99-a42b-c9a6dba2afce" />
		<tag k="ssr:gml_nr" v="1" />
	</node>
	<node id="-17354" lat="59.7902500031" lon="10.9396388847">
		<tag k="ssr:gml_id" v="GEOMETRY_250590e5-4de4-4e67-ad51-31d7e08945ce" />
		<tag k="ssr:gml_nr" v="0" />
	</node>
	<node id="-16841" lat="59.7771694486" lon="10.8830916657">
		<tag k="ssr:gml_id" v="GEOMETRY_f80ba95e-90be-4ad9-984e-0a11fd0b6d8e" />
		<tag k="ssr:gml_nr" v="2" />
	</node>
	<node id="-16840" lat="59.7768555585" lon="10.8850749993">
		<tag k="ssr:gml_id" v="GEOMETRY_42eb7fa8-dd7a-4343-aaf3-c1c8e52eef0f" />
		<tag k="ssr:gml_nr" v="1" />
	</node>
	<node id="-16839" lat="59.776852774" lon="10.8850750026">
		<tag k="ssr:gml_id" v="GEOMETRY_0bc1998c-99b1-4476-80eb-c0ce1f541f33" />
		<tag k="ssr:gml_nr" v="0" />
	</node>
	<node id="-17862" lat="59.8155916687" lon="10.9005277751">
		<tag k="name" v="Kalvåsen" />
		<tag k="natural" v="hill" />
		<tag k="place" v="locality" />
		<tag k="ssr:date" v="2016-05-11" />
		<tag k="ssr:stedsnr" v="871340" />
	</node>
	<node id="-17142" lat="59.7804388849" lon="10.8898916746">
		<tag k="name" v="Mellomåsen" />
		<tag k="natural" v="hill" />
		<tag k="place" v="locality" />
		<tag k="ssr:date" v="2016-05-10" />
		<tag k="ssr:stedsnr" v="507249" />
	</node>
	<node id="-17858" lat="59.7733888879" lon="10.891655563">
		<tag k="name" v="Bruåsen" />
		<tag k="natural" v="hill" />
		<tag k="place" v="locality" />
		<tag k="ssr:date" v="2016-05-11" />
		<tag k="ssr:stedsnr" v="871246" />
	</node>
	<node id="-17483" lat="59.8070972202" lon="10.9017749941">
		<tag k="ssr:gml_id" v="GEOMETRY_6a9b5d0b-88a3-4eab-9462-35a99fecdb4a" />
		<tag k="ssr:gml_nr" v="1" />
	</node>
	<node id="-17855" lat="59.7700138914" lon="10.9657333359">
		<tag k="ssr:gml_id" v="GEOMETRY_b8b70681-5a9d-43d9-81b8-0251a29ac7c0" />
		<tag k="ssr:gml_nr" v="2" />
	</node>
	<node id="-17854" lat="59.7704916675" lon="10.9668750011">
		<tag k="ssr:gml_id" v="GEOMETRY_79d43229-0f99-4168-9937-7dc1bd4d20f1" />
		<tag k="ssr:gml_nr" v="1" />
	</node>
	<node id="-17853" lat="59.7704888888" lon="10.9668722195">
		<tag k="ssr:gml_id" v="GEOMETRY_e5db4bc9-0c90-4db9-8674-4773c88cbb7f" />
		<tag k="ssr:gml_nr" v="0" />
	</node>
	<node id="-16316" lat="59.7648777819" lon="10.8605555563">
		<tag k="ssr:gml_id" v="GEOMETRY_e7fb1070-89af-40da-991c-567eacdfa2fa" />
		<tag k="ssr:gml_nr" v="1" />
	</node>
	<node id="-16315" lat="59.7648750008" lon="10.8605527839">
		<tag k="ssr:gml_id" v="GEOMETRY_5b041a11-edee-4e45-8bad-b3905030ff74" />
		<tag k="ssr:gml_nr" v="0" />
	</node>
	<node id="-17140" lat="59.7608527809" lon="10.9188472172">
		<tag k="ssr:gml_id" v="GEOMETRY_cbb8f83a-91fe-4adf-bf9d-342b8476e81d" />
		<tag k="ssr:gml_nr" v="0" />
	</node>
	<node id="-17843" lat="59.7700083378" lon="10.95384445">
		<tag k="ssr:gml_id" v="GEOMETRY_e67dcc60-6a1d-4418-8fe8-7a9a197cdc12" />
		<tag k="ssr:gml_nr" v="2" />
	</node>
	<node id="-17842" lat="59.7696083301" lon="10.9514638966">
		<tag k="ssr:gml_id" v="GEOMETRY_6c8b7270-7780-4c10-9fe7-2893de7eab5d" />
		<tag k="ssr:gml_nr" v="1" />
	</node>
	<node id="-17841" lat="59.76960556" lon="10.9514611169">
		<tag k="ssr:gml_id" v="GEOMETRY_e133e9bc-a42d-422e-8f45-0e7e217558e7" />
		<tag k="ssr:gml_nr" v="0" />
	</node>
	<node id="-16910" lat="59.7034694441" lon="10.9216444377">
		<tag k="name" v="Tømtåsen" />
		<tag k="natural" v="hill" />
		<tag k="place" v="locality" />
		<tag k="ssr:date" v="2016-05-10" />
		<tag k="ssr:stedsnr" v="264591" />
	</node>
	<node id="-16882" lat="59.7275027741" lon="10.9614777785">
		<tag k="name" v="Sagstuåsen" />
		<tag k="natural" v="hill" />
		<tag k="place" v="locality" />
		<tag k="ssr:date" v="2016-05-10" />
		<tag k="ssr:stedsnr" v="264416" />
	</node>
	<node id="-16455" lat="59.7573416631" lon="10.8842083354">
		<tag k="ssr:gml_id" v="GEOMETRY_cc24d60e-b300-47e2-a7cd-e63fce037df7" />
		<tag k="ssr:gml_nr" v="2" />
	</node>
	<node id="-16454" lat="59.7565249956" lon="10.8838166633">
		<tag k="ssr:gml_id" v="GEOMETRY_e883627d-71fd-4e1f-b44d-84104d1ced43" />
		<tag k="ssr:gml_nr" v="1" />
	</node>
	<node id="-17392" lat="59.8289888855" lon="10.9340500067">
		<tag k="name" v="Nygårdskollen" />
		<tag k="natural" v="hill" />
		<tag k="place" v="locality" />
		<tag k="ssr:date" v="2016-05-10" />
		<tag k="ssr:stedsnr" v="628364" />
	</node>
	<node id="-16794" lat="59.7185555588" lon="10.9733416605">
		<tag k="ssr:gml_id" v="GEOMETRY_aa50a7f0-64ab-4396-b7aa-cb8dc37796ff" />
		<tag k="ssr:gml_nr" v="1" />
	</node>
	<node id="-16793" lat="59.7185583376" lon="10.9732499943">
		<tag k="ssr:gml_id" v="GEOMETRY_803b2b7b-5c5a-40a2-8785-b346ad333081" />
		<tag k="ssr:gml_nr" v="0" />
	</node>
	<node id="-17815" lat="59.7131666696" lon="10.9631888915">
		<tag k="ssr:gml_id" v="GEOMETRY_7fccaace-8af3-4b16-afa7-89b8315d8de5" />
		<tag k="ssr:gml_nr" v="3" />
	</node>
	<node id="-17814" lat="59.7133277756" lon="10.9634333275">
		<tag k="ssr:gml_id" v="GEOMETRY_39a25864-481e-482c-96cc-bf1fae204a71" />
		<tag k="ssr:gml_nr" v="2" />
	</node>
	<node id="-17813" lat="59.7136111123" lon="10.9632638978">
		<tag k="ssr:gml_id" v="GEOMETRY_9054daed-5c8b-43a3-b56f-aba4fd7a1d84" />
		<tag k="ssr:gml_nr" v="1" />
	</node>
	<node id="-16788" lat="59.6997083318" lon="10.921569453">
		<tag k="name" v="Bakkane" />
		<tag k="natural" v="slope" />
		<tag k="place" v="locality" />
		<tag k="ssr:date" v="2016-05-10" />
		<tag k="ssr:stedsnr" v="204490" />
	</node>
	<node id="-17134" lat="59.7979833305" lon="10.8905749914">
		<tag k="ssr:gml_id" v="GEOMETRY_2ee5cf54-0f0d-472d-99e8-b5b94e776017" />
		<tag k="ssr:gml_nr" v="2" />
	</node>
	<node id="-17219" lat="59.7767694423" lon="10.8946277749">
		<tag k="ssr:gml_id" v="GEOMETRY_1b1db969-9a97-47dd-9539-b8f059d2cae4" />
		<tag k="ssr:gml_nr" v="3" />
	</node>
	<node id="-16926" lat="59.6607972235" lon="10.6645666649">
		<tag k="ssr:gml_id" v="GEOMETRY_db641d94-097e-40fd-aff6-c936ae64a102" />
		<tag k="ssr:gml_nr" v="6" />
	</node>
	<node id="-16621" lat="59.7974472235" lon="10.9275999913">
		<tag k="name" v="Soldalen" />
		<tag k="natural" v="valley" />
		<tag k="place" v="locality" />
		<tag k="ssr:date" v="2016-05-10" />
		<tag k="ssr:stedsnr" v="143255" />
	</node>
	<node id="-17218" lat="59.7767583335" lon="10.8916694478">
		<tag k="ssr:gml_id" v="GEOMETRY_9f9b8e65-ae9b-4394-a7cc-7e1730f68d1e" />
		<tag k="ssr:gml_nr" v="2" />
	</node>
	<node id="-16778" lat="59.812611111" lon="10.9139333375">
		<tag k="name" v="Barkeflåingen" />
		<tag k="natural" v="hill" />
		<tag k="place" v="locality" />
		<tag k="ssr:date" v="2016-05-10" />
		<tag k="ssr:stedsnr" v="204322" />
	</node>
	<node id="-17388" lat="59.798997224" lon="10.9755972298">
		<tag k="name" v="Tømtåsen" />
		<tag k="natural" v="hill" />
		<tag k="place" v="locality" />
		<tag k="ssr:date" v="2016-05-10" />
		<tag k="ssr:stedsnr" v="628343" />
	</node>
	<node id="-17217" lat="59.7767611139" lon="10.8916722237">
		<tag k="ssr:gml_id" v="GEOMETRY_57f9025b-11e4-4dd4-84a1-7112dfc981f3" />
		<tag k="ssr:gml_nr" v="1" />
	</node>
	<node id="-17761" lat="59.6688777749" lon="10.948286118">
		<tag k="name" v="Kirkeåsen" />
		<tag k="natural" v="hill" />
		<tag k="place" v="locality" />
		<tag k="ssr:date" v="2016-05-11" />
		<tag k="ssr:stedsnr" v="810553" />
	</node>
	<node id="-17281" lat="59.6888777747" lon="10.9423305532">
		<tag k="name" v="Tyrigravåsen" />
		<tag k="natural" v="hill" />
		<tag k="place" v="locality" />
		<tag k="ssr:date" v="2016-05-10" />
		<tag k="ssr:stedsnr" v="567521" />
	</node>
	<node id="-17788" lat="59.6899027757" lon="10.9519972182">
		<tag k="ssr:gml_id" v="GEOMETRY_825da9ba-d417-4478-a2cd-403adebdc8bc" />
		<tag k="ssr:gml_nr" v="1" />
	</node>
	<node id="-17787" lat="59.6924666636" lon="10.9424083271">
		<tag k="ssr:gml_id" v="GEOMETRY_e04ec761-e2c8-4570-a1d5-2a0bbdb63be7" />
		<tag k="ssr:gml_nr" v="0" />
	</node>
	<node id="-17274" lat="59.7477138902" lon="10.9324361041">
		<tag k="name" v="Bogerkollen" />
		<tag k="natural" v="hill" />
		<tag k="place" v="locality" />
		<tag k="ssr:date" v="2016-05-10" />
		<tag k="ssr:stedsnr" v="567437" />
	</node>
	<node id="-17785" lat="59.757044449" lon="10.861258325">
		<tag k="name" v="Storabakken" />
		<tag k="natural" v="slope" />
		<tag k="place" v="locality" />
		<tag k="ssr:date" v="2016-05-11" />
		<tag k="ssr:stedsnr" v="811468" />
	</node>
	<node id="-17812" lat="59.7136083336" lon="10.9632611036">
		<tag k="ssr:gml_id" v="GEOMETRY_2c058a88-6713-43e1-9cea-282087329643" />
		<tag k="ssr:gml_nr" v="0" />
	</node>
	<node id="-16244" lat="59.7541222222" lon="10.9329555585">
		<tag k="name" v="Buåsen" />
		<tag k="natural" v="hill" />
		<tag k="place" v="locality" />
		<tag k="ssr:date" v="2016-05-10" />
		<tag k="ssr:stedsnr" v="386455" />
	</node>
	<node id="-17779" lat="59.7423111116" lon="10.8369055612">
		<tag k="name" v="Norås" />
		<tag k="natural" v="hill" />
		<tag k="place" v="locality" />
		<tag k="ssr:date" v="2016-05-11" />
		<tag k="ssr:stedsnr" v="811424" />
	</node>
	<node id="-17772" lat="59.7997861155" lon="10.9770111047">
		<tag k="name" v="Langfurudalen" />
		<tag k="natural" v="valley" />
		<tag k="place" v="locality" />
		<tag k="ssr:date" v="2016-05-11" />
		<tag k="ssr:stedsnr" v="811341" />
	</node>
	<node id="-16233" lat="59.7363416642" lon="10.9726527857">
		<tag k="name" v="Torebråtabakken" />
		<tag k="natural" v="slope" />
		<tag k="place" v="locality" />
		<tag k="ssr:date" v="2016-05-10" />
		<tag k="ssr:stedsnr" v="386402" />
	</node>
	<node id="-17638" lat="59.8143777758" lon="10.9383222159">
		<tag k="name" v="Hanseåsen" />
		<tag k="natural" v="hill" />
		<tag k="place" v="locality" />
		<tag k="ssr:date" v="2016-05-11" />
		<tag k="ssr:stedsnr" v="750332" />
	</node>
	<node id="-16225" lat="59.8030111143" lon="10.8596805574">
		<tag k="name" v="Askedalen" />
		<tag k="natural" v="valley" />
		<tag k="place" v="locality" />
		<tag k="ssr:date" v="2016-05-10" />
		<tag k="ssr:stedsnr" v="386294" />
	</node>
	<node id="-16734" lat="59.8196527815" lon="10.9223666604">
		<tag k="ssr:gml_id" v="GEOMETRY_340d7e7c-a4e5-4312-9c68-a1efab5a03e7" />
		<tag k="ssr:gml_nr" v="2" />
	</node>
	<node id="-16733" lat="59.818161111" lon="10.9254777744">
		<tag k="ssr:gml_id" v="GEOMETRY_1fa0611d-dfd2-4367-b9bb-60c4bc8b40e0" />
		<tag k="ssr:gml_nr" v="1" />
	</node>
	<node id="-16732" lat="59.8181583314" lon="10.9254749922">
		<tag k="ssr:gml_id" v="GEOMETRY_a2558345-6091-4249-948a-c6d198cb9e7a" />
		<tag k="ssr:gml_nr" v="0" />
	</node>
	<node id="-16219" lat="59.785108334" lon="10.9489249974">
		<tag k="name" v="Sponåsen" />
		<tag k="natural" v="hill" />
		<tag k="place" v="locality" />
		<tag k="ssr:date" v="2016-05-10" />
		<tag k="ssr:stedsnr" v="386350" />
	</node>
	<node id="-16218" lat="59.783291668" lon="10.9556805614">
		<tag k="name" v="Muskedalen" />
		<tag k="natural" v="valley" />
		<tag k="place" v="locality" />
		<tag k="ssr:date" v="2016-05-10" />
		<tag k="ssr:stedsnr" v="386351" />
	</node>
	<node id="-16729" lat="59.8104749967" lon="10.845577777">
		<tag k="ssr:gml_id" v="GEOMETRY_f1aca330-ea8b-4c47-b49f-b62c8244150b" />
		<tag k="ssr:gml_nr" v="0" />
	</node>
	<node id="-17240" lat="59.8050805514" lon="10.855305549">
		<tag k="ssr:gml_id" v="GEOMETRY_91cd7893-8684-496c-b91c-e34942496df3" />
		<tag k="ssr:gml_nr" v="2" />
	</node>
	<node id="-17239" lat="59.8046416638" lon="10.8557250041">
		<tag k="ssr:gml_id" v="GEOMETRY_38a311c5-57d4-4dea-b798-8ed2e6d22b23" />
		<tag k="ssr:gml_nr" v="1" />
	</node>
	<node id="-17238" lat="59.8046388886" lon="10.8557249925">
		<tag k="ssr:gml_id" v="GEOMETRY_e448b93a-9b21-4333-ac00-16cf4e6353a5" />
		<tag k="ssr:gml_nr" v="0" />
	</node>
	<node id="-16725" lat="59.8076583325" lon="10.8624611031">
		<tag k="ssr:gml_id" v="GEOMETRY_fb6a872a-00d7-4b1b-83cc-66b42015dfaf" />
		<tag k="ssr:gml_nr" v="2" />
	</node>
	<node id="-16724" lat="59.807549997" lon="10.8625166599">
		<tag k="ssr:gml_id" v="GEOMETRY_a00cc963-1103-4d2d-8827-62abda6167f3" />
		<tag k="ssr:gml_nr" v="1" />
	</node>
	<node id="-16723" lat="59.8075472249" lon="10.8625138843">
		<tag k="ssr:gml_id" v="GEOMETRY_b2718753-ae38-41b0-b3ff-3772f516a1fb" />
		<tag k="ssr:gml_nr" v="0" />
	</node>
	<node id="-16611" lat="59.8070972262" lon="10.9421027836">
		<tag k="ssr:gml_id" v="GEOMETRY_0615ac5a-4143-4f91-89e3-41cb478f559f" />
		<tag k="ssr:gml_nr" v="2" />
	</node>
	<node id="-17232" lat="59.7703055538" lon="10.8734138975">
		<tag k="ssr:gml_id" v="GEOMETRY_f98ad5d0-bf6f-4728-8d11-cf1fa222ab89" />
		<tag k="ssr:gml_nr" v="2" />
	</node>
	<node id="-17231" lat="59.770174999" lon="10.87343611">
		<tag k="ssr:gml_id" v="GEOMETRY_214fb24d-46ab-4147-aa97-f90b14eaefc2" />
		<tag k="ssr:gml_nr" v="1" />
	</node>
	<node id="-17230" lat="59.7701722182" lon="10.8734333362">
		<tag k="ssr:gml_id" v="GEOMETRY_94487074-4214-46df-8618-84530624ea97" />
		<tag k="ssr:gml_nr" v="0" />
	</node>
	<node id="-17122" lat="59.7791527792" lon="10.8343388953">
		<tag k="ssr:gml_id" v="GEOMETRY_bb275ecc-3613-4296-b887-8f848b1cb5c1" />
		<tag k="ssr:gml_nr" v="2" />
	</node>
	<node id="-16709" lat="59.7707333371" lon="10.9077305597">
		<tag k="ssr:gml_id" v="GEOMETRY_04ae7a0f-e6f9-49ca-8c26-be92297fb097" />
		<tag k="ssr:gml_nr" v="3" />
	</node>
	<node id="-16708" lat="59.7708277803" lon="10.9081583354">
		<tag k="ssr:gml_id" v="GEOMETRY_43919293-dba5-4e5c-ac0d-166175be7952" />
		<tag k="ssr:gml_nr" v="2" />
	</node>
	<node id="-16707" lat="59.7707361081" lon="10.9077333359">
		<tag k="ssr:gml_id" v="GEOMETRY_ea604577-ef07-45cf-85a9-743605d92851" />
		<tag k="ssr:gml_nr" v="1" />
	</node>
	<node id="-17730" lat="59.7752833308" lon="10.8856916665">
		<tag k="ssr:gml_id" v="GEOMETRY_f964d579-e70a-4ca5-9c75-3049dfa783dc" />
		<tag k="ssr:gml_nr" v="1" />
	</node>
	<node id="-17729" lat="59.7752805593" lon="10.8856888917">
		<tag k="ssr:gml_id" v="GEOMETRY_d457ee8c-3c17-41c3-b9fa-53b84c801659" />
		<tag k="ssr:gml_nr" v="0" />
	</node>
	<node id="-17216" lat="59.7767666657" lon="10.891677775">
		<tag k="ssr:gml_id" v="GEOMETRY_90d7e8c3-8e6f-4b98-afea-f85876c2f4d3" />
		<tag k="ssr:gml_nr" v="0" />
	</node>
	<node id="-17888" lat="59.7058138902" lon="10.9481249912">
		<tag k="name" v="Fuglåsen" />
		<tag k="natural" v="hill" />
		<tag k="place" v="locality" />
		<tag k="ssr:date" v="2016-05-11" />
		<tag k="ssr:stedsnr" v="871527" />
	</node>
	<node id="-16183" lat="59.7867027821" lon="10.8517277759">
		<tag k="ssr:gml_id" v="GEOMETRY_bdffa108-5962-4581-afbc-eadc7c79b302" />
		<tag k="ssr:gml_nr" v="2" />
	</node>
	<node id="-16182" lat="59.7865888932" lon="10.8517111113">
		<tag k="ssr:gml_id" v="GEOMETRY_69854b6d-5a81-4e5d-ae9a-fe34d7a72eb2" />
		<tag k="ssr:gml_nr" v="1" />
	</node>
	<node id="-16181" lat="59.7865861119" lon="10.8517083379">
		<tag k="ssr:gml_id" v="GEOMETRY_8c3789b6-8669-411e-b61e-3462df54e9ec" />
		<tag k="ssr:gml_nr" v="0" />
	</node>
	<node id="-16862" lat="59.808158332" lon="10.9592555623">
		<tag k="ssr:gml_id" v="GEOMETRY_809f1d60-7661-4f6a-95c4-934403c93717" />
		<tag k="ssr:gml_nr" v="2" />
	</node>
	<node id="-17200" lat="59.7462451278" lon="10.917524328">
		<tag k="name" v="Stunneråsen" />
		<tag k="natural" v="hill" />
		<tag k="place" v="locality" />
		<tag k="ssr:date" v="2017-06-09" />
		<tag k="ssr:stedsnr" v="549476" />
	</node>
	<node id="-16669" lat="59.810850004" lon="10.9251666661">
		<tag k="ssr:gml_id" v="GEOMETRY_0bcb4d67-5d3a-4649-afb0-62da63942881" />
		<tag k="ssr:gml_nr" v="3" />
	</node>
	<node id="-16668" lat="59.8112583334" lon="10.9247611134">
		<tag k="ssr:gml_id" v="GEOMETRY_58ecbebb-1e07-4cb7-802a-8f8a9a3a336a" />
		<tag k="ssr:gml_nr" v="2" />
	</node>
	<node id="-16667" lat="59.8108499998" lon="10.9251638841">
		<tag k="ssr:gml_id" v="GEOMETRY_bc0611a4-07f9-4893-84e1-59d99c8ca888" />
		<tag k="ssr:gml_nr" v="1" />
	</node>
	<node id="-16666" lat="59.8108527789" lon="10.9251722292">
		<tag k="ssr:gml_id" v="GEOMETRY_55727edd-1554-4a98-9443-5b4c4fef62fc" />
		<tag k="ssr:gml_nr" v="0" />
	</node>
	<node id="-16656" lat="59.7110000007" lon="10.9328472308">
		<tag k="name" v="Strevoppbråten" />
		<tag k="natural" v="slope" />
		<tag k="place" v="locality" />
		<tag k="ssr:date" v="2016-05-10" />
		<tag k="ssr:stedsnr" v="143612" />
	</node>
	<node id="-17166" lat="59.7569111152" lon="10.8581444358">
		<tag k="name" v="Sloratoppen" />
		<tag k="natural" v="hill" />
		<tag k="place" v="locality" />
		<tag k="ssr:date" v="2016-05-10" />
		<tag k="ssr:stedsnr" v="507459" />
	</node>
	<node id="-17164" lat="59.7659583303" lon="10.905230551">
		<tag k="name" v="Sterkerudåsen" />
		<tag k="natural" v="hill" />
		<tag k="place" v="locality" />
		<tag k="ssr:date" v="2016-05-10" />
		<tag k="ssr:stedsnr" v="507442" />
	</node>
	<node id="-16651" lat="59.698319446" lon="10.9579861086">
		<tag k="name" v="Hveinåsen" />
		<tag k="natural" v="hill" />
		<tag k="place" v="locality" />
		<tag k="ssr:date" v="2016-05-10" />
		<tag k="ssr:stedsnr" v="143565" />
	</node>
	<node id="-16649" lat="59.6805361137" lon="10.9085694409">
		<tag k="name" v="Missumberget" />
		<tag k="natural" v="hill" />
		<tag k="place" v="locality" />
		<tag k="ssr:date" v="2016-05-10" />
		<tag k="ssr:stedsnr" v="143495" />
	</node>
	<node id="-16648" lat="59.7629444455" lon="10.8756416676">
		<tag k="name" v="Store Gampehue" />
		<tag k="natural" v="hill" />
		<tag k="place" v="locality" />
		<tag k="ssr:date" v="2016-05-10" />
		<tag k="ssr:stedsnr" v="143487" />
	</node>
	<node id="-16410" lat="59.7943249956" lon="10.8974083318">
		<tag k="ssr:gml_id" v="GEOMETRY_2f09721c-a76c-4349-b521-7b0b749f557a" />
		<tag k="ssr:gml_nr" v="1" />
	</node>
	<node id="-16134" lat="59.6781111151" lon="10.908980554">
		<tag k="name" v="Sørumåsen" />
		<tag k="natural" v="hill" />
		<tag k="place" v="locality" />
		<tag k="ssr:date" v="2016-05-10" />
		<tag k="ssr:stedsnr" v="325486" />
	</node>
	<node id="-16257" lat="59.7186472182" lon="10.9220000057">
		<tag k="name" v="Kølabonn" />
		<tag k="place" v="locality" />
		<tag k="ssr:date" v="2016-05-10" />
		<tag k="ssr:stedsnr" v="386615" />
	</node>
	<node id="-17152" lat="59.7624361113" lon="10.8469194506">
		<tag k="name" v="Skoglia" />
		<tag k="natural" v="slope" />
		<tag k="place" v="locality" />
		<tag k="ssr:date" v="2016-05-10" />
		<tag k="ssr:stedsnr" v="507363" />
	</node>
	<node id="-17150" lat="59.7988472264" lon="10.9797833354">
		<tag k="name" v="Damåsen" />
		<tag k="natural" v="hill" />
		<tag k="place" v="locality" />
		<tag k="ssr:date" v="2016-05-10" />
		<tag k="ssr:stedsnr" v="507331" />
	</node>
	<node id="-17661" lat="59.7078527784" lon="10.9371083343">
		<tag k="name" v="Svenskesletta" />
		<tag k="place" v="locality" />
		<tag k="ssr:date" v="2016-05-11" />
		<tag k="ssr:stedsnr" v="750609" />
	</node>
	<node id="-17660" lat="59.7093416687" lon="10.931466674">
		<tag k="name" v="Asgjerrudåsen" />
		<tag k="natural" v="hill" />
		<tag k="place" v="locality" />
		<tag k="ssr:date" v="2016-05-11" />
		<tag k="ssr:stedsnr" v="750606" />
	</node>
	<node id="-17658" lat="59.6803638876" lon="10.9493944466">
		<tag k="name" v="Brennekleivåsen" />
		<tag k="natural" v="hill" />
		<tag k="place" v="locality" />
		<tag k="ssr:date" v="2016-05-11" />
		<tag k="ssr:stedsnr" v="750548" />
	</node>
	<node id="-16633" lat="59.7367361095" lon="10.9682472257">
		<tag k="name" v="Torebråtan" />
		<tag k="natural" v="slope" />
		<tag k="place" v="locality" />
		<tag k="ssr:date" v="2016-05-10" />
		<tag k="ssr:stedsnr" v="143411" />
	</node>
	<node id="-17655" lat="59.6927972258" lon="10.8950694454">
		<tag k="name" v="St. Hanshaugen" />
		<tag k="natural" v="hill" />
		<tag k="place" v="locality" />
		<tag k="ssr:date" v="2016-05-11" />
		<tag k="ssr:stedsnr" v="750519" />
	</node>
	<node id="-16118" lat="59.7083500015" lon="10.9107833304">
		<tag k="name" v="Søråsen" />
		<tag k="natural" v="hill" />
		<tag k="place" v="locality" />
		<tag k="ssr:date" v="2016-05-10" />
		<tag k="ssr:stedsnr" v="325608" />
	</node>
	<node id="-17141" lat="59.7608555518" lon="10.9188499935">
		<tag k="ssr:gml_id" v="GEOMETRY_fc56fbd1-25c0-4f28-9d12-f4937cb12c40" />
		<tag k="ssr:gml_nr" v="1" />
	</node>
	<node id="-16628" lat="59.7871166649" lon="10.8834611135">
		<tag k="name" v="Hyttengåsen" />
		<tag k="natural" v="hill" />
		<tag k="place" v="locality" />
		<tag k="ssr:date" v="2016-05-10" />
		<tag k="ssr:stedsnr" v="143245" />
	</node>
	<node id="-17650" lat="59.765288891" lon="10.9197666675">
		<tag k="name" v="Sandvollia" />
		<tag k="natural" v="slope" />
		<tag k="place" v="locality" />
		<tag k="ssr:date" v="2016-05-11" />
		<tag k="ssr:stedsnr" v="750453" />
	</node>
	<node id="-16083" lat="59.8012138888" lon="10.9047166609">
		<tag k="ssr:gml_id" v="GEOMETRY_446e7ef9-abc3-4ddb-802b-525b2472a098" />
		<tag k="ssr:gml_nr" v="2" />
	</node>
	<node id="-16622" lat="59.8005305552" lon="10.9332138905">
		<tag k="name" v="Smieåsen" />
		<tag k="natural" v="hill" />
		<tag k="place" v="locality" />
		<tag k="ssr:date" v="2016-05-10" />
		<tag k="ssr:stedsnr" v="143257" />
	</node>
	<node id="-16109" lat="59.7660333299" lon="10.8960861027">
		<tag k="ssr:gml_id" v="GEOMETRY_95718779-98bf-43d2-b028-a14bc4a3adaa" />
		<tag k="ssr:gml_nr" v="1" />
	</node>
	<node id="-17132" lat="59.7978611113" lon="10.8895138949">
		<tag k="ssr:gml_id" v="GEOMETRY_211a00aa-bbe4-4e4e-867e-92f2deed84d9" />
		<tag k="ssr:gml_nr" v="0" />
	</node>
	<node id="-16104" lat="59.7165750031" lon="10.8494722202">
		<tag k="name" v="Skorhaugåsen" />
		<tag k="natural" v="hill" />
		<tag k="place" v="locality" />
		<tag k="ssr:date" v="2016-05-10" />
		<tag k="ssr:stedsnr" v="325396" />
	</node>
	<node id="-16102" lat="59.8101333335" lon="10.9541722299">
		<tag k="name" v="Styggdalen" />
		<tag k="natural" v="valley" />
		<tag k="place" v="locality" />
		<tag k="ssr:date" v="2016-05-10" />
		<tag k="ssr:stedsnr" v="325366" />
	</node>
	<node id="-16101" lat="59.7656111142" lon="10.9535472183">
		<tag k="ssr:gml_id" v="GEOMETRY_fcb44816-ff58-4c16-a337-f6fa62cefb4f" />
		<tag k="ssr:gml_nr" v="1" />
	</node>
	<node id="-16100" lat="59.7687277821" lon="10.9571972284">
		<tag k="ssr:gml_id" v="GEOMETRY_c537e03e-5361-4078-a101-39ce5b72f1f0" />
		<tag k="ssr:gml_nr" v="0" />
	</node>
	<node id="-17123" lat="59.7792666672" lon="10.8344111127">
		<tag k="ssr:gml_id" v="GEOMETRY_968d25e6-0201-4fd8-bc68-47a504239744" />
		<tag k="ssr:gml_nr" v="3" />
	</node>
	<node id="-16098" lat="59.7506777821" lon="10.9474305638">
		<tag k="name" v="Vestre Kollåsen" />
		<tag k="natural" v="hill" />
		<tag k="place" v="locality" />
		<tag k="ssr:date" v="2016-05-10" />
		<tag k="ssr:stedsnr" v="325316" />
	</node>
	<node id="-16251" lat="59.695644444" lon="10.9470638877">
		<tag k="name" v="Grasdalen" />
		<tag k="natural" v="valley" />
		<tag k="place" v="locality" />
		<tag k="ssr:date" v="2016-05-10" />
		<tag k="ssr:stedsnr" v="386562" />
	</node>
	<node id="-17120" lat="59.7791555519" lon="10.8343416662">
		<tag k="ssr:gml_id" v="GEOMETRY_3adcd26b-b5e3-4033-8364-1a6acb7e4b53" />
		<tag k="ssr:gml_nr" v="0" />
	</node>
	<node id="-17937" lat="59.7774361141" lon="10.8394083412">
		<tag k="ssr:gml_id" v="GEOMETRY_a309ece2-3c16-4cac-b49b-2c00a0ed73fa" />
		<tag k="ssr:gml_nr" v="0" />
	</node>
	<node id="-17629" lat="59.805241671" lon="10.9433805558">
		<tag k="name" v="Nordre Paddetjerndalen" />
		<tag k="natural" v="valley" />
		<tag k="place" v="locality" />
		<tag k="ssr:date" v="2016-05-11" />
		<tag k="ssr:stedsnr" v="750249" />
	</node>
	<node id="-17626" lat="59.7742166701" lon="10.8841305571">
		<tag k="name" v="Djupdalen" />
		<tag k="natural" v="valley" />
		<tag k="place" v="locality" />
		<tag k="ssr:date" v="2016-05-11" />
		<tag k="ssr:stedsnr" v="750236" />
	</node>
	<node id="-17625" lat="59.7761000026" lon="10.9231583323">
		<tag k="name" v="Brånaåsen" />
		<tag k="natural" v="hill" />
		<tag k="place" v="locality" />
		<tag k="ssr:date" v="2016-05-11" />
		<tag k="ssr:stedsnr" v="750232" />
	</node>
	<node id="-17273" lat="59.7312111125" lon="10.9235138954">
		<tag k="name" v="Nordli" />
		<tag k="place" v="locality" />
		<tag k="ssr:date" v="2016-05-10" />
		<tag k="ssr:stedsnr" v="567435" />
	</node>
	<node id="-16596" lat="59.8210777804" lon="10.9416833317">
		<tag k="ssr:gml_id" v="GEOMETRY_426373cf-ec71-48bf-8b3a-b6121b71cf89" />
		<tag k="ssr:gml_nr" v="1" />
	</node>
	<node id="-16595" lat="59.8210750011" lon="10.9416805479">
		<tag k="ssr:gml_id" v="GEOMETRY_7e6ba5e3-e320-4a7c-9738-65e7bf4f80a2" />
		<tag k="ssr:gml_nr" v="0" />
	</node>
	<node id="-16082" lat="59.8007277777" lon="10.904563881">
		<tag k="ssr:gml_id" v="GEOMETRY_cd46208b-b80f-40ed-82c0-046430e22e24" />
		<tag k="ssr:gml_nr" v="1" />
	</node>
	<node id="-16081" lat="59.8007249973" lon="10.9045611198">
		<tag k="ssr:gml_id" v="GEOMETRY_5fc38238-84e7-46e1-b38d-026d284d1df7" />
		<tag k="ssr:gml_nr" v="0" />
	</node>
	<node id="-16078" lat="59.7885833299" lon="10.8360444418">
		<tag k="ssr:gml_id" v="GEOMETRY_7f66efc9-89d9-4f14-9615-8bc23f82862f" />
		<tag k="ssr:gml_nr" v="2" />
	</node>
	<node id="-16077" lat="59.7872500018" lon="10.8341583411">
		<tag k="ssr:gml_id" v="GEOMETRY_84daf215-16d1-405b-a74a-a62e2fd9668e" />
		<tag k="ssr:gml_nr" v="1" />
	</node>
	<node id="-16076" lat="59.7872472204" lon="10.8341555513">
		<tag k="ssr:gml_id" v="GEOMETRY_2a240182-6a33-4467-8a4d-5b294e8be4fa" />
		<tag k="ssr:gml_nr" v="0" />
	</node>
	<node id="-16636" lat="59.7428765813" lon="10.9144631445">
		<tag k="name" v="Stokstadåsen" />
		<tag k="natural" v="hill" />
		<tag k="place" v="locality" />
		<tag k="ssr:date" v="2017-06-09" />
		<tag k="ssr:stedsnr" v="143434" />
	</node>
	<node id="-16503" lat="59.7434249966" lon="10.9372277774">
		<tag k="name" v="Løkketoppen" />
		<tag k="natural" v="hill" />
		<tag k="place" v="locality" />
		<tag k="ssr:date" v="2016-05-10" />
		<tag k="ssr:stedsnr" v="82447" />
	</node>
	<node id="-17589" lat="59.7806388902" lon="10.8951083414">
		<tag k="ssr:gml_id" v="GEOMETRY_58ea38a0-89b5-418b-8b1e-970f00f61fc0" />
		<tag k="ssr:gml_nr" v="2" />
	</node>
	<node id="-17588" lat="59.7807638871" lon="10.8923694521">
		<tag k="ssr:gml_id" v="GEOMETRY_0b53b917-61d2-4f08-8449-839f8b970b86" />
		<tag k="ssr:gml_nr" v="1" />
	</node>
	<node id="-17587" lat="59.780761107" lon="10.892366658">
		<tag k="ssr:gml_id" v="GEOMETRY_8f26cda0-4085-42aa-95f4-a5cbabecaed3" />
		<tag k="ssr:gml_nr" v="0" />
	</node>
	<node id="-17071" lat="59.727802782" lon="10.806088892">
		<tag k="ssr:gml_id" v="GEOMETRY_b80f51cc-6171-416e-8763-02a4bb2449bc" />
		<tag k="ssr:gml_nr" v="2" />
	</node>
	<node id="-17070" lat="59.7282055516" lon="10.8063444414">
		<tag k="ssr:gml_id" v="GEOMETRY_1a198ca2-5a8a-4f5c-be55-d5936c54f3ff" />
		<tag k="ssr:gml_nr" v="1" />
	</node>
	<node id="-17181" lat="59.7066222194" lon="10.9081972308">
		<tag k="name" v="Oppsandbråten" />
		<tag k="natural" v="hill" />
		<tag k="place" v="locality" />
		<tag k="ssr:date" v="2016-05-10" />
		<tag k="ssr:stedsnr" v="507618" />
	</node>
	<node id="-16555" lat="59.7823388869" lon="10.9513833342">
		<tag k="ssr:gml_id" v="GEOMETRY_c576fb18-cbca-4a20-96d5-b08e8e5ab181" />
		<tag k="ssr:gml_nr" v="2" />
	</node>
	<node id="-16554" lat="59.7821388902" lon="10.9503083342">
		<tag k="ssr:gml_id" v="GEOMETRY_771791a0-6d5c-4dbd-855c-9ac867f78263" />
		<tag k="ssr:gml_nr" v="1" />
	</node>
	<node id="-16553" lat="59.7821361111" lon="10.950305553">
		<tag k="ssr:gml_id" v="GEOMETRY_6e5c1b68-4e06-434e-990c-57d8bb35b393" />
		<tag k="ssr:gml_nr" v="0" />
	</node>
	<node id="-16923" lat="59.669605552" lon="10.7922583265">
		<tag k="ssr:gml_id" v="GEOMETRY_4c08612e-31db-4f3c-893e-7f6c1989e1ca" />
		<tag k="ssr:gml_nr" v="3" />
	</node>
	<node id="-17940" lat="59.7783999967" lon="10.8396249927">
		<tag k="ssr:gml_id" v="GEOMETRY_ec191b95-7d8b-4d19-87c1-5f0c7257b5bf" />
		<tag k="ssr:gml_nr" v="3" />
	</node>
	<node id="-16610" lat="59.8061166691" lon="10.9414750075">
		<tag k="ssr:gml_id" v="GEOMETRY_7c23a796-e66f-4f36-8e3a-1b531e02da69" />
		<tag k="ssr:gml_nr" v="1" />
	</node>
	<node id="-16540" lat="59.7823222237" lon="10.8755333381">
		<tag k="ssr:gml_id" v="GEOMETRY_6d21fbd8-ea95-4745-9027-100d4ee71900" />
		<tag k="ssr:gml_nr" v="2" />
	</node>
	<node id="-16539" lat="59.7821416677" lon="10.8753250004">
		<tag k="ssr:gml_id" v="GEOMETRY_dcd86d48-821c-4908-b23b-fe067727b53a" />
		<tag k="ssr:gml_nr" v="1" />
	</node>
	<node id="-16538" lat="59.7821388869" lon="10.8753222254">
		<tag k="ssr:gml_id" v="GEOMETRY_87419070-0a4d-48bd-be4e-9bb70bc85b96" />
		<tag k="ssr:gml_nr" v="0" />
	</node>
	<node id="-17559" lat="59.656047219" lon="10.9446166592">
		<tag k="name" v="Hanakropåsen" />
		<tag k="natural" v="hill" />
		<tag k="place" v="locality" />
		<tag k="ssr:date" v="2016-05-11" />
		<tag k="ssr:stedsnr" v="689501" />
	</node>
	<node id="-16409" lat="59.7943222244" lon="10.8974055544">
		<tag k="ssr:gml_id" v="GEOMETRY_3b9e6cb3-ce99-47a5-b1aa-d1482ddb086b" />
		<tag k="ssr:gml_nr" v="0" />
	</node>
	<node id="-17556" lat="59.6452861154" lon="10.9435055507">
		<tag k="ssr:gml_id" v="GEOMETRY_57d73eec-b78c-4a62-9cac-d94d94480599" />
		<tag k="ssr:gml_nr" v="1" />
	</node>
	<node id="-17555" lat="59.6459249989" lon="10.9319777733">
		<tag k="ssr:gml_id" v="GEOMETRY_733f3f0a-f13b-4b8b-8ff0-52fafe5210a9" />
		<tag k="ssr:gml_nr" v="0" />
	</node>
	<node id="-17859" lat="59.7967972247" lon="10.8623638932">
		<tag k="name" v="Paddetjernkollen" />
		<tag k="natural" v="hill" />
		<tag k="place" v="locality" />
		<tag k="ssr:date" v="2016-05-11" />
		<tag k="ssr:stedsnr" v="871279" />
	</node>
	<node id="-17040" lat="59.7220861098" lon="10.9205111048">
		<tag k="name" v="Ødegården" />
		<tag k="place" v="locality" />
		<tag k="ssr:date" v="2016-05-10" />
		<tag k="ssr:stedsnr" v="447601" />
	</node>
	<node id="-17039" lat="59.7385444484" lon="10.8287499921">
		<tag k="ssr:gml_id" v="GEOMETRY_c1f96570-aeea-4e72-96e6-f3f43c8f3277" />
		<tag k="ssr:gml_nr" v="1" />
	</node>
	<node id="-17038" lat="59.7385472236" lon="10.8287500014">
		<tag k="ssr:gml_id" v="GEOMETRY_03a3e448-e123-41f2-9b76-22af5d763e03" />
		<tag k="ssr:gml_nr" v="0" />
	</node>
	<node id="-17547" lat="59.7354250041" lon="10.9208916742">
		<tag k="name" v="Pukksteinåsen" />
		<tag k="natural" v="hill" />
		<tag k="place" v="locality" />
		<tag k="ssr:date" v="2016-05-11" />
		<tag k="ssr:stedsnr" v="689432" />
	</node>
	<node id="-17033" lat="59.6939444487" lon="10.9648083362">
		<tag k="name" v="Tjuvroa" />
		<tag k="place" v="locality" />
		<tag k="ssr:date" v="2016-05-10" />
		<tag k="ssr:stedsnr" v="447548" />
	</node>
	<node id="-16520" lat="59.7090638925" lon="10.845500008">
		<tag k="name" v="Ellingsrudkleiva" />
		<tag k="natural" v="slope" />
		<tag k="place" v="locality" />
		<tag k="ssr:date" v="2016-05-10" />
		<tag k="ssr:stedsnr" v="83399" />
	</node>
	<node id="-16519" lat="59.7097444481" lon="10.8465499957">
		<tag k="name" v="Ellingsrudåsen" />
		<tag k="natural" v="hill" />
		<tag k="place" v="locality" />
		<tag k="ssr:date" v="2016-05-10" />
		<tag k="ssr:stedsnr" v="83397" />
	</node>
	<node id="-16518" lat="59.7600388904" lon="10.8457194475">
		<tag k="name" v="Vevelstadåsen" />
		<tag k="natural" v="hill" />
		<tag k="place" v="locality" />
		<tag k="ssr:date" v="2016-05-10" />
		<tag k="ssr:stedsnr" v="83390" />
	</node>
	<node id="-16516" lat="59.7162055533" lon="10.9275999967">
		<tag k="name" v="Grøstadåsen" />
		<tag k="natural" v="hill" />
		<tag k="place" v="locality" />
		<tag k="ssr:date" v="2016-05-10" />
		<tag k="ssr:stedsnr" v="83607" />
	</node>
	<node id="-17942" lat="59.7745833312" lon="10.8618388878">
		<tag k="ssr:gml_id" v="GEOMETRY_df5d9762-1450-459b-8ca9-41ad9a9139ee" />
		<tag k="ssr:gml_nr" v="1" />
	</node>
	<node id="-17538" lat="59.8066444469" lon="10.9722166689">
		<tag k="name" v="Langfuruåsen" />
		<tag k="natural" v="hill" />
		<tag k="place" v="locality" />
		<tag k="ssr:date" v="2016-05-11" />
		<tag k="ssr:stedsnr" v="689359" />
	</node>
	<node id="-16513" lat="59.6793916626" lon="10.8853638874">
		<tag k="name" v="Sigtunskogen" />
		<tag k="place" v="locality" />
		<tag k="ssr:date" v="2016-05-10" />
		<tag k="ssr:stedsnr" v="82731" />
	</node>
	<node id="-16512" lat="59.7420166681" lon="10.9627027837">
		<tag k="name" v="Bæråsen" />
		<tag k="natural" v="hill" />
		<tag k="place" v="locality" />
		<tag k="ssr:date" v="2016-05-10" />
		<tag k="ssr:stedsnr" v="82584" />
	</node>
	<node id="-17022" lat="59.7452861081" lon="10.8412194525">
		<tag k="name" v="Ramstadlia" />
		<tag k="natural" v="slope" />
		<tag k="place" v="locality" />
		<tag k="ssr:date" v="2016-05-10" />
		<tag k="ssr:stedsnr" v="447410" />
	</node>
	<node id="-17533" lat="59.7506638921" lon="10.9550611147">
		<tag k="name" v="Østre Kollåsen" />
		<tag k="natural" v="hill" />
		<tag k="place" v="locality" />
		<tag k="ssr:date" v="2016-05-11" />
		<tag k="ssr:stedsnr" v="689315" />
	</node>
	<node id="-17019" lat="59.725561108" lon="10.9537861101">
		<tag k="name" v="Moen" />
		<tag k="place" v="locality" />
		<tag k="ssr:date" v="2016-05-10" />
		<tag k="ssr:stedsnr" v="447393" />
	</node>
	<node id="-17529" lat="59.7985666693" lon="10.9411777768">
		<tag k="name" v="Sagstuåsen" />
		<tag k="natural" v="hill" />
		<tag k="place" v="locality" />
		<tag k="ssr:date" v="2016-05-11" />
		<tag k="ssr:stedsnr" v="689290" />
	</node>
	<node id="-17528" lat="59.7806972197" lon="10.8829305474">
		<tag k="name" v="Styggdalen" />
		<tag k="natural" v="valley" />
		<tag k="place" v="locality" />
		<tag k="ssr:date" v="2016-05-11" />
		<tag k="ssr:stedsnr" v="689288" />
	</node>
	<node id="-17527" lat="59.7819444412" lon="10.8836500043">
		<tag k="name" v="Delingsåsen" />
		<tag k="natural" v="hill" />
		<tag k="place" v="locality" />
		<tag k="ssr:date" v="2016-05-11" />
		<tag k="ssr:stedsnr" v="689285" />
	</node>
	<node id="-16502" lat="59.7447916634" lon="10.8840083374">
		<tag k="name" v="Furukollen" />
		<tag k="natural" v="hill" />
		<tag k="place" v="locality" />
		<tag k="ssr:date" v="2016-05-10" />
		<tag k="ssr:stedsnr" v="82435" />
	</node>
	<node id="-16318" lat="59.7653749956" lon="10.8608111161">
		<tag k="ssr:gml_id" v="GEOMETRY_b31bcd2d-4708-46ad-8a07-08819e1bba38" />
		<tag k="ssr:gml_nr" v="3" />
	</node>
	<node id="-17009" lat="59.7849666627" lon="10.9414111156">
		<tag k="name" v="Fjellstadåsen" />
		<tag k="natural" v="hill" />
		<tag k="place" v="locality" />
		<tag k="ssr:date" v="2016-05-10" />
		<tag k="ssr:stedsnr" v="447233" />
	</node>
	<node id="-17121" lat="59.7791583335" lon="10.8343444376">
		<tag k="ssr:gml_id" v="GEOMETRY_b6acd0c9-dc76-4784-9583-67b5ec5d9702" />
		<tag k="ssr:gml_nr" v="1" />
	</node>
	<node id="-16597" lat="59.8215083371" lon="10.9412583344">
		<tag k="ssr:gml_id" v="GEOMETRY_19fa0a32-fc3a-4574-a595-79e422c5e6b0" />
		<tag k="ssr:gml_nr" v="2" />
	</node>
	<node id="-16493" lat="59.7673527809" lon="10.9205444366">
		<tag k="name" v="Rumpa" />
		<tag k="natural" v="hill" />
		<tag k="place" v="locality" />
		<tag k="ssr:date" v="2016-05-10" />
		<tag k="ssr:stedsnr" v="82466" />
	</node>
	<node id="-17515" lat="59.7750305573" lon="10.9517249924">
		<tag k="ssr:gml_id" v="GEOMETRY_93469f16-217f-4994-8098-fc32a23d3c7c" />
		<tag k="ssr:gml_nr" v="2" />
	</node>
	<node id="-17514" lat="59.7757555549" lon="10.9548861067">
		<tag k="ssr:gml_id" v="GEOMETRY_ffc677b1-bf84-4aba-87ec-8079c608eb1b" />
		<tag k="ssr:gml_nr" v="1" />
	</node>
	<node id="-17513" lat="59.7757527759" lon="10.9548833257">
		<tag k="ssr:gml_id" v="GEOMETRY_9475d461-1118-45a3-9514-456704053991" />
		<tag k="ssr:gml_nr" v="0" />
	</node>
	<node id="-16488" lat="59.8012638901" lon="10.9494444458">
		<tag k="name" v="Søndre Paddetjerndalen" />
		<tag k="natural" v="valley" />
		<tag k="place" v="locality" />
		<tag k="ssr:date" v="2016-05-10" />
		<tag k="ssr:stedsnr" v="82349" />
	</node>
	<node id="-17922" lat="59.6990083338" lon="10.9387555509">
		<tag k="ssr:gml_id" v="GEOMETRY_8bd7a1cc-3837-4afe-b322-2a086e684c06" />
		<tag k="ssr:gml_nr" v="2" />
	</node>
	<node id="-16485" lat="59.7643999972" lon="10.8467138817">
		<tag k="name" v="Lyngåsen" />
		<tag k="natural" v="hill" />
		<tag k="place" v="locality" />
		<tag k="ssr:date" v="2016-05-10" />
		<tag k="ssr:stedsnr" v="82365" />
	</node>
	<node id="-16483" lat="59.814900004" lon="10.9264388904">
		<tag k="name" v="Hagåsen" />
		<tag k="natural" v="hill" />
		<tag k="place" v="locality" />
		<tag k="ssr:date" v="2016-05-10" />
		<tag k="ssr:stedsnr" v="82355" />
	</node>
	<node id="-16609" lat="59.8061138847" lon="10.9414750061">
		<tag k="ssr:gml_id" v="GEOMETRY_cbc8360c-240d-4b16-8d5a-51311e26da94" />
		<tag k="ssr:gml_nr" v="0" />
	</node>
	<node id="-16479" lat="59.8094638851" lon="10.8938555609">
		<tag k="name" v="Kjøredalen" />
		<tag k="natural" v="valley" />
		<tag k="place" v="locality" />
		<tag k="ssr:date" v="2016-05-10" />
		<tag k="ssr:stedsnr" v="82275" />
	</node>
	<node id="-16478" lat="59.8005250039" lon="10.9195722203">
		<tag k="name" v="Delingsdalen" />
		<tag k="natural" v="valley" />
		<tag k="place" v="locality" />
		<tag k="ssr:date" v="2016-05-10" />
		<tag k="ssr:stedsnr" v="82271" />
	</node>
	<node id="-16730" lat="59.8104777781" lon="10.845580552">
		<tag k="ssr:gml_id" v="GEOMETRY_7f80e838-4945-48ac-89fc-b179af94b841" />
		<tag k="ssr:gml_nr" v="1" />
	</node>
	<node id="-17498" lat="59.799205552" lon="10.9170722268">
		<tag k="ssr:gml_id" v="GEOMETRY_482be8e0-e59a-4ec0-8437-8c04dfc9cf88" />
		<tag k="ssr:gml_nr" v="2" />
	</node>
	<node id="-17497" lat="59.7979333355" lon="10.9157416601">
		<tag k="ssr:gml_id" v="GEOMETRY_d2dbed5d-c99f-49f1-8b89-71d4708f0e9c" />
		<tag k="ssr:gml_nr" v="1" />
	</node>
	<node id="-17496" lat="59.7979305556" lon="10.9157388804">
		<tag k="ssr:gml_id" v="GEOMETRY_f141a09b-9643-4a2e-a8db-6e6c05f157b4" />
		<tag k="ssr:gml_nr" v="0" />
	</node>
	<node id="-17069" lat="59.7282027785" lon="10.8063416593">
		<tag k="ssr:gml_id" v="GEOMETRY_6aa887ef-0ca6-43a3-ac87-ce8b6ef2bfb5" />
		<tag k="ssr:gml_nr" v="0" />
	</node>
	<node id="-16728" lat="59.7994972256" lon="10.9535111104">
		<tag k="ssr:gml_id" v="GEOMETRY_a4fcdc30-e0f2-4fd4-ae69-e07b03def022" />
		<tag k="ssr:gml_nr" v="2" />
	</node>
	<node id="-17492" lat="59.8249444472" lon="10.9147861024">
		<tag k="ssr:gml_id" v="GEOMETRY_f15f88d2-a9cb-4f93-a83c-5e384f331b35" />
		<tag k="ssr:gml_nr" v="2" />
	</node>
	<node id="-17491" lat="59.8240277773" lon="10.9144555603">
		<tag k="ssr:gml_id" v="GEOMETRY_b2bbb73a-36cd-4d2b-89f2-346c54818fca" />
		<tag k="ssr:gml_nr" v="1" />
	</node>
	<node id="-17490" lat="59.8240249974" lon="10.9144527785">
		<tag k="ssr:gml_id" v="GEOMETRY_39bac108-7001-4399-811d-46462014f006" />
		<tag k="ssr:gml_nr" v="0" />
	</node>
	<node id="-16097" lat="59.8056499979" lon="10.8693472292">
		<tag k="name" v="Borkedalen" />
		<tag k="natural" v="valley" />
		<tag k="place" v="locality" />
		<tag k="ssr:date" v="2016-05-10" />
		<tag k="ssr:stedsnr" v="325314" />
	</node>
	<node id="-17485" lat="59.8075583358" lon="10.9016222179">
		<tag k="ssr:gml_id" v="GEOMETRY_9ca50f9e-b178-4871-9bba-5f95841f2e8f" />
		<tag k="ssr:gml_nr" v="3" />
	</node>
	<node id="-17484" lat="59.8070916693" lon="10.9017749987">
		<tag k="ssr:gml_id" v="GEOMETRY_8b6aac96-1842-4e11-b515-de5611853eb9" />
		<tag k="ssr:gml_nr" v="2" />
	</node>
	<node id="-17995" lat="59.728263888" lon="10.8459583356">
		<tag k="name" v="Vardåsen" />
		<tag k="natural" v="hill" />
		<tag k="place" v="locality" />
		<tag k="ssr:date" v="2016-05-11" />
		<tag k="ssr:stedsnr" v="932447" />
	</node>
	<node id="-17994" lat="59.7328777819" lon="10.844519446">
		<tag k="name" v="Vabakken" />
		<tag k="natural" v="slope" />
		<tag k="place" v="locality" />
		<tag k="ssr:date" v="2016-05-11" />
		<tag k="ssr:stedsnr" v="932445" />
	</node>
	<node id="-16968" lat="59.715350003" lon="10.9768638815">
		<tag k="ssr:gml_id" v="GEOMETRY_3f650cf7-bf0a-41d3-af67-8c84f8e712d6" />
		<tag k="ssr:gml_nr" v="2" />
	</node>
	<node id="-16967" lat="59.7105555526" lon="10.9818583415">
		<tag k="ssr:gml_id" v="GEOMETRY_c649bbe7-f513-4403-9f86-33eaa74cc0e2" />
		<tag k="ssr:gml_nr" v="1" />
	</node>
	<node id="-16966" lat="59.7105527741" lon="10.9818555637">
		<tag k="ssr:gml_id" v="GEOMETRY_e96043f5-60cb-488c-8928-ca0e67b2df22" />
		<tag k="ssr:gml_nr" v="0" />
	</node>
	<node id="-16453" lat="59.7565249995" lon="10.8838138864">
		<tag k="ssr:gml_id" v="GEOMETRY_e6e534c0-47b1-4f91-a781-1b11b569a5e4" />
		<tag k="ssr:gml_nr" v="0" />
	</node>
	<node id="-16907" lat="59.7080555562" lon="10.9839388917">
		<tag k="ssr:gml_id" v="GEOMETRY_b19b9257-9522-4f2a-b52e-e5a7a262f42d" />
		<tag k="ssr:gml_nr" v="1" />
	</node>
	<node id="-16763" lat="59.7611444482" lon="10.8864527823">
		<tag k="name" v="Grauthølet" />
		<tag k="natural" v="valley" />
		<tag k="place" v="locality" />
		<tag k="ssr:date" v="2016-05-10" />
		<tag k="ssr:stedsnr" v="204431" />
	</node>
	<node id="-17731" lat="59.7751305577" lon="10.8858944449">
		<tag k="ssr:gml_id" v="GEOMETRY_3060a020-f3a2-4be8-9301-2187f813ffc7" />
		<tag k="ssr:gml_nr" v="2" />
	</node>
	<node id="-17503" lat="59.7577305543" lon="10.8222500055">
		<tag k="ssr:gml_id" v="GEOMETRY_3abf1d1a-d925-4fde-abac-c6ac55f2f155" />
		<tag k="ssr:gml_nr" v="1" />
	</node>
	<node id="-17502" lat="59.757727779" lon="10.8222499968">
		<tag k="ssr:gml_id" v="GEOMETRY_28517332-4053-4365-8f9b-4a42972c0621" />
		<tag k="ssr:gml_nr" v="0" />
	</node>
	<node id="-17967" lat="59.7815472182" lon="10.9620777828">
		<tag k="ssr:gml_id" v="GEOMETRY_956b8fb7-7205-4146-8279-2fa83da0537c" />
		<tag k="ssr:gml_nr" v="1" />
	</node>
	<node id="-17966" lat="59.7744055564" lon="10.9599805511">
		<tag k="ssr:gml_id" v="GEOMETRY_58f3afa1-0ab5-422d-9981-0ba7f5948810" />
		<tag k="ssr:gml_nr" v="0" />
	</node>
	<node id="-17545" lat="59.7492777783" lon="10.8251222221">
		<tag k="name" v="Dalstubben" />
		<tag k="natural" v="hill" />
		<tag k="place" v="locality" />
		<tag k="ssr:date" v="2016-05-11" />
		<tag k="ssr:stedsnr" v="689415" />
	</node>
	<node id="-17962" lat="59.792497219" lon="10.885588885">
		<tag k="name" v="Kirkekollen" />
		<tag k="natural" v="hill" />
		<tag k="place" v="locality" />
		<tag k="ssr:date" v="2016-05-11" />
		<tag k="ssr:stedsnr" v="932287" />
	</node>
	<node id="-16706" lat="59.7707416683" lon="10.9077388894">
		<tag k="ssr:gml_id" v="GEOMETRY_cb5e42f1-67c1-47c9-8c78-1c64a790312b" />
		<tag k="ssr:gml_nr" v="0" />
	</node>
	<node id="-17959" lat="59.7701583295" lon="10.8849111112">
		<tag k="name" v="Brandsrudåsen" />
		<tag k="natural" v="hill" />
		<tag k="place" v="locality" />
		<tag k="ssr:date" v="2016-05-11" />
		<tag k="ssr:stedsnr" v="932259" />
	</node>
	<node id="-16490" lat="59.7366499969" lon="10.8858527834">
		<tag k="name" v="Lunneråsen" />
		<tag k="natural" v="hill" />
		<tag k="place" v="locality" />
		<tag k="ssr:date" v="2016-05-10" />
		<tag k="ssr:stedsnr" v="82456" />
	</node>
	<node id="-16731" lat="59.8102527762" lon="10.8457916749">
		<tag k="ssr:gml_id" v="GEOMETRY_92625b62-f02b-4b64-bd90-0e9002227671" />
		<tag k="ssr:gml_nr" v="2" />
	</node>
	<node id="-16928" lat="59.7019055529" lon="10.9233861131">
		<tag k="ssr:gml_id" v="GEOMETRY_3a55e8ef-625a-4de8-a19f-f32bfab0bc19" />
		<tag k="ssr:gml_nr" v="8" />
	</node>
	<node id="-16927" lat="59.5581611079" lon="10.7224972246">
		<tag k="ssr:gml_id" v="GEOMETRY_f54480f6-16dd-4d77-8dab-6104e2c23ab5" />
		<tag k="ssr:gml_nr" v="7" />
	</node>
	<node id="-16317" lat="59.7648750042" lon="10.8605500063">
		<tag k="ssr:gml_id" v="GEOMETRY_1008f469-5ccb-49ba-8b6f-0036d320f4ba" />
		<tag k="ssr:gml_nr" v="2" />
	</node>
	<node id="-16925" lat="59.7200666639" lon="11.1096166712">
		<tag k="ssr:gml_id" v="GEOMETRY_149a3b93-246d-4bbe-bbdd-bf95ad75c09e" />
		<tag k="ssr:gml_nr" v="5" />
	</node>
	<node id="-16924" lat="59.8097500032" lon="10.8015250087">
		<tag k="ssr:gml_id" v="GEOMETRY_ba45126a-5b52-4ebd-a0ad-060e20e2387e" />
		<tag k="ssr:gml_nr" v="4" />
	</node>
	<node id="-16411" lat="59.7941111069" lon="10.8967166607">
		<tag k="ssr:gml_id" v="GEOMETRY_3acab2e6-73a0-47b7-8d47-909b7116db33" />
		<tag k="ssr:gml_nr" v="2" />
	</node>
	<node id="-16922" lat="59.7714527759" lon="10.6559666614">
		<tag k="ssr:gml_id" v="GEOMETRY_4833cad3-b732-47af-8752-a7b4a45d9a16" />
		<tag k="ssr:gml_nr" v="2" />
	</node>
	<node id="-16921" lat="59.7019027774" lon="10.9233861139">
		<tag k="ssr:gml_id" v="GEOMETRY_9301ad59-803a-4510-9402-236825e6a328" />
		<tag k="ssr:gml_nr" v="1" />
	</node>
	<node id="-16920" lat="59.7019055571" lon="10.9233888861">
		<tag k="ssr:gml_id" v="GEOMETRY_4188f1cb-c6ac-4ad7-9aba-9e69147e8487" />
		<tag k="ssr:gml_nr" v="0" />
	</node>
	<node id="-17943" lat="59.774483334" lon="10.8626999916">
		<tag k="ssr:gml_id" v="GEOMETRY_c1d40b63-5293-4a46-8e9b-62a6e6d028d3" />
		<tag k="ssr:gml_nr" v="2" />
	</node>
	<node id="-16918" lat="59.7117888886" lon="10.8194805518">
		<tag k="name" v="Vellingberget" />
		<tag k="natural" v="hill" />
		<tag k="place" v="locality" />
		<tag k="ssr:date" v="2016-05-10" />
		<tag k="ssr:stedsnr" v="265618" />
	</node>
	<node id="-17157" lat="59.7581916665" lon="10.8216194409">
		<tag k="name" v="Furusetåsen" />
		<tag k="natural" v="hill" />
		<tag k="place" v="locality" />
		<tag k="ssr:date" v="2016-05-10" />
		<tag k="ssr:stedsnr" v="507395" />
	</node>
	<node id="-16916" lat="59.6925583357" lon="10.9564888932">
		<tag k="name" v="Hjellsåsen" />
		<tag k="natural" v="hill" />
		<tag k="place" v="locality" />
		<tag k="ssr:date" v="2016-05-10" />
		<tag k="ssr:stedsnr" v="265593" />
	</node>
	<node id="-17939" lat="59.8008861146" lon="10.8496944382">
		<tag k="ssr:gml_id" v="GEOMETRY_8bdc24e3-9edd-4866-a684-74cb2e3ed569" />
		<tag k="ssr:gml_nr" v="2" />
	</node>
	<node id="-17938" lat="59.7774388867" lon="10.8394111123">
		<tag k="ssr:gml_id" v="GEOMETRY_b3003362-0450-4e47-8c0d-173b218d736a" />
		<tag k="ssr:gml_nr" v="1" />
	</node>
	<node id="-16108" lat="59.7726833356" lon="10.8896222203">
		<tag k="ssr:gml_id" v="GEOMETRY_098ccb87-17fb-4c0d-8b6b-9abc1027cac5" />
		<tag k="ssr:gml_nr" v="0" />
	</node>
	<node id="-16911" lat="59.6265499999" lon="10.891347219">
		<tag k="name" v="Enden" />
		<tag k="place" v="locality" />
		<tag k="ssr:date" v="2016-05-10" />
		<tag k="ssr:stedsnr" v="264733" />
	</node>
	<node id="-17941" lat="59.7745805591" lon="10.861836115">
		<tag k="ssr:gml_id" v="GEOMETRY_7b912889-61fa-48f3-937b-9fae04bc1582" />
		<tag k="ssr:gml_nr" v="0" />
	</node>
	<node id="-17933" lat="59.8100611143" lon="10.8734111028">
		<tag k="ssr:gml_id" v="GEOMETRY_3876cf80-2d78-4b5b-933a-cc0185506065" />
		<tag k="ssr:gml_nr" v="2" />
	</node>
	<node id="-17932" lat="59.8075833291" lon="10.8743583329">
		<tag k="ssr:gml_id" v="GEOMETRY_a341bae4-139d-4b94-bccb-78f123bbc60f" />
		<tag k="ssr:gml_nr" v="1" />
	</node>
	<node id="-17931" lat="59.8075805574" lon="10.8743555563">
		<tag k="ssr:gml_id" v="GEOMETRY_f41ac140-c094-4d2a-9b93-bbe54074808c" />
		<tag k="ssr:gml_nr" v="0" />
	</node>
	<node id="-16906" lat="59.7079777793" lon="10.9767944361">
		<tag k="ssr:gml_id" v="GEOMETRY_3ffcc9f6-1754-4138-afcf-fc1ce90efb71" />
		<tag k="ssr:gml_nr" v="0" />
	</node>
	<node id="-16727" lat="59.7997083292" lon="10.9550055536">
		<tag k="ssr:gml_id" v="GEOMETRY_1a7a9549-68af-445a-9a07-593150feef5f" />
		<tag k="ssr:gml_nr" v="1" />
	</node>
	<node id="-16390" lat="59.7055777803" lon="10.9099333274">
		<tag k="name" v="Steinmølbakken" />
		<tag k="natural" v="slope" />
		<tag k="place" v="locality" />
		<tag k="ssr:date" v="2016-05-10" />
		<tag k="ssr:stedsnr" v="22605" />
	</node>
	<node id="-17921" lat="59.6991250008" lon="10.9391333282">
		<tag k="ssr:gml_id" v="GEOMETRY_3a1e9500-8c7e-4bed-a8ab-72da1f3a4b62" />
		<tag k="ssr:gml_nr" v="1" />
	</node>
	<node id="-16726" lat="59.7997055592" lon="10.955002771">
		<tag k="ssr:gml_id" v="GEOMETRY_ea17a5b7-1bb1-432c-bd78-ec2eafcb9fdc" />
		<tag k="ssr:gml_nr" v="0" />
	</node>
	<node id="-17410" lat="59.7653583364" lon="10.8825916752">
		<tag k="name" v="Nylennaåsen" />
		<tag k="natural" v="hill" />
		<tag k="place" v="locality" />
		<tag k="ssr:date" v="2016-05-10" />
		<tag k="ssr:stedsnr" v="628484" />
	</node>
	<node id="-16897" lat="59.758622222" lon="10.8638611096">
		<tag k="name" v="Jonsrudåsene" />
		<tag k="natural" v="hill" />
		<tag k="place" v="locality" />
		<tag k="ssr:date" v="2016-05-10" />
		<tag k="ssr:stedsnr" v="264485" />
	</node>
	<way id="-4586">
		<tag k="name" v="Slettåsen" />
		<tag k="natural" v="hill" />
		<tag k="place" v="locality" />
		<tag k="ssr:date" v="2016-05-10" />
		<tag k="ssr:stedsnr" v="187237" />
		<nd ref="-16723" />
		<nd ref="-16724" />
		<nd ref="-16725" />
	</way>
	<way id="-4858">
		<tag k="alt_name" v="Grubeåsen" />
		<tag k="name" v="Sotåsen" />
		<tag k="natural" v="hill" />
		<tag k="place" v="locality" />
		<tag k="ssr:date" v="2016-05-11" />
		<tag k="ssr:stedsnr" v="855523" />
		<nd ref="-17853" />
		<nd ref="-17854" />
		<nd ref="-17855" />
	</way>
	<way id="-4601">
		<tag k="name" v="Helvete" />
		<tag k="natural" v="valley" />
		<tag k="place" v="locality" />
		<tag k="ssr:date" v="2016-05-10" />
		<tag k="ssr:stedsnr" v="204510" />
		<nd ref="-16793" />
		<nd ref="-16794" />
	</way>
	<way id="-4854">
		<tag k="name" v="Klemmaåsen" />
		<tag k="natural" v="hill" />
		<tag k="place" v="locality" />
		<tag k="ssr:date" v="2016-05-11" />
		<tag k="ssr:stedsnr" v="854393" />
		<nd ref="-17841" />
		<nd ref="-17842" />
		<nd ref="-17843" />
	</way>
	<way id="-4846">
		<tag k="name" v="Høgesset" />
		<tag k="natural" v="hill" />
		<tag k="place" v="locality" />
		<tag k="ssr:date" v="2016-05-11" />
		<tag k="ssr:stedsnr" v="853544" />
		<nd ref="-17812" />
		<nd ref="-17813" />
		<nd ref="-17814" />
		<nd ref="-17815" />
	</way>
	<way id="-4589">
		<tag k="alt_name" v="Store Malmen" />
		<tag k="name" v="Malmen" />
		<tag k="natural" v="hill" />
		<tag k="place" v="locality" />
		<tag k="ssr:date" v="2016-05-10" />
		<tag k="ssr:stedsnr" v="187282" />
		<nd ref="-16732" />
		<nd ref="-16733" />
		<nd ref="-16734" />
	</way>
	<way id="-4588">
		<tag k="name" v="Taraldrudåsen" />
		<tag k="natural" v="hill" />
		<tag k="place" v="locality" />
		<tag k="ssr:date" v="2016-05-10" />
		<tag k="ssr:stedsnr" v="187269" />
		<nd ref="-16729" />
		<nd ref="-16730" />
		<nd ref="-16731" />
	</way>
	<way id="-4587">
		<tag k="name" v="Kadettåsen" />
		<tag k="natural" v="hill" />
		<tag k="place" v="locality" />
		<tag k="ssr:date" v="2016-05-10" />
		<tag k="ssr:stedsnr" v="187245" />
		<nd ref="-16726" />
		<nd ref="-16727" />
		<nd ref="-16728" />
	</way>
	<way id="-4714">
		<tag k="name" v="Langåsen" />
		<tag k="natural" v="hill" />
		<tag k="place" v="locality" />
		<tag k="ssr:date" v="2016-05-10" />
		<tag k="ssr:stedsnr" v="551274" />
		<nd ref="-17238" />
		<nd ref="-17239" />
		<nd ref="-17240" />
	</way>
	<way id="-4711">
		<tag k="name" v="Lauvåsen" />
		<tag k="natural" v="hill" />
		<tag k="place" v="locality" />
		<tag k="ssr:date" v="2016-05-10" />
		<tag k="ssr:stedsnr" v="550399" />
		<nd ref="-17230" />
		<nd ref="-17231" />
		<nd ref="-17232" />
	</way>
	<way id="-4838">
		<tag k="name" v="Pinadalen" />
		<tag k="natural" v="valley" />
		<tag k="place" v="locality" />
		<tag k="ssr:date" v="2016-05-11" />
		<tag k="ssr:stedsnr" v="811549" />
		<nd ref="-17787" />
		<nd ref="-17788" />
	</way>
	<way id="-4581">
		<tag k="name" v="Haugfjell" />
		<tag k="natural" v="hill" />
		<tag k="old_name" v="Høgfjell" />
		<tag k="place" v="locality" />
		<tag k="ssr:date" v="2016-05-10" />
		<tag k="ssr:stedsnr" v="186453" />
		<nd ref="-16706" />
		<nd ref="-16707" />
		<nd ref="-16708" />
		<nd ref="-16709" />
	</way>
	<way id="-4707">
		<tag k="alt_name" v="Størthølet" />
		<tag k="name" v="Størtholet" />
		<tag k="natural" v="valley" />
		<tag k="old_name" v="Styrteholet" />
		<tag k="place" v="locality" />
		<tag k="ssr:date" v="2016-05-10" />
		<tag k="ssr:stedsnr" v="550300" />
		<nd ref="-17216" />
		<nd ref="-17217" />
		<nd ref="-17218" />
		<nd ref="-17219" />
	</way>
	<way id="-4827">
		<tag k="name" v="Steinryggen" />
		<tag k="natural" v="hill" />
		<tag k="place" v="locality" />
		<tag k="ssr:date" v="2016-05-11" />
		<tag k="ssr:stedsnr" v="793328" />
		<nd ref="-17729" />
		<nd ref="-17730" />
		<nd ref="-17731" />
	</way>
	<way id="-4441">
		<tag k="name" v="Delingsdalen" />
		<tag k="natural" v="valley" />
		<tag k="place" v="locality" />
		<tag k="ssr:date" v="2016-05-10" />
		<tag k="ssr:stedsnr" v="325274" />
		<nd ref="-16108" />
		<nd ref="-16109" />
	</way>
	<way id="-4440">
		<tag k="name" v="Merradalen" />
		<tag k="natural" v="valley" />
		<tag k="place" v="locality" />
		<tag k="ssr:date" v="2016-05-10" />
		<tag k="ssr:stedsnr" v="325356" />
		<nd ref="-16100" />
		<nd ref="-16101" />
	</way>
	<way id="-4644">
		<tag k="name" v="Teigåsen" />
		<tag k="natural" v="hill" />
		<tag k="place" v="locality" />
		<tag k="ssr:date" v="2016-05-10" />
		<tag k="ssr:stedsnr" v="428526" />
		<nd ref="-16966" />
		<nd ref="-16967" />
		<nd ref="-16968" />
	</way>
	<way id="-4566">
		<tag k="name" v="Kuklemåsen" />
		<tag k="natural" v="hill" />
		<tag k="old_name" v="Kuklamåsen;Kuklemåsan" />
		<tag k="place" v="locality" />
		<tag k="ssr:date" v="2016-05-10" />
		<tag k="ssr:stedsnr" v="162269" />
		<nd ref="-16666" />
		<nd ref="-16667" />
		<nd ref="-16668" />
		<nd ref="-16669" />
	</way>
	<way id="-4692">
		<tag k="name" v="Bonndalsåsen" />
		<tag k="natural" v="hill" />
		<tag k="place" v="locality" />
		<tag k="ssr:date" v="2016-05-10" />
		<tag k="ssr:stedsnr" v="490387" />
		<nd ref="-17140" />
		<nd ref="-17141" />
	</way>
	<way id="-4435">
		<tag k="name" v="Sauåsen" />
		<tag k="natural" v="hill" />
		<tag k="place" v="locality" />
		<tag k="ssr:date" v="2016-05-10" />
		<tag k="ssr:stedsnr" v="308324" />
		<nd ref="-16081" />
		<nd ref="-16082" />
		<nd ref="-16083" />
	</way>
	<way id="-4689">
		<tag k="alt_name" v="Grytebråtåsen" />
		<tag k="name" v="Sagåsen" />
		<tag k="natural" v="hill" />
		<tag k="place" v="locality" />
		<tag k="ssr:date" v="2016-05-10" />
		<tag k="ssr:stedsnr" v="490344" />
		<nd ref="-17132" />
		<nd ref="-17133" />
		<nd ref="-17134" />
	</way>
	<way id="-4685">
		<tag k="alt_name" v="Pinnåsen" />
		<tag k="name" v="Pinåsen" />
		<tag k="natural" v="hill" />
		<tag k="place" v="locality" />
		<tag k="ssr:date" v="2016-05-10" />
		<tag k="ssr:stedsnr" v="490301" />
		<nd ref="-17120" />
		<nd ref="-17121" />
		<nd ref="-17122" />
		<nd ref="-17123" />
	</way>
	<way id="-4552">
		<tag k="alt_name" v="Flatåsen" />
		<tag k="name" v="Flaåsen" />
		<tag k="natural" v="hill" />
		<tag k="place" v="locality" />
		<tag k="ssr:date" v="2016-05-10" />
		<tag k="ssr:stedsnr" v="126278" />
		<nd ref="-16595" />
		<nd ref="-16596" />
		<nd ref="-16597" />
	</way>
	<way id="-4670">
		<tag k="name" v="Bollerudåsen" />
		<tag k="natural" v="hill" />
		<tag k="place" v="locality" />
		<tag k="ssr:date" v="2016-05-10" />
		<tag k="ssr:stedsnr" v="488565" />
		<nd ref="-17069" />
		<nd ref="-17070" />
		<nd ref="-17071" />
	</way>
	<way id="-4538">
		<tag k="name" v="Hyttåsen" />
		<tag k="natural" v="hill" />
		<tag k="place" v="locality" />
		<tag k="ssr:date" v="2016-05-10" />
		<tag k="ssr:stedsnr" v="125443" />
		<nd ref="-16553" />
		<nd ref="-16554" />
		<nd ref="-16555" />
	</way>
	<way id="-4792">
		<tag k="alt_name" v="Kullebunnåsen" />
		<tag k="name" v="Kolabonnåsen" />
		<tag k="natural" v="hill" />
		<tag k="place" v="locality" />
		<tag k="ssr:date" v="2016-05-11" />
		<tag k="ssr:stedsnr" v="732316" />
		<nd ref="-17587" />
		<nd ref="-17588" />
		<nd ref="-17589" />
	</way>
	<way id="-4534">
		<tag k="name" v="Verpåsen" />
		<tag k="natural" v="hill" />
		<tag k="place" v="locality" />
		<tag k="ssr:date" v="2016-05-10" />
		<tag k="ssr:stedsnr" v="125336" />
		<nd ref="-16538" />
		<nd ref="-16539" />
		<nd ref="-16540" />
	</way>
	<way id="-4489">
		<tag k="alt_name" v="Bølerkollen" />
		<tag k="name" v="Bøleråsen" />
		<tag k="natural" v="hill" />
		<tag k="place" v="locality" />
		<tag k="ssr:date" v="2016-05-10" />
		<tag k="ssr:stedsnr" v="4427" />
		<nd ref="-16315" />
		<nd ref="-16316" />
		<nd ref="-16317" />
		<nd ref="-16318" />
	</way>
	<way id="-4660">
		<tag k="name" v="Møllebakken" />
		<tag k="natural" v="slope" />
		<tag k="place" v="locality" />
		<tag k="ssr:date" v="2016-05-10" />
		<tag k="ssr:stedsnr" v="447577" />
		<nd ref="-17038" />
		<nd ref="-17039" />
	</way>
	<way id="-4784">
		<tag k="alt_name" v="Brekkaåsen" />
		<tag k="name" v="Brekkeåsen" />
		<tag k="natural" v="hill" />
		<tag k="place" v="locality" />
		<tag k="ssr:date" v="2018-01-19" />
		<tag k="ssr:stedsnr" v="689481" />
		<nd ref="-17555" />
		<nd ref="-17556" />
	</way>
	<way id="-4460">
		<tag k="name" v="Buåsen" />
		<tag k="natural" v="hill" />
		<tag k="place" v="locality" />
		<tag k="ssr:date" v="2016-05-10" />
		<tag k="ssr:stedsnr" v="368348" />
		<nd ref="-16181" />
		<nd ref="-16182" />
		<nd ref="-16183" />
	</way>
	<way id="-4778">
		<tag k="loc_name" v="Gjevikåsen" />
		<tag k="name" v="Jevikåsen" />
		<tag k="natural" v="hill" />
		<tag k="place" v="locality" />
		<tag k="ssr:date" v="2016-05-10" />
		<tag k="ssr:stedsnr" v="672404" />
		<nd ref="-17513" />
		<nd ref="-17514" />
		<nd ref="-17515" />
	</way>
	<way id="-4521">
		<tag k="name" v="Mørkåsen" />
		<tag k="natural" v="hill" />
		<tag k="place" v="locality" />
		<tag k="ssr:date" v="2016-05-10" />
		<tag k="ssr:stedsnr" v="65380" />
		<nd ref="-16453" />
		<nd ref="-16454" />
		<nd ref="-16455" />
	</way>
	<way id="-4774">
		<tag k="name" v="Fossholtet" />
		<tag k="natural" v="hill" />
		<tag k="place" v="locality" />
		<tag k="ssr:date" v="2016-05-10" />
		<tag k="ssr:stedsnr" v="672366" />
		<nd ref="-17502" />
		<nd ref="-17503" />
	</way>
	<way id="-4772">
		<tag k="name" v="Snikedalsåsen" />
		<tag k="natural" v="hill" />
		<tag k="place" v="locality" />
		<tag k="ssr:date" v="2016-05-10" />
		<tag k="ssr:stedsnr" v="672317" />
		<nd ref="-17496" />
		<nd ref="-17497" />
		<nd ref="-17498" />
	</way>
	<way id="-4770">
		<tag k="alt_name" v="Lille Malmen" />
		<tag k="name" v="Veståsen" />
		<tag k="natural" v="hill" />
		<tag k="place" v="locality" />
		<tag k="ssr:date" v="2016-05-10" />
		<tag k="ssr:stedsnr" v="672260" />
		<nd ref="-17490" />
		<nd ref="-17491" />
		<nd ref="-17492" />
	</way>
	<way id="-4768">
		<tag k="alt_name" v="Syverudåsen" />
		<tag k="name" v="Syverrudåsen" />
		<tag k="natural" v="hill" />
		<tag k="place" v="locality" />
		<tag k="ssr:date" v="2016-05-10" />
		<tag k="ssr:stedsnr" v="672232" />
		<nd ref="-17482" />
		<nd ref="-17483" />
		<nd ref="-17484" />
		<nd ref="-17485" />
	</way>
	<way id="-4508">
		<tag k="name" v="Tangefjellet" />
		<tag k="natural" v="hill" />
		<tag k="place" v="locality" />
		<tag k="ssr:date" v="2016-05-10" />
		<tag k="ssr:stedsnr" v="65336" />
		<nd ref="-16409" />
		<nd ref="-16410" />
		<nd ref="-16411" />
	</way>
	<way id="-4629">
		<tag k="name" v="Follo" />
		<tag k="ssr:date" v="2016-05-10" />
		<tag k="ssr:stedsnr" v="267868" />
		<nd ref="-16920" />
		<nd ref="-16921" />
		<nd ref="-16922" />
		<nd ref="-16923" />
		<nd ref="-16924" />
		<nd ref="-16925" />
		<nd ref="-16926" />
		<nd ref="-16927" />
		<nd ref="-16928" />
	</way>
	<way id="-4627">
		<tag k="name" v="Sververdalen" />
		<tag k="natural" v="valley" />
		<tag k="place" v="locality" />
		<tag k="ssr:date" v="2016-05-10" />
		<tag k="ssr:stedsnr" v="264539" />
		<nd ref="-16906" />
		<nd ref="-16907" />
	</way>
	<way id="-4882">
		<tag k="name" v="Grubedalen" />
		<tag k="natural" v="valley" />
		<tag k="place" v="locality" />
		<tag k="ssr:date" v="2016-05-11" />
		<tag k="ssr:stedsnr" v="932343" />
		<nd ref="-17966" />
		<nd ref="-17967" />
	</way>
	<way id="-4496">
		<tag k="name" v="Kollåsen" />
		<tag k="natural" v="hill" />
		<tag k="place" v="locality" />
		<tag k="ssr:date" v="2016-05-10" />
		<tag k="ssr:stedsnr" v="5466" />
		<nd ref="-16340" />
		<nd ref="-16341" />
	</way>
	<way id="-4557">
		<tag k="name" v="Svarvestolen" />
		<tag k="natural" v="hill" />
		<tag k="place" v="locality" />
		<tag k="ssr:date" v="2016-05-10" />
		<tag k="ssr:stedsnr" v="126238" />
		<nd ref="-16609" />
		<nd ref="-16610" />
		<nd ref="-16611" />
	</way>
	<way id="-4622">
		<tag k="name" v="Tømmerås" />
		<tag k="natural" v="hill" />
		<tag k="place" v="locality" />
		<tag k="ssr:date" v="2016-05-10" />
		<tag k="ssr:stedsnr" v="248258" />
		<nd ref="-16860" />
		<nd ref="-16861" />
		<nd ref="-16862" />
	</way>
	<way id="-4877">
		<tag k="name" v="Fugleåsen" />
		<tag k="natural" v="hill" />
		<tag k="place" v="locality" />
		<tag k="ssr:date" v="2016-05-11" />
		<tag k="ssr:stedsnr" v="915302" />
		<nd ref="-17941" />
		<nd ref="-17942" />
		<nd ref="-17943" />
	</way>
	<way id="-4876">
		<tag k="name" v="Assurdalen" />
		<tag k="natural" v="valley" />
		<tag k="place" v="locality" />
		<tag k="ssr:date" v="2016-05-11" />
		<tag k="ssr:stedsnr" v="915300" />
		<nd ref="-17937" />
		<nd ref="-17938" />
		<nd ref="-17939" />
		<nd ref="-17940" />
	</way>
	<way id="-4874">
		<tag k="name" v="Bråtenåsen" />
		<tag k="natural" v="hill" />
		<tag k="place" v="locality" />
		<tag k="ssr:date" v="2016-05-11" />
		<tag k="ssr:stedsnr" v="915230" />
		<nd ref="-17931" />
		<nd ref="-17932" />
		<nd ref="-17933" />
	</way>
	<way id="-4617">
		<tag k="name" v="Piggåsen" />
		<tag k="natural" v="hill" />
		<tag k="place" v="locality" />
		<tag k="ssr:date" v="2016-05-10" />
		<tag k="ssr:stedsnr" v="247333" />
		<nd ref="-16845" />
		<nd ref="-16846" />
		<nd ref="-16847" />
	</way>
	<way id="-4615">
		<tag k="alt_name" v="Torvet" />
		<tag k="name" v="Torget" />
		<tag k="place" v="locality" />
		<tag k="ssr:date" v="2016-05-10" />
		<tag k="ssr:stedsnr" v="247292" />
		<nd ref="-16839" />
		<nd ref="-16840" />
		<nd ref="-16841" />
	</way>
	<way id="-4870">
		<tag k="alt_name" v="Hølåsen" />
		<tag k="name" v="Holåsen" />
		<tag k="natural" v="hill" />
		<tag k="place" v="locality" />
		<tag k="ssr:date" v="2016-05-11" />
		<tag k="ssr:stedsnr" v="914394" />
		<nd ref="-17920" />
		<nd ref="-17921" />
		<nd ref="-17922" />
	</way>
	<way id="-4740">
		<tag k="name" v="Greverudåsen" />
		<tag k="natural" v="hill" />
		<tag k="place" v="locality" />
		<tag k="ssr:date" v="2016-05-10" />
		<tag k="ssr:stedsnr" v="611340" />
		<nd ref="-17354" />
		<nd ref="-17355" />
		<nd ref="-17356" />
	</way>
	<way id="-4433">
		<tag k="name" v="Flatåsen" />
		<tag k="natural" v="hill" />
		<tag k="place" v="locality" />
		<tag k="ssr:date" v="2016-05-10" />
		<tag k="ssr:stedsnr" v="308302" />
		<nd ref="-16076" />
		<nd ref="-16077" />
		<nd ref="-16078" />
	</way>
</osm>
