<?xml version="1.0" encoding="UTF-8"?>
<osm generator="osmapis" version="0.6">
	<node id="-36864" lat="60.0070305537" lon="10.7812444414">
		<tag k="name" v="Haugermarka" />
		<tag k="place" v="locality" />
		<tag k="ssr:date" v="2016-05-10" />
		<tag k="ssr:stedsnr" v="145208" />
	</node>
	<node id="-38399" lat="60.0770277783" lon="10.7260305602">
		<tag k="ssr:gml_id" v="GEOMETRY_29d2b5e3-0665-426b-a0fe-6edfca82f378" />
		<tag k="ssr:gml_nr" v="1" />
	</node>
	<node id="-38398" lat="60.0770305533" lon="10.7260333295">
		<tag k="ssr:gml_id" v="GEOMETRY_bb7b9821-7d0c-4896-bc79-3f994f51e17a" />
		<tag k="ssr:gml_nr" v="0" />
	</node>
	<node id="-37205" lat="59.9680722257" lon="10.8159249916">
		<tag k="name" v="Kapteinsmyra" />
		<tag k="natural" v="wetland" />
		<tag k="ssr:date" v="2016-05-10" />
		<tag k="ssr:stedsnr" v="205664" />
	</node>
	<node id="-39929" lat="60.0159833354" lon="10.6667138878">
		<tag k="name" v="Langmyra" />
		<tag k="natural" v="wetland" />
		<tag k="ssr:date" v="2016-05-11" />
		<tag k="ssr:stedsnr" v="709225" />
	</node>
	<node id="-37972" lat="60.0383555512" lon="10.6304972257">
		<tag k="ssr:gml_id" v="GEOMETRY_167c414f-12dd-4d07-a841-074587c891a3" />
		<tag k="ssr:gml_nr" v="1" />
	</node>
	<node id="-39925" lat="60.0988777777" lon="10.6350888809">
		<tag k="name" v="Korsmyr" />
		<tag k="natural" v="wetland" />
		<tag k="ssr:date" v="2016-05-11" />
		<tag k="ssr:stedsnr" v="708628" />
	</node>
	<node id="-38388" lat="60.0030833299" lon="10.5981138885">
		<tag k="alt_name" v="Galemyr" />
		<tag k="name" v="Galemyra" />
		<tag k="natural" v="wetland" />
		<tag k="ssr:date" v="2016-05-10" />
		<tag k="ssr:stedsnr" v="490914" />
	</node>
	<node id="-40958" lat="60.0153499959" lon="10.7657083336">
		<tag k="ssr:gml_id" v="GEOMETRY_67aa8456-b3b2-410b-9850-907c698263c3" />
		<tag k="ssr:gml_nr" v="0" />
	</node>
	<node id="-39921" lat="59.8570666671" lon="10.8734888889">
		<tag k="ssr:gml_id" v="GEOMETRY_44ccffda-e9cf-4b29-8d82-d2ef0a198bc7" />
		<tag k="ssr:gml_nr" v="2" />
	</node>
	<node id="-39920" lat="59.8573333303" lon="10.8743527708">
		<tag k="ssr:gml_id" v="GEOMETRY_14ec7f77-9838-47ec-a2fd-b3e4b6a5555b" />
		<tag k="ssr:gml_nr" v="1" />
	</node>
	<node id="-39919" lat="59.8573388917" lon="10.8743583334">
		<tag k="ssr:gml_id" v="GEOMETRY_392f73ef-322e-4816-a970-2cd811cc1a87" />
		<tag k="ssr:gml_nr" v="0" />
	</node>
	<node id="-38652" lat="60.0338861152" lon="10.6792111146">
		<tag k="name" v="Vestre Merramyr" />
		<tag k="natural" v="wetland" />
		<tag k="ssr:date" v="2016-05-10" />
		<tag k="ssr:stedsnr" v="544418" />
	</node>
	<node id="-39395" lat="59.9643916653" lon="10.8203666666">
		<tag k="name" v="Merramyra" />
		<tag k="natural" v="wetland" />
		<tag k="ssr:date" v="2016-05-10" />
		<tag k="ssr:stedsnr" v="630573" />
	</node>
	<node id="-40417" lat="59.8419722225" lon="10.9160055562">
		<tag k="ssr:gml_id" v="GEOMETRY_42b73679-23e7-42b5-b407-9a60bd4aa061" />
		<tag k="ssr:gml_nr" v="3" />
	</node>
	<node id="-38880" lat="59.8684305518" lon="10.866255547">
		<tag k="name" v="Fjellstadmåsan" />
		<tag k="natural" v="wetland" />
		<tag k="ssr:date" v="2016-05-10" />
		<tag k="ssr:stedsnr" v="569279" />
	</node>
	<node id="-40415" lat="59.8419750023" lon="10.9160083396">
		<tag k="ssr:gml_id" v="GEOMETRY_72fb117b-1367-4d57-89b4-e5ecc5d3b76a" />
		<tag k="ssr:gml_nr" v="1" />
	</node>
	<node id="-37854" lat="60.0448694484" lon="10.652205547">
		<tag k="name" v="Sommerglåmene" />
		<tag k="natural" v="wetland" />
		<tag k="ssr:date" v="2016-05-10" />
		<tag k="ssr:stedsnr" v="423466" />
	</node>
	<node id="-35798" lat="60.1189722249" lon="10.6857027802">
		<tag k="name" v="Magovikmyra" />
		<tag k="natural" v="wetland" />
		<tag k="ssr:date" v="2016-05-11" />
		<tag k="ssr:stedsnr" v="890644" />
	</node>
	<node id="-37845" lat="60.0043999959" lon="10.6637444373">
		<tag k="name" v="Middagsmyra" />
		<tag k="natural" v="wetland" />
		<tag k="ssr:date" v="2016-05-10" />
		<tag k="ssr:stedsnr" v="422831" />
	</node>
	<node id="-40400" lat="59.865200003" lon="10.8959222148">
		<tag k="ssr:gml_id" v="GEOMETRY_91f5e159-b028-490e-9a98-63ac2428c6b0" />
		<tag k="ssr:gml_nr" v="3" />
	</node>
	<node id="-40399" lat="59.8646638865" lon="10.8947499947">
		<tag k="ssr:gml_id" v="GEOMETRY_100dfca2-528f-4b40-9c26-6622950d77b7" />
		<tag k="ssr:gml_nr" v="2" />
	</node>
	<node id="-40398" lat="59.8651999988" lon="10.8959250009">
		<tag k="ssr:gml_id" v="GEOMETRY_30458bf4-5bcd-4f38-8976-f8054e6a2741" />
		<tag k="ssr:gml_nr" v="1" />
	</node>
	<node id="-37837" lat="60.0058972241" lon="10.5761722288">
		<tag k="name" v="Buksemyra" />
		<tag k="natural" v="wetland" />
		<tag k="ssr:date" v="2016-05-10" />
		<tag k="ssr:stedsnr" v="421010" />
	</node>
	<node id="-35788" lat="60.0585138907" lon="10.5619027815">
		<tag k="name" v="Huldermyra" />
		<tag k="natural" v="wetland" />
		<tag k="ssr:date" v="2016-05-11" />
		<tag k="ssr:stedsnr" v="889357" />
	</node>
	<node id="-41418" lat="60.0031416681" lon="10.7262638865">
		<tag k="ssr:gml_id" v="GEOMETRY_dd332328-3622-4457-b8e3-d4258232b76c" />
		<tag k="ssr:gml_nr" v="1" />
	</node>
	<node id="-38857" lat="60.0124055562" lon="10.8140111029">
		<tag k="name" v="Blåmyra" />
		<tag k="natural" v="wetland" />
		<tag k="ssr:date" v="2016-05-10" />
		<tag k="ssr:stedsnr" v="569228" />
	</node>
	<node id="-37832" lat="60.0306027745" lon="10.5896611169">
		<tag k="name" v="Trollmyra" />
		<tag k="natural" v="wetland" />
		<tag k="ssr:date" v="2016-05-10" />
		<tag k="ssr:stedsnr" v="419448" />
	</node>
	<node id="-40097" lat="59.9823888845" lon="10.8526138939">
		<tag k="name" v="Småmosene" />
		<tag k="natural" v="wetland" />
		<tag k="ssr:date" v="2016-05-11" />
		<tag k="ssr:stedsnr" v="751660" />
	</node>
	<node id="-35780" lat="59.9993194475" lon="10.5718249969">
		<tag k="name" v="Blekkevannsmyra" />
		<tag k="natural" v="wetland" />
		<tag k="ssr:date" v="2016-05-10" />
		<tag k="ssr:stedsnr" v="406228" />
	</node>
	<node id="-40896" lat="59.8313500035" lon="10.9224972274">
		<tag k="ssr:gml_id" v="GEOMETRY_59e1fd32-a97d-4791-aec4-8c6f5cd11e46" />
		<tag k="ssr:gml_nr" v="4" />
	</node>
	<node id="-40383" lat="59.9839944409" lon="10.6793166745">
		<tag k="name" v="Nikulpmyrene" />
		<tag k="natural" v="wetland" />
		<tag k="old_name" v="Nikulpmyrane" />
		<tag k="ssr:date" v="2016-05-11" />
		<tag k="ssr:stedsnr" v="793102" />
	</node>
	<node id="-40894" lat="59.832533335" lon="10.9193805598">
		<tag k="ssr:gml_id" v="GEOMETRY_60875b6d-f1ef-47b7-bb9d-29549e3c969f" />
		<tag k="ssr:gml_nr" v="2" />
	</node>
	<node id="-40893" lat="59.831349999" lon="10.9224999927">
		<tag k="ssr:gml_id" v="GEOMETRY_6827a95d-0437-466b-ba4f-f1e8a65249b8" />
		<tag k="ssr:gml_nr" v="1" />
	</node>
	<node id="-40892" lat="59.8313527745" lon="10.9224999922">
		<tag k="ssr:gml_id" v="GEOMETRY_bacceac0-ec04-47bc-b250-2657dff97469" />
		<tag k="ssr:gml_nr" v="0" />
	</node>
	<node id="-35768" lat="60.1020361099" lon="10.6288611134">
		<tag k="name" v="Middagsmyr" />
		<tag k="natural" v="wetland" />
		<tag k="ssr:date" v="2016-05-10" />
		<tag k="ssr:stedsnr" v="404597" />
	</node>
	<node id="-36340" lat="59.9996083289" lon="10.5444194475">
		<tag k="name" v="Korsmyra" />
		<tag k="natural" v="wetland" />
		<tag k="ssr:date" v="2016-05-10" />
		<tag k="ssr:stedsnr" v="66913" />
	</node>
	<node id="-37045" lat="59.994652777" lon="10.7412750037">
		<tag k="ssr:gml_id" v="GEOMETRY_f8981bd1-b1d7-4b89-b767-72a719b0a8d5" />
		<tag k="ssr:gml_nr" v="0" />
	</node>
	<node id="-35764" lat="60.0524222233" lon="10.6595333324">
		<tag k="name" v="Sulutjernmyr" />
		<tag k="natural" v="wetland" />
		<tag k="ssr:date" v="2016-05-10" />
		<tag k="ssr:stedsnr" v="404333" />
	</node>
	<node id="-35763" lat="60.0416694486" lon="10.5577499934">
		<tag k="name" v="Storsteinmyra" />
		<tag k="natural" v="wetland" />
		<tag k="ssr:date" v="2016-05-10" />
		<tag k="ssr:stedsnr" v="237455" />
	</node>
	<node id="-37960" lat="60.0706555547" lon="10.7248000028">
		<tag k="ssr:gml_id" v="GEOMETRY_7f516a69-3352-4f4d-9046-383212627520" />
		<tag k="ssr:gml_nr" v="1" />
	</node>
	<node id="-39342" lat="59.8831055586" lon="10.886069436">
		<tag k="name" v="Helgesmyr" />
		<tag k="natural" v="wetland" />
		<tag k="ssr:date" v="2016-05-10" />
		<tag k="ssr:stedsnr" v="630318" />
	</node>
	<node id="-40362" lat="60.0390361129" lon="10.649024999">
		<tag k="name" v="Kulpmyr" />
		<tag k="natural" v="wetland" />
		<tag k="ssr:date" v="2016-05-11" />
		<tag k="ssr:stedsnr" v="787442" />
	</node>
	<node id="-37959" lat="60.0706555573" lon="10.7253416587">
		<tag k="ssr:gml_id" v="GEOMETRY_1944e58c-fb97-4da4-9190-e9e2d181470e" />
		<tag k="ssr:gml_nr" v="0" />
	</node>
	<node id="-40360" lat="60.0281472241" lon="10.6820777825">
		<tag k="name" v="Slåttemyra" />
		<tag k="natural" v="wetland" />
		<tag k="ssr:date" v="2016-05-11" />
		<tag k="ssr:stedsnr" v="787432" />
	</node>
	<node id="-38311" lat="60.0402361155" lon="10.720605558">
		<tag k="ssr:gml_id" v="GEOMETRY_8f5ebed6-5863-4068-851c-b90fe9b41c0e" />
		<tag k="ssr:gml_nr" v="1" />
	</node>
	<node id="-38310" lat="60.0388611086" lon="10.7253333379">
		<tag k="ssr:gml_id" v="GEOMETRY_643f155d-1341-4161-aa87-612a3908c984" />
		<tag k="ssr:gml_nr" v="0" />
	</node>
	<node id="-38309" lat="60.0551583356" lon="10.6430555533">
		<tag k="name" v="Smedmyra" />
		<tag k="natural" v="wetland" />
		<tag k="ssr:date" v="2016-05-10" />
		<tag k="ssr:stedsnr" v="490405" />
	</node>
	<node id="-37459" lat="59.9015499993" lon="10.8759222268">
		<tag k="ssr:gml_id" v="GEOMETRY_44c6823f-b288-4ff9-96f0-629e13e5f22c" />
		<tag k="ssr:gml_nr" v="2" />
	</node>
	<node id="-40062" lat="59.971527777" lon="10.7476277725">
		<tag k="ssr:gml_id" v="GEOMETRY_6f254ec4-9fb8-44da-98b6-55f5b0fe8fff" />
		<tag k="ssr:gml_nr" v="2" />
	</node>
	<node id="-39329" lat="59.8915888931" lon="10.8930444491">
		<tag k="name" v="Fugleleikmyr" />
		<tag k="natural" v="wetland" />
		<tag k="ssr:date" v="2016-05-10" />
		<tag k="ssr:stedsnr" v="630273" />
	</node>
	<node id="-39328" lat="59.8780388912" lon="10.8994444405">
		<tag k="name" v="Delemyrene" />
		<tag k="natural" v="wetland" />
		<tag k="ssr:date" v="2016-05-10" />
		<tag k="ssr:stedsnr" v="630272" />
	</node>
	<node id="-39835" lat="59.9707666623" lon="10.8212027802">
		<tag k="historic" v="summer_mountain_farm" />
		<tag k="landuse" v="meadow" />
		<tag k="name" v="Linderudsetra (nedl.)" />
		<tag k="place" v="locality" />
		<tag k="ssr:date" v="2016-05-11" />
		<tag k="ssr:stedsnr" v="691642" />
	</node>
	<node id="-40346" lat="60.006174996" lon="10.600844443">
		<tag k="name" v="Furumyr" />
		<tag k="natural" v="wetland" />
		<tag k="ssr:date" v="2016-05-11" />
		<tag k="ssr:stedsnr" v="785014" />
	</node>
	<node id="-36759" lat="59.8782638925" lon="10.8937611102">
		<tag k="name" v="Slettfjellmyra" />
		<tag k="natural" v="wetland" />
		<tag k="ssr:date" v="2016-05-10" />
		<tag k="ssr:stedsnr" v="144318" />
	</node>
	<node id="-35993" lat="59.8560583325" lon="10.8531388842">
		<tag k="name" v="Bjørnemyrene" />
		<tag k="natural" v="wetland" />
		<tag k="ssr:date" v="2016-05-10" />
		<tag k="ssr:stedsnr" v="23324" />
	</node>
	<node id="-38723" lat="59.979208334" lon="10.8351611132">
		<tag k="ssr:gml_id" v="GEOMETRY_5453834c-e32e-45e3-8897-81d76d329889" />
		<tag k="ssr:gml_nr" v="0" />
	</node>
	<node id="-40846" lat="60.0342055529" lon="10.663969437">
		<tag k="name" v="Langsmalmyr" />
		<tag k="natural" v="wetland" />
		<tag k="ssr:date" v="2016-05-11" />
		<tag k="ssr:stedsnr" v="848432" />
	</node>
	<node id="-40845" lat="60.0166972267" lon="10.6742666616">
		<tag k="name" v="Gamlevollsmyra" />
		<tag k="natural" v="wetland" />
		<tag k="ssr:date" v="2016-05-11" />
		<tag k="ssr:stedsnr" v="847966" />
	</node>
	<node id="-40332" lat="60.085144443" lon="10.7306666746">
		<tag k="name" v="Slettmyr" />
		<tag k="natural" v="wetland" />
		<tag k="ssr:date" v="2016-05-11" />
		<tag k="ssr:stedsnr" v="770658" />
	</node>
	<node id="-40331" lat="60.0773027744" lon="10.7299138974">
		<tag k="name" v="Sleppmyr" />
		<tag k="natural" v="wetland" />
		<tag k="ssr:date" v="2016-05-11" />
		<tag k="ssr:stedsnr" v="770655" />
	</node>
	<node id="-36232" lat="60.0407833353" lon="10.6428083344">
		<tag k="name" v="Femmyra" />
		<tag k="natural" v="wetland" />
		<tag k="ssr:date" v="2016-05-10" />
		<tag k="ssr:stedsnr" v="59435" />
	</node>
	<node id="-40839" lat="60.0135666665" lon="10.5557083346">
		<tag k="name" v="Søvennerhogget" />
		<tag k="place" v="locality" />
		<tag k="ssr:date" v="2016-05-11" />
		<tag k="ssr:stedsnr" v="846009" />
	</node>
	<node id="-40838" lat="60.0168527754" lon="10.5076388853">
		<tag k="name" v="Lommyra" />
		<tag k="natural" v="wetland" />
		<tag k="ssr:date" v="2016-05-11" />
		<tag k="ssr:stedsnr" v="846007" />
	</node>
	<node id="-35393" lat="60.0301305594" lon="10.6765805499">
		<tag k="name" v="Ospestokkmyra" />
		<tag k="natural" v="wetland" />
		<tag k="ssr:date" v="2016-05-10" />
		<tag k="ssr:stedsnr" v="362438" />
	</node>
	<node id="-40061" lat="59.9707305547" lon="10.7480861025">
		<tag k="ssr:gml_id" v="GEOMETRY_b4de0b4f-f631-4d1c-a34b-9ce3bfcda72d" />
		<tag k="ssr:gml_nr" v="1" />
	</node>
	<node id="-36226" lat="59.9749000022" lon="10.6862222201">
		<tag k="name" v="Delemyr" />
		<tag k="natural" v="wetland" />
		<tag k="ssr:date" v="2016-05-10" />
		<tag k="ssr:stedsnr" v="58837" />
	</node>
	<node id="-40321" lat="60.0497972217" lon="10.5881055473">
		<tag k="name" v="Stormyra" />
		<tag k="natural" v="wetland" />
		<tag k="ssr:date" v="2016-05-11" />
		<tag k="ssr:stedsnr" v="768328" />
	</node>
	<node id="-36735" lat="59.8374083358" lon="10.9052194385">
		<tag k="name" v="Mellommyra" />
		<tag k="natural" v="wetland" />
		<tag k="ssr:date" v="2016-05-10" />
		<tag k="ssr:stedsnr" v="144186" />
	</node>
	<node id="-36734" lat="59.8484222266" lon="10.9180444494">
		<tag k="name" v="Torshølet" />
		<tag k="natural" v="wetland" />
		<tag k="ssr:date" v="2016-05-10" />
		<tag k="ssr:stedsnr" v="144178" />
	</node>
	<node id="-37418" lat="60.024716665" lon="10.5467416638">
		<tag k="name" v="Raskemyra" />
		<tag k="natural" v="wetland" />
		<tag k="ssr:date" v="2016-05-10" />
		<tag k="ssr:stedsnr" v="239031" />
	</node>
	<node id="-36671" lat="60.0685916674" lon="10.6052888856">
		<tag k="ssr:gml_id" v="GEOMETRY_f219210d-a5f9-479d-ad7b-5363b415a15b" />
		<tag k="ssr:gml_nr" v="0" />
	</node>
	<node id="-38264" lat="60.0336944419" lon="10.6845500069">
		<tag k="name" v="Østre Merramyr" />
		<tag k="natural" v="wetland" />
		<tag k="ssr:date" v="2016-05-10" />
		<tag k="ssr:stedsnr" v="483456" />
	</node>
	<node id="-35561" lat="60.0097166659" lon="10.7514388806">
		<tag k="name" v="Kirkebymarka" />
		<tag k="place" v="locality" />
		<tag k="ssr:date" v="2016-05-10" />
		<tag k="ssr:stedsnr" v="387239" />
	</node>
	<node id="-38772" lat="60.0790388874" lon="10.7248055493">
		<tag k="ssr:gml_id" v="GEOMETRY_ec0eae8d-5174-487d-a23f-fff14e0cc48c" />
		<tag k="ssr:gml_nr" v="1" />
	</node>
	<node id="-38771" lat="60.0790416622" lon="10.7248083366">
		<tag k="ssr:gml_id" v="GEOMETRY_251b164e-1cc1-4d03-94e9-70c73b509ea6" />
		<tag k="ssr:gml_nr" v="0" />
	</node>
	<node id="-37437" lat="59.9051055599" lon="10.6671777696">
		<tag k="name" v="Kongeskogen" />
		<tag k="natural" v="wood" />
		<tag k="ssr:date" v="2016-05-10" />
		<tag k="ssr:stedsnr" v="241789" />
	</node>
	<node id="-40809" lat="60.070641668" lon="10.7462222177">
		<tag k="name" v="Bikkjemyr" />
		<tag k="natural" v="wetland" />
		<tag k="ssr:date" v="2016-05-11" />
		<tag k="ssr:stedsnr" v="831628" />
	</node>
	<node id="-38247" lat="60.014552778" lon="10.6676472249">
		<tag k="name" v="Moltemyra" />
		<tag k="natural" v="wetland" />
		<tag k="ssr:date" v="2016-05-10" />
		<tag k="ssr:stedsnr" v="466282" />
	</node>
	<node id="-40060" lat="59.9715305514" lon="10.7476305526">
		<tag k="ssr:gml_id" v="GEOMETRY_ffb75bf9-e5e7-434b-9276-c9a967216463" />
		<tag k="ssr:gml_nr" v="0" />
	</node>
	<node id="-41719" lat="59.9939944431" lon="10.6784805628">
		<tag k="name" v="Skådalsmyr" />
		<tag k="natural" v="wetland" />
		<tag k="ssr:date" v="2016-05-11" />
		<tag k="ssr:stedsnr" v="968854" />
	</node>
	<node id="-38244" lat="60.1121500018" lon="10.6967249931">
		<tag k="name" v="Hellebekkmyra" />
		<tag k="natural" v="wetland" />
		<tag k="ssr:date" v="2016-05-10" />
		<tag k="ssr:stedsnr" v="465638" />
	</node>
	<node id="-40802" lat="60.0981972195" lon="10.5989416688">
		<tag k="name" v="Sleamyr" />
		<tag k="natural" v="wetland" />
		<tag k="ssr:date" v="2016-05-11" />
		<tag k="ssr:stedsnr" v="829636" />
	</node>
	<node id="-36191" lat="60.0991666707" lon="10.6935388808">
		<tag k="ssr:gml_id" v="GEOMETRY_4bb4571b-38ae-408b-adc6-acc860f94f6b" />
		<tag k="ssr:gml_nr" v="1" />
	</node>
	<node id="-36190" lat="60.0992333376" lon="10.6955222185">
		<tag k="ssr:gml_id" v="GEOMETRY_4524c51f-0261-4b40-b676-c8cd5418c43d" />
		<tag k="ssr:gml_nr" v="0" />
	</node>
	<node id="-38237" lat="60.049705556" lon="10.61789444">
		<tag k="name" v="Bjørnemyr" />
		<tag k="natural" v="wetland" />
		<tag k="ssr:date" v="2016-05-10" />
		<tag k="ssr:stedsnr" v="464345" />
	</node>
	<node id="-35158" lat="59.8369444459" lon="10.8749972209">
		<tag k="name" v="Fugleleiken" />
		<tag k="natural" v="wetland" />
		<tag k="ssr:date" v="2016-05-10" />
		<tag k="ssr:stedsnr" v="327224" />
	</node>
	<node id="-40895" lat="59.835908329" lon="10.9215611108">
		<tag k="ssr:gml_id" v="GEOMETRY_f88a8063-9706-4339-b8f0-f71272a275d1" />
		<tag k="ssr:gml_nr" v="3" />
	</node>
	<node id="-37206" lat="59.9107944487" lon="10.8681388859">
		<tag k="name" v="Stormyr" />
		<tag k="natural" v="wetland" />
		<tag k="ssr:date" v="2016-05-10" />
		<tag k="ssr:stedsnr" v="205669" />
	</node>
	<node id="-37717" lat="59.9315555578" lon="10.8647583349">
		<tag k="landuse" v="farmland" />
		<tag k="name" v="Stubberudmyra" />
		<tag k="ssr:date" v="2016-05-10" />
		<tag k="ssr:stedsnr" v="266631" />
	</node>
	<node id="-35668" lat="59.9103083322" lon="10.8918555481">
		<tag k="name" v="Lauvtjernmåsan" />
		<tag k="natural" v="wetland" />
		<tag k="ssr:date" v="2016-05-10" />
		<tag k="ssr:stedsnr" v="387639" />
	</node>
	<node id="-35667" lat="59.9036444411" lon="10.9026722162">
		<tag k="name" v="Langmyrene" />
		<tag k="natural" v="wetland" />
		<tag k="ssr:date" v="2016-05-10" />
		<tag k="ssr:stedsnr" v="387637" />
	</node>
	<node id="-35665" lat="59.9012305593" lon="10.8963222216">
		<tag k="name" v="Prekestolmyra" />
		<tag k="natural" v="wetland" />
		<tag k="ssr:date" v="2016-05-10" />
		<tag k="ssr:stedsnr" v="387633" />
	</node>
	<node id="-39246" lat="60.0321750032" lon="10.5639249938">
		<tag k="name" v="Stormyra" />
		<tag k="natural" v="wetland" />
		<tag k="ssr:date" v="2016-05-10" />
		<tag k="ssr:stedsnr" v="612950" />
	</node>
	<node id="-37260" lat="59.9642222183" lon="10.8587472279">
		<tag k="name" v="Rosentorpmyra" />
		<tag k="natural" v="wetland" />
		<tag k="ssr:date" v="2016-05-10" />
		<tag k="ssr:stedsnr" v="206648" />
	</node>
	<node id="-38725" lat="59.9845583296" lon="10.8402222306">
		<tag k="ssr:gml_id" v="GEOMETRY_d6c74e48-fc1f-4c98-b7c3-c16ee9d37881" />
		<tag k="ssr:gml_nr" v="2" />
	</node>
	<node id="-38724" lat="59.9792111157" lon="10.8351638838">
		<tag k="ssr:gml_id" v="GEOMETRY_e9797f57-765e-4569-a0e2-672d2014ea5e" />
		<tag k="ssr:gml_nr" v="1" />
	</node>
	<node id="-35139" lat="60.0128222238" lon="10.788775006">
		<tag k="name" v="Sørbråtmyra" />
		<tag k="natural" v="wetland" />
		<tag k="ssr:date" v="2016-05-10" />
		<tag k="ssr:stedsnr" v="327206" />
	</node>
	<node id="-35137" lat="60.0215277763" lon="10.7436249964">
		<tag k="name" v="Båhusmyr" />
		<tag k="natural" v="wetland" />
		<tag k="ssr:date" v="2016-05-10" />
		<tag k="ssr:stedsnr" v="327203" />
	</node>
	<node id="-36672" lat="60.0694805594" lon="10.6000305485">
		<tag k="ssr:gml_id" v="GEOMETRY_d64158c4-c929-49e6-b50e-04e24349bb80" />
		<tag k="ssr:gml_nr" v="1" />
	</node>
	<node id="-40416" lat="59.8419777778" lon="10.9160138893">
		<tag k="ssr:gml_id" v="GEOMETRY_80f30c16-a6e7-4829-a9cf-e9b624788199" />
		<tag k="ssr:gml_nr" v="2" />
	</node>
	<node id="-39739" lat="59.9948333331" lon="10.8480861161">
		<tag k="name" v="Tryggdalsmåsan" />
		<tag k="natural" v="wetland" />
		<tag k="ssr:date" v="2016-05-11" />
		<tag k="ssr:stedsnr" v="691190" />
	</node>
	<node id="-41695" lat="59.8567055598" lon="10.8831749948">
		<tag k="ssr:gml_id" v="GEOMETRY_6f55e80b-70e3-4bc7-bb32-a5695200b915" />
		<tag k="ssr:gml_nr" v="2" />
	</node>
	<node id="-35125" lat="59.9836055596" lon="10.8703361168">
		<tag k="name" v="Krokmyra" />
		<tag k="natural" v="wetland" />
		<tag k="ssr:date" v="2016-05-10" />
		<tag k="ssr:stedsnr" v="327154" />
	</node>
	<node id="-38196" lat="60.0083583338" lon="10.7738166619">
		<tag k="name" v="Haugermåsan" />
		<tag k="natural" v="wetland" />
		<tag k="ssr:date" v="2016-05-10" />
		<tag k="ssr:stedsnr" v="449207" />
	</node>
	<node id="-36318" lat="60.0512777754" lon="10.552472228">
		<tag k="name" v="Smedmyra" />
		<tag k="natural" v="wetland" />
		<tag k="ssr:date" v="2016-05-10" />
		<tag k="ssr:stedsnr" v="66388" />
	</node>
	<node id="-36573" lat="60.0860694453" lon="10.6562638961">
		<tag k="name" v="Puttmyr" />
		<tag k="natural" v="wetland" />
		<tag k="ssr:date" v="2016-05-10" />
		<tag k="ssr:stedsnr" v="101672" />
	</node>
	<node id="-37162" lat="59.8624944413" lon="10.8670777862">
		<tag k="name" v="Dokkemåsan" />
		<tag k="natural" v="wetland" />
		<tag k="ssr:date" v="2016-05-10" />
		<tag k="ssr:stedsnr" v="205315" />
	</node>
	<node id="-36231" lat="60.0390083369" lon="10.6178555473">
		<tag k="name" v="Oremyra" />
		<tag k="natural" v="wetland" />
		<tag k="ssr:date" v="2016-05-10" />
		<tag k="ssr:stedsnr" v="59436" />
	</node>
	<node id="-38620" lat="60.0031888917" lon="10.6464305492">
		<tag k="name" v="Kastemyr" />
		<tag k="natural" v="wetland" />
		<tag k="ssr:date" v="2016-05-10" />
		<tag k="ssr:stedsnr" v="527184" />
	</node>
	<node id="-38790" lat="60.0542999994" lon="10.654975001">
		<tag k="name" v="Osmarka" />
		<tag k="place" v="locality" />
		<tag k="ssr:date" v="2016-05-10" />
		<tag k="ssr:stedsnr" v="551967" />
	</node>
	<node id="-41249" lat="60.0415444452" lon="10.5848555573">
		<tag k="name" v="Løkebergdammen" />
		<tag k="natural" v="wetland" />
		<tag k="ssr:date" v="2016-05-11" />
		<tag k="ssr:stedsnr" v="905468" />
	</node>
	<node id="-41248" lat="60.0364111146" lon="10.5734777765">
		<tag k="name" v="Roterudmyra" />
		<tag k="natural" v="wetland" />
		<tag k="ssr:date" v="2016-05-11" />
		<tag k="ssr:stedsnr" v="905462" />
	</node>
	<node id="-35374" lat="60.0465861078" lon="10.6981916589">
		<tag k="name" v="Kremmermyra" />
		<tag k="natural" v="wetland" />
		<tag k="ssr:date" v="2016-05-10" />
		<tag k="ssr:stedsnr" v="358121" />
	</node>
	<node id="-40210" lat="59.9058888873" lon="10.8971138887">
		<tag k="name" v="Ulvensetermyra" />
		<tag k="natural" v="wetland" />
		<tag k="ssr:date" v="2016-05-11" />
		<tag k="ssr:stedsnr" v="751702" />
	</node>
	<node id="-39696" lat="60.0337777819" lon="10.6800861044">
		<tag k="ssr:gml_id" v="GEOMETRY_f5724979-c74c-41fd-90bc-4ae6e378b9e4" />
		<tag k="ssr:gml_nr" v="1" />
	</node>
	<node id="-39695" lat="60.0337027802" lon="10.684569441">
		<tag k="ssr:gml_id" v="GEOMETRY_af0efb54-43d6-467d-aa2b-5d0ed0606aec" />
		<tag k="ssr:gml_nr" v="0" />
	</node>
	<node id="-39690" lat="60.0135666695" lon="10.5341472199">
		<tag k="name" v="Tømmermyra" />
		<tag k="natural" v="wetland" />
		<tag k="ssr:date" v="2016-05-10" />
		<tag k="ssr:stedsnr" v="673918" />
	</node>
	<node id="-38665" lat="59.9796111079" lon="10.697999996">
		<tag k="ssr:gml_id" v="GEOMETRY_9aa8d231-ef5e-4c30-8704-1ee047c31023" />
		<tag k="ssr:gml_nr" v="1" />
	</node>
	<node id="-38664" lat="59.9796083327" lon="10.6979999972">
		<tag k="ssr:gml_id" v="GEOMETRY_933bfef9-2c2f-4e14-8ef2-c954bb0786da" />
		<tag k="ssr:gml_nr" v="0" />
	</node>
	<node id="-38661" lat="59.9953111078" lon="10.5923250066">
		<tag k="name" v="Stormyra" />
		<tag k="natural" v="wetland" />
		<tag k="ssr:date" v="2016-05-10" />
		<tag k="ssr:stedsnr" v="549094" />
	</node>
	<node id="-35073" lat="60.0048027774" lon="10.5501138819">
		<tag k="ssr:gml_id" v="GEOMETRY_906a5af9-2d95-4793-b66c-9a0d12139105" />
		<tag k="ssr:gml_nr" v="1" />
	</node>
	<node id="-35072" lat="60.0071166641" lon="10.5527888918">
		<tag k="ssr:gml_id" v="GEOMETRY_f63968ab-74ab-4a0d-8a3b-279e04981181" />
		<tag k="ssr:gml_nr" v="0" />
	</node>
	<node id="-41726" lat="60.0420583371" lon="10.6333749912">
		<tag k="name" v="Kløftemyra" />
		<tag k="natural" v="wetland" />
		<tag k="ssr:date" v="2016-05-11" />
		<tag k="ssr:stedsnr" v="969442" />
	</node>
	<node id="-36821" lat="59.9351972205" lon="10.8683972148">
		<tag k="landuse" v="farmland" />
		<tag k="name" v="Leirdal" />
		<tag k="ssr:date" v="2016-05-10" />
		<tag k="ssr:stedsnr" v="144650" />
	</node>
	<node id="-41724" lat="60.0330194432" lon="10.6901166594">
		<tag k="name" v="Svartormyra" />
		<tag k="natural" v="wetland" />
		<tag k="ssr:date" v="2016-05-11" />
		<tag k="ssr:stedsnr" v="969431" />
	</node>
	<node id="-41723" lat="60.0592444416" lon="10.6095222174">
		<tag k="name" v="Trekønnmyr" />
		<tag k="natural" v="wetland" />
		<tag k="ssr:date" v="2016-05-11" />
		<tag k="ssr:stedsnr" v="968974" />
	</node>
	<node id="-40960" lat="60.0131555544" lon="10.7659027836">
		<tag k="ssr:gml_id" v="GEOMETRY_beaedd63-ca9f-459d-af2d-545cbcba5e20" />
		<tag k="ssr:gml_nr" v="2" />
	</node>
	<node id="-41721" lat="60.0170777742" lon="10.676852785">
		<tag k="name" v="Trostemyra" />
		<tag k="natural" v="wetland" />
		<tag k="ssr:date" v="2016-05-11" />
		<tag k="ssr:stedsnr" v="968969" />
	</node>
	<node id="-37624" lat="60.0056111114" lon="10.8150388821">
		<tag k="name" v="Barlindmyra" />
		<tag k="natural" v="wetland" />
		<tag k="ssr:date" v="2016-05-10" />
		<tag k="ssr:stedsnr" v="266230" />
	</node>
	<node id="-37623" lat="60.0238388857" lon="10.7319416603">
		<tag k="name" v="Rundmyra" />
		<tag k="natural" v="wetland" />
		<tag k="ssr:date" v="2016-05-10" />
		<tag k="ssr:stedsnr" v="266225" />
	</node>
	<node id="-37622" lat="59.9980805575" lon="10.7189166664">
		<tag k="name" v="Arnehogstmyr" />
		<tag k="natural" v="wetland" />
		<tag k="ssr:date" v="2016-05-10" />
		<tag k="ssr:stedsnr" v="266222" />
	</node>
	<node id="-37891" lat="59.8797249991" lon="10.888263885">
		<tag k="ssr:gml_id" v="GEOMETRY_adb23252-3d08-4615-9d53-80897cc11989" />
		<tag k="ssr:gml_nr" v="1" />
	</node>
	<node id="-36596" lat="60.0324388854" lon="10.8040166645">
		<tag k="name" v="Kulpemyra" />
		<tag k="natural" v="wetland" />
		<tag k="ssr:date" v="2016-05-10" />
		<tag k="ssr:stedsnr" v="118058" />
	</node>
	<node id="-34942" lat="60.0458361069" lon="10.6453583339">
		<tag k="name" v="Vinterglåmene" />
		<tag k="natural" v="wetland" />
		<tag k="ssr:date" v="2016-05-10" />
		<tag k="ssr:stedsnr" v="302428" />
	</node>
	<node id="-41713" lat="60.0427694453" lon="10.813180549">
		<tag k="name" v="Lørenskoghagan" />
		<tag k="place" v="locality" />
		<tag k="ssr:date" v="2016-05-11" />
		<tag k="ssr:stedsnr" v="967051" />
	</node>
	<node id="-38637" lat="60.0492333299" lon="10.7948583349">
		<tag k="name" v="Bubbelinsmyr" />
		<tag k="natural" v="wetland" />
		<tag k="ssr:date" v="2016-05-10" />
		<tag k="ssr:stedsnr" v="540496" />
	</node>
	<node id="-37100" lat="60.0731027775" lon="10.7325611196">
		<tag k="ssr:gml_id" v="GEOMETRY_cc77f033-a61e-4e7a-8983-69fef30e291a" />
		<tag k="ssr:gml_nr" v="1" />
	</node>
	<node id="-37099" lat="60.0727222241" lon="10.7320805552">
		<tag k="ssr:gml_id" v="GEOMETRY_73f0b8cf-bcb2-4343-b67f-0a2c920c4263" />
		<tag k="ssr:gml_nr" v="0" />
	</node>
	<node id="-39146" lat="59.9285222202" lon="10.8958944414">
		<tag k="ssr:gml_id" v="GEOMETRY_2d0042ab-9f8e-44a1-a7e7-05c4f0093e6e" />
		<tag k="ssr:gml_nr" v="3" />
	</node>
	<node id="-41705" lat="60.0314499968" lon="10.5961999992">
		<tag k="name" v="Slåttmyra" />
		<tag k="natural" v="wetland" />
		<tag k="ssr:date" v="2016-05-11" />
		<tag k="ssr:stedsnr" v="965447" />
	</node>
	<node id="-39144" lat="59.9285250003" lon="10.8958972306">
		<tag k="ssr:gml_id" v="GEOMETRY_dec8d7ff-b410-4269-a227-e0a063926cab" />
		<tag k="ssr:gml_nr" v="1" />
	</node>
	<node id="-39143" lat="59.927958335" lon="10.892891662">
		<tag k="ssr:gml_id" v="GEOMETRY_417aa945-9b23-4904-98a8-f7dba9329330" />
		<tag k="ssr:gml_nr" v="0" />
	</node>
	<node id="-34941" lat="59.8399527744" lon="10.8594249997">
		<tag k="ssr:gml_id" v="GEOMETRY_fec937f3-3baa-4a8c-8a93-369859524e1e" />
		<tag k="ssr:gml_nr" v="1" />
	</node>
	<node id="-36578" lat="60.0117861095" lon="10.6713805481">
		<tag k="name" v="Lortkulpmyra" />
		<tag k="natural" v="wetland" />
		<tag k="ssr:date" v="2016-05-10" />
		<tag k="ssr:stedsnr" v="102301" />
	</node>
	<node id="-36576" lat="60.0023361121" lon="10.5801444495">
		<tag k="name" v="Trettestykkmyra" />
		<tag k="natural" v="wetland" />
		<tag k="ssr:date" v="2016-05-10" />
		<tag k="ssr:stedsnr" v="102253" />
	</node>
	<node id="-35039" lat="60.048197221" lon="10.7845277823">
		<tag k="ssr:gml_id" v="GEOMETRY_04c64b49-2910-4564-8573-72f99456b364" />
		<tag k="ssr:gml_nr" v="0" />
	</node>
	<node id="-41694" lat="59.8567333292" lon="10.8825916744">
		<tag k="ssr:gml_id" v="GEOMETRY_f040bbc9-02f9-4033-b68f-cdbea3195b5c" />
		<tag k="ssr:gml_nr" v="1" />
	</node>
	<node id="-38621" lat="60.0035388874" lon="10.587752778">
		<tag k="name" v="Ulvehimyra" />
		<tag k="natural" v="wetland" />
		<tag k="ssr:date" v="2016-05-10" />
		<tag k="ssr:stedsnr" v="527225" />
	</node>
	<node id="-40959" lat="60.0153500036" lon="10.7657111149">
		<tag k="ssr:gml_id" v="GEOMETRY_dc6742b9-1e6b-4a5f-b50b-9edf70215055" />
		<tag k="ssr:gml_nr" v="1" />
	</node>
	<node id="-41690" lat="60.1095861099" lon="10.7053750035">
		<tag k="name" v="Sørkedalsmyra" />
		<tag k="natural" v="wetland" />
		<tag k="ssr:date" v="2016-05-11" />
		<tag k="ssr:stedsnr" v="950620" />
	</node>
	<node id="-40075" lat="60.0442083374" lon="10.6525472205">
		<tag k="ssr:gml_id" v="GEOMETRY_6001de24-c831-4ff2-89df-f3be7d51e85a" />
		<tag k="ssr:gml_nr" v="1" />
	</node>
	<node id="-37080" lat="59.8614555523" lon="10.8602611121">
		<tag k="ssr:gml_id" v="GEOMETRY_0109df6a-24b2-4239-b6a5-af63c1da64c5" />
		<tag k="ssr:gml_nr" v="3" />
	</node>
	<node id="-37079" lat="59.8616500042" lon="10.8612999961">
		<tag k="ssr:gml_id" v="GEOMETRY_5b0d735c-bedc-49b4-865a-8fa4d12b1e79" />
		<tag k="ssr:gml_nr" v="2" />
	</node>
	<node id="-37078" lat="59.8614583333" lon="10.8602638926">
		<tag k="ssr:gml_id" v="GEOMETRY_e45c3748-1ae2-4b99-a58b-04114c553052" />
		<tag k="ssr:gml_nr" v="1" />
	</node>
	<node id="-37077" lat="59.8614638863" lon="10.8602694531">
		<tag k="ssr:gml_id" v="GEOMETRY_bbf20e55-f5aa-4ded-a541-d76c5224ff21" />
		<tag k="ssr:gml_nr" v="0" />
	</node>
	<node id="-40146" lat="59.841472223" lon="10.8694166693">
		<tag k="name" v="Steinkirken" />
		<tag k="natural" v="stone" />
		<tag k="ssr:date" v="2016-05-11" />
		<tag k="ssr:stedsnr" v="751239" />
	</node>
	<node id="-39119" lat="59.9950444415" lon="10.6846833386">
		<tag k="ssr:gml_id" v="GEOMETRY_12b3ff06-9f59-4637-b764-f756d934998b" />
		<tag k="ssr:gml_nr" v="1" />
	</node>
	<node id="-39118" lat="59.9958666708" lon="10.6864999983">
		<tag k="ssr:gml_id" v="GEOMETRY_330478b2-25d1-4a52-98d8-83ecbe8e40cd" />
		<tag k="ssr:gml_nr" v="0" />
	</node>
	<node id="-40397" lat="59.8652027751" lon="10.8959305528">
		<tag k="ssr:gml_id" v="GEOMETRY_b6559d4c-428c-493e-940a-5b65a8ba2851" />
		<tag k="ssr:gml_nr" v="0" />
	</node>
	<node id="-40414" lat="59.8412111136" lon="10.9123055615">
		<tag k="ssr:gml_id" v="GEOMETRY_3f43ac61-0cce-40b6-8469-a651f5df7709" />
		<tag k="ssr:gml_nr" v="0" />
	</node>
	<node id="-39509" lat="60.0623833358" lon="10.7293999954">
		<tag k="name" v="Lukemyr" />
		<tag k="natural" v="wetland" />
		<tag k="ssr:date" v="2016-05-10" />
		<tag k="ssr:stedsnr" v="662233" />
	</node>
	<node id="-38080" lat="59.8835805547" lon="10.9024888857">
		<tag k="name" v="Dalbakkmåsan" />
		<tag k="natural" v="wetland" />
		<tag k="ssr:date" v="2016-05-10" />
		<tag k="ssr:stedsnr" v="448330" />
	</node>
	<node id="-41151" lat="59.9824500032" lon="10.7264861086">
		<tag k="historic" v="summer_mountain_farm" />
		<tag k="landuse" v="meadow" />
		<tag k="name" v="Seteren" />
		<tag k="place" v="locality" />
		<tag k="ssr:date" v="2016-05-11" />
		<tag k="ssr:stedsnr" v="873642" />
	</node>
	<node id="-39611" lat="59.8234500045" lon="10.8840777702">
		<tag k="ssr:gml_id" v="GEOMETRY_828cbb9a-4d5b-40fe-9424-8b8d70171a85" />
		<tag k="ssr:gml_nr" v="3" />
	</node>
	<node id="-39610" lat="59.8236027777" lon="10.8841750008">
		<tag k="ssr:gml_id" v="GEOMETRY_05d1ba47-c052-4be3-bfaf-dc38dc5611f5" />
		<tag k="ssr:gml_nr" v="2" />
	</node>
	<node id="-41145" lat="59.9698055557" lon="10.7435416668">
		<tag k="name" v="Kjerringmyra" />
		<tag k="natural" v="wetland" />
		<tag k="ssr:date" v="2016-05-11" />
		<tag k="ssr:stedsnr" v="873599" />
	</node>
	<node id="-39608" lat="59.8234555527" lon="10.8840861107">
		<tag k="ssr:gml_id" v="GEOMETRY_74ec4e5c-d5d4-4995-a1a2-2e5bd1f8bd4a" />
		<tag k="ssr:gml_nr" v="0" />
	</node>
	<node id="-37047" lat="59.9973750016" lon="10.738355554">
		<tag k="ssr:gml_id" v="GEOMETRY_b2ce2fd6-4116-483f-a74e-719a1e607dd3" />
		<tag k="ssr:gml_nr" v="2" />
	</node>
	<node id="-37046" lat="59.9946555515" lon="10.7412777852">
		<tag k="ssr:gml_id" v="GEOMETRY_b6184c2d-4c2f-48de-9cc5-5441257fef1d" />
		<tag k="ssr:gml_nr" v="1" />
	</node>
	<node id="-39093" lat="60.0118833337" lon="10.5697666628">
		<tag k="name" v="Elvehogget" />
		<tag k="place" v="locality" />
		<tag k="ssr:date" v="2016-05-10" />
		<tag k="ssr:stedsnr" v="603006" />
	</node>
	<node id="-39604" lat="59.8530277736" lon="10.9062805497">
		<tag k="ssr:gml_id" v="GEOMETRY_e54cc518-729b-4e02-bb51-f8dbe450eaac" />
		<tag k="ssr:gml_nr" v="0" />
	</node>
	<node id="-39090" lat="60.0602138893" lon="10.6725000076">
		<tag k="name" v="Kumyr" />
		<tag k="natural" v="wetland" />
		<tag k="ssr:date" v="2016-05-10" />
		<tag k="ssr:stedsnr" v="601219" />
	</node>
	<node id="-38063" lat="59.860852777" lon="10.891899991">
		<tag k="name" v="Kruggmyra" />
		<tag k="natural" v="wetland" />
		<tag k="ssr:date" v="2016-05-10" />
		<tag k="ssr:stedsnr" v="448264" />
	</node>
	<node id="-38061" lat="59.8317222217" lon="10.8761722226">
		<tag k="ssr:gml_id" v="GEOMETRY_32980377-1701-4517-8742-be318ae1af9d" />
		<tag k="ssr:gml_nr" v="1" />
	</node>
	<node id="-38060" lat="59.8327250007" lon="10.8765472274">
		<tag k="ssr:gml_id" v="GEOMETRY_c8f1f1e5-6766-4768-a7be-87f56603bed6" />
		<tag k="ssr:gml_nr" v="0" />
	</node>
	<node id="-39083" lat="60.0405638864" lon="10.7159805518">
		<tag k="name" v="Lendemyr" />
		<tag k="natural" v="wetland" />
		<tag k="ssr:date" v="2016-05-10" />
		<tag k="ssr:stedsnr" v="604423" />
	</node>
	<node id="-39082" lat="60.0409166676" lon="10.7047055507">
		<tag k="name" v="Smiumyra" />
		<tag k="natural" v="wetland" />
		<tag k="ssr:date" v="2016-05-10" />
		<tag k="ssr:stedsnr" v="604422" />
	</node>
	<node id="-40617" lat="59.8943305577" lon="10.895577773">
		<tag k="name" v="Gråbeinmåsan" />
		<tag k="natural" v="wetland" />
		<tag k="ssr:date" v="2016-05-11" />
		<tag k="ssr:stedsnr" v="812304" />
	</node>
	<node id="-41693" lat="59.8567111119" lon="10.8831805583">
		<tag k="ssr:gml_id" v="GEOMETRY_ea8aaae8-4f6a-4d7e-869e-8366e6a1b29e" />
		<tag k="ssr:gml_nr" v="0" />
	</node>
	<node id="-39075" lat="60.0039750002" lon="10.5170416621">
		<tag k="name" v="Blyhogga" />
		<tag k="place" v="locality" />
		<tag k="ssr:date" v="2016-05-10" />
		<tag k="ssr:stedsnr" v="587255" />
	</node>
	<node id="-39074" lat="60.0217972225" lon="10.7011166577">
		<tag k="name" v="Vindernsetermåsan" />
		<tag k="natural" v="wetland" />
		<tag k="ssr:date" v="2016-05-10" />
		<tag k="ssr:stedsnr" v="587251" />
	</node>
	<node id="-40609" lat="59.864872225" lon="10.9019083341">
		<tag k="name" v="Kilemyrene" />
		<tag k="natural" v="wetland" />
		<tag k="ssr:date" v="2016-05-11" />
		<tag k="ssr:stedsnr" v="812259" />
	</node>
	<node id="-40096" lat="59.968849997" lon="10.736038884">
		<tag k="name" v="Sandåsmyra" />
		<tag k="natural" v="wetland" />
		<tag k="ssr:date" v="2016-05-11" />
		<tag k="ssr:stedsnr" v="751654" />
	</node>
	<node id="-39071" lat="59.999666667" lon="10.6056416619">
		<tag k="name" v="Smalmyra" />
		<tag k="natural" v="wetland" />
		<tag k="ssr:date" v="2016-05-10" />
		<tag k="ssr:stedsnr" v="587188" />
	</node>
	<node id="-39609" lat="59.8234500006" lon="10.8840805527">
		<tag k="ssr:gml_id" v="GEOMETRY_880d0635-7017-4236-9635-e2621ddd6fd4" />
		<tag k="ssr:gml_nr" v="1" />
	</node>
	<node id="-37529" lat="60.0737555545" lon="10.6001111037">
		<tag k="name" v="Smedmyra" />
		<tag k="natural" v="wetland" />
		<tag k="ssr:date" v="2016-05-10" />
		<tag k="ssr:stedsnr" v="248225" />
	</node>
	<node id="-41417" lat="60.0029361073" lon="10.7266916586">
		<tag k="ssr:gml_id" v="GEOMETRY_35a7ca6c-224f-4137-af92-01e147e7d988" />
		<tag k="ssr:gml_nr" v="0" />
	</node>
	<node id="-38038" lat="59.8329055549" lon="10.9278166707">
		<tag k="name" v="Eriksvannsmåsan" />
		<tag k="natural" v="wetland" />
		<tag k="ssr:date" v="2016-05-10" />
		<tag k="ssr:stedsnr" v="448186" />
	</node>
	<node id="-40085" lat="60.0897666712" lon="10.6354638851">
		<tag k="alt_name" v="Kloppmyr" />
		<tag k="name" v="Kloppmyra" />
		<tag k="natural" v="wetland" />
		<tag k="ssr:date" v="2016-05-11" />
		<tag k="ssr:stedsnr" v="734141" />
	</node>
	<node id="-35475" lat="59.8475138909" lon="10.8682388906">
		<tag k="ssr:gml_id" v="GEOMETRY_274d9ae5-6438-4fe6-89e0-2950e8328cb7" />
		<tag k="ssr:gml_nr" v="1" />
	</node>
	<node id="-35474" lat="59.8475750024" lon="10.8685250045">
		<tag k="ssr:gml_id" v="GEOMETRY_ceece117-abd9-415d-a9e8-309947922f1c" />
		<tag k="ssr:gml_nr" v="0" />
	</node>
	<node id="-38544" lat="59.9577138913" lon="10.8232416661">
		<tag k="name" v="Micheletmyra" />
		<tag k="natural" v="wetland" />
		<tag k="ssr:date" v="2016-05-10" />
		<tag k="ssr:stedsnr" v="509636" />
	</node>
	<node id="-39302" lat="59.9892222232" lon="10.8443277842">
		<tag k="name" v="Slengfemosen" />
		<tag k="natural" v="wetland" />
		<tag k="ssr:date" v="2016-05-10" />
		<tag k="ssr:stedsnr" v="630164" />
	</node>
	<node id="-37004" lat="59.9270638906" lon="10.9116055627">
		<tag k="ssr:gml_id" v="GEOMETRY_85183967-2d46-4de0-8cb9-ba9f4c04f28c" />
		<tag k="ssr:gml_nr" v="1" />
	</node>
	<node id="-37003" lat="59.9270611108" lon="10.9116027724">
		<tag k="ssr:gml_id" v="GEOMETRY_61705761-63e0-4fa2-8441-110429801ee2" />
		<tag k="ssr:gml_nr" v="0" />
	</node>
	<node id="-40074" lat="60.0457777798" lon="10.6455722244">
		<tag k="ssr:gml_id" v="GEOMETRY_2b9d51ac-77dc-406a-acf8-eb105c33e747" />
		<tag k="ssr:gml_nr" v="0" />
	</node>
	<node id="-38536" lat="59.9230694413" lon="10.8922083388">
		<tag k="name" v="Kjerringmyra" />
		<tag k="natural" v="wetland" />
		<tag k="ssr:date" v="2016-05-10" />
		<tag k="ssr:stedsnr" v="509592" />
	</node>
	<node id="-35040" lat="60.049002782" lon="10.7841888959">
		<tag k="ssr:gml_id" v="GEOMETRY_cad01b2c-8dfa-4a29-9341-7f68cf33ffba" />
		<tag k="ssr:gml_nr" v="1" />
	</node>
	<node id="-34943" lat="60.0473999984" lon="10.5773416584">
		<tag k="name" v="Orrhønemyr" />
		<tag k="natural" v="wetland" />
		<tag k="ssr:date" v="2016-05-10" />
		<tag k="ssr:stedsnr" v="302444" />
	</node>
	<node id="-36990" lat="59.9786138871" lon="10.7109083405">
		<tag k="name" v="Mysmermyrene" />
		<tag k="natural" v="wetland" />
		<tag k="ssr:date" v="2016-05-10" />
		<tag k="ssr:stedsnr" v="179880" />
	</node>
	<node id="-41085" lat="59.8560083291" lon="10.8612527801">
		<tag k="name" v="Småmyr" />
		<tag k="natural" v="wetland" />
		<tag k="ssr:date" v="2016-05-11" />
		<tag k="ssr:stedsnr" v="873278" />
	</node>
	<node id="-34940" lat="59.8399500024" lon="10.8594222216">
		<tag k="ssr:gml_id" v="GEOMETRY_9b976407-bd3e-41fe-a010-49e70a29507d" />
		<tag k="ssr:gml_nr" v="0" />
	</node>
	<node id="-40571" lat="59.8422638874" lon="10.7876194361">
		<tag k="landuse" v="farmland" />
		<tag k="name" v="Hallagerjordet" />
		<tag k="ssr:date" v="2016-05-11" />
		<tag k="ssr:stedsnr" v="812074" />
	</node>
	<node id="-36985" lat="60.006788888" lon="10.5353583262">
		<tag k="name" v="Seterhogget" />
		<tag k="place" v="locality" />
		<tag k="ssr:date" v="2016-05-10" />
		<tag k="ssr:stedsnr" v="178069" />
	</node>
	<node id="-40056" lat="59.9792472254" lon="10.838497221">
		<tag k="ssr:gml_id" v="GEOMETRY_21cbb472-2943-44f6-94cf-2fe9a963cc4b" />
		<tag k="ssr:gml_nr" v="1" />
	</node>
	<node id="-40055" lat="59.9796833309" lon="10.838294443">
		<tag k="ssr:gml_id" v="GEOMETRY_9a8cacfc-afb7-4eae-87f6-880db952878e" />
		<tag k="ssr:gml_nr" v="0" />
	</node>
	<node id="-38249" lat="60.0875527735" lon="10.7428749924">
		<tag k="name" v="Fuglemyr" />
		<tag k="natural" v="wetland" />
		<tag k="ssr:date" v="2016-05-10" />
		<tag k="ssr:stedsnr" v="466706" />
	</node>
	<node id="-35956" lat="60.0298277744" lon="10.5642444356">
		<tag k="name" v="Vassmyra" />
		<tag k="natural" v="wetland" />
		<tag k="ssr:date" v="2016-05-10" />
		<tag k="ssr:stedsnr" v="5967" />
	</node>
	<node id="-39539" lat="60.0456250036" lon="10.5643111033">
		<tag k="name" v="Andtjernsmyra" />
		<tag k="natural" v="wetland" />
		<tag k="ssr:date" v="2016-05-10" />
		<tag k="ssr:stedsnr" v="666446" />
	</node>
	<node id="-41074" lat="60.0191916708" lon="10.7856749923">
		<tag k="name" v="Gata" />
		<tag k="place" v="locality" />
		<tag k="ssr:date" v="2016-05-11" />
		<tag k="ssr:stedsnr" v="873225" />
	</node>
	<node id="-41073" lat="60.0025194415" lon="10.7767916633">
		<tag k="name" v="Ødegårdshagen" />
		<tag k="place" v="locality" />
		<tag k="ssr:date" v="2016-05-11" />
		<tag k="ssr:stedsnr" v="873226" />
	</node>
	<node id="-39536" lat="60.0333277805" lon="10.6580555513">
		<tag k="name" v="Hestemyra" />
		<tag k="natural" v="wetland" />
		<tag k="ssr:date" v="2016-05-10" />
		<tag k="ssr:stedsnr" v="666431" />
	</node>
	<node id="-41070" lat="60.0088083375" lon="10.8113694461">
		<tag k="name" v="Raudmyra" />
		<tag k="natural" v="wetland" />
		<tag k="ssr:date" v="2016-05-11" />
		<tag k="ssr:stedsnr" v="873221" />
	</node>
	<node id="-36369" lat="59.836072219" lon="10.9103666711">
		<tag k="ssr:gml_id" v="GEOMETRY_c6e1081f-162b-4b64-8a63-e16b20df44c8" />
		<tag k="ssr:gml_nr" v="0" />
	</node>
	<node id="-36456" lat="59.9820722214" lon="10.8481972288">
		<tag k="name" v="Bronsmyra" />
		<tag k="natural" v="wetland" />
		<tag k="ssr:date" v="2016-05-10" />
		<tag k="ssr:stedsnr" v="84648" />
	</node>
	<node id="-36455" lat="59.9064722182" lon="10.8834222232">
		<tag k="name" v="Rundmyr" />
		<tag k="natural" v="wetland" />
		<tag k="ssr:date" v="2016-05-10" />
		<tag k="ssr:stedsnr" v="84649" />
	</node>
	<node id="-39525" lat="59.9929527774" lon="10.6697500016">
		<tag k="name" v="Rundmyr" />
		<tag k="natural" v="wetland" />
		<tag k="ssr:date" v="2016-05-10" />
		<tag k="ssr:stedsnr" v="664857" />
	</node>
	<node id="-39524" lat="60.0027999994" lon="10.675177769">
		<tag k="name" v="Marimyr" />
		<tag k="natural" v="wetland" />
		<tag k="ssr:date" v="2016-05-10" />
		<tag k="ssr:stedsnr" v="664847" />
	</node>
	<node id="-39523" lat="60.0025000017" lon="10.6875722228">
		<tag k="name" v="Nede Skjennungsmyr" />
		<tag k="natural" v="wetland" />
		<tag k="ssr:date" v="2016-05-10" />
		<tag k="ssr:stedsnr" v="664845" />
	</node>
	<node id="-41688" lat="60.0545055555" lon="10.5620888884">
		<tag k="name" v="Geitekleivmyra" />
		<tag k="natural" v="wetland" />
		<tag k="ssr:date" v="2016-05-11" />
		<tag k="ssr:stedsnr" v="950353" />
	</node>
	<node id="-39520" lat="60.0228888914" lon="10.6454555588">
		<tag k="name" v="Setermyra" />
		<tag k="natural" v="wetland" />
		<tag k="ssr:date" v="2016-05-10" />
		<tag k="ssr:stedsnr" v="664209" />
	</node>
	<node id="-35789" lat="60.0599666674" lon="10.5733972168">
		<tag k="name" v="Pinslibonnmyr" />
		<tag k="natural" v="wetland" />
		<tag k="ssr:date" v="2016-05-11" />
		<tag k="ssr:stedsnr" v="889359" />
	</node>
	<node id="-39518" lat="60.0101888881" lon="10.5381861143">
		<tag k="name" v="Solberghogget" />
		<tag k="place" v="locality" />
		<tag k="ssr:date" v="2016-05-10" />
		<tag k="ssr:stedsnr" v="664052" />
	</node>
	<node id="-36957" lat="60.0570111089" lon="10.6145694411">
		<tag k="name" v="Kvilemyr" />
		<tag k="natural" v="wetland" />
		<tag k="ssr:date" v="2016-05-10" />
		<tag k="ssr:stedsnr" v="161341" />
	</node>
	<node id="-34905" lat="60.1079305589" lon="10.6235388942">
		<tag k="name" v="Gråbeinmyra" />
		<tag k="natural" v="wetland" />
		<tag k="ssr:date" v="2016-05-10" />
		<tag k="ssr:stedsnr" v="283582" />
	</node>
	<node id="-36964" lat="60.0001805591" lon="10.6158166673">
		<tag k="name" v="Solberghagan" />
		<tag k="place" v="locality" />
		<tag k="ssr:date" v="2016-05-10" />
		<tag k="ssr:stedsnr" v="163152" />
	</node>
	<node id="-37974" lat="60.0548777757" lon="10.6742249981">
		<tag k="alt_name" v="Fuglemyr" />
		<tag k="name" v="Fuglemyra" />
		<tag k="natural" v="wetland" />
		<tag k="ssr:date" v="2016-05-10" />
		<tag k="ssr:stedsnr" v="430969" />
	</node>
	<node id="-37973" lat="60.0383583354" lon="10.6304972193">
		<tag k="ssr:gml_id" v="GEOMETRY_dedef80c-55fa-4449-8bf0-1b61cfaf07de" />
		<tag k="ssr:gml_nr" v="2" />
	</node>
	<node id="-34900" lat="60.0490944466" lon="10.5813555565">
		<tag k="name" v="Orrhanemyr" />
		<tag k="natural" v="wetland" />
		<tag k="ssr:date" v="2016-05-10" />
		<tag k="ssr:stedsnr" v="282335" />
	</node>
	<node id="-37971" lat="60.0383416629" lon="10.6303555583">
		<tag k="ssr:gml_id" v="GEOMETRY_83335f50-2eec-4609-8fcc-d820e5f4e04d" />
		<tag k="ssr:gml_nr" v="0" />
	</node>
	<node id="-37458" lat="59.9016250013" lon="10.8772055599">
		<tag k="ssr:gml_id" v="GEOMETRY_d3cc34c0-42ba-4474-b16a-0788dd6739ef" />
		<tag k="ssr:gml_nr" v="1" />
	</node>
	<node id="-37457" lat="59.9016249961" lon="10.8772027703">
		<tag k="ssr:gml_id" v="GEOMETRY_5ebb71e6-52d8-4df9-9e1e-cf4b215fdad7" />
		<tag k="ssr:gml_nr" v="0" />
	</node>
	<node id="-38242" lat="60.1297972258" lon="10.6067944486">
		<tag k="name" v="Ringeriksmyra" />
		<tag k="natural" v="wetland" />
		<tag k="ssr:date" v="2016-05-10" />
		<tag k="ssr:stedsnr" v="465578" />
	</node>
	<node id="-39498" lat="60.1324777813" lon="10.6335527863">
		<tag k="name" v="Sørensmyra" />
		<tag k="natural" v="wetland" />
		<tag k="ssr:date" v="2016-05-10" />
		<tag k="ssr:stedsnr" v="646599" />
	</node>
	<node id="-35767" lat="60.1138916645" lon="10.7099861089">
		<tag k="name" v="Hakklomyra" />
		<tag k="natural" v="wetland" />
		<tag k="ssr:date" v="2016-05-10" />
		<tag k="ssr:stedsnr" v="404593" />
	</node>
	<node id="-39496" lat="60.0504111149" lon="10.6799777868">
		<tag k="name" v="Sprutstokkmyra" />
		<tag k="natural" v="wetland" />
		<tag k="ssr:date" v="2016-05-10" />
		<tag k="ssr:stedsnr" v="646336" />
	</node>
	<node id="-39495" lat="60.0515750006" lon="10.6198000051">
		<tag k="name" v="Treskoningsmyr" />
		<tag k="natural" v="wetland" />
		<tag k="ssr:date" v="2016-05-10" />
		<tag k="ssr:stedsnr" v="646328" />
	</node>
	<node id="-39606" lat="59.8517027774" lon="10.9084944473">
		<tag k="ssr:gml_id" v="GEOMETRY_b82410ed-e2fa-4abe-ba5f-27a5786af766" />
		<tag k="ssr:gml_nr" v="2" />
	</node>
	<node id="-39607" lat="59.85447222" lon="10.9095166682">
		<tag k="ssr:gml_id" v="GEOMETRY_4785758e-7940-4571-99bc-a943ccc5053b" />
		<tag k="ssr:gml_nr" v="3" />
	</node>
	<node id="-38465" lat="59.8678999959" lon="10.8784833306">
		<tag k="name" v="Katismyr" />
		<tag k="natural" v="wetland" />
		<tag k="ssr:date" v="2016-05-10" />
		<tag k="ssr:stedsnr" v="509267" />
	</node>
	<node id="-39680" lat="60.013783337" lon="10.6620611051">
		<tag k="ssr:gml_id" v="GEOMETRY_6eb30842-95e4-46a3-8420-41b2ace0dcd9" />
		<tag k="ssr:gml_nr" v="0" />
	</node>
	<node id="-35391" lat="59.9959694489" lon="10.6931583304">
		<tag k="name" v="Langmyrene" />
		<tag k="natural" v="wetland" />
		<tag k="ssr:date" v="2016-05-10" />
		<tag k="ssr:stedsnr" v="361854" />
	</node>
	<node id="-38461" lat="59.8543749981" lon="10.8765194521">
		<tag k="name" v="Rundvannsmåsan" />
		<tag k="natural" v="wetland" />
		<tag k="ssr:date" v="2016-05-10" />
		<tag k="ssr:stedsnr" v="509255" />
	</node>
	<node id="-38460" lat="59.8552416702" lon="10.8727833347">
		<tag k="name" v="Molteringen" />
		<tag k="natural" v="wetland" />
		<tag k="ssr:date" v="2016-05-10" />
		<tag k="ssr:stedsnr" v="509254" />
	</node>
	<node id="-38459" lat="59.8602555576" lon="10.870238896">
		<tag k="name" v="Fugleleiken" />
		<tag k="natural" v="wetland" />
		<tag k="ssr:date" v="2016-05-10" />
		<tag k="ssr:stedsnr" v="509250" />
	</node>
	<node id="-40031" lat="59.8515527776" lon="10.8576583318">
		<tag k="ssr:gml_id" v="GEOMETRY_cbc7299a-e56b-471a-9515-2bfd5b6f2822" />
		<tag k="ssr:gml_nr" v="1" />
	</node>
	<node id="-37432" lat="59.9933277735" lon="10.6960694504">
		<tag k="name" v="Rakkesetermyr" />
		<tag k="natural" v="wetland" />
		<tag k="ssr:date" v="2016-05-10" />
		<tag k="ssr:stedsnr" v="240853" />
	</node>
	<node id="-39945" lat="60.0092583345" lon="10.5773888943">
		<tag k="name" v="Stormyra" />
		<tag k="natural" v="wetland" />
		<tag k="ssr:date" v="2016-05-11" />
		<tag k="ssr:stedsnr" v="725007" />
	</node>
	<node id="-37428" lat="60.0045611108" lon="10.6758777865">
		<tag k="name" v="Slavemyr" />
		<tag k="natural" v="wetland" />
		<tag k="ssr:date" v="2016-05-10" />
		<tag k="ssr:stedsnr" v="240823" />
	</node>
	<node id="-40030" lat="59.8515499965" lon="10.8576555524">
		<tag k="ssr:gml_id" v="GEOMETRY_fc6da35f-8b11-4acf-9d0d-3f09e4997eeb" />
		<tag k="ssr:gml_nr" v="0" />
	</node>
	<node id="-39095" lat="60.0094916659" lon="10.5818500013">
		<tag k="name" v="Orremyra" />
		<tag k="natural" v="wetland" />
		<tag k="ssr:date" v="2016-05-10" />
		<tag k="ssr:stedsnr" v="603009" />
	</node>
	<node id="-37937" lat="60.0493055596" lon="10.6217000015">
		<tag k="alt_name" v="Hansemyr" />
		<tag k="name" v="Hansemyra" />
		<tag k="natural" v="wetland" />
		<tag k="ssr:date" v="2016-05-10" />
		<tag k="ssr:stedsnr" v="430184" />
	</node>
	<node id="-35376" lat="60.0506055552" lon="10.7878388875">
		<tag k="name" v="Gladhogget" />
		<tag k="natural" v="wood" />
		<tag k="ssr:date" v="2016-05-10" />
		<tag k="ssr:stedsnr" v="358500" />
	</node>
	<node id="-36398" lat="60.0038583348" lon="10.7922111035">
		<tag k="name" v="Dausjømyra" />
		<tag k="natural" v="wetland" />
		<tag k="ssr:date" v="2016-05-10" />
		<tag k="ssr:stedsnr" v="84232" />
	</node>
	<node id="-37933" lat="60.0934833319" lon="10.6048611114">
		<tag k="alt_name" v="Langlimyr" />
		<tag k="name" v="Langlimyra" />
		<tag k="natural" v="wetland" />
		<tag k="ssr:date" v="2016-05-10" />
		<tag k="ssr:stedsnr" v="430133" />
	</node>
	<node id="-38444" lat="60.0043222208" lon="10.7766833286">
		<tag k="name" v="Styggmyra" />
		<tag k="natural" v="wetland" />
		<tag k="ssr:date" v="2016-05-10" />
		<tag k="ssr:stedsnr" v="509203" />
	</node>
	<node id="-37419" lat="60.0425944419" lon="10.80288333">
		<tag k="name" v="Rundmyra" />
		<tag k="natural" v="wetland" />
		<tag k="ssr:date" v="2016-05-10" />
		<tag k="ssr:stedsnr" v="239057" />
	</node>
	<node id="-38442" lat="60.0005027818" lon="10.734991668">
		<tag k="name" v="Korsmyr" />
		<tag k="natural" v="wetland" />
		<tag k="ssr:date" v="2016-05-10" />
		<tag k="ssr:stedsnr" v="509200" />
	</node>
	<node id="-34930" lat="60.0325083297" lon="10.7891222208">
		<tag k="name" v="Stormyra" />
		<tag k="natural" v="wetland" />
		<tag k="ssr:date" v="2016-05-10" />
		<tag k="ssr:stedsnr" v="300067" />
	</node>
	<node id="-35874" lat="60.0792916645" lon="10.667463882">
		<tag k="name" v="Bonnamyra" />
		<tag k="natural" v="wetland" />
		<tag k="ssr:date" v="2016-05-10" />
		<tag k="ssr:stedsnr" v="4242" />
	</node>
	<node id="-35360" lat="60.1116166646" lon="10.7412666644">
		<tag k="name" v="Vivangsmyra" />
		<tag k="natural" v="wetland" />
		<tag k="ssr:date" v="2016-05-10" />
		<tag k="ssr:stedsnr" v="343666" />
	</node>
	<node id="-35358" lat="60.1198416695" lon="10.701927778">
		<tag k="name" v="Måsjømyra" />
		<tag k="natural" v="wetland" />
		<tag k="ssr:date" v="2016-05-10" />
		<tag k="ssr:stedsnr" v="343633" />
	</node>
	<node id="-40032" lat="59.8510472187" lon="10.8569083246">
		<tag k="ssr:gml_id" v="GEOMETRY_b7be45ee-1764-452d-ae76-b95763c96ac7" />
		<tag k="ssr:gml_nr" v="2" />
	</node>
	<node id="-40982" lat="60.1175583377" lon="10.7354916586">
		<tag k="ssr:gml_id" v="GEOMETRY_e7f54aff-6960-4f4f-8f05-9b6f0de46128" />
		<tag k="ssr:gml_nr" v="1" />
	</node>
	<node id="-40981" lat="60.1175611122" lon="10.7354944501">
		<tag k="ssr:gml_id" v="GEOMETRY_5df1253f-bea2-43e7-8954-b1435e4036e2" />
		<tag k="ssr:gml_nr" v="0" />
	</node>
	<node id="-36370" lat="59.8444638912" lon="10.910022229">
		<tag k="ssr:gml_id" v="GEOMETRY_2d650eba-75b5-4c0d-894d-1badb4d7c8ae" />
		<tag k="ssr:gml_nr" v="1" />
	</node>
	<node id="-39939" lat="60.0585694436" lon="10.7517833286">
		<tag k="name" v="Nedre Korsmyr" />
		<tag k="natural" v="wetland" />
		<tag k="ssr:date" v="2016-05-11" />
		<tag k="ssr:stedsnr" v="722268" />
	</node>
	<node id="-39145" lat="59.9283805548" lon="10.8935638963">
		<tag k="ssr:gml_id" v="GEOMETRY_ee4c4580-edec-48f3-b122-e40f1cb4eec7" />
		<tag k="ssr:gml_nr" v="2" />
	</node>
	<node id="-38613" lat="60.1128833372" lon="10.7073611031">
		<tag k="name" v="Jonsmyra" />
		<tag k="natural" v="wetland" />
		<tag k="ssr:date" v="2016-05-10" />
		<tag k="ssr:stedsnr" v="525604" />
	</node>
	<node id="-37548" lat="60.0616416631" lon="10.7487444367">
		<tag k="ssr:gml_id" v="GEOMETRY_62be9dc5-94e8-48a9-adbb-f1bdd736b0ba" />
		<tag k="ssr:gml_nr" v="1" />
	</node>
	<node id="-39605" lat="59.8530305536" lon="10.9062833333">
		<tag k="ssr:gml_id" v="GEOMETRY_94d870b9-9e65-4a5e-93d9-96607eab47f1" />
		<tag k="ssr:gml_nr" v="1" />
	</node>
	<node id="-39681" lat="60.0137861132" lon="10.6620638815">
		<tag k="ssr:gml_id" v="GEOMETRY_fda49f70-29eb-47e6-a640-4750079f6cc8" />
		<tag k="ssr:gml_nr" v="1" />
	</node>
	<node id="-37892" lat="59.8805111127" lon="10.8885555544">
		<tag k="ssr:gml_id" v="GEOMETRY_c5edd4a9-3245-4ea1-9531-1cc4f72ffb97" />
		<tag k="ssr:gml_nr" v="2" />
	</node>
	<node id="-41475" lat="59.9991083358" lon="10.8477277703">
		<tag k="name" v="Stormåsan" />
		<tag k="natural" v="wetland" />
		<tag k="ssr:date" v="2016-05-11" />
		<tag k="ssr:stedsnr" v="934140" />
	</node>
	<node id="-37890" lat="59.8797250029" lon="10.8882611156">
		<tag k="ssr:gml_id" v="GEOMETRY_82d0184e-c3ee-4f50-a666-dc85afa60f97" />
		<tag k="ssr:gml_nr" v="0" />
	</node>
	<node id="-37547" lat="60.0616388886" lon="10.7487416668">
		<tag k="ssr:gml_id" v="GEOMETRY_e85769c1-f7f5-4652-83f2-be32618a3068" />
		<tag k="ssr:gml_nr" v="0" />
	</node>
	<way id="-8453">
		<tag k="name" v="Fjøsmåsan" />
		<tag k="natural" v="wetland" />
		<tag k="old_name" v="Fjøsmosen" />
		<tag k="ssr:date" v="2016-05-11" />
		<tag k="ssr:stedsnr" v="854200" />
		<nd ref="-40892" />
		<nd ref="-40893" />
		<nd ref="-40894" />
		<nd ref="-40895" />
		<nd ref="-40896" />
	</way>
	<way id="-8362">
		<tag k="name" v="Torsmåsan" />
		<tag k="natural" v="wetland" />
		<tag k="old_name" v="Torsmosen" />
		<tag k="ssr:date" v="2016-05-11" />
		<tag k="ssr:stedsnr" v="793202" />
		<nd ref="-40414" />
		<nd ref="-40415" />
		<nd ref="-40416" />
		<nd ref="-40417" />
	</way>
	<way id="-7930">
		<tag k="name" v="Sandmåsan" />
		<tag k="natural" v="wetland" />
		<tag k="ssr:date" v="2016-05-10" />
		<tag k="ssr:stedsnr" v="448260" />
		<nd ref="-38060" />
		<nd ref="-38061" />
	</way>
	<way id="-8056">
		<tag k="name" v="Lillomarka" />
		<tag k="place" v="locality" />
		<tag k="ssr:date" v="2016-05-10" />
		<tag k="ssr:stedsnr" v="550578" />
		<nd ref="-38723" />
		<nd ref="-38724" />
		<nd ref="-38725" />
	</way>
	<way id="-8565">
		<tag k="alt_name" v="Taraldrudmyr" />
		<tag k="name" v="Taraldrudmyra" />
		<tag k="natural" v="wetland" />
		<tag k="ssr:date" v="2016-05-11" />
		<tag k="ssr:stedsnr" v="916373" />
		<nd ref="-41417" />
		<nd ref="-41418" />
	</way>
	<way id="-7668">
		<tag k="name" v="Stormyra" />
		<tag k="natural" v="wetland" />
		<tag k="ssr:date" v="2016-05-10" />
		<tag k="ssr:stedsnr" v="126214" />
		<nd ref="-36671" />
		<nd ref="-36672" />
	</way>
	<way id="-8306">
		<tag k="name" v="Glåmene" />
		<tag k="natural" v="wetland" />
		<tag k="ssr:date" v="2016-05-11" />
		<tag k="ssr:stedsnr" v="733941" />
		<nd ref="-40074" />
		<nd ref="-40075" />
	</way>
	<way id="-8302">
		<tag k="name" v="Langmyr" />
		<tag k="natural" v="wetland" />
		<tag k="ssr:date" v="2016-05-11" />
		<tag k="ssr:stedsnr" v="733525" />
		<nd ref="-40060" />
		<nd ref="-40061" />
		<nd ref="-40062" />
	</way>
	<way id="-8300">
		<tag k="name" v="Evensetermyra" />
		<tag k="natural" v="wetland" />
		<tag k="ssr:date" v="2016-05-11" />
		<tag k="ssr:stedsnr" v="733509" />
		<nd ref="-40055" />
		<nd ref="-40056" />
	</way>
	<way id="-7915">
		<tag k="alt_name" v="Tømmermyra" />
		<tag k="name" v="Tømmermyr" />
		<tag k="natural" v="wetland" />
		<tag k="ssr:date" v="2016-05-10" />
		<tag k="ssr:stedsnr" v="430948" />
		<nd ref="-37971" />
		<nd ref="-37972" />
		<nd ref="-37973" />
	</way>
	<way id="-7912">
		<tag k="name" v="Raudmyr" />
		<tag k="natural" v="wetland" />
		<tag k="ssr:date" v="2016-05-10" />
		<tag k="ssr:stedsnr" v="430552" />
		<nd ref="-37959" />
		<nd ref="-37960" />
	</way>
	<way id="-8292">
		<tag k="name" v="Raudmyr" />
		<tag k="natural" v="wetland" />
		<tag k="ssr:date" v="2016-05-11" />
		<tag k="ssr:stedsnr" v="733220" />
		<nd ref="-40030" />
		<nd ref="-40031" />
		<nd ref="-40032" />
	</way>
	<way id="-8035">
		<tag k="name" v="Fuglemyra" />
		<tag k="natural" v="wetland" />
		<tag k="ssr:date" v="2016-05-10" />
		<tag k="ssr:stedsnr" v="550001" />
		<nd ref="-38664" />
		<nd ref="-38665" />
	</way>
	<way id="-7890">
		<tag k="name" v="Langmyr" />
		<tag k="natural" v="wetland" />
		<tag k="ssr:date" v="2016-05-10" />
		<tag k="ssr:stedsnr" v="429170" />
		<nd ref="-37890" />
		<nd ref="-37891" />
		<nd ref="-37892" />
	</way>
	<way id="-7377">
		<tag k="alt_name" v="Bestemorsmyrane" />
		<tag k="name" v="Bestemorsmyrene" />
		<tag k="natural" v="wetland" />
		<tag k="ssr:date" v="2016-05-10" />
		<tag k="ssr:stedsnr" v="308936" />
		<nd ref="-35072" />
		<nd ref="-35073" />
	</way>
	<way id="-8269">
		<tag k="alt_name" v="Karismyra;Karussmyr" />
		<tag k="name" v="Karismyr" />
		<tag k="natural" v="wetland" />
		<tag k="ssr:date" v="2016-05-11" />
		<tag k="ssr:stedsnr" v="708177" />
		<nd ref="-39919" />
		<nd ref="-39920" />
		<nd ref="-39921" />
	</way>
	<way id="-8119">
		<tag k="name" v="Frønsvollsmyrene" />
		<tag k="natural" v="wetland" />
		<tag k="ssr:date" v="2016-05-10" />
		<tag k="ssr:stedsnr" v="610124" />
		<nd ref="-39118" />
		<nd ref="-39119" />
	</way>
	<way id="-7752">
		<tag k="name" v="Brattbakkmyr" />
		<tag k="natural" v="wetland" />
		<tag k="ssr:date" v="2016-05-10" />
		<tag k="ssr:stedsnr" v="187508" />
		<nd ref="-37099" />
		<nd ref="-37100" />
	</way>
	<way id="-7367">
		<tag k="name" v="Sjuputtmyra" />
		<tag k="natural" v="wetland" />
		<tag k="ssr:date" v="2016-05-10" />
		<tag k="ssr:stedsnr" v="308415" />
		<nd ref="-35039" />
		<nd ref="-35040" />
	</way>
	<way id="-8480">
		<tag k="name" v="Stormyra" />
		<tag k="natural" v="wetland" />
		<tag k="ssr:date" v="2016-05-11" />
		<tag k="ssr:stedsnr" v="855705" />
		<nd ref="-40981" />
		<nd ref="-40982" />
	</way>
	<way id="-7745">
		<tag k="name" v="Skullerudmåsan" />
		<tag k="natural" v="wetland" />
		<tag k="old_name" v="Skullerudmosen" />
		<tag k="ssr:date" v="2016-05-10" />
		<tag k="ssr:stedsnr" v="187154" />
		<nd ref="-37077" />
		<nd ref="-37078" />
		<nd ref="-37079" />
		<nd ref="-37080" />
	</way>
	<way id="-8127">
		<tag k="name" v="Evensmåsan" />
		<tag k="natural" v="wetland" />
		<tag k="old_name" v="Evensmosen" />
		<tag k="ssr:date" v="2016-05-10" />
		<tag k="ssr:stedsnr" v="611055" />
		<nd ref="-39143" />
		<nd ref="-39144" />
		<nd ref="-39145" />
		<nd ref="-39146" />
	</way>
	<way id="-7614">
		<tag k="name" v="Klokkerudmyrene" />
		<tag k="natural" v="wetland" />
		<tag k="ssr:date" v="2016-05-10" />
		<tag k="ssr:stedsnr" v="84189" />
		<nd ref="-36369" />
		<nd ref="-36370" />
	</way>
	<way id="-7735">
		<tag k="name" v="Skjervenmarka" />
		<tag k="place" v="locality" />
		<tag k="ssr:date" v="2016-05-10" />
		<tag k="ssr:stedsnr" v="186647" />
		<nd ref="-37045" />
		<nd ref="-37046" />
		<nd ref="-37047" />
	</way>
	<way id="-8239">
		<tag k="name" v="Merramyra" />
		<tag k="natural" v="wetland" />
		<tag k="ssr:date" v="2016-05-10" />
		<tag k="ssr:stedsnr" v="673998" />
		<nd ref="-39695" />
		<nd ref="-39696" />
	</way>
	<way id="-7341">
		<tag k="landuse" v="landfill" />
		<tag k="name" v="Grønmo" />
		<tag k="ssr:date" v="2016-05-10" />
		<tag k="ssr:stedsnr" v="301504" />
		<nd ref="-34940" />
		<nd ref="-34941" />
	</way>
	<way id="-8236">
		<tag k="name" v="Rundmyr" />
		<tag k="natural" v="wetland" />
		<tag k="ssr:date" v="2016-05-10" />
		<tag k="ssr:stedsnr" v="673896" />
		<nd ref="-39680" />
		<nd ref="-39681" />
	</way>
	<way id="-7722">
		<tag k="name" v="Kjerringmyr" />
		<tag k="natural" v="wetland" />
		<tag k="ssr:date" v="2016-05-10" />
		<tag k="ssr:stedsnr" v="186009" />
		<nd ref="-37003" />
		<nd ref="-37004" />
	</way>
	<way id="-7974">
		<tag k="alt_name" v="Nygårdsmyra" />
		<tag k="name" v="Nygardsmyr" />
		<tag k="natural" v="wetland" />
		<tag k="ssr:date" v="2016-05-10" />
		<tag k="ssr:stedsnr" v="490429" />
		<nd ref="-38310" />
		<nd ref="-38311" />
	</way>
	<way id="-8357">
		<tag k="name" v="Øgårdsmåsan" />
		<tag k="natural" v="wetland" />
		<tag k="old_name" v="Øgårdsmosen" />
		<tag k="ssr:date" v="2016-05-11" />
		<tag k="ssr:stedsnr" v="793136" />
		<nd ref="-40397" />
		<nd ref="-40398" />
		<nd ref="-40399" />
		<nd ref="-40400" />
	</way>
	<way id="-7840">
		<tag k="fixme" v="multiple name tags, choose one and add the other to alt_name" />
		<tag k="name" v="Korsmomyra;Øvre Korsmyr" />
		<tag k="natural" v="wetland" />
		<tag k="ssr:date" v="2016-05-10" />
		<tag k="ssr:stedsnr" v="248483" />
		<nd ref="-37547" />
		<nd ref="-37548" />
	</way>
	<way id="-8607">
		<tag k="alt_name" v="Smalvassmåsan" />
		<tag k="name" v="Smalvannsmåsan" />
		<tag k="natural" v="wetland" />
		<tag k="old_name" v="Smalvassmosen" />
		<tag k="ssr:date" v="2016-05-11" />
		<tag k="ssr:stedsnr" v="951160" />
		<nd ref="-41693" />
		<nd ref="-41694" />
		<nd ref="-41695" />
	</way>
	<way id="-7813">
		<tag k="historic" v="summer_mountain_farm" />
		<tag k="landuse" v="meadow" />
		<tag k="name" v="Lutvangen" />
		<tag k="place" v="locality" />
		<tag k="ssr:date" v="2016-05-10" />
		<tag k="ssr:stedsnr" v="247101" />
		<nd ref="-37457" />
		<nd ref="-37458" />
		<nd ref="-37459" />
	</way>
	<way id="-7449">
		<tag k="alt_name" v="Olasmyr" />
		<tag k="name" v="Olavsmyr" />
		<tag k="natural" v="wetland" />
		<tag k="ssr:date" v="2016-05-10" />
		<tag k="ssr:stedsnr" v="369216" />
		<nd ref="-35474" />
		<nd ref="-35475" />
	</way>
	<way id="-8471">
		<tag k="name" v="Turtermarka" />
		<tag k="place" v="locality" />
		<tag k="ssr:date" v="2016-05-11" />
		<tag k="ssr:stedsnr" v="855371" />
		<nd ref="-40958" />
		<nd ref="-40959" />
		<nd ref="-40960" />
	</way>
	<way id="-8212">
		<tag k="name" v="Stupinnmåsan" />
		<tag k="natural" v="wetland" />
		<tag k="old_name" v="Stupinnmosen" />
		<tag k="ssr:date" v="2016-05-10" />
		<tag k="ssr:stedsnr" v="672267" />
		<nd ref="-39608" />
		<nd ref="-39609" />
		<nd ref="-39610" />
		<nd ref="-39611" />
	</way>
	<way id="-8211">
		<tag k="name" v="Fingerbølmyrene" />
		<tag k="natural" v="wetland" />
		<tag k="ssr:date" v="2016-05-10" />
		<tag k="ssr:stedsnr" v="672223" />
		<nd ref="-39604" />
		<nd ref="-39605" />
		<nd ref="-39606" />
		<nd ref="-39607" />
	</way>
	<way id="-7570">
		<tag k="name" v="Blinkeveimyrene" />
		<tag k="natural" v="wetland" />
		<tag k="ssr:date" v="2016-05-10" />
		<tag k="ssr:stedsnr" v="40626" />
		<nd ref="-36190" />
		<nd ref="-36191" />
	</way>
	<way id="-8073">
		<tag k="alt_name" v="Lamyr, nordre" />
		<tag k="name" v="Nordre Lamyr" />
		<tag k="natural" v="wetland" />
		<tag k="ssr:date" v="2016-05-10" />
		<tag k="ssr:stedsnr" v="551511" />
		<nd ref="-38771" />
		<nd ref="-38772" />
	</way>
	<way id="-8001">
		<tag k="alt_name" v="Lamyr, s" />
		<tag k="name" v="Søndre Lamyr" />
		<tag k="natural" v="wetland" />
		<tag k="ssr:date" v="2016-05-10" />
		<tag k="ssr:stedsnr" v="491563" />
		<nd ref="-38398" />
		<nd ref="-38399" />
	</way>
</osm>
