<?xml version="1.0" encoding="UTF-8"?>
<osm generator="osmapis" version="0.6">
	<node id="-38654" lat="59.8894944457" lon="10.6850194407">
		<tag k="name" v="Nakkholmsteinen" />
		<tag k="place" v="locality" />
		<tag k="seamark:type" v="rock" />
		<tag k="ssr:date" v="2016-05-10" />
		<tag k="ssr:stedsnr" v="544708" />
	</node>
	<node id="-37504" lat="59.8907027792" lon="10.6935444475">
		<tag k="ssr:gml_id" v="GEOMETRY_095ed810-5427-4936-a8be-af96bc009449" />
		<tag k="ssr:gml_nr" v="1" />
	</node>
	<node id="-38873" lat="59.8800305529" lon="10.7633055503">
		<tag k="alt_name" v="Ormsund" />
		<tag k="name" v="Ormsundet" />
		<tag k="natural" v="strait" />
		<tag k="place" v="locality" />
		<tag k="ssr:date" v="2016-05-10" />
		<tag k="ssr:stedsnr" v="569251" />
	</node>
	<node id="-39379" lat="59.8727138916" lon="10.7664138854">
		<tag k="fixme" v="consider seamark:type=rock" />
		<tag k="name" v="Galteskjær" />
		<tag k="natural" v="islet" />
		<tag k="ssr:date" v="2016-05-10" />
		<tag k="ssr:stedsnr" v="630501" />
	</node>
	<node id="-37841" lat="59.8605444444" lon="10.7768222214">
		<tag k="name" v="Seterflua" />
		<tag k="natural" v="shoal" />
		<tag k="place" v="locality" />
		<tag k="ssr:date" v="2016-05-10" />
		<tag k="ssr:stedsnr" v="422440" />
	</node>
	<node id="-37840" lat="59.8785361085" lon="10.7463722149">
		<tag k="name" v="Ormøysanden" />
		<tag k="natural" v="shoal" />
		<tag k="place" v="locality" />
		<tag k="ssr:date" v="2016-05-10" />
		<tag k="ssr:stedsnr" v="421259" />
	</node>
	<node id="-39887" lat="59.8837444434" lon="10.7130527837">
		<tag k="name" v="Heggholmen" />
		<tag k="place" v="islet" />
		<tag k="ssr:date" v="2016-05-11" />
		<tag k="ssr:stedsnr" v="692270" />
	</node>
	<node id="-38350" lat="59.9025000013" lon="10.7412416681">
		<tag k="ssr:gml_id" v="GEOMETRY_32973dd1-8d19-477e-81e6-429a6e462c86" />
		<tag k="ssr:gml_nr" v="0" />
	</node>
	<node id="-36300" lat="59.8949138895" lon="10.6739416647">
		<tag k="ssr:gml_id" v="GEOMETRY_565f3d2d-9cb4-4c34-961f-4701f1d380f4" />
		<tag k="ssr:gml_nr" v="2" />
	</node>
	<node id="-36299" lat="59.8949111135" lon="10.6739388973">
		<tag k="ssr:gml_id" v="GEOMETRY_f5aed470-3f32-4d87-9750-f6d9a92b82db" />
		<tag k="ssr:gml_nr" v="1" />
	</node>
	<node id="-36298" lat="59.8949083377" lon="10.6739361121">
		<tag k="ssr:gml_id" v="GEOMETRY_eac66e81-c713-4de4-9e33-01c5512191af" />
		<tag k="ssr:gml_nr" v="0" />
	</node>
	<node id="-39369" lat="59.8893444423" lon="10.7448694358">
		<tag k="fixme" v="consider seamark:type=rock" />
		<tag k="name" v="Blindskjær" />
		<tag k="natural" v="islet" />
		<tag k="ssr:date" v="2016-05-10" />
		<tag k="ssr:stedsnr" v="630438" />
	</node>
	<node id="-40390" lat="59.9043666673" lon="10.7556500022">
		<tag k="ssr:gml_id" v="GEOMETRY_0c6d6130-2b1c-4f10-949b-ed16a7da857d" />
		<tag k="ssr:gml_nr" v="3" />
	</node>
	<node id="-40389" lat="59.9052500032" lon="10.7568944439">
		<tag k="ssr:gml_id" v="GEOMETRY_82fbd5dc-bd5a-4793-8079-05aa926732c9" />
		<tag k="ssr:gml_nr" v="2" />
	</node>
	<node id="-40388" lat="59.9043861098" lon="10.7556333266">
		<tag k="ssr:gml_id" v="GEOMETRY_78b71b60-bf16-4cba-8a02-b76a61c943fc" />
		<tag k="ssr:gml_nr" v="1" />
	</node>
	<node id="-40387" lat="59.9043694425" lon="10.7556500057">
		<tag k="ssr:gml_id" v="GEOMETRY_ce7874d2-2496-4a2e-942f-4db494b1ff78" />
		<tag k="ssr:gml_nr" v="0" />
	</node>
	<node id="-36798" lat="59.8951694416" lon="10.7421555593">
		<tag k="name" v="Sandtangen" />
		<tag k="natural" v="cape" />
		<tag k="place" v="locality" />
		<tag k="ssr:date" v="2016-05-10" />
		<tag k="ssr:stedsnr" v="144512" />
	</node>
	<node id="-36597" lat="59.8678083338" lon="10.7453833267">
		<tag k="name" v="Malmøykalvbåen" />
		<tag k="place" v="locality" />
		<tag k="seamark:type" v="rock" />
		<tag k="ssr:date" v="2016-05-10" />
		<tag k="ssr:stedsnr" v="118344" />
	</node>
	<node id="-38332" lat="59.8804888854" lon="10.7220305476">
		<tag k="ssr:gml_id" v="GEOMETRY_06062d26-0997-4050-be3c-c57a7ca5df86" />
		<tag k="ssr:gml_nr" v="4" />
	</node>
	<node id="-38331" lat="59.8807750031" lon="10.7220583402">
		<tag k="ssr:gml_id" v="GEOMETRY_5cb09ca3-9b6d-4347-a739-e1c59bce6582" />
		<tag k="ssr:gml_nr" v="3" />
	</node>
	<node id="-38330" lat="59.8807777775" lon="10.7220638977">
		<tag k="ssr:gml_id" v="GEOMETRY_56596f5c-2dfa-4c19-9d88-d0392a309ba0" />
		<tag k="ssr:gml_nr" v="2" />
	</node>
	<node id="-38329" lat="59.879191665" lon="10.7156222201">
		<tag k="ssr:gml_id" v="GEOMETRY_3a658c27-437b-4845-ad14-69705e21fdca" />
		<tag k="ssr:gml_nr" v="1" />
	</node>
	<node id="-38328" lat="59.8803444414" lon="10.7202916624">
		<tag k="ssr:gml_id" v="GEOMETRY_118ed7c0-0bd9-4b33-bba4-8099432ddd81" />
		<tag k="ssr:gml_nr" v="0" />
	</node>
	<node id="-34965" lat="59.8552111077" lon="10.7832083297">
		<tag k="ssr:gml_id" v="GEOMETRY_e7c236cc-53c6-4010-825d-b8b9ef49b308" />
		<tag k="ssr:gml_nr" v="2" />
	</node>
	<node id="-36787" lat="59.8638500008" lon="10.7610333401">
		<tag k="name" v="Flisebukta" />
		<tag k="natural" v="bay" />
		<tag k="ssr:date" v="2016-05-10" />
		<tag k="ssr:stedsnr" v="144401" />
	</node>
	<node id="-35571" lat="59.873988892" lon="10.7732249957">
		<tag k="ssr:gml_id" v="GEOMETRY_d05e64b6-9e75-4310-b261-5038149bf841" />
		<tag k="ssr:gml_nr" v="1" />
	</node>
	<node id="-40880" lat="59.8772250011" lon="10.7598027818">
		<tag k="ssr:gml_id" v="GEOMETRY_394e48a4-2408-49bd-9ecb-d1fad3233d0e" />
		<tag k="ssr:gml_nr" v="4" />
	</node>
	<node id="-40879" lat="59.8749749992" lon="10.7592999978">
		<tag k="ssr:gml_id" v="GEOMETRY_7bb01526-4e71-41ff-b793-696a575fa636" />
		<tag k="ssr:gml_nr" v="3" />
	</node>
	<node id="-36270" lat="59.9060416632" lon="10.7495416623">
		<tag k="ssr:gml_id" v="GEOMETRY_41227151-e0fa-4c0b-a47a-b80e27a21fa1" />
		<tag k="ssr:gml_nr" v="2" />
	</node>
	<node id="-36269" lat="59.9075833325" lon="10.7509722241">
		<tag k="ssr:gml_id" v="GEOMETRY_96299faa-d178-464d-b413-347ee4fba4c2" />
		<tag k="ssr:gml_nr" v="1" />
	</node>
	<node id="-36268" lat="59.9075777748" lon="10.7509666739">
		<tag k="ssr:gml_id" v="GEOMETRY_cd112e68-fdb8-4121-84c7-b67672f2bc98" />
		<tag k="ssr:gml_nr" v="0" />
	</node>
	<node id="-35570" lat="59.8766250025" lon="10.7704777829">
		<tag k="ssr:gml_id" v="GEOMETRY_b7f90f5e-d50a-44d0-8c7d-9c19f7b83451" />
		<tag k="ssr:gml_nr" v="0" />
	</node>
	<node id="-36260" lat="59.8848000011" lon="10.7232999913">
		<tag k="ssr:gml_id" v="GEOMETRY_11ae36db-8b0e-459a-a903-4b3687f5be12" />
		<tag k="ssr:gml_nr" v="4" />
	</node>
	<node id="-36259" lat="59.8845250009" lon="10.7206555589">
		<tag k="ssr:gml_id" v="GEOMETRY_34e04bce-2033-4d89-92fe-09a23dba68e1" />
		<tag k="ssr:gml_nr" v="3" />
	</node>
	<node id="-36258" lat="59.8847861092" lon="10.7232833317">
		<tag k="ssr:gml_id" v="GEOMETRY_f6a7bdf3-2a6e-49a6-90cf-b4c3af77f930" />
		<tag k="ssr:gml_nr" v="2" />
	</node>
	<node id="-36257" lat="59.884802775" lon="10.7233083374">
		<tag k="ssr:gml_id" v="GEOMETRY_f1a6430f-852f-48d6-814a-41ab93e9fe9c" />
		<tag k="ssr:gml_nr" v="1" />
	</node>
	<node id="-36256" lat="59.8848000006" lon="10.723302779">
		<tag k="ssr:gml_id" v="GEOMETRY_6a4b68a4-3c20-4f9e-92d0-6c59da359c21" />
		<tag k="ssr:gml_nr" v="0" />
	</node>
	<node id="-40351" lat="59.891025004" lon="10.7467416693">
		<tag k="name" v="Kalvodden" />
		<tag k="natural" v="cape" />
		<tag k="place" v="locality" />
		<tag k="ssr:date" v="2016-05-11" />
		<tag k="ssr:stedsnr" v="786768" />
	</node>
	<node id="-40350" lat="59.9049249983" lon="10.6988361159">
		<tag k="name" v="Kieneodden" />
		<tag k="natural" v="cape" />
		<tag k="place" v="locality" />
		<tag k="ssr:date" v="2016-05-11" />
		<tag k="ssr:stedsnr" v="786691" />
	</node>
	<node id="-40349" lat="59.9043194406" lon="10.6942999972">
		<tag k="alt_name" v="Langviksbukta" />
		<tag k="name" v="Langvikbukta" />
		<tag k="natural" v="bay" />
		<tag k="ssr:date" v="2016-05-11" />
		<tag k="ssr:stedsnr" v="786686" />
	</node>
	<node id="-40348" lat="59.8987999999" lon="10.6995250084">
		<tag k="name" v="Skurvegrunnen" />
		<tag k="natural" v="shoal" />
		<tag k="place" v="locality" />
		<tag k="ssr:date" v="2016-05-11" />
		<tag k="ssr:stedsnr" v="786684" />
	</node>
	<node id="-40347" lat="59.8710194463" lon="10.742247227">
		<tag k="name" v="Nordre Malmøyflua" />
		<tag k="natural" v="shoal" />
		<tag k="place" v="locality" />
		<tag k="ssr:date" v="2016-05-11" />
		<tag k="ssr:stedsnr" v="786368" />
	</node>
	<node id="-40345" lat="59.9086194446" lon="10.6987027748">
		<tag k="name" v="Dronninggrunnen" />
		<tag k="natural" v="shoal" />
		<tag k="place" v="locality" />
		<tag k="ssr:date" v="2016-05-11" />
		<tag k="ssr:stedsnr" v="784407" />
	</node>
	<node id="-40344" lat="59.9123055585" lon="10.6983027862">
		<tag k="name" v="Frognerdynga" />
		<tag k="natural" v="shoal" />
		<tag k="place" v="locality" />
		<tag k="ssr:date" v="2016-05-11" />
		<tag k="ssr:stedsnr" v="784350" />
	</node>
	<node id="-40852" lat="59.896277781" lon="10.6833777723">
		<tag k="name" v="Bekkebukta" />
		<tag k="natural" v="bay" />
		<tag k="ssr:date" v="2016-05-11" />
		<tag k="ssr:stedsnr" v="848797" />
	</node>
	<node id="-38286" lat="59.8897583348" lon="10.739325005">
		<tag k="ssr:gml_id" v="GEOMETRY_afb07210-cddb-4546-be83-f3bf11009ebc" />
		<tag k="ssr:gml_nr" v="3" />
	</node>
	<node id="-38285" lat="59.8893472253" lon="10.7387861161">
		<tag k="ssr:gml_id" v="GEOMETRY_6ea95a1d-3404-485d-b832-4bed7fb929b3" />
		<tag k="ssr:gml_nr" v="2" />
	</node>
	<node id="-40844" lat="59.8905222207" lon="10.7337583422">
		<tag k="name" v="Skipsløpet" />
		<tag k="natural" v="strait" />
		<tag k="place" v="locality" />
		<tag k="ssr:date" v="2016-05-11" />
		<tag k="ssr:stedsnr" v="847737" />
	</node>
	<node id="-40843" lat="59.8981166649" lon="10.6969166754">
		<tag k="fixme" v="consider seamark:type=rock" />
		<tag k="name" v="Skurven" />
		<tag k="natural" v="islet" />
		<tag k="ssr:date" v="2016-05-11" />
		<tag k="ssr:stedsnr" v="847394" />
	</node>
	<node id="-40842" lat="59.8663555576" lon="10.7417333328">
		<tag k="name" v="Vestergrunnen" />
		<tag k="natural" v="shoal" />
		<tag k="place" v="locality" />
		<tag k="ssr:date" v="2016-05-11" />
		<tag k="ssr:stedsnr" v="847370" />
	</node>
	<node id="-39147" lat="59.9007833356" lon="10.7218138886">
		<tag k="ssr:gml_id" v="GEOMETRY_e9252351-0f29-43ff-8984-e27cdb9e7d5c" />
		<tag k="ssr:gml_nr" v="0" />
	</node>
	<node id="-36224" lat="59.888363885" lon="10.7448527785">
		<tag k="name" v="Blindskjærbåen" />
		<tag k="natural" v="shoal" />
		<tag k="place" v="locality" />
		<tag k="ssr:date" v="2016-05-10" />
		<tag k="ssr:stedsnr" v="58753" />
	</node>
	<node id="-36223" lat="59.8912361111" lon="10.6800666689">
		<tag k="name" v="Hukfluene" />
		<tag k="natural" v="shoal" />
		<tag k="place" v="locality" />
		<tag k="ssr:date" v="2016-05-10" />
		<tag k="ssr:stedsnr" v="58729" />
	</node>
	<node id="-40318" lat="59.8754166668" lon="10.769769438">
		<tag k="ssr:gml_id" v="GEOMETRY_7b775eb6-5c84-4622-bb99-78c4165a7cf7" />
		<tag k="ssr:gml_nr" v="1" />
	</node>
	<node id="-36221" lat="59.8495305554" lon="10.7801999942">
		<tag k="name" v="Sanddyna" />
		<tag k="natural" v="beach" />
		<tag k="place" v="locality" />
		<tag k="ssr:date" v="2016-05-10" />
		<tag k="ssr:stedsnr" v="58495" />
	</node>
	<node id="-39999" lat="59.9161944472" lon="10.6684638824">
		<tag k="ssr:gml_id" v="GEOMETRY_74091109-7618-4192-af27-30873fd417f3" />
		<tag k="ssr:gml_nr" v="1" />
	</node>
	<node id="-38261" lat="59.8647472241" lon="10.7486138952">
		<tag k="name" v="Kalvsundet" />
		<tag k="natural" v="strait" />
		<tag k="place" v="locality" />
		<tag k="ssr:date" v="2016-05-10" />
		<tag k="ssr:stedsnr" v="482353" />
	</node>
	<node id="-39998" lat="59.9161972231" lon="10.668466669">
		<tag k="ssr:gml_id" v="GEOMETRY_e23489e1-f315-409d-8507-537bf60a15b8" />
		<tag k="ssr:gml_nr" v="0" />
	</node>
	<node id="-41663" lat="59.8573999984" lon="10.7613722143">
		<tag k="name" v="Malmøyholdet" />
		<tag k="natural" v="shoal" />
		<tag k="place" v="locality" />
		<tag k="ssr:date" v="2016-05-11" />
		<tag k="ssr:stedsnr" v="935272" />
	</node>
	<node id="-37503" lat="59.8907055547" lon="10.6935472161">
		<tag k="ssr:gml_id" v="GEOMETRY_9e7cedc4-c86a-44cb-bd34-1e3080e5cfae" />
		<tag k="ssr:gml_nr" v="0" />
	</node>
	<node id="-36719" lat="59.8425472265" lon="10.7733249988">
		<tag k="name" v="Fiskevollbukta" />
		<tag k="natural" v="bay" />
		<tag k="ssr:date" v="2016-05-10" />
		<tag k="ssr:stedsnr" v="144073" />
	</node>
	<node id="-39790" lat="59.8738111118" lon="10.7535861125">
		<tag k="name" v="Raudskjær" />
		<tag k="natural" v="cape" />
		<tag k="place" v="locality" />
		<tag k="ssr:date" v="2016-05-11" />
		<tag k="ssr:stedsnr" v="691384" />
	</node>
	<node id="-39997" lat="59.9034250024" lon="10.701077775">
		<tag k="ssr:gml_id" v="GEOMETRY_e34f2c04-a6a1-4ee4-bc00-c6df71fabac6" />
		<tag k="ssr:gml_nr" v="2" />
	</node>
	<node id="-41323" lat="59.8857500034" lon="10.6970277703">
		<tag k="ssr:gml_id" v="GEOMETRY_245a34b7-e294-405c-9c63-e92f0413fd61" />
		<tag k="ssr:gml_nr" v="2" />
	</node>
	<node id="-41322" lat="59.8857527787" lon="10.6970305567">
		<tag k="ssr:gml_id" v="GEOMETRY_c93b54ee-0bb8-4c81-bdd9-f399d8787c89" />
		<tag k="ssr:gml_nr" v="1" />
	</node>
	<node id="-41321" lat="59.8853638894" lon="10.6974638843">
		<tag k="ssr:gml_id" v="GEOMETRY_e2c1e9ea-c946-4275-9b59-bad9f2d72bcf" />
		<tag k="ssr:gml_nr" v="0" />
	</node>
	<node id="-39996" lat="59.903430553" lon="10.7010833336">
		<tag k="ssr:gml_id" v="GEOMETRY_d28856a1-1820-455b-901b-9b8f4d5c2044" />
		<tag k="ssr:gml_nr" v="1" />
	</node>
	<node id="-39995" lat="59.9034277776" lon="10.7010805632">
		<tag k="ssr:gml_id" v="GEOMETRY_c75ccef5-e94d-44d7-9b09-033bc4ab40ea" />
		<tag k="ssr:gml_nr" v="0" />
	</node>
	<node id="-39122" lat="59.8898111115" lon="10.7187416593">
		<tag k="ssr:gml_id" v="GEOMETRY_aa5b0272-294b-40a4-b158-ac0426c3178f" />
		<tag k="ssr:gml_nr" v="1" />
	</node>
	<node id="-40878" lat="59.8776777806" lon="10.7593944532">
		<tag k="ssr:gml_id" v="GEOMETRY_9992e985-d26a-45ef-b9b2-2f234009d730" />
		<tag k="ssr:gml_nr" v="2" />
	</node>
	<node id="-35898" lat="59.8946861084" lon="10.7376166658">
		<tag k="ssr:gml_id" v="GEOMETRY_182e4e07-46e9-4b5e-a73a-9e1f22cc2b6b" />
		<tag k="ssr:gml_nr" v="0" />
	</node>
	<node id="-39761" lat="59.8876777737" lon="10.7430666603">
		<tag k="alt_name" v="Bleikøysund" />
		<tag k="name" v="Bleikøysundet" />
		<tag k="natural" v="strait" />
		<tag k="place" v="locality" />
		<tag k="ssr:date" v="2016-05-11" />
		<tag k="ssr:stedsnr" v="691277" />
	</node>
	<node id="-39760" lat="59.8871249987" lon="10.7285416729">
		<tag k="name" v="Springeren" />
		<tag k="natural" v="strait" />
		<tag k="place" v="locality" />
		<tag k="ssr:date" v="2016-05-11" />
		<tag k="ssr:stedsnr" v="691276" />
	</node>
	<node id="-38284" lat="59.8897666682" lon="10.7393305523">
		<tag k="ssr:gml_id" v="GEOMETRY_58c51fe4-2d48-4edc-ae7c-661895235c62" />
		<tag k="ssr:gml_nr" v="1" />
	</node>
	<node id="-40259" lat="59.8744166686" lon="10.7572722223">
		<tag k="alt_name" v="Malmøysund" />
		<tag k="name" v="Malmøysundet" />
		<tag k="natural" v="strait" />
		<tag k="place" v="locality" />
		<tag k="ssr:date" v="2016-05-11" />
		<tag k="ssr:stedsnr" v="752328" />
	</node>
	<node id="-38283" lat="59.8897611101" lon="10.7393250071">
		<tag k="ssr:gml_id" v="GEOMETRY_9bf86fb3-a5ff-4be9-a928-1b3fb06c4aeb" />
		<tag k="ssr:gml_nr" v="0" />
	</node>
	<node id="-40877" lat="59.8772333323" lon="10.7598111192">
		<tag k="ssr:gml_id" v="GEOMETRY_6b791f84-fb99-46ee-8a47-a9ffd28e9a48" />
		<tag k="ssr:gml_nr" v="1" />
	</node>
	<node id="-35381" lat="59.9012500011" lon="10.7259666711">
		<tag k="name" v="Vestre Kavringdynga" />
		<tag k="natural" v="shoal" />
		<tag k="place" v="locality" />
		<tag k="ssr:date" v="2016-05-10" />
		<tag k="ssr:stedsnr" v="361002" />
	</node>
	<node id="-41266" lat="59.8989888905" lon="10.6940277759">
		<tag k="name" v="Lille Herbern" />
		<tag k="place" v="islet" />
		<tag k="ssr:date" v="2016-05-11" />
		<tag k="ssr:stedsnr" v="908699" />
	</node>
	<node id="-37678" lat="59.8876166653" lon="10.7322916597">
		<tag k="fixme" v="consider seamark:type=rock" />
		<tag k="name" v="Daggerskjær" />
		<tag k="natural" v="islet" />
		<tag k="ssr:date" v="2016-05-10" />
		<tag k="ssr:stedsnr" v="266488" />
	</node>
	<node id="-41260" lat="59.8666638889" lon="10.7455888824">
		<tag k="name" v="Innergrunnen" />
		<tag k="natural" v="shoal" />
		<tag k="place" v="locality" />
		<tag k="ssr:date" v="2016-05-11" />
		<tag k="ssr:stedsnr" v="907323" />
	</node>
	<node id="-41259" lat="59.8696527791" lon="10.7667527735">
		<tag k="fixme" v="consider seamark:type=rock" />
		<tag k="name" v="Ulvøyskjær" />
		<tag k="natural" v="islet" />
		<tag k="ssr:date" v="2016-05-11" />
		<tag k="ssr:stedsnr" v="907296" />
	</node>
	<node id="-36222" lat="59.8940277754" lon="10.6709305472">
		<tag k="name" v="Hukskjærgrunnen" />
		<tag k="natural" v="shoal" />
		<tag k="place" v="locality" />
		<tag k="ssr:date" v="2016-05-10" />
		<tag k="ssr:stedsnr" v="58688" />
	</node>
	<node id="-38694" lat="59.867325002" lon="10.7538500059">
		<tag k="ssr:gml_id" v="GEOMETRY_fd2178bd-3c6d-4794-900b-7a61b2bbe011" />
		<tag k="ssr:gml_nr" v="2" />
	</node>
	<node id="-38693" lat="59.8676777815" lon="10.7523194471">
		<tag k="ssr:gml_id" v="GEOMETRY_b034ce7d-8978-4625-a2e5-9634efa309c9" />
		<tag k="ssr:gml_nr" v="1" />
	</node>
	<node id="-38692" lat="59.8673277763" lon="10.7538527776">
		<tag k="ssr:gml_id" v="GEOMETRY_22fcf2f1-0982-4217-9ea2-ca01680fab02" />
		<tag k="ssr:gml_nr" v="0" />
	</node>
	<node id="-37023" lat="59.8677083332" lon="10.7578416742">
		<tag k="ssr:gml_id" v="GEOMETRY_0e401a25-c822-4048-be5b-29c0ef7d3e90" />
		<tag k="ssr:gml_nr" v="3" />
	</node>
	<node id="-36638" lat="59.9093333329" lon="10.7306361147">
		<tag k="ssr:gml_id" v="GEOMETRY_d456271a-aaaa-40d0-a0a7-9000ef862de9" />
		<tag k="ssr:gml_nr" v="3" />
	</node>
	<node id="-36637" lat="59.9082749971" lon="10.7306861059">
		<tag k="ssr:gml_id" v="GEOMETRY_3050faca-5ac4-4469-9e87-de69557425c3" />
		<tag k="ssr:gml_nr" v="2" />
	</node>
	<node id="-36636" lat="59.909341666" lon="10.730644453">
		<tag k="ssr:gml_id" v="GEOMETRY_fc41ccf2-6c77-44ec-a46d-57ba7bf561e1" />
		<tag k="ssr:gml_nr" v="1" />
	</node>
	<node id="-36635" lat="59.9093361077" lon="10.730638888">
		<tag k="ssr:gml_id" v="GEOMETRY_3d6298c5-6e65-4a58-8d0f-22529caea31f" />
		<tag k="ssr:gml_nr" v="0" />
	</node>
	<node id="-41732" lat="59.897163892" lon="10.6916083341">
		<tag k="name" v="Store Herbern" />
		<tag k="place" v="islet" />
		<tag k="ssr:date" v="2016-05-11" />
		<tag k="ssr:stedsnr" v="969779" />
	</node>
	<node id="-41215" lat="59.9058666702" lon="10.7100083339">
		<tag k="name" v="Brannskjærskåret" />
		<tag k="natural" v="shoal" />
		<tag k="place" v="locality" />
		<tag k="ssr:date" v="2016-05-11" />
		<tag k="ssr:stedsnr" v="874351" />
	</node>
	<node id="-41214" lat="59.8602444411" lon="10.7669500056">
		<tag k="name" v="Grasberget" />
		<tag k="natural" v="shoal" />
		<tag k="place" v="locality" />
		<tag k="ssr:date" v="2016-05-11" />
		<tag k="ssr:stedsnr" v="874296" />
	</node>
	<node id="-38653" lat="59.8935361105" lon="10.6947166754">
		<tag k="name" v="Sildeberget" />
		<tag k="natural" v="shoal" />
		<tag k="place" v="locality" />
		<tag k="ssr:date" v="2016-05-10" />
		<tag k="ssr:stedsnr" v="544695" />
	</node>
	<node id="-36603" lat="59.8878833294" lon="10.7315472173">
		<tag k="name" v="Daggerskjærgrunnen" />
		<tag k="natural" v="shoal" />
		<tag k="place" v="locality" />
		<tag k="ssr:date" v="2016-05-10" />
		<tag k="ssr:stedsnr" v="119751" />
	</node>
	<node id="-38138" lat="59.8656277796" lon="10.7824666607">
		<tag k="name" v="Seterstrand" />
		<tag k="natural" v="beach" />
		<tag k="place" v="locality" />
		<tag k="ssr:date" v="2016-05-10" />
		<tag k="ssr:stedsnr" v="448608" />
	</node>
	<node id="-38137" lat="59.8723694418" lon="10.7779555506">
		<tag k="alt_name" v="Ulvøysund" />
		<tag k="name" v="Ulvøysundet" />
		<tag k="natural" v="strait" />
		<tag k="place" v="locality" />
		<tag k="ssr:date" v="2016-05-10" />
		<tag k="ssr:stedsnr" v="448607" />
	</node>
	<node id="-40183" lat="59.8644722199" lon="10.7410722201">
		<tag k="name" v="Fagernes" />
		<tag k="natural" v="cape" />
		<tag k="place" v="locality" />
		<tag k="ssr:date" v="2016-05-11" />
		<tag k="ssr:stedsnr" v="751395" />
	</node>
	<node id="-41717" lat="59.8942361073" lon="10.6780027823">
		<tag k="fixme" v="consider seamark:type=rock" />
		<tag k="name" v="Hukskjæra" />
		<tag k="natural" v="islet" />
		<tag k="ssr:date" v="2016-05-11" />
		<tag k="ssr:stedsnr" v="968746" />
	</node>
	<node id="-41715" lat="59.8928916628" lon="10.6896250016">
		<tag k="name" v="Koppernaglen" />
		<tag k="place" v="locality" />
		<tag k="seamark:type" v="rock" />
		<tag k="ssr:date" v="2016-05-11" />
		<tag k="ssr:stedsnr" v="968727" />
	</node>
	<node id="-41714" lat="59.8654777813" lon="10.7638527849">
		<tag k="fixme" v="consider seamark:type=rock" />
		<tag k="name" v="Kjerringskjær" />
		<tag k="natural" v="islet" />
		<tag k="ssr:date" v="2016-05-11" />
		<tag k="ssr:stedsnr" v="968348" />
	</node>
	<node id="-39123" lat="59.8898055525" lon="10.7187361175">
		<tag k="ssr:gml_id" v="GEOMETRY_72dd1ced-9247-4677-ad9b-14ef54b2cfd9" />
		<tag k="ssr:gml_nr" v="2" />
	</node>
	<node id="-36592" lat="59.9012500011" lon="10.7259666711">
		<tag k="name" v="Østre Kavringdynga" />
		<tag k="natural" v="shoal" />
		<tag k="place" v="locality" />
		<tag k="ssr:date" v="2016-05-10" />
		<tag k="ssr:stedsnr" v="118003" />
	</node>
	<node id="-40317" lat="59.8754194405" lon="10.7697722296">
		<tag k="ssr:gml_id" v="GEOMETRY_9bae17b3-d457-4ad4-9b80-bea98025d68e" />
		<tag k="ssr:gml_nr" v="0" />
	</node>
	<node id="-39148" lat="59.9007805517" lon="10.7218111163">
		<tag k="ssr:gml_id" v="GEOMETRY_f3b3aa3e-04e7-4299-b106-c20309bb0af3" />
		<tag k="ssr:gml_nr" v="1" />
	</node>
	<node id="-41707" lat="59.8740000017" lon="10.7600333416">
		<tag k="name" v="Ormøygrunnen" />
		<tag k="natural" v="shoal" />
		<tag k="place" v="locality" />
		<tag k="ssr:date" v="2016-05-11" />
		<tag k="ssr:stedsnr" v="966269" />
	</node>
	<node id="-35367" lat="59.8329638849" lon="10.7712250067">
		<tag k="ssr:gml_id" v="GEOMETRY_9f403a07-204f-4ca5-b419-cb838348cb22" />
		<tag k="ssr:gml_nr" v="3" />
	</node>
	<node id="-39121" lat="59.8910388858" lon="10.7099416736">
		<tag k="ssr:gml_id" v="GEOMETRY_b78ff2e5-c142-4647-97bf-07428bf45489" />
		<tag k="ssr:gml_nr" v="0" />
	</node>
	<node id="-40675" lat="59.8604722194" lon="10.7572722268">
		<tag k="name" v="Skjellberget" />
		<tag k="place" v="locality" />
		<tag k="seamark:type" v="rock" />
		<tag k="ssr:date" v="2016-05-11" />
		<tag k="ssr:stedsnr" v="812589" />
	</node>
	<node id="-38352" lat="59.9024972178" lon="10.741238894">
		<tag k="ssr:gml_id" v="GEOMETRY_89fbd274-6ff9-4307-a1f7-f13a00db63c4" />
		<tag k="ssr:gml_nr" v="2" />
	</node>
	<node id="-35365" lat="59.832972226" lon="10.7712305527">
		<tag k="ssr:gml_id" v="GEOMETRY_5dd848f8-e73a-4e2a-9094-efeaac101adc" />
		<tag k="ssr:gml_nr" v="1" />
	</node>
	<node id="-35759" lat="59.8306777752" lon="10.7682555468">
		<tag k="name" v="Ringskjærodden" />
		<tag k="natural" v="cape" />
		<tag k="place" v="locality" />
		<tag k="ssr:date" v="2016-05-10" />
		<tag k="ssr:stedsnr" v="389349" />
	</node>
	<node id="-38351" lat="59.9032277806" lon="10.7406777829">
		<tag k="ssr:gml_id" v="GEOMETRY_6d79a475-5418-4dd8-b22d-b932d9ed613c" />
		<tag k="ssr:gml_nr" v="1" />
	</node>
	<node id="-35364" lat="59.8329666694" lon="10.771224994">
		<tag k="ssr:gml_id" v="GEOMETRY_70c185f4-36c4-4feb-b7db-14ef5a957a95" />
		<tag k="ssr:gml_nr" v="0" />
	</node>
	<node id="-39125" lat="59.8898027777" lon="10.7187333289">
		<tag k="ssr:gml_id" v="GEOMETRY_c0512cb9-3a10-4cc8-b09e-8221ffbd2a1c" />
		<tag k="ssr:gml_nr" v="4" />
	</node>
	<node id="-36564" lat="59.9091333358" lon="10.6468694388">
		<tag k="name" v="Lysakerflua" />
		<tag k="natural" v="shoal" />
		<tag k="place" v="locality" />
		<tag k="ssr:date" v="2016-05-10" />
		<tag k="ssr:stedsnr" v="86421" />
	</node>
	<node id="-36563" lat="59.8776749986" lon="10.705127786">
		<tag k="name" v="Rambergskårflua" />
		<tag k="natural" v="shoal" />
		<tag k="place" v="locality" />
		<tag k="ssr:date" v="2016-05-10" />
		<tag k="ssr:stedsnr" v="86360" />
	</node>
	<node id="-40658" lat="59.8876555561" lon="10.7523555602">
		<tag k="name" v="Sjursøya" />
		<tag k="natural" v="cape" />
		<tag k="place" v="locality" />
		<tag k="ssr:date" v="2016-05-11" />
		<tag k="ssr:stedsnr" v="812522" />
	</node>
	<node id="-41681" lat="59.9086194479" lon="10.6619888948">
		<tag k="alt_name" v="Kaffeskjær" />
		<tag k="fixme" v="consider seamark:type=rock" />
		<tag k="name" v="Kaffiskjæret" />
		<tag k="natural" v="islet" />
		<tag k="ssr:date" v="2016-05-11" />
		<tag k="ssr:stedsnr" v="936349" />
	</node>
	<node id="-35024" lat="59.8645694425" lon="10.7444055603">
		<tag k="ssr:gml_id" v="GEOMETRY_9b78b65e-ae90-45b8-99c7-cd9850e1d53b" />
		<tag k="ssr:gml_nr" v="2" />
	</node>
	<node id="-35023" lat="59.8642416639" lon="10.7431749959">
		<tag k="ssr:gml_id" v="GEOMETRY_26aaf0d0-2c9d-459d-9b46-d7dd0506a240" />
		<tag k="ssr:gml_nr" v="1" />
	</node>
	<node id="-35022" lat="59.8642361131" lon="10.743175009">
		<tag k="ssr:gml_id" v="GEOMETRY_9ef6544a-d7ce-4cb4-9225-7fe6b56dbec1" />
		<tag k="ssr:gml_nr" v="0" />
	</node>
	<node id="-41673" lat="59.9027722215" lon="10.7214888886">
		<tag k="name" v="Kavringsanden" />
		<tag k="natural" v="shoal" />
		<tag k="place" v="locality" />
		<tag k="ssr:date" v="2016-05-11" />
		<tag k="ssr:stedsnr" v="936006" />
	</node>
	<node id="-41664" lat="59.8463416662" lon="10.7575027829">
		<tag k="name" v="Ljansflua" />
		<tag k="natural" v="shoal" />
		<tag k="place" v="locality" />
		<tag k="ssr:date" v="2016-05-11" />
		<tag k="ssr:stedsnr" v="935301" />
	</node>
	<node id="-35025" lat="59.8642333298" lon="10.7431722201">
		<tag k="ssr:gml_id" v="GEOMETRY_717189c1-a755-4733-b393-0bbd84b0fbf1" />
		<tag k="ssr:gml_nr" v="3" />
	</node>
	<node id="-39097" lat="59.8616666646" lon="10.7512583276">
		<tag k="name" v="Sydvestre Malmøyodden" />
		<tag k="natural" v="cape" />
		<tag k="place" v="locality" />
		<tag k="ssr:date" v="2016-05-10" />
		<tag k="ssr:stedsnr" v="603330" />
	</node>
	<node id="-37577" lat="59.9119138912" lon="10.6507611169">
		<tag k="name" v="Altenborgleira" />
		<tag k="natural" v="shoal" />
		<tag k="place" v="locality" />
		<tag k="ssr:date" v="2016-05-10" />
		<tag k="ssr:stedsnr" v="263469" />
	</node>
	<node id="-37028" lat="59.8705861088" lon="10.771330559">
		<tag k="ssr:gml_id" v="GEOMETRY_8b3452ef-5353-450e-8286-7530794da456" />
		<tag k="ssr:gml_nr" v="2" />
	</node>
	<node id="-37027" lat="59.8705888917" lon="10.7713333329">
		<tag k="ssr:gml_id" v="GEOMETRY_97e6cc21-a55f-4bcc-9509-9921dbe28ee7" />
		<tag k="ssr:gml_nr" v="1" />
	</node>
	<node id="-37026" lat="59.8702499977" lon="10.7731083247">
		<tag k="ssr:gml_id" v="GEOMETRY_4b96e0a7-b3e4-42c2-890e-45d55085d8ad" />
		<tag k="ssr:gml_nr" v="0" />
	</node>
	<node id="-37025" lat="59.8717722261" lon="10.7555305598">
		<tag k="ssr:gml_id" v="GEOMETRY_d58d6d1d-3c02-40a1-a75b-888e3ea66060" />
		<tag k="ssr:gml_nr" v="5" />
	</node>
	<node id="-37024" lat="59.865597218" lon="10.757394443">
		<tag k="ssr:gml_id" v="GEOMETRY_613c396b-251d-4b80-8e13-c1f6cad2f343" />
		<tag k="ssr:gml_nr" v="4" />
	</node>
	<node id="-35999" lat="59.8625555544" lon="10.7561388813">
		<tag k="name" v="Mostranda" />
		<tag k="natural" v="beach" />
		<tag k="place" v="locality" />
		<tag k="ssr:date" v="2016-05-10" />
		<tag k="ssr:stedsnr" v="23431" />
	</node>
	<node id="-37022" lat="59.8679472192" lon="10.7577666737">
		<tag k="ssr:gml_id" v="GEOMETRY_f0701f1c-d8ae-4d6c-9afe-3dc079916a77" />
		<tag k="ssr:gml_nr" v="2" />
	</node>
	<node id="-37021" lat="59.8717749982" lon="10.7555388873">
		<tag k="ssr:gml_id" v="GEOMETRY_9fdb17a4-2e60-4f04-9dfe-5f7511f6eb48" />
		<tag k="ssr:gml_nr" v="1" />
	</node>
	<node id="-37020" lat="59.8717750004" lon="10.7555333319">
		<tag k="ssr:gml_id" v="GEOMETRY_1d6323e8-e2d5-41ab-9190-37857f66c47b" />
		<tag k="ssr:gml_nr" v="0" />
	</node>
	<node id="-38550" lat="59.907130557" lon="10.7221805623">
		<tag k="ssr:gml_id" v="GEOMETRY_dbaf7c21-1ca0-494f-bf0b-c8059586fc1f" />
		<tag k="ssr:gml_nr" v="1" />
	</node>
	<node id="-38549" lat="59.9071333322" lon="10.722180563">
		<tag k="ssr:gml_id" v="GEOMETRY_efad4c27-a645-4424-b484-6324ccf0e04c" />
		<tag k="ssr:gml_nr" v="0" />
	</node>
	<node id="-34964" lat="59.8549000009" lon="10.7836222229">
		<tag k="ssr:gml_id" v="GEOMETRY_55ad9d89-c943-48ff-b94a-4bf6e22b59db" />
		<tag k="ssr:gml_nr" v="1" />
	</node>
	<node id="-34963" lat="59.8552138903" lon="10.7832111033">
		<tag k="ssr:gml_id" v="GEOMETRY_1d4d01a4-6ab7-4138-bf6b-80e22828a277" />
		<tag k="ssr:gml_nr" v="0" />
	</node>
	<node id="-39563" lat="59.9137499968" lon="10.6932166687">
		<tag k="ssr:gml_id" v="GEOMETRY_129bb04e-d66b-4152-ac3a-a27d44a9db0b" />
		<tag k="ssr:gml_nr" v="2" />
	</node>
	<node id="-39562" lat="59.9137527814" lon="10.6932222299">
		<tag k="ssr:gml_id" v="GEOMETRY_d4d8457f-c229-4a78-840d-c2c416d83fec" />
		<tag k="ssr:gml_nr" v="1" />
	</node>
	<node id="-39561" lat="59.9137499971" lon="10.693219441">
		<tag k="ssr:gml_id" v="GEOMETRY_58537e69-8cf4-4820-b43a-4279790cf9bc" />
		<tag k="ssr:gml_nr" v="0" />
	</node>
	<node id="-37510" lat="59.9088861138" lon="10.6581333291">
		<tag k="ssr:gml_id" v="GEOMETRY_47c68244-bd7c-41bf-ae79-25042ebb2fa4" />
		<tag k="ssr:gml_nr" v="2" />
	</node>
	<node id="-37509" lat="59.9088916662" lon="10.6581388814">
		<tag k="ssr:gml_id" v="GEOMETRY_56b85e94-a0d0-4b80-be70-b7f3327a121b" />
		<tag k="ssr:gml_nr" v="1" />
	</node>
	<node id="-37508" lat="59.9088888899" lon="10.6581361142">
		<tag k="ssr:gml_id" v="GEOMETRY_9b948b05-14cd-4265-a922-07c8abf10a31" />
		<tag k="ssr:gml_nr" v="0" />
	</node>
	<node id="-37507" lat="59.8944249997" lon="10.705102773">
		<tag k="ssr:gml_id" v="GEOMETRY_9dc28e48-3839-42e8-ac09-f0103bc85c3d" />
		<tag k="ssr:gml_nr" v="2" />
	</node>
	<node id="-37506" lat="59.8944249995" lon="10.7051055616">
		<tag k="ssr:gml_id" v="GEOMETRY_aa46b5c6-a232-4fa9-b7cb-881390c58227" />
		<tag k="ssr:gml_nr" v="1" />
	</node>
	<node id="-37505" lat="59.8944249997" lon="10.7051111029">
		<tag k="ssr:gml_id" v="GEOMETRY_8a9ac9f7-b73c-4536-91a5-a80dbc9439c3" />
		<tag k="ssr:gml_nr" v="0" />
	</node>
	<node id="-36992" lat="59.8928916628" lon="10.6896250016">
		<tag k="name" v="Koppernaglegrunnen" />
		<tag k="natural" v="shoal" />
		<tag k="place" v="locality" />
		<tag k="ssr:date" v="2016-05-10" />
		<tag k="ssr:stedsnr" v="180694" />
	</node>
	<node id="-39104" lat="59.8971583305" lon="10.6875888962">
		<tag k="name" v="Odden" />
		<tag k="natural" v="cape" />
		<tag k="place" v="locality" />
		<tag k="ssr:date" v="2016-05-10" />
		<tag k="ssr:stedsnr" v="604691" />
	</node>
	<node id="-36987" lat="59.8669972216" lon="10.7496444509">
		<tag k="fixme" v="consider seamark:type=rock" />
		<tag k="name" v="Kalvøyskjær" />
		<tag k="natural" v="islet" />
		<tag k="ssr:date" v="2016-05-10" />
		<tag k="ssr:stedsnr" v="179352" />
	</node>
	<node id="-36986" lat="59.8725666655" lon="10.77573334">
		<tag k="name" v="Kollen" />
		<tag k="natural" v="cape" />
		<tag k="place" v="locality" />
		<tag k="ssr:date" v="2016-05-10" />
		<tag k="ssr:stedsnr" v="179327" />
	</node>
	<node id="-39103" lat="59.8965111135" lon="10.6742027868">
		<tag k="name" v="Maurtubukta" />
		<tag k="natural" v="bay" />
		<tag k="ssr:date" v="2016-05-10" />
		<tag k="ssr:stedsnr" v="604723" />
	</node>
	<node id="-38519" lat="59.8713416625" lon="10.7618694426">
		<tag k="alt_name" v="Kaninøya" />
		<tag k="fixme" v="consider seamark:type=rock" />
		<tag k="name" v="Selskjær" />
		<tag k="natural" v="islet" />
		<tag k="ssr:date" v="2016-05-10" />
		<tag k="ssr:stedsnr" v="509510" />
	</node>
	<node id="-34931" lat="59.8710777767" lon="10.7289222193">
		<tag k="name" v="Søndre Langøyrabbane" />
		<tag k="natural" v="shoal" />
		<tag k="place" v="locality" />
		<tag k="ssr:date" v="2016-05-10" />
		<tag k="ssr:stedsnr" v="300478" />
	</node>
	<node id="-35441" lat="59.9014416669" lon="10.6657916714">
		<tag k="ssr:gml_id" v="GEOMETRY_c07ec7b3-9caf-46f2-9f00-655f949967ff" />
		<tag k="ssr:gml_nr" v="1" />
	</node>
	<node id="-35440" lat="59.9014444431" lon="10.6657944386">
		<tag k="ssr:gml_id" v="GEOMETRY_e0643875-e831-457a-9531-c51368b9abbb" />
		<tag k="ssr:gml_nr" v="0" />
	</node>
	<node id="-38333" lat="59.8807722193" lon="10.7220555517">
		<tag k="ssr:gml_id" v="GEOMETRY_d99c53ae-82d2-4f26-addc-a27bca70c084" />
		<tag k="ssr:gml_nr" v="5" />
	</node>
	<node id="-34923" lat="59.9137611078" lon="10.6630333314">
		<tag k="name" v="Hengeleppa" />
		<tag k="natural" v="cape" />
		<tag k="place" v="locality" />
		<tag k="ssr:date" v="2016-05-10" />
		<tag k="ssr:stedsnr" v="299346" />
	</node>
	<node id="-41578" lat="59.8598111148" lon="10.7836611131">
		<tag k="name" v="Smedvika" />
		<tag k="natural" v="bay" />
		<tag k="ssr:date" v="2016-05-11" />
		<tag k="ssr:stedsnr" v="934530" />
	</node>
	<node id="-39521" lat="59.8752666665" lon="10.72798055">
		<tag k="name" v="Nordre Langøyrabbane" />
		<tag k="natural" v="shoal" />
		<tag k="place" v="locality" />
		<tag k="ssr:date" v="2016-05-10" />
		<tag k="ssr:stedsnr" v="664456" />
	</node>
	<node id="-36947" lat="59.8845277759" lon="10.7361444402">
		<tag k="name" v="Bleikøyflua" />
		<tag k="natural" v="shoal" />
		<tag k="place" v="locality" />
		<tag k="ssr:date" v="2016-05-10" />
		<tag k="ssr:stedsnr" v="146275" />
	</node>
	<node id="-38477" lat="59.8653805535" lon="10.7410777863">
		<tag k="fixme" v="consider seamark:type=rock" />
		<tag k="name" v="Hertugskjær" />
		<tag k="natural" v="islet" />
		<tag k="ssr:date" v="2016-05-10" />
		<tag k="ssr:stedsnr" v="509334" />
	</node>
	<node id="-40000" lat="59.9161916711" lon="10.6684611136">
		<tag k="ssr:gml_id" v="GEOMETRY_135b9f9c-dbe5-4f08-aa73-4cceca440c9b" />
		<tag k="ssr:gml_nr" v="2" />
	</node>
	<node id="-35903" lat="59.8946833338" lon="10.7376138932">
		<tag k="ssr:gml_id" v="GEOMETRY_a900cab7-c6f8-4b97-86bb-a23c032bb82e" />
		<tag k="ssr:gml_nr" v="5" />
	</node>
	<node id="-35902" lat="59.8950027743" lon="10.7294472251">
		<tag k="ssr:gml_id" v="GEOMETRY_b829adcd-fe00-4190-a390-0e14783ae0bc" />
		<tag k="ssr:gml_nr" v="4" />
	</node>
	<node id="-35901" lat="59.8975388895" lon="10.7286305608">
		<tag k="ssr:gml_id" v="GEOMETRY_e40c0832-6da5-4c85-858b-9088a1cc1568" />
		<tag k="ssr:gml_nr" v="3" />
	</node>
	<node id="-35900" lat="59.8940777797" lon="10.7322777714">
		<tag k="ssr:gml_id" v="GEOMETRY_55ac7c31-211c-40d8-99cc-156d2bca997a" />
		<tag k="ssr:gml_nr" v="2" />
	</node>
	<node id="-35899" lat="59.8946916664" lon="10.7376222294">
		<tag k="ssr:gml_id" v="GEOMETRY_3ff74d0f-1c61-48a1-9e6b-4bd9622d6bf5" />
		<tag k="ssr:gml_nr" v="1" />
	</node>
	<node id="-39482" lat="59.8949027768" lon="10.6884027841">
		<tag k="fixme" v="consider seamark:type=rock" />
		<tag k="name" v="Dyna" />
		<tag k="natural" v="islet" />
		<tag k="ssr:date" v="2016-05-10" />
		<tag k="ssr:stedsnr" v="631311" />
	</node>
	<node id="-35384" lat="59.8995444405" lon="10.7341388956">
		<tag k="name" v="Tingvallagrunnen" />
		<tag k="natural" v="shoal" />
		<tag k="place" v="locality" />
		<tag k="ssr:date" v="2016-05-10" />
		<tag k="ssr:stedsnr" v="361766" />
	</node>
	<node id="-35383" lat="59.9098444445" lon="10.6518027764">
		<tag k="name" v="Bøyesanden" />
		<tag k="natural" v="shoal" />
		<tag k="place" v="locality" />
		<tag k="ssr:date" v="2016-05-10" />
		<tag k="ssr:stedsnr" v="361583" />
	</node>
	<node id="-35382" lat="59.8797611094" lon="10.7071277761">
		<tag k="name" v="Skomakerflua" />
		<tag k="place" v="locality" />
		<tag k="seamark:type" v="rock" />
		<tag k="ssr:date" v="2016-05-10" />
		<tag k="ssr:stedsnr" v="361505" />
	</node>
	<node id="-38453" lat="59.8781638871" lon="10.7647694509">
		<tag k="name" v="Grønsund" />
		<tag k="natural" v="strait" />
		<tag k="place" v="locality" />
		<tag k="ssr:date" v="2016-05-10" />
		<tag k="ssr:stedsnr" v="509231" />
	</node>
	<node id="-37426" lat="59.8862861111" lon="10.7336638968">
		<tag k="name" v="Karantenehavna" />
		<tag k="natural" v="bay" />
		<tag k="ssr:date" v="2016-05-10" />
		<tag k="ssr:stedsnr" v="240736" />
	</node>
	<node id="-37424" lat="59.8666666658" lon="10.7715611072">
		<tag k="name" v="Langeodden" />
		<tag k="natural" v="cape" />
		<tag k="place" v="locality" />
		<tag k="ssr:date" v="2016-05-10" />
		<tag k="ssr:stedsnr" v="240345" />
	</node>
	<node id="-37932" lat="59.8632250036" lon="10.763669445">
		<tag k="ssr:gml_id" v="GEOMETRY_c081be67-297b-41c1-8932-cb418a4f9c16" />
		<tag k="ssr:gml_nr" v="3" />
	</node>
	<node id="-37931" lat="59.8633305578" lon="10.763799993">
		<tag k="ssr:gml_id" v="GEOMETRY_7cfc605e-2edf-40b5-ba89-e188e2c9bef1" />
		<tag k="ssr:gml_nr" v="2" />
	</node>
	<node id="-37930" lat="59.8633388889" lon="10.7638083278">
		<tag k="ssr:gml_id" v="GEOMETRY_9eb0b007-b01f-4adb-80b7-743254afc192" />
		<tag k="ssr:gml_nr" v="1" />
	</node>
	<node id="-37929" lat="59.8633333317" lon="10.763802783">
		<tag k="ssr:gml_id" v="GEOMETRY_a67fd566-4d97-46db-9d1e-ebf2451a4cf6" />
		<tag k="ssr:gml_nr" v="0" />
	</node>
	<node id="-40999" lat="59.856938891" lon="10.7841333402">
		<tag k="name" v="Holmestrand" />
		<tag k="natural" v="beach" />
		<tag k="place" v="locality" />
		<tag k="ssr:date" v="2016-05-11" />
		<tag k="ssr:stedsnr" v="873548" />
	</node>
	<node id="-35366" lat="59.8330833368" lon="10.7711805527">
		<tag k="ssr:gml_id" v="GEOMETRY_d2fd84a2-6460-4fb5-b1aa-1143be8e088e" />
		<tag k="ssr:gml_nr" v="2" />
	</node>
	<node id="-37413" lat="59.870280553" lon="10.7518888827">
		<tag k="name" v="Brattodden" />
		<tag k="natural" v="cape" />
		<tag k="place" v="locality" />
		<tag k="ssr:date" v="2016-05-10" />
		<tag k="ssr:stedsnr" v="238281" />
	</node>
	<node id="-37412" lat="59.8851194441" lon="10.702597227">
		<tag k="fixme" v="consider seamark:type=rock" />
		<tag k="name" v="Svenskeskjær" />
		<tag k="natural" v="islet" />
		<tag k="ssr:date" v="2016-05-10" />
		<tag k="ssr:stedsnr" v="238142" />
	</node>
	<node id="-39124" lat="59.8895722215" lon="10.7183500051">
		<tag k="ssr:gml_id" v="GEOMETRY_8590f207-d1d3-462e-af9b-543e961b1f5e" />
		<tag k="ssr:gml_nr" v="3" />
	</node>
	<node id="-36271" lat="59.9075750007" lon="10.7509638812">
		<tag k="ssr:gml_id" v="GEOMETRY_c4e6c08f-c6fc-4d0c-bfa4-51f3a1647457" />
		<tag k="ssr:gml_nr" v="3" />
	</node>
	<node id="-39958" lat="59.8813416653" lon="10.7113194492">
		<tag k="name" v="Jakteskjær" />
		<tag k="natural" v="cape" />
		<tag k="place" v="locality" />
		<tag k="ssr:date" v="2016-05-11" />
		<tag k="ssr:stedsnr" v="726818" />
	</node>
	<node id="-35348" lat="59.8853500037" lon="10.7061472305">
		<tag k="name" v="Stangskjærrabben" />
		<tag k="natural" v="shoal" />
		<tag k="place" v="locality" />
		<tag k="ssr:date" v="2016-05-10" />
		<tag k="ssr:stedsnr" v="328311" />
	</node>
	<node id="-35347" lat="59.9055305591" lon="10.6590472194">
		<tag k="name" v="Killingflua" />
		<tag k="natural" v="shoal" />
		<tag k="place" v="locality" />
		<tag k="ssr:date" v="2016-05-10" />
		<tag k="ssr:stedsnr" v="328309" />
	</node>
	<node id="-37389" lat="59.9064916637" lon="10.6682833295">
		<tag k="name" v="Bygdøy" />
		<tag k="natural" v="cape" />
		<tag k="place" v="locality" />
		<tag k="ssr:date" v="2016-05-10" />
		<tag k="ssr:stedsnr" v="207331" />
	</node>
	<node id="-37903" lat="59.8971583324" lon="10.6916055486">
		<tag k="ssr:gml_id" v="GEOMETRY_f1a27a18-dcd2-4188-b90d-93fe90f58748" />
		<tag k="ssr:gml_nr" v="2" />
	</node>
	<node id="-37902" lat="59.897163892" lon="10.6916083341">
		<tag k="ssr:gml_id" v="GEOMETRY_847caf29-5306-4e7c-b3bf-0b19cf8003ca" />
		<tag k="ssr:gml_nr" v="1" />
	</node>
	<node id="-37901" lat="59.898899998" lon="10.6938638867">
		<tag k="ssr:gml_id" v="GEOMETRY_cf2f2636-a075-4fcf-8d16-065deed00d24" />
		<tag k="ssr:gml_nr" v="0" />
	</node>
	<node id="-39949" lat="59.9125083332" lon="10.6583583333">
		<tag k="name" v="Vesle Killingen" />
		<tag k="natural" v="cape" />
		<tag k="place" v="locality" />
		<tag k="ssr:date" v="2016-05-11" />
		<tag k="ssr:stedsnr" v="725421" />
	</node>
	<node id="-37387" lat="59.8562138901" lon="10.7580222274">
		<tag k="name" v="Malmøyflua" />
		<tag k="natural" v="shoal" />
		<tag k="place" v="locality" />
		<tag k="ssr:date" v="2016-05-10" />
		<tag k="ssr:stedsnr" v="207311" />
	</node>
	<node id="-40876" lat="59.8772277752" lon="10.7598055548">
		<tag k="ssr:gml_id" v="GEOMETRY_8a50d515-93d3-4f26-acb7-a48fc9ab98aa" />
		<tag k="ssr:gml_nr" v="0" />
	</node>
	<node id="-38913" lat="59.8906361132" lon="10.7461027762">
		<tag k="name" v="Bleikøykalven" />
		<tag k="natural" v="cape" />
		<tag k="place" v="locality" />
		<tag k="ssr:date" v="2016-05-10" />
		<tag k="ssr:stedsnr" v="569490" />
	</node>
	<way id="-7423">
		<tag k="name" v="Hvervenbukta" />
		<tag k="natural" v="bay" />
		<tag k="ssr:date" v="2016-05-10" />
		<tag k="ssr:stedsnr" v="429189" />
		<nd ref="-35364" />
		<nd ref="-35365" />
		<nd ref="-35366" />
		<nd ref="-35367" />
	</way>
	<way id="-7978">
		<tag k="name" v="Rambergøya" />
		<tag k="place" v="islet" />
		<tag k="ssr:date" v="2016-05-10" />
		<tag k="ssr:stedsnr" v="489838" />
		<nd ref="-38328" />
		<nd ref="-38329" />
		<nd ref="-38330" />
		<nd ref="-38331" />
		<nd ref="-38332" />
		<nd ref="-38333" />
	</way>
	<way id="-8045">
		<tag k="name" v="Skinnerbukta" />
		<tag k="natural" v="bay" />
		<tag k="ssr:date" v="2016-05-10" />
		<tag k="ssr:stedsnr" v="550137" />
		<nd ref="-38692" />
		<nd ref="-38693" />
		<nd ref="-38694" />
	</way>
	<way id="-7657">
		<tag k="name" v="Pipervika" />
		<tag k="natural" v="bay" />
		<tag k="ssr:date" v="2016-05-10" />
		<tag k="ssr:stedsnr" v="126117" />
		<nd ref="-36635" />
		<nd ref="-36636" />
		<nd ref="-36637" />
		<nd ref="-36638" />
	</way>
	<way id="-7527">
		<tag k="name" v="Hovedøya" />
		<tag k="place" v="island" />
		<tag k="ssr:date" v="2016-05-10" />
		<tag k="ssr:stedsnr" v="5048" />
		<nd ref="-35898" />
		<nd ref="-35899" />
		<nd ref="-35900" />
		<nd ref="-35901" />
		<nd ref="-35902" />
		<nd ref="-35903" />
	</way>
	<way id="-7903">
		<tag k="fixme" v="consider seamark:type=rock" />
		<tag k="name" v="Malmøyskjær" />
		<tag k="natural" v="islet" />
		<tag k="ssr:date" v="2016-05-10" />
		<tag k="ssr:stedsnr" v="430130" />
		<nd ref="-37929" />
		<nd ref="-37930" />
		<nd ref="-37931" />
		<nd ref="-37932" />
	</way>
	<way id="-8284">
		<tag k="name" v="Bestumkilen" />
		<tag k="natural" v="bay" />
		<tag k="old_name" v="Bestun-kilen" />
		<tag k="ssr:date" v="2016-05-11" />
		<tag k="ssr:stedsnr" v="732909" />
		<nd ref="-39998" />
		<nd ref="-39999" />
		<nd ref="-40000" />
	</way>
	<way id="-8283">
		<tag k="name" v="Bygdøynes" />
		<tag k="natural" v="cape" />
		<tag k="place" v="locality" />
		<tag k="ssr:date" v="2016-05-11" />
		<tag k="ssr:stedsnr" v="732865" />
		<nd ref="-39995" />
		<nd ref="-39996" />
		<nd ref="-39997" />
	</way>
	<way id="-8536">
		<tag k="alt_name" v="Rausekkene" />
		<tag k="fixme" v="consider seamark:type=rock" />
		<tag k="name" v="Raudsekkene" />
		<tag k="natural" v="islet" />
		<tag k="ssr:date" v="2016-05-11" />
		<tag k="ssr:stedsnr" v="914843" />
		<nd ref="-41321" />
		<nd ref="-41322" />
		<nd ref="-41323" />
	</way>
	<way id="-7894">
		<tag k="name" v="Herbern" />
		<tag k="place" v="islet" />
		<tag k="ssr:date" v="2016-05-10" />
		<tag k="ssr:stedsnr" v="429873" />
		<nd ref="-37901" />
		<nd ref="-37902" />
		<nd ref="-37903" />
	</way>
	<way id="-8021">
		<tag k="name" v="Tjuvholmen" />
		<tag k="natural" v="cape" />
		<tag k="place" v="locality" />
		<tag k="ssr:date" v="2016-05-10" />
		<tag k="ssr:stedsnr" v="509666" />
		<nd ref="-38549" />
		<nd ref="-38550" />
	</way>
	<way id="-7363">
		<tag k="name" v="Malmøykalven" />
		<tag k="place" v="islet" />
		<tag k="ssr:date" v="2016-05-10" />
		<tag k="ssr:stedsnr" v="308123" />
		<nd ref="-35022" />
		<nd ref="-35023" />
		<nd ref="-35024" />
		<nd ref="-35025" />
	</way>
	<way id="-8128">
		<tag k="fixme" v="consider seamark:type=rock" />
		<tag k="name" v="Kavringen" />
		<tag k="natural" v="islet" />
		<tag k="ssr:date" v="2016-05-10" />
		<tag k="ssr:stedsnr" v="611071" />
		<nd ref="-39147" />
		<nd ref="-39148" />
	</way>
	<way id="-8120">
		<tag k="name" v="Lindøya" />
		<tag k="place" v="island" />
		<tag k="ssr:date" v="2016-05-10" />
		<tag k="ssr:stedsnr" v="610867" />
		<nd ref="-39121" />
		<nd ref="-39122" />
		<nd ref="-39123" />
		<nd ref="-39124" />
		<nd ref="-39125" />
	</way>
	<way id="-7346">
		<tag k="name" v="Katten" />
		<tag k="natural" v="beach" />
		<tag k="place" v="locality" />
		<tag k="ssr:date" v="2016-05-10" />
		<tag k="ssr:stedsnr" v="308212" />
		<nd ref="-34963" />
		<nd ref="-34964" />
		<nd ref="-34965" />
	</way>
	<way id="-7985">
		<tag k="name" v="Vippetangen" />
		<tag k="natural" v="cape" />
		<tag k="place" v="locality" />
		<tag k="ssr:date" v="2016-05-10" />
		<tag k="ssr:stedsnr" v="490070" />
		<nd ref="-38350" />
		<nd ref="-38351" />
		<nd ref="-38352" />
	</way>
	<way id="-7728">
		<tag k="name" v="Malmøya" />
		<tag k="place" v="island" />
		<tag k="ssr:date" v="2016-05-10" />
		<tag k="ssr:stedsnr" v="186121" />
		<nd ref="-37020" />
		<nd ref="-37021" />
		<nd ref="-37022" />
		<nd ref="-37023" />
		<nd ref="-37024" />
		<nd ref="-37025" />
	</way>
	<way id="-7468">
		<tag k="name" v="Paddehavet" />
		<tag k="natural" v="bay" />
		<tag k="ssr:date" v="2016-05-10" />
		<tag k="ssr:stedsnr" v="387275" />
		<nd ref="-35570" />
		<nd ref="-35571" />
	</way>
	<way id="-7594">
		<tag k="alt_name" v="Huk" />
		<tag k="name" v="Hukodden" />
		<tag k="natural" v="cape" />
		<tag k="place" v="locality" />
		<tag k="ssr:date" v="2016-05-10" />
		<tag k="ssr:stedsnr" v="65866" />
		<nd ref="-36298" />
		<nd ref="-36299" />
		<nd ref="-36300" />
	</way>
	<way id="-7729">
		<tag k="name" v="Ulvøya" />
		<tag k="place" v="island" />
		<tag k="ssr:date" v="2016-05-10" />
		<tag k="ssr:stedsnr" v="186123" />
		<nd ref="-37026" />
		<nd ref="-37027" />
		<nd ref="-37028" />
	</way>
	<way id="-8354">
		<tag k="name" v="Bispevika" />
		<tag k="natural" v="bay" />
		<tag k="ssr:date" v="2016-05-11" />
		<tag k="ssr:stedsnr" v="793110" />
		<nd ref="-40387" />
		<nd ref="-40388" />
		<nd ref="-40389" />
		<nd ref="-40390" />
	</way>
	<way id="-7584">
		<tag k="name" v="Bjørvika" />
		<tag k="natural" v="bay" />
		<tag k="ssr:date" v="2016-05-10" />
		<tag k="ssr:stedsnr" v="65105" />
		<nd ref="-36268" />
		<nd ref="-36269" />
		<nd ref="-36270" />
		<nd ref="-36271" />
	</way>
	<way id="-7966">
		<tag k="name" v="Bleikøya" />
		<tag k="place" v="island" />
		<tag k="ssr:date" v="2016-05-10" />
		<tag k="ssr:stedsnr" v="489097" />
		<nd ref="-38283" />
		<nd ref="-38284" />
		<nd ref="-38285" />
		<nd ref="-38286" />
	</way>
	<way id="-7581">
		<tag k="name" v="Gressholmen" />
		<tag k="place" v="islet" />
		<tag k="ssr:date" v="2016-05-10" />
		<tag k="ssr:stedsnr" v="65065" />
		<nd ref="-36256" />
		<nd ref="-36257" />
		<nd ref="-36258" />
		<nd ref="-36259" />
		<nd ref="-36260" />
	</way>
	<way id="-8343">
		<tag k="alt_name" v="Padda;Tistilholmen" />
		<tag k="name" v="Skilpadda" />
		<tag k="old_name" v="Tistiløya;Tistiløen" />
		<tag k="place" v="islet" />
		<tag k="ssr:date" v="2016-05-11" />
		<tag k="ssr:stedsnr" v="767366" />
		<nd ref="-40317" />
		<nd ref="-40318" />
	</way>
	<way id="-7828">
		<tag k="name" v="Killingen" />
		<tag k="place" v="islet" />
		<tag k="ssr:date" v="2016-05-10" />
		<tag k="ssr:stedsnr" v="247894" />
		<nd ref="-37508" />
		<nd ref="-37509" />
		<nd ref="-37510" />
	</way>
	<way id="-7827">
		<tag k="fixme" v="multiple name tags, choose one and add the other to alt_name; consider seamark:type=rock" />
		<tag k="name" v="Galten;Galteskjær" />
		<tag k="natural" v="islet" />
		<tag k="ssr:date" v="2016-05-10" />
		<tag k="ssr:stedsnr" v="247862" />
		<nd ref="-37505" />
		<nd ref="-37506" />
		<nd ref="-37507" />
	</way>
	<way id="-7826">
		<tag k="name" v="Nakkholmen" />
		<tag k="place" v="islet" />
		<tag k="ssr:date" v="2016-05-10" />
		<tag k="ssr:stedsnr" v="247829" />
		<nd ref="-37503" />
		<nd ref="-37504" />
	</way>
	<way id="-7439">
		<tag k="name" v="Paradisbukta" />
		<tag k="natural" v="bay" />
		<tag k="ssr:date" v="2016-05-10" />
		<tag k="ssr:stedsnr" v="368887" />
		<nd ref="-35440" />
		<nd ref="-35441" />
	</way>
	<way id="-8197">
		<tag k="name" v="Frognerkilen" />
		<tag k="natural" v="bay" />
		<tag k="ssr:date" v="2016-05-10" />
		<tag k="ssr:stedsnr" v="671916" />
		<nd ref="-39561" />
		<nd ref="-39562" />
		<nd ref="-39563" />
	</way>
	<way id="-8449">
		<tag k="name" v="Ormøya" />
		<tag k="place" v="island" />
		<tag k="ssr:date" v="2016-05-11" />
		<tag k="ssr:stedsnr" v="854166" />
		<nd ref="-40876" />
		<nd ref="-40877" />
		<nd ref="-40878" />
		<nd ref="-40879" />
		<nd ref="-40880" />
	</way>
</osm>
