<?xml version="1.0" encoding="UTF-8"?>
<osm generator="osmapis" version="0.6">
	<node id="-39421" lat="59.9641944468" lon="10.893508342">
		<tag k="name" v="Romsås" />
		<tag k="ssr:date" v="2016-05-10" />
		<tag k="ssr:stedsnr" v="630677" />
	</node>
	<node id="-39420" lat="59.935430558" lon="10.8855500037">
		<tag k="name" v="Furuset" />
		<tag k="ssr:date" v="2016-05-10" />
		<tag k="ssr:stedsnr" v="630675" />
	</node>
	<node id="-39408" lat="59.8938111091" lon="10.805986113">
		<tag k="name" v="Manglerud" />
		<tag k="ssr:date" v="2016-05-10" />
		<tag k="ssr:stedsnr" v="630630" />
	</node>
	<node id="-37743" lat="59.922225" lon="10.8565500088">
		<tag k="name" v="Hellerud" />
		<tag k="ssr:date" v="2016-05-10" />
		<tag k="ssr:stedsnr" v="266713" />
	</node>
	<node id="-37742" lat="59.9617944443" lon="10.9282111022">
		<tag k="name" v="Stovner" />
		<tag k="ssr:date" v="2016-05-10" />
		<tag k="ssr:stedsnr" v="266710" />
	</node>
	<node id="-37741" lat="59.9299222179" lon="10.7583611165">
		<tag k="name" v="Sagene Torshov" />
		<tag k="ssr:date" v="2016-05-10" />
		<tag k="ssr:stedsnr" v="266709" />
	</node>
	<node id="-36187" lat="70.1666638981" lon="26.4999968398">
		<tag k="ssr:gml_id" v="GEOMETRY_b0f01210-cff9-4ede-96ed-7e322de8dc06" />
		<tag k="ssr:gml_nr" v="3" />
	</node>
	<node id="-36186" lat="69.6083334008" lon="29.9999981867">
		<tag k="ssr:gml_id" v="GEOMETRY_7f7c16cc-4855-456e-863c-accec5bd35c2" />
		<tag k="ssr:gml_nr" v="2" />
	</node>
	<node id="-36185" lat="59.9153583306" lon="10.7459277796">
		<tag k="ssr:gml_id" v="GEOMETRY_67eed805-6d9b-4e7c-acb8-7ea1a5a0f5f4" />
		<tag k="ssr:gml_nr" v="1" />
	</node>
	<node id="-36184" lat="69.6388889725" lon="30.5666644427">
		<tag k="ssr:gml_id" v="GEOMETRY_2f23ff0a-cd87-4fc4-97e2-acc47ef63d77" />
		<tag k="ssr:gml_nr" v="0" />
	</node>
	<node id="-35273" lat="59.8299055554" lon="10.7934250058">
		<tag k="name" v="Søndre Nordstrand" />
		<tag k="ssr:date" v="2016-05-10" />
		<tag k="ssr:stedsnr" v="327640" />
	</node>
	<node id="-38600" lat="59.9129777739" lon="10.7339027693">
		<tag k="ssr:gml_id" v="GEOMETRY_2236653a-df66-4eb2-ab00-895d0e547b96" />
		<tag k="ssr:gml_nr" v="3" />
	</node>
	<node id="-41159" lat="59.9428222228" lon="10.8352694437">
		<tag k="name" v="Bjerke" />
		<tag k="ssr:date" v="2016-05-11" />
		<tag k="ssr:stedsnr" v="873677" />
	</node>
	<node id="-38598" lat="59.9119250014" lon="10.733599992">
		<tag k="ssr:gml_id" v="GEOMETRY_14261c65-9509-4bb9-b3e0-22949277a2e9" />
		<tag k="ssr:gml_nr" v="1" />
	</node>
	<node id="-38597" lat="59.9119222259" lon="10.7336000082">
		<tag k="ssr:gml_id" v="GEOMETRY_3a1b5aa6-6e24-4253-b45c-eaaff976e07b" />
		<tag k="ssr:gml_nr" v="0" />
	</node>
	<node id="-41668" lat="59.9120333352" lon="10.7557861075">
		<tag k="ssr:gml_id" v="GEOMETRY_5f5fa6ce-3112-478d-af71-87049a6b65f2" />
		<tag k="ssr:gml_nr" v="0" />
	</node>
	<node id="-41153" lat="59.8758805513" lon="10.8088361071">
		<tag k="name" v="Lambertseter" />
		<tag k="ssr:date" v="2016-05-11" />
		<tag k="ssr:stedsnr" v="873645" />
	</node>
	<node id="-40765" lat="59.9423222226" lon="10.7038833283">
		<tag k="name" v="Vinderen" />
		<tag k="ssr:date" v="2016-05-11" />
		<tag k="ssr:stedsnr" v="813722" />
	</node>
	<node id="-36150" lat="59.9588638893" lon="10.8704222282">
		<tag k="name" v="Grorud" />
		<tag k="ssr:date" v="2016-05-10" />
		<tag k="ssr:stedsnr" v="24730" />
	</node>
	<node id="-38599" lat="59.9129805581" lon="10.7339027714">
		<tag k="ssr:gml_id" v="GEOMETRY_07e2e003-6889-45c8-9e4f-9caaf3744ad5" />
		<tag k="ssr:gml_nr" v="2" />
	</node>
	<node id="-36147" lat="59.9146111085" lon="10.7967777697">
		<tag k="name" v="Helsfyr Sinsen" />
		<tag k="ssr:date" v="2016-05-10" />
		<tag k="ssr:stedsnr" v="24724" />
	</node>
	<node id="-36146" lat="59.9486666671" lon="10.7345750025">
		<tag k="name" v="Sogn" />
		<tag k="ssr:date" v="2016-05-10" />
		<tag k="ssr:stedsnr" v="24720" />
	</node>
	<node id="-37808" lat="59.8941527739" lon="10.842130553">
		<tag k="name" v="Østensjø" />
		<tag k="ssr:date" v="2016-05-10" />
		<tag k="ssr:stedsnr" v="267673" />
	</node>
	<node id="-41736" lat="60.5908609473" lon="9.63819281559">
		<tag k="fixme" v="multiple name tags, choose one and add the other to alt_name" />
		<tag k="name" v="Austlandet;Østlandet" />
		<tag k="ssr:date" v="2018-01-09" />
		<tag k="ssr:stedsnr" v="974775" />
	</node>
	<node id="-36910" lat="59.9661027783" lon="10.776866663">
		<tag k="name" v="Grefsen Kjelsås" />
		<tag k="ssr:date" v="2016-05-10" />
		<tag k="ssr:stedsnr" v="145711" />
	</node>
	<node id="-37421" lat="59.9119250014" lon="10.733599992">
		<tag k="ssr:gml_id" v="GEOMETRY_bf7a0d79-c07f-4c97-8d25-e7f2c5727e0c" />
		<tag k="ssr:gml_nr" v="1" />
	</node>
	<node id="-37420" lat="59.9119222259" lon="10.7336000082">
		<tag k="ssr:gml_id" v="GEOMETRY_f309fa7a-100b-45c7-8af0-a92e37068936" />
		<tag k="ssr:gml_nr" v="0" />
	</node>
	<node id="-36906" lat="59.9172527797" lon="10.7088583318">
		<tag k="name" v="Bygdøy Frogner" />
		<tag k="ssr:date" v="2016-05-10" />
		<tag k="ssr:stedsnr" v="145670" />
	</node>
	<node id="-41671" lat="59.9120361094" lon="10.7557888831">
		<tag k="ssr:gml_id" v="GEOMETRY_c1b0c9d6-78c6-40c6-a116-bcf2503092f8" />
		<tag k="ssr:gml_nr" v="3" />
	</node>
	<node id="-41669" lat="59.9120388846" lon="10.7557888866">
		<tag k="ssr:gml_id" v="GEOMETRY_cbd28425-c724-4c29-80e6-dfa1d9e087aa" />
		<tag k="ssr:gml_nr" v="1" />
	</node>
	<node id="-41670" lat="59.9120361104" lon="10.755786111">
		<tag k="ssr:gml_id" v="GEOMETRY_953f5bd8-082e-4ced-a06c-f2a69e2678c6" />
		<tag k="ssr:gml_nr" v="2" />
	</node>
	<node id="-39969" lat="60.0057583299" lon="10.8383277781">
		<tag k="ssr:gml_id" v="GEOMETRY_c28d787a-86cb-49b8-a472-01e330094475" />
		<tag k="ssr:gml_nr" v="1" />
	</node>
	<node id="-39968" lat="59.9972555513" lon="10.8388416662">
		<tag k="ssr:gml_id" v="GEOMETRY_a94d7276-cbfe-4d99-9adf-7ab03af6f8e6" />
		<tag k="ssr:gml_nr" v="0" />
	</node>
	<node id="-35742" lat="59.9274722242" lon="10.7282416693">
		<tag k="name" v="St. Hanshaugen Ullevål" />
		<tag k="ssr:date" v="2016-05-10" />
		<tag k="ssr:stedsnr" v="388702" />
	</node>
	<node id="-35741" lat="59.9464694409" lon="10.6437222259">
		<tag k="ssr:gml_id" v="GEOMETRY_40b48bc1-5022-4d92-bcae-c9ff37379fce" />
		<tag k="ssr:gml_nr" v="2" />
	</node>
	<node id="-35740" lat="59.950280558" lon="10.643894441">
		<tag k="ssr:gml_id" v="GEOMETRY_7916518b-b412-4e61-86bc-c3ce1e3a7784" />
		<tag k="ssr:gml_nr" v="1" />
	</node>
	<node id="-35739" lat="59.9464722265" lon="10.6437249956">
		<tag k="ssr:gml_id" v="GEOMETRY_10e26394-20d5-44b6-803d-64f8978cb76b" />
		<tag k="ssr:gml_nr" v="0" />
	</node>
	<node id="-35738" lat="59.8831861114" lon="10.844077776">
		<tag k="name" v="Bøler" />
		<tag k="ssr:date" v="2016-05-10" />
		<tag k="ssr:stedsnr" v="388663" />
	</node>
	<node id="-38548" lat="59.924058335" lon="10.7250055505">
		<tag k="name" v="Bogstadveien" />
		<tag k="ssr:date" v="2016-05-10" />
		<tag k="ssr:stedsnr" v="509658" />
	</node>
	<node id="-39048" lat="59.9201083351" lon="10.7573777715">
		<tag k="name" v="Grünerløkka Sofienberg" />
		<tag k="ssr:date" v="2016-05-10" />
		<tag k="ssr:stedsnr" v="570687" />
	</node>
	<node id="-39047" lat="59.9177333374" lon="10.7638166679">
		<tag k="name" v="Gamle Oslo" />
		<tag k="ssr:date" v="2016-05-10" />
		<tag k="ssr:stedsnr" v="570647" />
	</node>
	<node id="-37254" lat="59.9423638927" lon="10.7324527826">
		<tag k="ssr:gml_id" v="GEOMETRY_a988ad02-3987-4306-967d-9dd2d7440647" />
		<tag k="ssr:gml_nr" v="1" />
	</node>
	<node id="-37253" lat="59.9498361088" lon="10.7337583249">
		<tag k="ssr:gml_id" v="GEOMETRY_d828e04a-363a-4e30-90c4-af1047b2e0c3" />
		<tag k="ssr:gml_nr" v="0" />
	</node>
	<node id="-41603" lat="59.9294500028" lon="10.7122416642">
		<tag k="name" v="Uranienborg Majorstuen" />
		<tag k="ssr:date" v="2016-05-11" />
		<tag k="ssr:stedsnr" v="934648" />
	</node>
	<node id="-41602" lat="59.8796916701" lon="10.8039499992">
		<tag k="name" v="Ekeberg Bekkelaget" />
		<tag k="ssr:date" v="2016-05-11" />
		<tag k="ssr:stedsnr" v="934643" />
	</node>
	<way id="-7806">
		<tag k="name" v="Oslo kommune" />
		<tag k="ssr:date" v="2016-05-10" />
		<tag k="ssr:stedsnr" v="239083" />
		<nd ref="-37420" />
		<nd ref="-37421" />
	</way>
	<way id="-8604">
		<tag k="name" v="Akershus fylke" />
		<tag k="ssr:date" v="2016-05-11" />
		<tag k="ssr:stedsnr" v="935423" />
		<nd ref="-41668" />
		<nd ref="-41669" />
		<nd ref="-41670" />
		<nd ref="-41671" />
	</way>
	<way id="-8274">
		<tag k="fixme" v="consider boundary=protected_area and relevant protect_class if not nature reserve" />
		<tag k="leisure" v="nature_reserve" />
		<tag k="name" v="Lillomarka naturreservat" />
		<tag k="ssr:date" v="2016-05-11" />
		<tag k="ssr:stedsnr" v="727997" />
		<nd ref="-39968" />
		<nd ref="-39969" />
	</way>
	<way id="-7569">
		<tag k="alt_name:None" v="Norway" />
		<tag k="fixme" v="multiple name tags, choose one and add the other to alt_name" />
		<tag k="name" v="Noreg;Norge" />
		<tag k="ssr:date" v="2016-05-10" />
		<tag k="ssr:stedsnr" v="26330" />
		<nd ref="-36184" />
		<nd ref="-36185" />
		<nd ref="-36186" />
		<nd ref="-36187" />
	</way>
	<way id="-8028">
		<tag k="name" v="Oslo fylke" />
		<tag k="ssr:date" v="2016-05-10" />
		<tag k="ssr:stedsnr" v="509924" />
		<nd ref="-38597" />
		<nd ref="-38598" />
		<nd ref="-38599" />
		<nd ref="-38600" />
	</way>
	<way id="-7782">
		<tag k="name" v="Ullevål stadion" />
		<tag k="ssr:date" v="2016-05-10" />
		<tag k="ssr:stedsnr" v="206626" />
		<nd ref="-37253" />
		<nd ref="-37254" />
	</way>
	<way id="-7490">
		<tag k="name" v="Røa" />
		<tag k="ssr:date" v="2016-05-10" />
		<tag k="ssr:stedsnr" v="388668" />
		<nd ref="-35739" />
		<nd ref="-35740" />
		<nd ref="-35741" />
	</way>
</osm>
