<?xml version="1.0" encoding="UTF-8"?>
<osm generator="osmapis" version="0.6">
	<node id="-77312" lat="69.9882611136" lon="23.2944360192">
		<tag k="ssr:gml_id" v="GEOMETRY_c2e847fd-2c54-43dd-85df-5f8d411821ec" />
		<tag k="ssr:gml_nr" v="1" />
	</node>
	<node id="-77311" lat="69.9809777816" lon="23.3042832371">
		<tag k="ssr:gml_id" v="GEOMETRY_4d6dc3cb-d865-45ba-8aad-ed2ee26b20d7" />
		<tag k="ssr:gml_nr" v="0" />
	</node>
	<node id="-76798" lat="69.970616669" lon="23.3811887961">
		<tag k="name" v="Flomfaret" />
		<tag k="ssr:date" v="2016-05-10" />
		<tag k="ssr:stedsnr" v="329038" />
	</node>
	<node id="-78333" lat="69.9669055602" lon="23.3119665712">
		<tag k="ssr:gml_id" v="GEOMETRY_7f65d0b0-2ac7-4d8c-be5b-f1698c14fa34" />
		<tag k="ssr:gml_nr" v="0" />
	</node>
	<node id="-78843" lat="69.9536388898" lon="23.2410888119">
		<tag k="name" v="Knausen" />
		<tag k="ssr:date" v="2016-05-10" />
		<tag k="ssr:stedsnr" v="268607" />
	</node>
	<node id="-78842" lat="69.9593583392" lon="23.2330832408">
		<tag k="name" v="Breverud" />
		<tag k="ssr:date" v="2016-05-10" />
		<tag k="ssr:stedsnr" v="268591" />
	</node>
	<node id="-78841" lat="69.9603138928" lon="23.2281193748">
		<tag k="name" v="Skiferveien" />
		<tag k="ssr:date" v="2016-05-10" />
		<tag k="ssr:stedsnr" v="268564" />
	</node>
	<node id="-78840" lat="69.9586305542" lon="23.2282249239">
		<tag k="name" v="Vesterhaugveien" />
		<tag k="ssr:date" v="2016-05-10" />
		<tag k="ssr:stedsnr" v="268565" />
	</node>
	<node id="-78839" lat="69.9634916662" lon="23.2488110231">
		<tag k="name" v="Kirkeveien" />
		<tag k="ssr:date" v="2016-05-10" />
		<tag k="ssr:stedsnr" v="268563" />
	</node>
	<node id="-77302" lat="69.9624583394" lon="23.4198721307">
		<tag k="name" v="Aspemyra" />
		<tag k="ssr:date" v="2016-05-10" />
		<tag k="ssr:stedsnr" v="389062" />
	</node>
	<node id="-77301" lat="69.9556916652" lon="23.3792332473">
		<tag k="name" v="Sildreveien" />
		<tag k="ssr:date" v="2016-05-10" />
		<tag k="ssr:stedsnr" v="389058" />
	</node>
	<node id="-78835" lat="69.9781861156" lon="23.2897360319">
		<tag k="name" v="Komsahøyden" />
		<tag k="ssr:date" v="2016-05-10" />
		<tag k="ssr:stedsnr" v="154190" />
	</node>
	<node id="-78834" lat="69.96355278" lon="23.4242165796">
		<tag k="name" v="Høysletta" />
		<tag k="ssr:date" v="2016-05-10" />
		<tag k="ssr:stedsnr" v="154185" />
	</node>
	<node id="-78833" lat="69.9511861147" lon="23.227197139">
		<tag k="name" v="Falkeveien" />
		<tag k="ssr:date" v="2016-05-10" />
		<tag k="ssr:stedsnr" v="154183" />
	</node>
	<node id="-78832" lat="69.9644777823" lon="23.3739443677">
		<tag k="name" v="Spireaveien" />
		<tag k="ssr:date" v="2016-05-10" />
		<tag k="ssr:stedsnr" v="154118" />
	</node>
	<node id="-78830" lat="70.3318166668" lon="23.4468721335">
		<tag k="ssr:gml_id" v="GEOMETRY_51765855-b500-46f1-bf91-abf996306b29" />
		<tag k="ssr:gml_nr" v="1" />
	</node>
	<node id="-77293" lat="69.9669166667" lon="23.259241573">
		<tag k="name" v="Karl Johnsens vei" />
		<tag k="ssr:date" v="2016-05-10" />
		<tag k="ssr:stedsnr" v="389187" />
	</node>
	<node id="-83147" lat="69.9750694444" lon="23.2981915886">
		<tag k="name" v="Yrkesskoleveien" />
		<tag k="ssr:date" v="2016-05-11" />
		<tag k="ssr:stedsnr" v="815174" />
	</node>
	<node id="-77290" lat="69.9727638956" lon="23.2693804612">
		<tag k="name" v="Valhallveien" />
		<tag k="ssr:date" v="2016-05-10" />
		<tag k="ssr:stedsnr" v="389180" />
	</node>
	<node id="-77289" lat="69.9632055543" lon="23.3805471407">
		<tag k="name" v="Leirbakkveien" />
		<tag k="ssr:date" v="2016-05-10" />
		<tag k="ssr:stedsnr" v="389103" />
	</node>
	<node id="-76895" lat="69.9790388928" lon="23.3573221441">
		<tag k="ssr:gml_id" v="GEOMETRY_cef6b1df-c422-4426-ab3d-0a3e572c7433" />
		<tag k="ssr:gml_nr" v="1" />
	</node>
	<node id="-78303" lat="69.9676777783" lon="23.2750582464">
		<tag k="name" v="Markveien" />
		<tag k="ssr:date" v="2016-05-10" />
		<tag k="ssr:stedsnr" v="86204" />
	</node>
	<node id="-78302" lat="69.9719888909" lon="23.2611471346">
		<tag k="name" v="Breidablikk" />
		<tag k="ssr:date" v="2016-05-10" />
		<tag k="ssr:stedsnr" v="86187" />
	</node>
	<node id="-78300" lat="69.9639527794" lon="23.4172054684">
		<tag k="name" v="Sagatun" />
		<tag k="ssr:date" v="2016-05-10" />
		<tag k="ssr:stedsnr" v="86111" />
	</node>
	<node id="-78330" lat="69.9220916665" lon="23.4986693581">
		<tag k="name" v="Seterveien" />
		<tag k="ssr:date" v="2016-05-10" />
		<tag k="ssr:stedsnr" v="87094" />
	</node>
	<node id="-78296" lat="70.0391333323" lon="22.9542221409">
		<tag k="name" v="Ressebakken" />
		<tag k="ssr:date" v="2016-05-10" />
		<tag k="ssr:stedsnr" v="86056" />
	</node>
	<node id="-77305" lat="69.938077778" lon="23.4087610215">
		<tag k="ssr:gml_id" v="GEOMETRY_c2cb7d37-7a01-445f-9cf8-c447382f7cff" />
		<tag k="ssr:gml_nr" v="1" />
	</node>
	<node id="-78800" lat="69.9600250046" lon="23.235436024">
		<tag k="name" v="Kautokeinoveien" />
		<tag k="ssr:date" v="2016-05-10" />
		<tag k="ssr:stedsnr" v="147575" />
	</node>
	<node id="-77304" lat="69.9285250024" lon="23.4210276745">
		<tag k="ssr:gml_id" v="GEOMETRY_29e8f5a4-76f0-405b-9ce3-a9d424fc753f" />
		<tag k="ssr:gml_nr" v="0" />
	</node>
	<node id="-78798" lat="69.9594444442" lon="23.2414943611">
		<tag k="name" v="Idrettsveien" />
		<tag k="ssr:date" v="2016-05-10" />
		<tag k="ssr:stedsnr" v="147565" />
	</node>
	<node id="-79306" lat="69.9621999998" lon="23.3799415651">
		<tag k="name" v="Seljeveien" />
		<tag k="ssr:date" v="2016-05-10" />
		<tag k="ssr:stedsnr" v="212399" />
	</node>
	<node id="-78793" lat="70.1217083395" lon="23.3953915801">
		<tag k="name" v="Ole Andreasveien" />
		<tag k="ssr:date" v="2016-05-10" />
		<tag k="ssr:stedsnr" v="147470" />
	</node>
	<node id="-79304" lat="70.2180333375" lon="23.2100999245">
		<tag k="highway" v="path" />
		<tag k="name" v="Gammelveien" />
		<tag k="ssr:date" v="2016-05-10" />
		<tag k="ssr:stedsnr" v="211351" />
	</node>
	<node id="-82166" lat="69.9583333357" lon="23.2838304805">
		<tag k="ssr:gml_id" v="GEOMETRY_0d9056e1-67cb-43eb-933b-fee125c5c974" />
		<tag k="ssr:gml_nr" v="0" />
	</node>
	<node id="-83090" lat="69.9574999997" lon="23.3906554675">
		<tag k="name" v="Skogsnelleveien" />
		<tag k="ssr:date" v="2016-05-11" />
		<tag k="ssr:stedsnr" v="814074" />
	</node>
	<node id="-83531" lat="69.9732138913" lon="23.2903804814">
		<tag k="ssr:gml_id" v="GEOMETRY_cda3e246-4756-4c3d-9958-1b38167b88a3" />
		<tag k="ssr:gml_nr" v="0" />
	</node>
	<node id="-80117" lat="69.9559416656" lon="23.2053582462">
		<tag k="ssr:gml_id" v="GEOMETRY_f60960c9-76fe-4f6d-b318-f3939c6a4f5a" />
		<tag k="ssr:gml_nr" v="0" />
	</node>
	<node id="-78778" lat="69.9650583333" lon="23.2571638097">
		<tag k="name" v="Myrsethveien" />
		<tag k="ssr:date" v="2016-05-10" />
		<tag k="ssr:stedsnr" v="147215" />
	</node>
	<node id="-78777" lat="69.9676972287" lon="23.2603304696">
		<tag k="name" v="Nordre Ringvei" />
		<tag k="ssr:date" v="2016-05-10" />
		<tag k="ssr:stedsnr" v="147213" />
	</node>
	<node id="-78775" lat="69.9695250041" lon="23.3283276872">
		<tag k="name" v="Blålyngveien" />
		<tag k="ssr:date" v="2016-05-10" />
		<tag k="ssr:stedsnr" v="147183" />
	</node>
	<node id="-79286" lat="69.961375005" lon="23.2359054627">
		<tag k="name" v="Fogdebakken" />
		<tag k="ssr:date" v="2016-05-10" />
		<tag k="ssr:stedsnr" v="208568" />
	</node>
	<node id="-79285" lat="69.9635527786" lon="23.2455137911">
		<tag k="name" v="Vannveien" />
		<tag k="ssr:date" v="2016-05-10" />
		<tag k="ssr:stedsnr" v="208565" />
	</node>
	<node id="-83187" lat="69.959069445" lon="23.3696832485">
		<tag k="name" v="Engsvingelveien" />
		<tag k="ssr:date" v="2016-05-11" />
		<tag k="ssr:stedsnr" v="822117" />
	</node>
	<node id="-79278" lat="70.120008334" lon="23.395936015">
		<tag k="name" v="Mellomveien" />
		<tag k="ssr:date" v="2016-05-10" />
		<tag k="ssr:stedsnr" v="208489" />
	</node>
	<node id="-78749" lat="69.9512611157" lon="23.2467138086">
		<tag k="name" v="Reistadhaugen" />
		<tag k="ssr:date" v="2016-05-10" />
		<tag k="ssr:stedsnr" v="146729" />
	</node>
	<node id="-78764" lat="69.9606638956" lon="23.3777221322">
		<tag k="name" v="Heggveien" />
		<tag k="ssr:date" v="2016-05-10" />
		<tag k="ssr:stedsnr" v="147073" />
	</node>
	<node id="-78322" lat="69.9518861123" lon="23.2126610373">
		<tag k="name" v="Måsesvingen" />
		<tag k="ssr:date" v="2016-05-10" />
		<tag k="ssr:stedsnr" v="86737" />
	</node>
	<node id="-79273" lat="69.8447694477" lon="23.1197082504">
		<tag k="highway" v="path" />
		<tag k="name" v="Gampvassvegen" />
		<tag k="ssr:date" v="2016-05-10" />
		<tag k="ssr:stedsnr" v="208415" />
	</node>
	<node id="-83546" lat="69.9639916701" lon="23.2728582491">
		<tag k="name" v="Dalebakken" />
		<tag k="ssr:date" v="2016-05-11" />
		<tag k="ssr:stedsnr" v="875584" />
	</node>
	<node id="-78748" lat="69.9514777789" lon="23.2634221255">
		<tag k="ssr:gml_id" v="GEOMETRY_849b4a8e-c27f-4a5f-aba8-86bc4216b2b2" />
		<tag k="ssr:gml_nr" v="1" />
	</node>
	<node id="-78371" lat="69.9476805588" lon="23.257969356">
		<tag k="ssr:gml_id" v="GEOMETRY_275e5eee-72e5-42b4-aafb-eea6c1d8b071" />
		<tag k="ssr:gml_nr" v="1" />
	</node>
	<node id="-78321" lat="69.9641750005" lon="23.2693138063">
		<tag k="ssr:gml_id" v="GEOMETRY_afa0af0a-e156-44f2-8260-a140f7d1df84" />
		<tag k="ssr:gml_nr" v="1" />
	</node>
	<node id="-79267" lat="69.94278056" lon="23.046580476">
		<tag k="man_made" v="quay" />
		<tag k="name" v="Paulsenkaia" />
		<tag k="place" v="locality" />
		<tag k="ssr:date" v="2016-05-10" />
		<tag k="ssr:stedsnr" v="208375" />
	</node>
	<node id="-78320" lat="69.9656388913" lon="23.2746915781">
		<tag k="ssr:gml_id" v="GEOMETRY_bb704d0e-9b66-4e22-9559-1bffbf0016ff" />
		<tag k="ssr:gml_nr" v="0" />
	</node>
	<node id="-78750" lat="69.9609916721" lon="23.3677915781">
		<tag k="ssr:gml_id" v="GEOMETRY_e1789d7f-1634-401e-ab89-ee5c00f7623d" />
		<tag k="ssr:gml_nr" v="0" />
	</node>
	<node id="-81821" lat="70.0556555578" lon="22.3955193803">
		<tag k="name" v="Vaddekeip" />
		<tag k="ssr:date" v="2016-05-11" />
		<tag k="ssr:stedsnr" v="686515" />
	</node>
	<node id="-79260" lat="69.9727555566" lon="23.3449082311">
		<tag k="name" v="Furubakken" />
		<tag k="ssr:date" v="2016-05-10" />
		<tag k="ssr:stedsnr" v="208162" />
	</node>
	<node id="-78747" lat="69.9563361162" lon="23.2850026922">
		<tag k="ssr:gml_id" v="GEOMETRY_2ec9e524-b7ee-4a24-9b0e-a6f57714be30" />
		<tag k="ssr:gml_nr" v="0" />
	</node>
	<node id="-84099" lat="69.9453194478" lon="23.3975888025">
		<tag k="ssr:gml_id" v="GEOMETRY_d2ce8981-15de-4348-8208-c8ad5c0e3eb5" />
		<tag k="ssr:gml_nr" v="3" />
	</node>
	<node id="-78744" lat="69.9640138919" lon="23.2615582533">
		<tag k="name" v="Myrbakken" />
		<tag k="ssr:date" v="2016-05-10" />
		<tag k="ssr:stedsnr" v="146592" />
	</node>
	<node id="-84116" lat="70.0336694502" lon="22.9317943651">
		<tag k="name" v="Kløyva" />
		<tag k="ssr:date" v="2016-05-11" />
		<tag k="ssr:stedsnr" v="936187" />
	</node>
	<node id="-82144" lat="69.9675527851" lon="23.2525221287">
		<tag k="name" v="Marienlund" />
		<tag k="ssr:date" v="2016-05-11" />
		<tag k="ssr:stedsnr" v="693237" />
	</node>
	<node id="-79247" lat="69.9577722294" lon="23.3878915675">
		<tag k="name" v="Sisselrotveien" />
		<tag k="ssr:date" v="2016-05-10" />
		<tag k="ssr:stedsnr" v="208070" />
	</node>
	<node id="-78829" lat="70.3314861134" lon="23.4466971406">
		<tag k="ssr:gml_id" v="GEOMETRY_f2a79bd5-d55c-41d0-a3d7-5ffa0fdb0bd9" />
		<tag k="ssr:gml_nr" v="0" />
	</node>
	<node id="-77313" lat="69.9398055582" lon="23.0381443798">
		<tag k="man_made" v="quay" />
		<tag k="name" v="Malmkaia" />
		<tag k="place" v="locality" />
		<tag k="ssr:date" v="2016-05-10" />
		<tag k="ssr:stedsnr" v="389228" />
	</node>
	<node id="-76811" lat="69.9723805556" lon="23.2694110237">
		<tag k="name" v="Frøyas vei" />
		<tag k="ssr:date" v="2016-05-10" />
		<tag k="ssr:stedsnr" v="329205" />
	</node>
	<node id="-79235" lat="69.9633138901" lon="23.3388582423">
		<tag k="ssr:gml_id" v="GEOMETRY_d668a6f3-bf6b-430f-b4f6-44e67e762594" />
		<tag k="ssr:gml_nr" v="1" />
	</node>
	<node id="-79234" lat="69.9672222235" lon="23.3374693505">
		<tag k="ssr:gml_id" v="GEOMETRY_cf4f130d-6eb4-414f-8d8a-2f7b3a6998c9" />
		<tag k="ssr:gml_nr" v="0" />
	</node>
	<node id="-80768" lat="70.2161861127" lon="23.1915249195">
		<tag k="name" v="Storekorsnes molo" />
		<tag k="ssr:date" v="2016-05-10" />
		<tag k="ssr:stedsnr" v="541584" />
	</node>
	<node id="-79228" lat="69.952819449" lon="23.2118304787">
		<tag k="name" v="Alkeveien" />
		<tag k="ssr:date" v="2016-05-10" />
		<tag k="ssr:stedsnr" v="207582" />
	</node>
	<node id="-80763" lat="70.1126861112" lon="23.3687749136">
		<tag k="name" v="Landgudnes" />
		<tag k="ssr:date" v="2016-05-10" />
		<tag k="ssr:stedsnr" v="530992" />
	</node>
	<node id="-79225" lat="70.0346083353" lon="22.9406027015">
		<tag k="name" v="Storvannsveien" />
		<tag k="ssr:date" v="2016-05-10" />
		<tag k="ssr:stedsnr" v="207187" />
	</node>
	<node id="-77394" lat="70.1125916746" lon="23.5103665641">
		<tag k="ssr:gml_id" v="GEOMETRY_471e5b44-5f2d-466f-b9e0-5aa38b48f7f7" />
		<tag k="ssr:gml_nr" v="0" />
	</node>
	<node id="-79223" lat="70.0452083364" lon="22.9472777088">
		<tag k="name" v="Åsbakken" />
		<tag k="ssr:date" v="2016-05-10" />
		<tag k="ssr:stedsnr" v="207169" />
	</node>
	<node id="-79222" lat="69.9651388875" lon="23.2493638067">
		<tag k="name" v="Kirkebakken" />
		<tag k="ssr:date" v="2016-05-10" />
		<tag k="ssr:stedsnr" v="207167" />
	</node>
	<node id="-80755" lat="69.9579805575" lon="23.2248276947">
		<tag k="name" v="Vertshushagen" />
		<tag k="ssr:date" v="2016-05-10" />
		<tag k="ssr:stedsnr" v="519117" />
	</node>
	<node id="-84193" lat="69.9535083357" lon="23.2241638001">
		<tag k="name" v="Trosteveien" />
		<tag k="ssr:date" v="2016-05-11" />
		<tag k="ssr:stedsnr" v="944099" />
	</node>
	<node id="-83603" lat="70.2243638908" lon="23.3030471283">
		<tag k="ssr:gml_id" v="GEOMETRY_56c08b9a-dadd-4cd9-bb9a-57e802fe4008" />
		<tag k="ssr:gml_nr" v="1" />
	</node>
	<node id="-76892" lat="69.9486611112" lon="23.2515943502">
		<tag k="name" v="Thomassletta" />
		<tag k="ssr:date" v="2016-05-10" />
		<tag k="ssr:stedsnr" v="337158" />
	</node>
	<node id="-84114" lat="69.9708472227" lon="23.2903249077">
		<tag k="ssr:gml_id" v="GEOMETRY_050633f5-8c76-407a-aa26-586579e29962" />
		<tag k="ssr:gml_nr" v="0" />
	</node>
	<node id="-81212" lat="69.9628444496" lon="23.2407832425">
		<tag k="ssr:gml_id" v="GEOMETRY_1b4ad686-7304-4aa3-aa31-a10a4d707025" />
		<tag k="ssr:gml_nr" v="1" />
	</node>
	<node id="-82167" lat="69.9680111113" lon="23.3407054614">
		<tag k="ssr:gml_id" v="GEOMETRY_ca56ce1e-eb7d-42b6-a602-b750eb3480ab" />
		<tag k="ssr:gml_nr" v="1" />
	</node>
	<node id="-81211" lat="69.9652666681" lon="23.2467637927">
		<tag k="ssr:gml_id" v="GEOMETRY_7e810d08-8486-4698-8e8e-ff40c4f5fca2" />
		<tag k="ssr:gml_nr" v="0" />
	</node>
	<node id="-80101" lat="69.900758337" lon="23.0130915801">
		<tag k="name" v="Stokstadbakken" />
		<tag k="ssr:date" v="2016-05-10" />
		<tag k="ssr:stedsnr" v="450209" />
	</node>
	<node id="-76858" lat="69.9749944503" lon="23.2937749076">
		<tag k="name" v="Kinoveien" />
		<tag k="ssr:date" v="2016-05-10" />
		<tag k="ssr:stedsnr" v="330201" />
	</node>
	<node id="-78735" lat="69.979138892" lon="23.2979860328">
		<tag k="name" v="Fjellveien" />
		<tag k="ssr:date" v="2016-05-10" />
		<tag k="ssr:stedsnr" v="146177" />
	</node>
	<node id="-83545" lat="69.958113891" lon="23.2410526909">
		<tag k="name" v="Holtenveien" />
		<tag k="ssr:date" v="2016-05-11" />
		<tag k="ssr:stedsnr" v="875575" />
	</node>
	<node id="-76857" lat="69.9764444496" lon="23.3116388076">
		<tag k="name" v="Buktaveien" />
		<tag k="ssr:date" v="2016-05-10" />
		<tag k="ssr:stedsnr" v="330197" />
	</node>
	<node id="-81747" lat="69.9534861143" lon="23.2418860144">
		<tag k="name" v="Elgknausen" />
		<tag k="ssr:date" v="2016-05-10" />
		<tag k="ssr:stedsnr" v="640165" />
	</node>
	<node id="-81746" lat="69.9612694503" lon="23.2468943727">
		<tag k="name" v="Heitmannsåsen" />
		<tag k="ssr:date" v="2016-05-10" />
		<tag k="ssr:stedsnr" v="640145" />
	</node>
	<node id="-81745" lat="69.9533444469" lon="23.2315471416">
		<tag k="name" v="Ugleveien" />
		<tag k="ssr:date" v="2016-05-10" />
		<tag k="ssr:stedsnr" v="639116" />
	</node>
	<node id="-81231" lat="69.951111115" lon="23.2538860208">
		<tag k="name" v="Reistadstien" />
		<tag k="ssr:date" v="2016-05-10" />
		<tag k="ssr:stedsnr" v="579160" />
	</node>
	<node id="-81230" lat="69.9639805555" lon="23.3673638085">
		<tag k="name" v="Patosletta" />
		<tag k="ssr:date" v="2016-05-10" />
		<tag k="ssr:stedsnr" v="579111" />
	</node>
	<node id="-80712" lat="69.971433335" lon="23.3737276828">
		<tag k="ssr:gml_id" v="GEOMETRY_367df1a7-35b4-4c0e-86be-22f2c491a649" />
		<tag k="ssr:gml_nr" v="1" />
	</node>
	<node id="-80711" lat="69.971547229" lon="23.3775387887">
		<tag k="ssr:gml_id" v="GEOMETRY_d652e048-3ba0-4641-afb3-dc68eeffc264" />
		<tag k="ssr:gml_nr" v="0" />
	</node>
	<node id="-82613" lat="69.9594777775" lon="23.3880832528">
		<tag k="name" v="Kjerringrokkveien" />
		<tag k="ssr:date" v="2016-05-11" />
		<tag k="ssr:stedsnr" v="754090" />
	</node>
	<node id="-76513" lat="69.880913887" lon="23.2541443662">
		<tag k="junction" v="yes" />
		<tag k="name" v="Sandsvingen" />
		<tag k="place" v="locality" />
		<tag k="ssr:date" v="2016-05-10" />
		<tag k="ssr:stedsnr" v="269683" />
	</node>
	<node id="-80708" lat="69.976077784" lon="23.2918082492">
		<tag k="name" v="Meieriveien" />
		<tag k="ssr:date" v="2016-05-10" />
		<tag k="ssr:stedsnr" v="512173" />
	</node>
	<node id="-84192" lat="69.9527722257" lon="23.2270443668">
		<tag k="name" v="Hubroveien" />
		<tag k="ssr:date" v="2016-05-11" />
		<tag k="ssr:stedsnr" v="944097" />
	</node>
	<node id="-80190" lat="70.1833777834" lon="23.2857387979">
		<tag k="ssr:gml_id" v="GEOMETRY_c529d625-7a90-4577-9447-671e7992a378" />
		<tag k="ssr:gml_nr" v="4" />
	</node>
	<node id="-80189" lat="70.1920166671" lon="23.2336804829">
		<tag k="ssr:gml_id" v="GEOMETRY_1e7d2a7a-e164-438b-adab-b32fdcd40829" />
		<tag k="ssr:gml_nr" v="3" />
	</node>
	<node id="-80188" lat="70.2130444499" lon="23.2043526953">
		<tag k="ssr:gml_id" v="GEOMETRY_b1715df9-eab7-4399-9840-34edae4ee87b" />
		<tag k="ssr:gml_nr" v="2" />
	</node>
	<node id="-79675" lat="69.9678972225" lon="23.2430276792">
		<tag k="name" v="Bergstien" />
		<tag k="ssr:date" v="2016-05-10" />
		<tag k="ssr:stedsnr" v="268176" />
	</node>
	<node id="-80186" lat="70.1831972203" lon="23.3569721426">
		<tag k="ssr:gml_id" v="GEOMETRY_2967b573-d61d-4843-bdfe-6f36bf553807" />
		<tag k="ssr:gml_nr" v="0" />
	</node>
	<node id="-80653" lat="69.9591861158" lon="23.3853332514">
		<tag k="name" v="Kråkefotveien" />
		<tag k="ssr:date" v="2016-05-10" />
		<tag k="ssr:stedsnr" v="511070" />
	</node>
	<node id="-76802" lat="69.9652694486" lon="23.3826721442">
		<tag k="ssr:gml_id" v="GEOMETRY_af6b5550-c2ff-4b8a-a6c3-661821ca9dca" />
		<tag k="ssr:gml_nr" v="0" />
	</node>
	<node id="-82228" lat="69.9482416723" lon="23.2487527047">
		<tag k="name" v="Thomaskroken" />
		<tag k="ssr:date" v="2016-05-11" />
		<tag k="ssr:stedsnr" v="701131" />
	</node>
	<node id="-81205" lat="69.9740750036" lon="23.3628360225">
		<tag k="name" v="Trekanten" />
		<tag k="ssr:date" v="2016-05-10" />
		<tag k="ssr:stedsnr" v="572221" />
	</node>
	<node id="-81204" lat="69.9677222287" lon="23.3178693585">
		<tag k="name" v="Blåbærveien" />
		<tag k="ssr:date" v="2016-05-10" />
		<tag k="ssr:stedsnr" v="572207" />
	</node>
	<node id="-81203" lat="69.9686055551" lon="23.3337582345">
		<tag k="name" v="Tyttebærveien" />
		<tag k="ssr:date" v="2016-05-10" />
		<tag k="ssr:stedsnr" v="572205" />
	</node>
	<node id="-82226" lat="69.9553666682" lon="23.3697165801">
		<tag k="name" v="Raigressveien" />
		<tag k="ssr:date" v="2016-05-11" />
		<tag k="ssr:stedsnr" v="701110" />
	</node>
	<node id="-80688" lat="69.9548833398" lon="23.265222133">
		<tag k="name" v="Spikergjerdet" />
		<tag k="ssr:date" v="2016-05-10" />
		<tag k="ssr:stedsnr" v="511722" />
	</node>
	<node id="-80174" lat="69.9495944454" lon="23.250608244">
		<tag k="name" v="Thomasjordet" />
		<tag k="ssr:date" v="2016-05-10" />
		<tag k="ssr:stedsnr" v="458180" />
	</node>
	<node id="-82221" lat="70.2038194444" lon="23.2117360289">
		<tag k="highway" v="path" />
		<tag k="name" v="Sandveien" />
		<tag k="ssr:date" v="2016-05-11" />
		<tag k="ssr:stedsnr" v="696368" />
	</node>
	<node id="-80172" lat="69.96746667" lon="23.3786443637">
		<tag k="name" v="Bruflaten" />
		<tag k="ssr:date" v="2016-05-10" />
		<tag k="ssr:stedsnr" v="458171" />
	</node>
	<node id="-80171" lat="69.9635555598" lon="23.4211054628">
		<tag k="name" v="Utsikten" />
		<tag k="ssr:date" v="2016-05-10" />
		<tag k="ssr:stedsnr" v="458169" />
	</node>
	<node id="-80170" lat="69.9582833356" lon="23.4199304583">
		<tag k="name" v="Sagabrinken" />
		<tag k="ssr:date" v="2016-05-10" />
		<tag k="ssr:stedsnr" v="458167" />
	</node>
	<node id="-80169" lat="69.9531250026" lon="23.2300221425">
		<tag k="name" v="Rypeveien" />
		<tag k="ssr:date" v="2016-05-10" />
		<tag k="ssr:stedsnr" v="458114" />
	</node>
	<node id="-77395" lat="70.1384499988" lon="23.3265304622">
		<tag k="ssr:gml_id" v="GEOMETRY_c33ec465-4a57-4806-80a8-14aae08fe8d3" />
		<tag k="ssr:gml_nr" v="1" />
	</node>
	<node id="-80165" lat="70.2069888879" lon="23.2472749263">
		<tag k="highway" v="path" />
		<tag k="name" v="Reinstien" />
		<tag k="ssr:date" v="2016-05-10" />
		<tag k="ssr:stedsnr" v="453358" />
	</node>
	<node id="-81697" lat="69.9564527801" lon="23.3644610098">
		<tag k="name" v="Møllebakken" />
		<tag k="ssr:date" v="2016-05-10" />
		<tag k="ssr:stedsnr" v="632768" />
	</node>
	<node id="-81696" lat="69.9582916687" lon="23.3751499074">
		<tag k="ssr:gml_id" v="GEOMETRY_70abba5a-f2ae-4f57-a36a-c42472c8cf8d" />
		<tag k="ssr:gml_nr" v="1" />
	</node>
	<node id="-81183" lat="69.9515888914" lon="23.2260137972">
		<tag k="name" v="Ørneveien" />
		<tag k="ssr:date" v="2016-05-10" />
		<tag k="ssr:stedsnr" v="571710" />
	</node>
	<node id="-81694" lat="69.9564555558" lon="23.3744471339">
		<tag k="ssr:gml_id" v="GEOMETRY_98109c80-af06-44bc-8b39-8632ce93906b" />
		<tag k="ssr:gml_nr" v="1" />
	</node>
	<node id="-81181" lat="69.9595777769" lon="23.237511021">
		<tag k="name" v="Skogforvalterveien" />
		<tag k="ssr:date" v="2016-05-10" />
		<tag k="ssr:stedsnr" v="571577" />
	</node>
	<node id="-82204" lat="69.9444555629" lon="23.1830026897">
		<tag k="name" v="Saraveien" />
		<tag k="ssr:date" v="2016-05-11" />
		<tag k="ssr:stedsnr" v="694486" />
	</node>
	<node id="-81691" lat="69.9505861115" lon="23.2156943733">
		<tag k="name" v="Svaneveien" />
		<tag k="ssr:date" v="2016-05-10" />
		<tag k="ssr:stedsnr" v="632727" />
	</node>
	<node id="-80665" lat="69.9700944494" lon="23.263544358">
		<tag k="name" v="Brønnveien" />
		<tag k="ssr:date" v="2016-05-10" />
		<tag k="ssr:stedsnr" v="511200" />
	</node>
	<node id="-81688" lat="69.9590888911" lon="23.2311193577">
		<tag k="name" v="Bekkefaret" />
		<tag k="ssr:date" v="2016-05-10" />
		<tag k="ssr:stedsnr" v="632585" />
	</node>
	<node id="-80663" lat="69.9675583374" lon="23.2422693573">
		<tag k="name" v="Malmveien" />
		<tag k="ssr:date" v="2016-05-10" />
		<tag k="ssr:stedsnr" v="511198" />
	</node>
	<node id="-82198" lat="69.9732694502" lon="23.3714999112">
		<tag k="ssr:gml_id" v="GEOMETRY_f4539ba3-5616-4f00-ad56-0b474ae39702" />
		<tag k="ssr:gml_nr" v="1" />
	</node>
	<node id="-80661" lat="69.969461116" lon="23.246383252">
		<tag k="name" v="Kjeldsbergveien" />
		<tag k="ssr:date" v="2016-05-10" />
		<tag k="ssr:stedsnr" v="511194" />
	</node>
	<node id="-82196" lat="69.970244451" lon="23.3709888057">
		<tag k="name" v="Flåten" />
		<tag k="ssr:date" v="2016-05-11" />
		<tag k="ssr:stedsnr" v="694164" />
	</node>
	<node id="-80686" lat="69.9585444517" lon="23.233383249">
		<tag k="ssr:gml_id" v="GEOMETRY_c680eb49-89dc-40ef-810b-40397be7b35d" />
		<tag k="ssr:gml_nr" v="1" />
	</node>
	<node id="-81169" lat="69.9630944457" lon="23.3961137871">
		<tag k="name" v="Hammarijordet" />
		<tag k="ssr:date" v="2016-05-10" />
		<tag k="ssr:stedsnr" v="571104" />
	</node>
	<node id="-80656" lat="69.9551250011" lon="23.3801360287">
		<tag k="name" v="Myrullveien" />
		<tag k="ssr:date" v="2016-05-10" />
		<tag k="ssr:stedsnr" v="511079" />
	</node>
	<node id="-80655" lat="69.9631500043" lon="23.4153804582">
		<tag k="name" v="Saga" />
		<tag k="ssr:date" v="2016-05-10" />
		<tag k="ssr:stedsnr" v="511077" />
	</node>
	<node id="-80654" lat="69.960300008" lon="23.4156332318">
		<tag k="name" v="Sagahøyden" />
		<tag k="ssr:date" v="2016-05-10" />
		<tag k="ssr:stedsnr" v="511076" />
	</node>
	<node id="-80685" lat="69.9585416698" lon="23.2333749152">
		<tag k="ssr:gml_id" v="GEOMETRY_56531697-f1e3-41fc-9899-d5dec7615fba" />
		<tag k="ssr:gml_nr" v="0" />
	</node>
	<node id="-81676" lat="69.9689583385" lon="23.24822769">
		<tag k="name" v="Skajaluftveien" />
		<tag k="ssr:date" v="2016-05-10" />
		<tag k="ssr:stedsnr" v="632214" />
	</node>
	<node id="-80139" lat="69.9749499996" lon="23.3615165682">
		<tag k="name" v="General Dahls vei" />
		<tag k="ssr:date" v="2016-05-10" />
		<tag k="ssr:stedsnr" v="451209" />
	</node>
	<node id="-80173" lat="69.966311112" lon="23.3607860221">
		<tag k="name" v="Humleveien" />
		<tag k="ssr:date" v="2016-05-10" />
		<tag k="ssr:stedsnr" v="458172" />
	</node>
	<node id="-82697" lat="70.3177888943" lon="23.499761037">
		<tag k="ssr:gml_id" v="GEOMETRY_03252ce2-e635-42b7-b343-cea29e2aa931" />
		<tag k="ssr:gml_nr" v="1" />
	</node>
	<node id="-81672" lat="69.961569449" lon="23.3893971399">
		<tag k="name" v="Skogveien" />
		<tag k="ssr:date" v="2016-05-10" />
		<tag k="ssr:stedsnr" v="632138" />
	</node>
	<node id="-81671" lat="69.9585333352" lon="23.3791832459">
		<tag k="name" v="Engrappveien" />
		<tag k="ssr:date" v="2016-05-10" />
		<tag k="ssr:stedsnr" v="632095" />
	</node>
	<node id="-81670" lat="70.0434222269" lon="22.9512249352">
		<tag k="name" v="Handelstranda" />
		<tag k="ssr:date" v="2016-05-10" />
		<tag k="ssr:stedsnr" v="632072" />
	</node>
	<node id="-83205" lat="70.0324361136" lon="23.0748388039">
		<tag k="ssr:gml_id" v="GEOMETRY_2710f561-747c-4d10-aac3-c81ca135c2ea" />
		<tag k="ssr:gml_nr" v="1" />
	</node>
	<node id="-83204" lat="70.0324361092" lon="23.0748415947">
		<tag k="ssr:gml_id" v="GEOMETRY_97a155aa-ce8b-4afb-b7a3-31c8e734c62c" />
		<tag k="ssr:gml_nr" v="0" />
	</node>
	<node id="-82696" lat="70.3186805569" lon="23.5014193678">
		<tag k="ssr:gml_id" v="GEOMETRY_4a81433e-6f5d-4ce8-9dca-2d3fc9adebba" />
		<tag k="ssr:gml_nr" v="0" />
	</node>
	<node id="-76890" lat="69.9514111167" lon="23.2475638091">
		<tag k="name" v="Reistadberget" />
		<tag k="ssr:date" v="2016-05-10" />
		<tag k="ssr:stedsnr" v="337154" />
	</node>
	<node id="-82171" lat="69.9614472289" lon="23.3375332412">
		<tag k="name" v="Nygjerdet" />
		<tag k="ssr:date" v="2016-05-11" />
		<tag k="ssr:stedsnr" v="693798" />
	</node>
	<node id="-82169" lat="69.9589500072" lon="23.2994443545">
		<tag k="ssr:gml_id" v="GEOMETRY_7b810e3a-71c7-4d08-b53f-d823abe3d377" />
		<tag k="ssr:gml_nr" v="3" />
	</node>
	<node id="-82168" lat="69.9618861182" lon="23.2711637958">
		<tag k="ssr:gml_id" v="GEOMETRY_a2f594fa-2688-492a-a4f2-34267c35bb94" />
		<tag k="ssr:gml_nr" v="2" />
	</node>
	<node id="-82679" lat="69.9614333361" lon="23.4063249152">
		<tag k="name" v="Tørrfossmoen" />
		<tag k="ssr:date" v="2016-05-11" />
		<tag k="ssr:stedsnr" v="761174" />
	</node>
	<node id="-82678" lat="69.9574222272" lon="23.3708221309">
		<tag k="name" v="Svartaksveien" />
		<tag k="ssr:date" v="2016-05-11" />
		<tag k="ssr:stedsnr" v="761132" />
	</node>
	<node id="-82677" lat="69.9552305541" lon="23.2301165871">
		<tag k="name" v="Breverudmyra" />
		<tag k="ssr:date" v="2016-05-11" />
		<tag k="ssr:stedsnr" v="761124" />
	</node>
	<node id="-82676" lat="69.9549750034" lon="23.2275221418">
		<tag k="name" v="Granåsbakken" />
		<tag k="ssr:date" v="2016-05-11" />
		<tag k="ssr:stedsnr" v="761118" />
	</node>
	<node id="-82163" lat="69.9586944447" lon="23.2457888039">
		<tag k="name" v="Holtet" />
		<tag k="ssr:date" v="2016-05-11" />
		<tag k="ssr:stedsnr" v="693611" />
	</node>
	<node id="-82674" lat="70.2469083395" lon="22.7426777153">
		<tag k="name" v="Stjernsund" />
		<tag k="ssr:date" v="2016-05-11" />
		<tag k="ssr:stedsnr" v="758354" />
	</node>
	<node id="-82160" lat="69.8807805553" lon="23.6022221087">
		<tag k="ford" v="yes" />
		<tag k="name" v="Hella" />
		<tag k="place" v="locality" />
		<tag k="ssr:date" v="2016-05-11" />
		<tag k="ssr:stedsnr" v="693487" />
	</node>
	<node id="-82157" lat="69.9727277777" lon="23.3491999224">
		<tag k="name" v="Altagårdsbakken" />
		<tag k="ssr:date" v="2016-05-11" />
		<tag k="ssr:stedsnr" v="694154" />
	</node>
	<node id="-76524" lat="69.9498694444" lon="23.2552638057">
		<tag k="name" v="Thomasbrinken" />
		<tag k="ssr:date" v="2016-05-10" />
		<tag k="ssr:stedsnr" v="276194" />
	</node>
	<node id="-76523" lat="69.9508694452" lon="23.2518138049">
		<tag k="name" v="Reistadsvingen" />
		<tag k="ssr:date" v="2016-05-10" />
		<tag k="ssr:stedsnr" v="276192" />
	</node>
	<node id="-83178" lat="70.2106527814" lon="23.2118638235">
		<tag k="name" v="Motkleppveien" />
		<tag k="ssr:date" v="2016-05-11" />
		<tag k="ssr:stedsnr" v="817343" />
	</node>
	<node id="-84197" lat="69.9560222279" lon="23.2206943755">
		<tag k="name" v="Spurvekroken" />
		<tag k="ssr:date" v="2016-05-11" />
		<tag k="ssr:stedsnr" v="944141" />
	</node>
	<node id="-79132" lat="70.3401999989" lon="22.8375777061">
		<tag k="ssr:gml_id" v="GEOMETRY_12d4fe39-84ae-4523-8b8d-83fde03bdf23" />
		<tag k="ssr:gml_nr" v="1" />
	</node>
	<node id="-84194" lat="69.9564250008" lon="23.3706832434">
		<tag k="name" v="Gråstarrveien" />
		<tag k="ssr:date" v="2016-05-11" />
		<tag k="ssr:stedsnr" v="944102" />
	</node>
	<node id="-82145" lat="69.9692555631" lon="23.2660693565">
		<tag k="name" v="Skiveien" />
		<tag k="ssr:date" v="2016-05-11" />
		<tag k="ssr:stedsnr" v="693239" />
	</node>
	<node id="-80096" lat="69.9705388906" lon="23.2821610265">
		<tag k="name" v="Åsen" />
		<tag k="ssr:date" v="2016-05-10" />
		<tag k="ssr:stedsnr" v="450160" />
	</node>
	<node id="-82143" lat="69.9716222275" lon="23.2629554725">
		<tag k="name" v="Tors vei" />
		<tag k="ssr:date" v="2016-05-11" />
		<tag k="ssr:stedsnr" v="693230" />
	</node>
	<node id="-76509" lat="69.962216668" lon="23.2329082376">
		<tag k="name" v="Alma Halses vei" />
		<tag k="ssr:date" v="2016-05-10" />
		<tag k="ssr:stedsnr" v="269592" />
	</node>
	<node id="-83164" lat="69.965188889" lon="23.2449915854">
		<tag k="ssr:gml_id" v="GEOMETRY_f48a10b2-7202-4d4c-8f44-b9ef7502c3d0" />
		<tag k="ssr:gml_nr" v="0" />
	</node>
	<node id="-82137" lat="69.9699583386" lon="23.3785693558">
		<tag k="name" v="Øyra" />
		<tag k="ssr:date" v="2016-05-11" />
		<tag k="ssr:stedsnr" v="693036" />
	</node>
	<node id="-76500" lat="69.846061115" lon="23.1109138079">
		<tag k="highway" v="path" />
		<tag k="name" v="Finnvegen" />
		<tag k="ssr:date" v="2016-05-10" />
		<tag k="ssr:stedsnr" v="269430" />
	</node>
	<node id="-81102" lat="70.329494445" lon="22.9561943727">
		<tag k="name" v="Mjånes" />
		<tag k="ssr:date" v="2016-05-10" />
		<tag k="ssr:stedsnr" v="565880" />
	</node>
	<node id="-80120" lat="69.9623666682" lon="23.241552706">
		<tag k="name" v="Fogdeveien" />
		<tag k="ssr:date" v="2016-05-10" />
		<tag k="ssr:stedsnr" v="450586" />
	</node>
	<node id="-83153" lat="69.9726805612" lon="23.362466575">
		<tag k="name" v="Rishaugveien" />
		<tag k="ssr:date" v="2016-05-11" />
		<tag k="ssr:stedsnr" v="815190" />
	</node>
	<node id="-83152" lat="69.9739500016" lon="23.3669776936">
		<tag k="ssr:gml_id" v="GEOMETRY_cc649a69-bc98-4427-aad6-c11206b48034" />
		<tag k="ssr:gml_nr" v="1" />
	</node>
	<node id="-83151" lat="69.9697222253" lon="23.3761276773">
		<tag k="ssr:gml_id" v="GEOMETRY_b04c0f4d-becd-49fb-950c-64a6910b5489" />
		<tag k="ssr:gml_nr" v="0" />
	</node>
	<node id="-83150" lat="69.9711777791" lon="23.3690637909">
		<tag k="name" v="Kirkegårdsveien" />
		<tag k="ssr:date" v="2016-05-11" />
		<tag k="ssr:stedsnr" v="815188" />
	</node>
	<node id="-83149" lat="69.9687194467" lon="23.3182915846">
		<tag k="name" v="Blokkebærveien" />
		<tag k="ssr:date" v="2016-05-11" />
		<tag k="ssr:stedsnr" v="815185" />
	</node>
	<node id="-82124" lat="69.9620888935" lon="23.2357971349">
		<tag k="ssr:gml_id" v="GEOMETRY_6ef3301a-3377-418c-8052-dbd14b1b6493" />
		<tag k="ssr:gml_nr" v="1" />
	</node>
	<node id="-82635" lat="69.8933388954" lon="23.0401304754">
		<tag k="highway" v="path" />
		<tag k="name" v="Postvegen" />
		<tag k="ssr:date" v="2016-05-11" />
		<tag k="ssr:stedsnr" v="754268" />
	</node>
	<node id="-77426" lat="70.183100004" lon="23.3571193676">
		<tag k="ssr:gml_id" v="GEOMETRY_b3b4f098-537e-40ef-9a92-0cce88ff283d" />
		<tag k="ssr:gml_nr" v="1" />
	</node>
	<node id="-84167" lat="69.9607027806" lon="23.2265721493">
		<tag k="name" v="Sorenskriverveien" />
		<tag k="ssr:date" v="2016-05-11" />
		<tag k="ssr:stedsnr" v="937627" />
	</node>
	<node id="-84166" lat="69.9617777826" lon="23.2254665902">
		<tag k="name" v="Strandveien" />
		<tag k="ssr:date" v="2016-05-11" />
		<tag k="ssr:stedsnr" v="937626" />
	</node>
	<node id="-80673" lat="69.9439527775" lon="23.0403638219">
		<tag k="highway" v="path" />
		<tag k="name" v="Tisselgangen" />
		<tag k="ssr:date" v="2016-05-10" />
		<tag k="ssr:stedsnr" v="511251" />
	</node>
	<node id="-82627" lat="69.9746527821" lon="23.3695443552">
		<tag k="name" v="Moveien" />
		<tag k="ssr:date" v="2016-05-11" />
		<tag k="ssr:stedsnr" v="754215" />
	</node>
	<node id="-82123" lat="69.9728444464" lon="23.2741887976">
		<tag k="ssr:gml_id" v="GEOMETRY_ea51bf6f-2801-4e38-863f-a4446b41a3a9" />
		<tag k="ssr:gml_nr" v="0" />
	</node>
	<node id="-82624" lat="69.9674805597" lon="23.3281665927">
		<tag k="name" v="Røsslyngveien" />
		<tag k="ssr:date" v="2016-05-11" />
		<tag k="ssr:stedsnr" v="754197" />
	</node>
	<node id="-81184" lat="69.9517583317" lon="23.2181860368">
		<tag k="name" v="Ternesvingen" />
		<tag k="ssr:date" v="2016-05-10" />
		<tag k="ssr:stedsnr" v="571713" />
	</node>
	<node id="-76522" lat="69.9782638944" lon="23.3410471491">
		<tag k="name" v="Altagårdsskogen" />
		<tag k="ssr:date" v="2016-05-10" />
		<tag k="ssr:stedsnr" v="275685" />
	</node>
	<node id="-79676" lat="70.0377138935" lon="22.9341443772">
		<tag k="highway" v="path" />
		<tag k="name" v="Jota" />
		<tag k="ssr:date" v="2016-05-10" />
		<tag k="ssr:stedsnr" v="268202" />
	</node>
	<node id="-77954" lat="70.2248361114" lon="23.3037999268">
		<tag k="ssr:gml_id" v="GEOMETRY_6d9bae48-319e-4cf9-9fe9-39d9a399306a" />
		<tag k="ssr:gml_nr" v="0" />
	</node>
	<node id="-82618" lat="69.9640250055" lon="23.3861610344">
		<tag k="name" v="Kronstadbakken" />
		<tag k="ssr:date" v="2016-05-11" />
		<tag k="ssr:stedsnr" v="754147" />
	</node>
	<node id="-81695" lat="69.9569944518" lon="23.3774915685">
		<tag k="ssr:gml_id" v="GEOMETRY_9e7837ec-53a5-427b-8d27-47f887a5589b" />
		<tag k="ssr:gml_nr" v="0" />
	</node>
	<node id="-78281" lat="69.9635305564" lon="23.3913999092">
		<tag k="name" v="Tømmerveien" />
		<tag k="ssr:date" v="2016-05-10" />
		<tag k="ssr:stedsnr" v="268110" />
	</node>
	<node id="-83123" lat="69.9617500058" lon="23.3218749078">
		<tag k="name" v="Knut Kvens vei" />
		<tag k="ssr:date" v="2016-05-11" />
		<tag k="ssr:stedsnr" v="814803" />
	</node>
	<node id="-78514" lat="69.9430666703" lon="23.1694499314">
		<tag k="ssr:gml_id" v="GEOMETRY_fbdf137b-13d2-4a5f-aa82-bbe3eb64d098" />
		<tag k="ssr:gml_nr" v="1" />
	</node>
	<node id="-78513" lat="69.9430694474" lon="23.1694527066">
		<tag k="ssr:gml_id" v="GEOMETRY_01730836-b101-481d-91ee-6b1cca459c14" />
		<tag k="ssr:gml_nr" v="0" />
	</node>
	<node id="-83120" lat="69.9629083365" lon="23.3749193445">
		<tag k="name" v="Krattstien" />
		<tag k="ssr:date" v="2016-05-11" />
		<tag k="ssr:stedsnr" v="814791" />
	</node>
	<node id="-80187" lat="70.2188638874" lon="23.2355860276">
		<tag k="ssr:gml_id" v="GEOMETRY_1bfd87ee-8050-41ab-8b33-8069fae27ddd" />
		<tag k="ssr:gml_nr" v="1" />
	</node>
	<node id="-81693" lat="69.9575472277" lon="23.3803527003">
		<tag k="ssr:gml_id" v="GEOMETRY_3e53aaf0-3b30-455b-921b-8277e017d6b1" />
		<tag k="ssr:gml_nr" v="0" />
	</node>
	<node id="-83116" lat="69.9564361189" lon="23.2237721317">
		<tag k="name" v="Granåsveien" />
		<tag k="ssr:date" v="2016-05-11" />
		<tag k="ssr:stedsnr" v="814618" />
	</node>
	<node id="-84139" lat="69.9568027813" lon="23.2409443622">
		<tag k="name" v="Holtenjordet" />
		<tag k="ssr:date" v="2016-05-11" />
		<tag k="ssr:stedsnr" v="936579" />
	</node>
	<node id="-84138" lat="69.9542694492" lon="23.2068499305">
		<tag k="ssr:gml_id" v="GEOMETRY_784ce4ea-89de-47d5-a8e8-0548f5936ca1" />
		<tag k="ssr:gml_nr" v="1" />
	</node>
	<node id="-84137" lat="69.9543916699" lon="23.2102138029">
		<tag k="ssr:gml_id" v="GEOMETRY_9bf9ed05-d505-449a-af46-37d9d6ee2a55" />
		<tag k="ssr:gml_nr" v="0" />
	</node>
	<node id="-76968" lat="69.9373166662" lon="22.7008277195">
		<tag k="ssr:gml_id" v="GEOMETRY_b5105b05-8491-40c2-9b80-e788570e61d1" />
		<tag k="ssr:gml_nr" v="0" />
	</node>
	<node id="-82599" lat="69.9583944487" lon="23.3777554795">
		<tag k="ssr:gml_id" v="GEOMETRY_f66cdc37-b60c-49d5-9b40-dcab845970b2" />
		<tag k="ssr:gml_nr" v="2" />
	</node>
	<node id="-82598" lat="69.9621111116" lon="23.364624916">
		<tag k="ssr:gml_id" v="GEOMETRY_60ba2db0-d0bc-4b04-807e-ed6251800511" />
		<tag k="ssr:gml_nr" v="1" />
	</node>
	<node id="-82597" lat="69.9588305584" lon="23.3930971431">
		<tag k="ssr:gml_id" v="GEOMETRY_d6874d48-e650-414a-9868-b36236b14853" />
		<tag k="ssr:gml_nr" v="0" />
	</node>
	<node id="-79263" lat="69.9717694476" lon="23.269299925">
		<tag k="name" v="Odins vei" />
		<tag k="ssr:date" v="2016-05-10" />
		<tag k="ssr:stedsnr" v="208196" />
	</node>
	<node id="-82630" lat="69.9669250007" lon="23.2544277048">
		<tag k="name" v="Myrveien" />
		<tag k="ssr:date" v="2016-05-11" />
		<tag k="ssr:stedsnr" v="754240" />
	</node>
	<node id="-79131" lat="70.3402000019" lon="22.8375804877">
		<tag k="ssr:gml_id" v="GEOMETRY_c02e2862-0c12-4d11-a00e-566581f38307" />
		<tag k="ssr:gml_nr" v="0" />
	</node>
	<node id="-82592" lat="69.9534333344" lon="23.2096360271">
		<tag k="name" v="Furuly" />
		<tag k="ssr:date" v="2016-05-11" />
		<tag k="ssr:stedsnr" v="753540" />
	</node>
	<node id="-83102" lat="69.9674055608" lon="23.277666577">
		<tag k="name" v="Follums vei" />
		<tag k="ssr:date" v="2016-05-11" />
		<tag k="ssr:stedsnr" v="814238" />
	</node>
	<node id="-83101" lat="69.9687361094" lon="23.2671276932">
		<tag k="name" v="Maskinsvingen" />
		<tag k="ssr:date" v="2016-05-11" />
		<tag k="ssr:stedsnr" v="814236" />
	</node>
	<node id="-83100" lat="69.9678111144" lon="23.2720388177">
		<tag k="name" v="Løkkeveien" />
		<tag k="ssr:date" v="2016-05-11" />
		<tag k="ssr:stedsnr" v="814234" />
	</node>
	<node id="-83099" lat="69.9724694507" lon="23.2871915837">
		<tag k="ssr:gml_id" v="GEOMETRY_b439e846-97cd-4f47-9ddd-4e316c04270e" />
		<tag k="ssr:gml_nr" v="1" />
	</node>
	<node id="-83098" lat="69.9750027852" lon="23.2968610202">
		<tag k="ssr:gml_id" v="GEOMETRY_5f78ffa8-40e4-4793-894f-88746dc9ce27" />
		<tag k="ssr:gml_nr" v="0" />
	</node>
	<node id="-83097" lat="69.9710138872" lon="23.2809721465">
		<tag k="name" v="Ekornsvingen" />
		<tag k="ssr:date" v="2016-05-11" />
		<tag k="ssr:stedsnr" v="814226" />
	</node>
	<node id="-83095" lat="69.9719583365" lon="23.2665638064">
		<tag k="name" v="Gimle" />
		<tag k="ssr:date" v="2016-05-11" />
		<tag k="ssr:stedsnr" v="814225" />
	</node>
	<node id="-83094" lat="69.9620388933" lon="23.3846832523">
		<tag k="name" v="Oldersvingen" />
		<tag k="ssr:date" v="2016-05-11" />
		<tag k="ssr:stedsnr" v="814120" />
	</node>
	<node id="-83605" lat="70.2035111117" lon="23.2141665996">
		<tag k="highway" v="path" />
		<tag k="name" v="Geitstien" />
		<tag k="ssr:date" v="2016-05-11" />
		<tag k="ssr:stedsnr" v="878412" />
	</node>
	<node id="-83604" lat="70.2188000027" lon="23.27473882">
		<tag k="ssr:gml_id" v="GEOMETRY_ae451121-569b-49a7-b6c4-b02ae5dbabe5" />
		<tag k="ssr:gml_nr" v="2" />
	</node>
	<node id="-84115" lat="69.9693500002" lon="23.2743526807">
		<tag k="ssr:gml_id" v="GEOMETRY_bc10f2e5-a967-4150-affa-9730014ccf6b" />
		<tag k="ssr:gml_nr" v="1" />
	</node>
	<node id="-83602" lat="70.2186916667" lon="23.236583266">
		<tag k="ssr:gml_id" v="GEOMETRY_e4c63f16-2f39-4a4f-bfe6-7d1aa8a7839d" />
		<tag k="ssr:gml_nr" v="0" />
	</node>
	<node id="-84113" lat="69.9714944497" lon="23.2765943537">
		<tag k="name" v="Trudvang" />
		<tag k="ssr:date" v="2016-05-11" />
		<tag k="ssr:stedsnr" v="936172" />
	</node>
	<node id="-84112" lat="69.9703027843" lon="23.2698332441">
		<tag k="name" v="Talviksvingen" />
		<tag k="ssr:date" v="2016-05-11" />
		<tag k="ssr:stedsnr" v="936171" />
	</node>
	<node id="-80664" lat="70.0423694478" lon="22.9417915914">
		<tag k="name" v="Mellomgjerdet" />
		<tag k="ssr:date" v="2016-05-10" />
		<tag k="ssr:stedsnr" v="511199" />
	</node>
	<node id="-76803" lat="69.9667083323" lon="23.381288797">
		<tag k="ssr:gml_id" v="GEOMETRY_90d5d723-f4b4-4cd6-80e9-1b855fa1e3ac" />
		<tag k="ssr:gml_nr" v="1" />
	</node>
	<node id="-82675" lat="69.9526194462" lon="23.2279971295">
		<tag k="name" v="Fjellvåkveien" />
		<tag k="ssr:date" v="2016-05-11" />
		<tag k="ssr:stedsnr" v="761117" />
	</node>
	<node id="-77957" lat="70.2271861129" lon="23.3704443509">
		<tag k="ssr:gml_id" v="GEOMETRY_133e3cc4-85ea-4fdd-8a5c-29f010e0c5c5" />
		<tag k="ssr:gml_nr" v="3" />
	</node>
	<node id="-84124" lat="69.992611115" lon="23.3006249282">
		<tag k="name" v="Amtmannsnes" />
		<tag k="old_name" v="Amtmannsnes lykt" />
		<tag k="ssr:date" v="2016-05-11" />
		<tag k="ssr:stedsnr" v="936210" />
	</node>
	<node id="-77958" lat="70.2270500012" lon="23.3237915845">
		<tag k="ssr:gml_id" v="GEOMETRY_9d57f190-a68c-4750-b535-9e89bfd34a7f" />
		<tag k="ssr:gml_nr" v="4" />
	</node>
	<node id="-82625" lat="69.9657527787" lon="23.319247121">
		<tag k="name" v="Grepplyngveien" />
		<tag k="ssr:date" v="2016-05-11" />
		<tag k="ssr:stedsnr" v="754203" />
	</node>
	<node id="-84100" lat="69.9577111147" lon="23.3783804567">
		<tag k="name" v="Timoteiveien" />
		<tag k="ssr:date" v="2016-05-11" />
		<tag k="ssr:stedsnr" v="936070" />
	</node>
	<node id="-77955" lat="70.2274083353" lon="23.4044026786">
		<tag k="ssr:gml_id" v="GEOMETRY_11d20734-9da3-4277-ae05-b4cb5a224c6c" />
		<tag k="ssr:gml_nr" v="1" />
	</node>
	<node id="-84098" lat="69.9556361157" lon="23.405872143">
		<tag k="ssr:gml_id" v="GEOMETRY_f7d59a36-38db-45f9-8615-bf156f053432" />
		<tag k="ssr:gml_nr" v="2" />
	</node>
	<node id="-84097" lat="69.9606138964" lon="23.3993999004">
		<tag k="ssr:gml_id" v="GEOMETRY_4125feb4-1571-4369-85b7-1d7c4cacd98c" />
		<tag k="ssr:gml_nr" v="1" />
	</node>
	<node id="-84096" lat="69.9409222238" lon="23.4045110115">
		<tag k="ssr:gml_id" v="GEOMETRY_3118d3a3-4ebc-42d8-8180-4d4352f1c64e" />
		<tag k="ssr:gml_nr" v="0" />
	</node>
	<node id="-77439" lat="69.9534527806" lon="23.2211360339">
		<tag k="name" v="Gakoriveien" />
		<tag k="ssr:date" v="2016-05-10" />
		<tag k="ssr:stedsnr" v="389618" />
	</node>
	<node id="-83186" lat="69.9562666678" lon="23.368838808">
		<tag k="name" v="Sølvbunkeveien" />
		<tag k="ssr:date" v="2016-05-11" />
		<tag k="ssr:stedsnr" v="822112" />
	</node>
	<node id="-82197" lat="69.9723694448" lon="23.377191578">
		<tag k="ssr:gml_id" v="GEOMETRY_6048b22d-74f4-41d2-b466-12e3a18152eb" />
		<tag k="ssr:gml_nr" v="0" />
	</node>
	<node id="-77435" lat="70.2469777821" lon="23.4220304785">
		<tag k="name" v="Goppi" />
		<tag k="ssr:date" v="2016-05-11" />
		<tag k="ssr:stedsnr" v="895914" />
	</node>
	<node id="-77946" lat="69.9655388905" lon="23.3618887953">
		<tag k="name" v="Knottveien" />
		<tag k="ssr:date" v="2016-05-10" />
		<tag k="ssr:stedsnr" v="33169" />
	</node>
	<node id="-77945" lat="69.9614138901" lon="23.408469339">
		<tag k="name" v="Tørrfossbakken" />
		<tag k="ssr:date" v="2016-05-10" />
		<tag k="ssr:stedsnr" v="33164" />
	</node>
	<node id="-77944" lat="69.9640722248" lon="23.3695526842">
		<tag k="name" v="Patoskogen" />
		<tag k="ssr:date" v="2016-05-10" />
		<tag k="ssr:stedsnr" v="33130" />
	</node>
	<node id="-77429" lat="70.1387027788" lon="23.3259693615">
		<tag k="ssr:gml_id" v="GEOMETRY_25fd5a2e-5a5c-49a0-a28d-48562f469995" />
		<tag k="ssr:gml_nr" v="4" />
	</node>
	<node id="-77428" lat="70.1745916738" lon="23.2932721306">
		<tag k="ssr:gml_id" v="GEOMETRY_fcae7ef2-3bb8-48f1-94c9-d5e7edc9c872" />
		<tag k="ssr:gml_nr" v="3" />
	</node>
	<node id="-77427" lat="70.1769777789" lon="23.360833248">
		<tag k="ssr:gml_id" v="GEOMETRY_f9fa06e2-c6df-4281-b2c4-a80b95f19e52" />
		<tag k="ssr:gml_nr" v="2" />
	</node>
	<node id="-82623" lat="69.9767333359" lon="23.3039249095">
		<tag k="name" v="Bullveien" />
		<tag k="ssr:date" v="2016-05-11" />
		<tag k="ssr:stedsnr" v="754192" />
	</node>
	<node id="-77425" lat="70.1453388901" lon="23.3184415873">
		<tag k="ssr:gml_id" v="GEOMETRY_8c35b776-34e9-491a-81c8-07d70f8c6c2b" />
		<tag k="ssr:gml_nr" v="0" />
	</node>
	<node id="-83565" lat="69.9749166679" lon="23.359555468">
		<tag k="name" v="Lensmannsveien" />
		<tag k="ssr:date" v="2016-05-11" />
		<tag k="ssr:stedsnr" v="876187" />
	</node>
	<node id="-83564" lat="69.9755638939" lon="23.3012943632">
		<tag k="name" v="Sandfallveien" />
		<tag k="ssr:date" v="2016-05-11" />
		<tag k="ssr:stedsnr" v="876182" />
	</node>
	<node id="-83563" lat="69.9722638914" lon="23.303269352">
		<tag k="name" v="Åslia" />
		<tag k="ssr:date" v="2016-05-11" />
		<tag k="ssr:stedsnr" v="876180" />
	</node>
	<node id="-77417" lat="69.9536833379" lon="23.2410332424">
		<tag k="name" v="Elgfaret" />
		<tag k="ssr:date" v="2016-05-11" />
		<tag k="ssr:stedsnr" v="883173" />
	</node>
	<node id="-77416" lat="69.9663305596" lon="23.3767915693">
		<tag k="name" v="Ole Østlyngens vei" />
		<tag k="ssr:date" v="2016-05-11" />
		<tag k="ssr:stedsnr" v="883170" />
	</node>
	<node id="-82620" lat="69.8645666669" lon="23.4100082429">
		<tag k="name" v="Russekysten" />
		<tag k="ssr:date" v="2016-05-11" />
		<tag k="ssr:stedsnr" v="754170" />
	</node>
	<node id="-77414" lat="69.9531416655" lon="23.2253415787">
		<tag k="name" v="Myrsnipeveien" />
		<tag k="ssr:date" v="2016-05-11" />
		<tag k="ssr:stedsnr" v="883107" />
	</node>
	<node id="-77410" lat="69.950213894" lon="23.1973249179">
		<tag k="name" v="Altaveien" />
		<tag k="ssr:date" v="2016-05-11" />
		<tag k="ssr:stedsnr" v="882655" />
	</node>
	<node id="-81168" lat="69.9651833347" lon="23.3778943631">
		<tag k="name" v="Risveien" />
		<tag k="ssr:date" v="2016-05-10" />
		<tag k="ssr:stedsnr" v="571098" />
	</node>
	<node id="-76894" lat="69.9790416687" lon="23.357324924">
		<tag k="ssr:gml_id" v="GEOMETRY_a6755881-006a-42db-8162-0d086a8281e6" />
		<tag k="ssr:gml_nr" v="0" />
	</node>
	<node id="-77303" lat="69.9309111118" lon="23.440911008">
		<tag k="name" v="Bælgiouda" />
		<tag k="ssr:date" v="2016-05-10" />
		<tag k="ssr:stedsnr" v="389065" />
	</node>
	<node id="-76891" lat="69.9501388941" lon="23.2484999065">
		<tag k="name" v="Reistadskogen" />
		<tag k="ssr:date" v="2016-05-10" />
		<tag k="ssr:stedsnr" v="337156" />
	</node>
	<node id="-80116" lat="69.9559416656" lon="23.2053582462">
		<tag k="name" v="Øverbygdveien" />
		<tag k="ssr:date" v="2016-05-10" />
		<tag k="ssr:stedsnr" v="450486" />
	</node>
	<node id="-76889" lat="69.9605805597" lon="23.2440721459">
		<tag k="name" v="Skoleåsen" />
		<tag k="ssr:date" v="2016-05-10" />
		<tag k="ssr:stedsnr" v="337131" />
	</node>
	<node id="-76887" lat="69.9577638963" lon="23.373122132">
		<tag k="name" v="Gulaksveien" />
		<tag k="ssr:date" v="2016-05-10" />
		<tag k="ssr:stedsnr" v="337113" />
	</node>
	<node id="-77398" lat="70.1093777798" lon="23.5563721328">
		<tag k="ssr:gml_id" v="GEOMETRY_82e6f499-e0ae-4dbb-8b71-6a30ebf67c95" />
		<tag k="ssr:gml_nr" v="4" />
	</node>
	<node id="-77397" lat="70.1141555551" lon="23.4465638075">
		<tag k="ssr:gml_id" v="GEOMETRY_1ebd0583-9141-4e3a-a63e-e370149d2db7" />
		<tag k="ssr:gml_nr" v="3" />
	</node>
	<node id="-77396" lat="70.1193444444" lon="23.3937193419">
		<tag k="ssr:gml_id" v="GEOMETRY_9b3f17df-10c7-464a-a23a-bb2c1767fc58" />
		<tag k="ssr:gml_nr" v="2" />
	</node>
	<node id="-76883" lat="69.9555222201" lon="23.2209443678">
		<tag k="name" v="Spurveveien" />
		<tag k="ssr:date" v="2016-05-10" />
		<tag k="ssr:stedsnr" v="336107" />
	</node>
	<node id="-76882" lat="70.1373694481" lon="23.012747156">
		<tag k="name" v="Langnesholmen" />
		<tag k="ssr:date" v="2016-05-10" />
		<tag k="ssr:stedsnr" v="333484" />
	</node>
	<node id="-83534" lat="70.0314666726" lon="22.9394277068">
		<tag k="name" v="Vassbotnveien" />
		<tag k="ssr:date" v="2016-05-11" />
		<tag k="ssr:stedsnr" v="875209" />
	</node>
	<node id="-83533" lat="69.969033337" lon="23.2612999222">
		<tag k="name" v="Lunden" />
		<tag k="ssr:date" v="2016-05-11" />
		<tag k="ssr:stedsnr" v="875205" />
	</node>
	<node id="-83532" lat="69.971388889" lon="23.2858360215">
		<tag k="ssr:gml_id" v="GEOMETRY_3ca76b96-46b8-4067-8720-44370d4aff54" />
		<tag k="ssr:gml_nr" v="1" />
	</node>
	<node id="-77899" lat="69.9781472247" lon="23.2925915713">
		<tag k="name" v="Komsaveien" />
		<tag k="ssr:date" v="2016-05-10" />
		<tag k="ssr:stedsnr" v="26241" />
	</node>
	<node id="-77898" lat="69.9721749985" lon="23.2628860324">
		<tag k="name" v="Balders vei" />
		<tag k="ssr:date" v="2016-05-10" />
		<tag k="ssr:stedsnr" v="26222" />
	</node>
	<node id="-77897" lat="69.9749472284" lon="23.3663832533">
		<tag k="name" v="Skipper Wirkolas vei" />
		<tag k="ssr:date" v="2016-05-10" />
		<tag k="ssr:stedsnr" v="26216" />
	</node>
	<node id="-77896" lat="69.9687722227" lon="23.3282776981">
		<tag k="name" v="Krøkebærveien" />
		<tag k="ssr:date" v="2016-05-10" />
		<tag k="ssr:stedsnr" v="26202" />
	</node>
	<node id="-77895" lat="69.9757027783" lon="23.3405554721">
		<tag k="name" v="Betongveien" />
		<tag k="ssr:date" v="2016-05-10" />
		<tag k="ssr:stedsnr" v="26195" />
	</node>
	<node id="-83165" lat="69.9627277836" lon="23.2377054812">
		<tag k="ssr:gml_id" v="GEOMETRY_301ad6b3-b351-4bdc-a157-c2d85262f025" />
		<tag k="ssr:gml_nr" v="1" />
	</node>
	<node id="-77378" lat="69.966480555" lon="23.3577138044">
		<tag k="name" v="Myggveien" />
		<tag k="ssr:date" v="2016-05-10" />
		<tag k="ssr:stedsnr" v="397190" />
	</node>
	<node id="-77377" lat="69.9586555608" lon="23.3672554806">
		<tag k="name" v="Rødsvingelveien" />
		<tag k="ssr:date" v="2016-05-10" />
		<tag k="ssr:stedsnr" v="397127" />
	</node>
	<node id="-77376" lat="69.9621944517" lon="23.3822193455">
		<tag k="name" v="Gamleveien" />
		<tag k="ssr:date" v="2016-05-10" />
		<tag k="ssr:stedsnr" v="394411" />
	</node>
	<node id="-76862" lat="69.966080558" lon="23.3728082418">
		<tag k="name" v="Kjosveien" />
		<tag k="ssr:date" v="2016-05-10" />
		<tag k="ssr:stedsnr" v="330216" />
	</node>
	<node id="-77885" lat="70.0392916673" lon="22.9580915887">
		<tag k="name" v="Skriverjordet" />
		<tag k="ssr:date" v="2016-05-10" />
		<tag k="ssr:stedsnr" v="26071" />
	</node>
	<node id="-77372" lat="70.2142694474" lon="23.193255473">
		<tag k="name" v="Korsnesveien" />
		<tag k="ssr:date" v="2016-05-10" />
		<tag k="ssr:stedsnr" v="392366" />
	</node>
	<node id="-83514" lat="70.316944449" lon="22.867222158">
		<tag k="landuse" v="harbour" />
		<tag k="name" v="Kvalfjordhamn" />
		<tag k="seamark:type" v="harbour" />
		<tag k="ssr:date" v="2016-05-11" />
		<tag k="ssr:stedsnr" v="874989" />
	</node>
	<node id="-78751" lat="69.9557277812" lon="23.3667888033">
		<tag k="ssr:gml_id" v="GEOMETRY_b54ebc49-6153-48f6-862e-f045afc597e6" />
		<tag k="ssr:gml_nr" v="1" />
	</node>
	<node id="-76856" lat="69.9750388925" lon="23.3282554732">
		<tag k="ssr:gml_id" v="GEOMETRY_269f68b5-dffb-4305-95a8-1d4984f3c664" />
		<tag k="ssr:gml_nr" v="1" />
	</node>
	<node id="-76855" lat="69.9725722244" lon="23.359988789">
		<tag k="ssr:gml_id" v="GEOMETRY_c970aaff-2511-48d2-b2dc-673fea56aca9" />
		<tag k="ssr:gml_nr" v="0" />
	</node>
	<node id="-77438" lat="69.9577111114" lon="23.2450304745">
		<tag k="name" v="Holtenalleen" />
		<tag k="ssr:date" v="2016-05-10" />
		<tag k="ssr:stedsnr" v="389603" />
	</node>
	<node id="-76969" lat="69.9373111168" lon="22.7008221486">
		<tag k="ssr:gml_id" v="GEOMETRY_b67a9db3-b603-49a2-960f-772c1d7d08b3" />
		<tag k="ssr:gml_nr" v="1" />
	</node>
	<node id="-80136" lat="69.9726111147" lon="23.3021971449">
		<tag k="name" v="Gymnasveien" />
		<tag k="ssr:date" v="2016-05-10" />
		<tag k="ssr:stedsnr" v="451184" />
	</node>
	<node id="-80118" lat="69.9558861168" lon="23.2119221295">
		<tag k="ssr:gml_id" v="GEOMETRY_82ebb4f1-1796-432a-80e7-c9a82c761b95" />
		<tag k="ssr:gml_nr" v="1" />
	</node>
	<node id="-76807" lat="69.9738694475" lon="23.2597971376">
		<tag k="name" v="Tollevikveien" />
		<tag k="ssr:date" v="2016-05-10" />
		<tag k="ssr:stedsnr" v="329197" />
	</node>
	<node id="-77863" lat="69.9626527807" lon="23.3734749095">
		<tag k="ssr:gml_id" v="GEOMETRY_b180c3e5-05b9-4c0f-ae31-1f043b350e4c" />
		<tag k="ssr:gml_nr" v="1" />
	</node>
	<node id="-77862" lat="69.9619611143" lon="23.3711193426">
		<tag k="ssr:gml_id" v="GEOMETRY_d1fa03c5-f1b7-4d26-8db8-7a1915572695" />
		<tag k="ssr:gml_nr" v="0" />
	</node>
	<node id="-76837" lat="69.9628444507" lon="23.262199905">
		<tag k="name" v="Prestegårdsveien" />
		<tag k="ssr:date" v="2016-05-10" />
		<tag k="ssr:stedsnr" v="329725" />
	</node>
	<node id="-77859" lat="69.9554472219" lon="23.2130304818">
		<tag k="name" v="Kongsvikveien" />
		<tag k="ssr:date" v="2016-05-10" />
		<tag k="ssr:stedsnr" v="25579" />
	</node>
	<node id="-78370" lat="69.9474833327" lon="23.2493610262">
		<tag k="ssr:gml_id" v="GEOMETRY_69416602-142f-4735-8866-c446034a4acb" />
		<tag k="ssr:gml_nr" v="0" />
	</node>
	<node id="-78368" lat="70.0894111119" lon="22.7429249447">
		<tag k="name" v="Eidsnes" />
		<tag k="ssr:date" v="2016-05-10" />
		<tag k="ssr:stedsnr" v="91186" />
	</node>
	<node id="-77855" lat="69.9786833375" lon="23.2933637975">
		<tag k="name" v="Komsa Terasse" />
		<tag k="ssr:date" v="2016-05-10" />
		<tag k="ssr:stedsnr" v="25198" />
	</node>
	<node id="-76830" lat="69.9511722222" lon="23.1979276884">
		<tag k="name" v="Kobbeveien" />
		<tag k="ssr:date" v="2016-05-10" />
		<tag k="ssr:stedsnr" v="329480" />
	</node>
	<node id="-77853" lat="70.0424944473" lon="22.9335638265">
		<tag k="name" v="Blåberget" />
		<tag k="ssr:date" v="2016-05-10" />
		<tag k="ssr:stedsnr" v="25169" />
	</node>
	<node id="-78334" lat="69.9743388896" lon="23.3059388078">
		<tag k="ssr:gml_id" v="GEOMETRY_988373af-7d16-4f6f-859f-c0f06705cbfe" />
		<tag k="ssr:gml_nr" v="1" />
	</node>
	<node id="-77914" lat="69.9403555606" lon="23.1854777105">
		<tag k="ssr:gml_id" v="GEOMETRY_4c4004fd-2a21-4941-8d40-f7663e7f8d49" />
		<tag k="ssr:gml_nr" v="1" />
	</node>
	<node id="-76822" lat="69.9750222266" lon="23.2652027044">
		<tag k="name" v="Øvre Tollevikveien" />
		<tag k="ssr:date" v="2016-05-10" />
		<tag k="ssr:stedsnr" v="329254" />
	</node>
	<node id="-77913" lat="69.943352778" lon="23.1857304717">
		<tag k="ssr:gml_id" v="GEOMETRY_838e67c0-c2f1-4830-bf79-725f22c85167" />
		<tag k="ssr:gml_nr" v="0" />
	</node>
	<node id="-77956" lat="70.2259500051" lon="23.3838526851">
		<tag k="ssr:gml_id" v="GEOMETRY_6a4b8df3-b818-45ae-b6d5-a0e680f7db87" />
		<tag k="ssr:gml_nr" v="2" />
	</node>
	<node id="-78377" lat="70.2236083384" lon="23.3016193708">
		<tag k="layer" v="-1" />
		<tag k="name" v="Storfjelltunnelen" />
		<tag k="ssr:date" v="2016-05-10" />
		<tag k="ssr:stedsnr" v="105810" />
		<tag k="tunnel" v="yes" />
	</node>
	<node id="-76812" lat="69.9702027789" lon="23.2795971396">
		<tag k="name" v="Harebakken" />
		<tag k="ssr:date" v="2016-05-10" />
		<tag k="ssr:stedsnr" v="329210" />
	</node>
	<node id="-79874" lat="70.2155416706" lon="23.1812582641">
		<tag k="alt_name" v="Løkta" />
		<tag k="name" v="Korsnes" />
		<tag k="ssr:date" v="2016-05-10" />
		<tag k="ssr:stedsnr" v="444553" />
	</node>
	<node id="-76810" lat="70.0443805579" lon="22.9403693734">
		<tag k="name" v="Grønnlia" />
		<tag k="ssr:date" v="2016-05-10" />
		<tag k="ssr:stedsnr" v="329203" />
	</node>
	<node id="-76809" lat="69.9707527811" lon="23.2669471333">
		<tag k="ssr:gml_id" v="GEOMETRY_12881a31-7a59-43e0-b431-a9ea4cb6b3ac" />
		<tag k="ssr:gml_nr" v="1" />
	</node>
	<node id="-76808" lat="69.9665194475" lon="23.2561082593">
		<tag k="ssr:gml_id" v="GEOMETRY_f5a686a7-fb25-4f53-bc18-0ec2e84d443d" />
		<tag k="ssr:gml_nr" v="0" />
	</node>
	<node id="-82125" lat="69.9650500017" lon="23.2446888062">
		<tag k="ssr:gml_id" v="GEOMETRY_4cdf53af-3456-456a-af9b-1e0381ed6044" />
		<tag k="ssr:gml_nr" v="2" />
	</node>
	<node id="-76805" lat="69.9612333404" lon="23.3825971262">
		<tag k="ssr:gml_id" v="GEOMETRY_104d61e8-3a9d-4a15-b672-3026d2eb4d1d" />
		<tag k="ssr:gml_nr" v="1" />
	</node>
	<node id="-76804" lat="69.9626750006" lon="23.3877221237">
		<tag k="ssr:gml_id" v="GEOMETRY_dc41f68c-e6ec-4997-9f38-ecdda83b9a3c" />
		<tag k="ssr:gml_nr" v="0" />
	</node>
	<node id="-78339" lat="69.9746611156" lon="23.3248832554">
		<tag k="name" v="Storbakken" />
		<tag k="ssr:date" v="2016-05-10" />
		<tag k="ssr:stedsnr" v="87168" />
	</node>
	<node id="-78338" lat="69.9661194515" lon="23.3305943491">
		<tag k="name" v="Geitramsveien" />
		<tag k="ssr:date" v="2016-05-10" />
		<tag k="ssr:stedsnr" v="87163" />
	</node>
	<node id="-78337" lat="69.9749000008" lon="23.3577776983">
		<tag k="name" v="Nordahl Griegs vei" />
		<tag k="ssr:date" v="2016-05-10" />
		<tag k="ssr:stedsnr" v="87161" />
	</node>
	<way id="-17408">
		<tag k="name" v="Apanesveien" />
		<tag k="ssr:date" v="2016-05-10" />
		<tag k="ssr:stedsnr" v="450490" />
		<nd ref="-80117" />
		<nd ref="-80118" />
	</way>
	<way id="-18040">
		<tag k="landuse" v="harbour" />
		<tag k="name" v="Kroksletta" />
		<tag k="seamark:type" v="harbour" />
		<tag k="ssr:date" v="2016-05-11" />
		<tag k="ssr:stedsnr" v="869814" />
		<nd ref="-82696" />
		<nd ref="-82697" />
	</way>
	<way id="-18033">
		<tag k="name" v="Bregneveien" />
		<tag k="ssr:date" v="2016-05-11" />
		<tag k="ssr:stedsnr" v="753770" />
		<nd ref="-82597" />
		<nd ref="-82598" />
		<nd ref="-82599" />
	</way>
	<way id="-16623">
		<tag k="highway" v="path" />
		<tag k="name" v="Dihkkegeaidnu" />
		<tag k="name:se" v="Dihkkegeaidnu" />
		<tag k="old_name:se" v="Dikkegæidno" />
		<tag k="ssr:date" v="2016-05-10" />
		<tag k="ssr:stedsnr" v="383062" />
		<nd ref="-76968" />
		<nd ref="-76969" />
	</way>
	<way id="-18158">
		<tag k="name" v="Krokneset" />
		<tag k="ssr:date" v="2016-05-11" />
		<tag k="ssr:stedsnr" v="847385" />
		<nd ref="-83204" />
		<nd ref="-83205" />
	</way>
	<way id="-18154">
		<tag k="name" v="Moreneveien" />
		<tag k="ssr:date" v="2016-05-11" />
		<tag k="ssr:stedsnr" v="815539" />
		<nd ref="-83164" />
		<nd ref="-83165" />
	</way>
	<way id="-18151">
		<tag k="name" v="Ringveien" />
		<tag k="ssr:date" v="2016-05-11" />
		<tag k="ssr:stedsnr" v="815189" />
		<nd ref="-83151" />
		<nd ref="-83152" />
	</way>
	<way id="-16998">
		<tag k="highway" v="path" />
		<tag k="name" v="Eide" />
		<tag k="ssr:date" v="2016-05-10" />
		<tag k="ssr:stedsnr" v="140428" />
		<nd ref="-78513" />
		<nd ref="-78514" />
	</way>
	<way id="-18148">
		<tag k="name" v="Skoleveien" />
		<tag k="ssr:date" v="2016-05-11" />
		<tag k="ssr:stedsnr" v="814227" />
		<nd ref="-83098" />
		<nd ref="-83099" />
	</way>
	<way id="-16733">
		<tag k="name" v="Skillefjordveien" />
		<tag k="ssr:date" v="2016-05-11" />
		<tag k="ssr:stedsnr" v="892980" />
		<nd ref="-77425" />
		<nd ref="-77426" />
		<nd ref="-77427" />
		<nd ref="-77428" />
		<nd ref="-77429" />
	</way>
	<way id="-16604">
		<tag k="aeroway" v="aerodrome" />
		<tag k="alt_name" v="Alta" />
		<tag k="name" v="Alta lufthavn" />
		<tag k="old_name" v="Alta flyplass" />
		<tag k="ssr:date" v="2016-05-10" />
		<tag k="ssr:stedsnr" v="341217" />
		<nd ref="-76894" />
		<nd ref="-76895" />
	</way>
	<way id="-16602">
		<tag k="name" v="Øvreveien" />
		<tag k="ssr:date" v="2016-05-10" />
		<tag k="ssr:stedsnr" v="330193" />
		<nd ref="-76855" />
		<nd ref="-76856" />
	</way>
	<way id="-16729">
		<tag k="name" v="Kvibyveien" />
		<tag k="ssr:date" v="2016-05-10" />
		<tag k="ssr:stedsnr" v="406960" />
		<nd ref="-77394" />
		<nd ref="-77395" />
		<nd ref="-77396" />
		<nd ref="-77397" />
		<nd ref="-77398" />
	</way>
	<way id="-18392">
		<tag k="name" v="Furuåsen" />
		<tag k="ssr:date" v="2016-05-11" />
		<tag k="ssr:stedsnr" v="936493" />
		<nd ref="-84137" />
		<nd ref="-84138" />
	</way>
	<way id="-18391">
		<tag k="name" v="Åsveien" />
		<tag k="ssr:date" v="2016-05-11" />
		<tag k="ssr:stedsnr" v="936177" />
		<nd ref="-84114" />
		<nd ref="-84115" />
	</way>
	<way id="-16598">
		<tag k="name" v="Storengveien" />
		<tag k="ssr:date" v="2016-05-10" />
		<tag k="ssr:stedsnr" v="329119" />
		<nd ref="-76802" />
		<nd ref="-76803" />
	</way>
	<way id="-18387">
		<tag k="name" v="Mardalveien" />
		<tag k="ssr:date" v="2016-05-11" />
		<tag k="ssr:stedsnr" v="936071" />
		<nd ref="-84096" />
		<nd ref="-84097" />
		<nd ref="-84098" />
		<nd ref="-84099" />
	</way>
	<way id="-16849">
		<tag k="name" v="Nyvollveien" />
		<tag k="ssr:date" v="2016-05-10" />
		<tag k="ssr:stedsnr" v="42999" />
		<nd ref="-77954" />
		<nd ref="-77955" />
		<nd ref="-77956" />
		<nd ref="-77957" />
		<nd ref="-77958" />
	</way>
	<way id="-16845">
		<tag k="name" v="Skogstadveien" />
		<tag k="ssr:date" v="2016-05-10" />
		<tag k="ssr:stedsnr" v="26491" />
		<nd ref="-77913" />
		<nd ref="-77914" />
	</way>
	<way id="-16716">
		<tag k="name" v="Amtmannsnesveien" />
		<tag k="ssr:date" v="2016-05-10" />
		<tag k="ssr:stedsnr" v="389224" />
		<nd ref="-77311" />
		<nd ref="-77312" />
	</way>
	<way id="-18251">
		<tag k="layer" v="-1" />
		<tag k="name" v="Storfjelltunnelen" />
		<tag k="ssr:date" v="2016-05-11" />
		<tag k="ssr:stedsnr" v="878394" />
		<tag k="tunnel" v="yes" />
		<nd ref="-83602" />
		<nd ref="-83603" />
		<nd ref="-83604" />
	</way>
	<way id="-16840">
		<tag k="name" v="Baddoveien" />
		<tag k="ssr:date" v="2016-05-10" />
		<tag k="ssr:stedsnr" v="25798" />
		<nd ref="-77862" />
		<nd ref="-77863" />
	</way>
	<way id="-17932">
		<tag k="name" v="Aronnesveien" />
		<tag k="ssr:date" v="2016-05-11" />
		<tag k="ssr:stedsnr" v="693776" />
		<nd ref="-82166" />
		<nd ref="-82167" />
		<nd ref="-82168" />
		<nd ref="-82169" />
	</way>
	<way id="-18246">
		<tag k="name" v="Kongleveien" />
		<tag k="ssr:date" v="2016-05-11" />
		<tag k="ssr:stedsnr" v="875202" />
		<nd ref="-83531" />
		<nd ref="-83532" />
	</way>
	<way id="-16715">
		<tag k="name" v="Isbergveien" />
		<tag k="ssr:date" v="2016-05-10" />
		<tag k="ssr:stedsnr" v="389072" />
		<nd ref="-77304" />
		<nd ref="-77305" />
	</way>
	<way id="-16957">
		<tag k="name" v="Thomasbakken" />
		<tag k="ssr:date" v="2016-05-10" />
		<tag k="ssr:stedsnr" v="94154" />
		<nd ref="-78370" />
		<nd ref="-78371" />
	</way>
	<way id="-16953">
		<tag k="name" v="Holstbakkveien" />
		<tag k="ssr:date" v="2016-05-10" />
		<tag k="ssr:stedsnr" v="87148" />
		<nd ref="-78333" />
		<nd ref="-78334" />
	</way>
	<way id="-16951">
		<tag k="name" v="Bjørn Wirkolas vei" />
		<tag k="ssr:date" v="2016-05-10" />
		<tag k="ssr:stedsnr" v="86606" />
		<nd ref="-78320" />
		<nd ref="-78321" />
	</way>
	<way id="-16599">
		<tag k="name" v="Bjørkeveien" />
		<tag k="ssr:date" v="2016-05-10" />
		<tag k="ssr:stedsnr" v="329127" />
		<nd ref="-76804" />
		<nd ref="-76805" />
	</way>
	<way id="-17072">
		<tag k="name" v="Vargsundet" />
		<tag k="old_name" v="Vargnes Lykt" />
		<tag k="ssr:date" v="2016-05-10" />
		<tag k="ssr:stedsnr" v="151418" />
		<nd ref="-78829" />
		<nd ref="-78830" />
	</way>
	<way id="-17068">
		<tag k="name" v="Raipasveien" />
		<tag k="ssr:date" v="2016-05-10" />
		<tag k="ssr:stedsnr" v="146765" />
		<nd ref="-78750" />
		<nd ref="-78751" />
	</way>
	<way id="-17067">
		<tag k="name" v="Elvestrand" />
		<tag k="ssr:date" v="2016-05-10" />
		<tag k="ssr:stedsnr" v="146727" />
		<nd ref="-78747" />
		<nd ref="-78748" />
	</way>
	<way id="-16600">
		<tag k="name" v="Midtbakkveien" />
		<tag k="ssr:date" v="2016-05-10" />
		<tag k="ssr:stedsnr" v="329201" />
		<nd ref="-76808" />
		<nd ref="-76809" />
	</way>
	<way id="-17818">
		<tag k="name" v="Blåtoppveien" />
		<tag k="ssr:date" v="2016-05-10" />
		<tag k="ssr:stedsnr" v="632765" />
		<nd ref="-81695" />
		<nd ref="-81696" />
	</way>
	<way id="-17178">
		<tag k="name" v="Einegjerdet" />
		<tag k="ssr:date" v="2016-05-10" />
		<tag k="ssr:stedsnr" v="207780" />
		<nd ref="-79234" />
		<nd ref="-79235" />
	</way>
	<way id="-17817">
		<tag k="name" v="Kvekeveien" />
		<tag k="ssr:date" v="2016-05-10" />
		<tag k="ssr:stedsnr" v="632760" />
		<nd ref="-81693" />
		<nd ref="-81694" />
	</way>
	<way id="-17935">
		<tag k="name" v="Smibakken" />
		<tag k="ssr:date" v="2016-05-11" />
		<tag k="ssr:stedsnr" v="694170" />
		<nd ref="-82197" />
		<nd ref="-82198" />
	</way>
	<way id="-17677">
		<tag k="name" v="Bakkeveien" />
		<tag k="ssr:date" v="2016-05-10" />
		<tag k="ssr:stedsnr" v="572586" />
		<nd ref="-81211" />
		<nd ref="-81212" />
	</way>
	<way id="-17548">
		<tag k="name" v="Ishavsveien" />
		<tag k="ssr:date" v="2016-05-10" />
		<tag k="ssr:stedsnr" v="512192" />
		<nd ref="-80711" />
		<nd ref="-80712" />
	</way>
	<way id="-17545">
		<tag k="name" v="Breverudsvingen" />
		<tag k="ssr:date" v="2016-05-10" />
		<tag k="ssr:stedsnr" v="511575" />
		<nd ref="-80685" />
		<nd ref="-80686" />
	</way>
	<way id="-17927">
		<tag k="name" v="Bossekopveien" />
		<tag k="ssr:date" v="2016-05-11" />
		<tag k="ssr:stedsnr" v="693508" />
		<nd ref="-82123" />
		<nd ref="-82124" />
		<nd ref="-82125" />
	</way>
	<way id="-17414">
		<tag k="name" v="Storekorsnesveien" />
		<tag k="ssr:date" v="2016-05-10" />
		<tag k="ssr:stedsnr" v="467996" />
		<nd ref="-80186" />
		<nd ref="-80187" />
		<nd ref="-80188" />
		<nd ref="-80189" />
		<nd ref="-80190" />
	</way>
	<way id="-17155">
		<tag k="alt_name" v="Russehamna" />
		<tag k="landuse" v="harbour" />
		<tag k="name" v="Ruoššahávdna" />
		<tag k="name:se" v="Ruoššahávdna" />
		<tag k="seamark:type" v="harbour" />
		<tag k="ssr:date" v="2016-05-10" />
		<tag k="ssr:stedsnr" v="201879" />
		<nd ref="-79131" />
		<nd ref="-79132" />
	</way>
</osm>
