<?xml version="1.0" encoding="UTF-8"?>
<osm generator="osmapis" version="0.6">
	<node id="-74074" lat="69.7394417421" lon="30.4608451379">
		<tag k="name" v="Kokeriet" />
		<tag k="place" v="locality" />
		<tag k="ssr:date" v="2016-05-10" />
		<tag k="ssr:stedsnr" v="593211" />
	</node>
	<node id="-75865" lat="69.1897556119" lon="29.1620652081">
		<tag k="name" v="Peilen" />
		<tag k="place" v="locality" />
		<tag k="ssr:date" v="2016-05-11" />
		<tag k="ssr:stedsnr" v="868740" />
	</node>
	<node id="-75697" lat="69.4531139659" lon="30.054195296">
		<tag k="amenity" v="place_of_worship" />
		<tag k="denomination" v="lutheran" />
		<tag k="name" v="Svanvik" />
		<tag k="religion" v="christian" />
		<tag k="ssr:date" v="2016-05-11" />
		<tag k="ssr:stedsnr" v="819872" />
	</node>
	<node id="-71375" lat="69.5248278478" lon="29.9786481704">
		<tag k="name" v="Strand Internat" />
		<tag k="ssr:date" v="2016-05-10" />
		<tag k="ssr:stedsnr" v="47586" />
		<tag k="tourism" v="museum" />
	</node>
	<node id="-73197" lat="69.4435417434" lon="30.0621425178">
		<tag k="ssr:gml_id" v="GEOMETRY_3eba4fb9-942c-4356-8466-bcc426ec0f7f" />
		<tag k="ssr:gml_nr" v="1" />
	</node>
	<node id="-73196" lat="69.4604722987" lon="30.0706313981">
		<tag k="ssr:gml_id" v="GEOMETRY_b6d166d3-09fa-4e4d-83d7-dd9612465ecc" />
		<tag k="ssr:gml_nr" v="0" />
	</node>
	<node id="-74059" lat="69.5026417427" lon="30.0633230847">
		<tag k="amenity" v="community_centre" />
		<tag k="name" v="Haukreiret" />
		<tag k="ssr:date" v="2016-05-10" />
		<tag k="ssr:stedsnr" v="592283" />
	</node>
	<node id="-73642" lat="69.6781750773" lon="30.4506145488">
		<tag k="amenity" v="community_centre" />
		<tag k="name" v="Tårnhallen" />
		<tag k="ssr:date" v="2016-05-10" />
		<tag k="ssr:stedsnr" v="532095" />
	</node>
	<node id="-74953" lat="69.6897917175" lon="29.3795930487">
		<tag k="amenity" v="place_of_worship" />
		<tag k="denomination" v="lutheran" />
		<tag k="name" v="St. Georgs kapell" />
		<tag k="religion" v="christian" />
		<tag k="ssr:date" v="2016-05-11" />
		<tag k="ssr:stedsnr" v="746014" />
	</node>
	<node id="-71621" lat="69.7849556431" lon="30.8112559883">
		<tag k="alt_name" v="Kong Oskar II kapell" />
		<tag k="amenity" v="place_of_worship" />
		<tag k="denomination" v="lutheran" />
		<tag k="name" v="Oskar IIs kapell" />
		<tag k="religion" v="christian" />
		<tag k="ssr:date" v="2016-05-10" />
		<tag k="ssr:stedsnr" v="80428" />
	</node>
	<node id="-74819" lat="69.728300065" lon="30.0442565512">
		<tag k="amenity" v="place_of_worship" />
		<tag k="denomination" v="lutheran" />
		<tag k="name" v="Kirkenes" />
		<tag k="religion" v="christian" />
		<tag k="ssr:date" v="2016-05-11" />
		<tag k="ssr:stedsnr" v="695863" />
	</node>
	<node id="-76162" lat="69.7020694919" lon="29.3886013733">
		<tag k="ssr:gml_id" v="GEOMETRY_1131337d-620d-4735-98a1-2cd1ab538574" />
		<tag k="ssr:gml_nr" v="1" />
	</node>
	<node id="-76161" lat="69.7019167145" lon="29.3879124948">
		<tag k="ssr:gml_id" v="GEOMETRY_8720d8c7-871d-48c7-85c6-071d4ad0182d" />
		<tag k="ssr:gml_nr" v="0" />
	</node>
	<way id="-15736">
		<tag k="name" v="Bjørklund gård" />
		<tag k="ssr:date" v="2016-05-10" />
		<tag k="ssr:stedsnr" v="458628" />
		<tag k="tourism" v="museum" />
		<nd ref="-73196" />
		<nd ref="-73197" />
	</way>
	<way id="-16448">
		<tag k="amenity" v="place_of_worship" />
		<tag k="denomination" v="lutheran" />
		<tag k="name" v="Neiden" />
		<tag k="religion" v="christian" />
		<tag k="ssr:date" v="2016-05-11" />
		<tag k="ssr:stedsnr" v="929005" />
		<nd ref="-76161" />
		<nd ref="-76162" />
	</way>
</osm>
