<?xml version="1.0" encoding="UTF-8"?>
<osm generator="osmapis" version="0.6">
	<node id="-14283" lat="64.969680559" lon="13.5473055574">
		<tag k="ssr:gml_id" v="GEOMETRY_14c48d0e-a4ec-4b2d-8b16-ceb4660061d7" />
		<tag k="ssr:gml_nr" v="1" />
	</node>
	<node id="-14282" lat="64.9696833371" lon="13.547305563">
		<tag k="ssr:gml_id" v="GEOMETRY_40f9b6e0-f0f6-48f1-8bb7-8dedeb7fe584" />
		<tag k="ssr:gml_nr" v="0" />
	</node>
	<node id="-14225" lat="65.0087944477" lon="13.635016661">
		<tag k="building" v="cabin" />
		<tag k="name" v="Vollmo" />
		<tag k="name:no" v="Vollmo" />
		<tag k="place" v="isolated_dwelling" />
		<tag k="ssr:date" v="2018-01-09" />
		<tag k="ssr:stedsnr" v="593597" />
	</node>
	<node id="-14210" lat="64.6602194477" lon="13.2450083433">
		<tag k="name" v="Stallvikskogen" />
		<tag k="name:no" v="Stallvikskogen" />
		<tag k="place" v="farm" />
		<tag k="ssr:date" v="2018-01-09" />
		<tag k="ssr:stedsnr" v="829414" />
	</node>
	<node id="-14192" lat="64.8362833337" lon="13.6082888837">
		<tag k="ssr:gml_id" v="GEOMETRY_1ea90634-7393-454f-affb-fdcb40d07b8c" />
		<tag k="ssr:gml_nr" v="3" />
	</node>
	<node id="-14191" lat="64.8363861134" lon="13.608033342">
		<tag k="ssr:gml_id" v="GEOMETRY_b061f60f-1028-490e-972b-3c88af3e85de" />
		<tag k="ssr:gml_nr" v="2" />
	</node>
	<node id="-14190" lat="64.8361916681" lon="13.6081000077">
		<tag k="ssr:gml_id" v="GEOMETRY_b25d32b9-aef6-48fe-9bf0-8aa4d3b22c34" />
		<tag k="ssr:gml_nr" v="1" />
	</node>
	<node id="-14189" lat="64.8361888901" lon="13.6080999963">
		<tag k="ssr:gml_id" v="GEOMETRY_72802edc-fb1a-4d3a-a94e-cfaa802681cc" />
		<tag k="ssr:gml_nr" v="0" />
	</node>
	<node id="-14172" lat="65.0113277798" lon="13.6363694423">
		<tag k="building" v="cabin" />
		<tag k="name" v="Sandvika" />
		<tag k="name:no" v="Sandvika" />
		<tag k="place" v="isolated_dwelling" />
		<tag k="ssr:date" v="2018-01-09" />
		<tag k="ssr:stedsnr" v="290593" />
	</node>
	<node id="-14150" lat="64.7960222188" lon="13.3911138934">
		<tag k="ssr:gml_id" v="GEOMETRY_38f8bdca-a896-46cd-9756-d7ab2ae8ae81" />
		<tag k="ssr:gml_nr" v="2" />
	</node>
	<node id="-14149" lat="64.7960333336" lon="13.3907805573">
		<tag k="ssr:gml_id" v="GEOMETRY_09be9d4d-df05-4311-9aa3-08a1dafb0c6c" />
		<tag k="ssr:gml_nr" v="1" />
	</node>
	<node id="-14148" lat="64.7960305569" lon="13.3907777855">
		<tag k="ssr:gml_id" v="GEOMETRY_b94fb964-5aa4-46c6-913a-0ecbf2a4c4bd" />
		<tag k="ssr:gml_nr" v="0" />
	</node>
	<node id="-14144" lat="64.768841663" lon="13.4278500077">
		<tag k="ssr:gml_id" v="GEOMETRY_610a232d-e349-477b-8ab3-d267238807a6" />
		<tag k="ssr:gml_nr" v="2" />
	</node>
	<node id="-14143" lat="64.7687833304" lon="13.4282416695">
		<tag k="ssr:gml_id" v="GEOMETRY_4bb82e87-bb13-45b0-ac78-2f3200724a08" />
		<tag k="ssr:gml_nr" v="1" />
	</node>
	<node id="-14142" lat="64.7687805544" lon="13.4282388968">
		<tag k="ssr:gml_id" v="GEOMETRY_04ef801f-890f-4eab-b782-722b60b3f873" />
		<tag k="ssr:gml_nr" v="0" />
	</node>
	<node id="-14141" lat="64.7952583312" lon="13.3913472191">
		<tag k="ssr:gml_id" v="GEOMETRY_b0170a58-90fe-4385-826a-148acf889e43" />
		<tag k="ssr:gml_nr" v="1" />
	</node>
	<node id="-14140" lat="64.7936361127" lon="13.3914055564">
		<tag k="ssr:gml_id" v="GEOMETRY_b94f7575-90ec-4140-9c1a-58c3bbb65289" />
		<tag k="ssr:gml_nr" v="0" />
	</node>
	<node id="-14119" lat="64.8876666706" lon="13.6845138962">
		<tag k="name" v="Sandbakken" />
		<tag k="name:no" v="Sandbakken" />
		<tag k="place" v="locality" />
		<tag k="ssr:date" v="2018-01-09" />
		<tag k="ssr:stedsnr" v="167222" />
	</node>
	<node id="-13972" lat="64.8167499976" lon="13.3799555458">
		<tag k="ssr:gml_id" v="GEOMETRY_abc086a1-5a08-49be-a591-fcf8501cbeef" />
		<tag k="ssr:gml_nr" v="2" />
	</node>
	<node id="-13971" lat="64.8167527821" lon="13.3799611053">
		<tag k="ssr:gml_id" v="GEOMETRY_29c82ab5-7f98-446e-89c7-f269e728947e" />
		<tag k="ssr:gml_nr" v="1" />
	</node>
	<node id="-13970" lat="64.8176249995" lon="13.3691222213">
		<tag k="ssr:gml_id" v="GEOMETRY_847b7abf-e567-499e-b3f6-fe9352a693c4" />
		<tag k="ssr:gml_nr" v="0" />
	</node>
	<node id="-13939" lat="64.9843388868" lon="13.5846194389">
		<tag k="ssr:gml_id" v="GEOMETRY_4915b125-2731-4e6c-90cf-9fe779df5843" />
		<tag k="ssr:gml_nr" v="3" />
	</node>
	<node id="-13938" lat="64.9843583306" lon="13.5846277669">
		<tag k="ssr:gml_id" v="GEOMETRY_a9325a93-141f-457a-a0d2-4298668a9091" />
		<tag k="ssr:gml_nr" v="2" />
	</node>
	<node id="-13937" lat="64.9843611129" lon="13.5846305593">
		<tag k="ssr:gml_id" v="GEOMETRY_dd07e54b-5405-4b77-bad4-37d9439515a0" />
		<tag k="ssr:gml_nr" v="1" />
	</node>
	<node id="-13936" lat="64.9843555566" lon="13.5846249971">
		<tag k="ssr:gml_id" v="GEOMETRY_02870741-b41a-4f23-b115-61517530326e" />
		<tag k="ssr:gml_nr" v="0" />
	</node>
	<node id="-15959" lat="64.8914861153" lon="13.6703277687">
		<tag k="name" v="Torpet" />
		<tag k="name:no" v="Torpet" />
		<tag k="place" v="locality" />
		<tag k="ssr:date" v="2018-01-09" />
		<tag k="ssr:stedsnr" v="713212" />
	</node>
	<node id="-15955" lat="64.7373472197" lon="13.3138361017">
		<tag k="name" v="Åsli" />
		<tag k="name:no" v="Åsli" />
		<tag k="place" v="farm" />
		<tag k="ssr:date" v="2018-01-09" />
		<tag k="ssr:stedsnr" v="108102" />
	</node>
	<node id="-13896" lat="64.8566555547" lon="13.5865888932">
		<tag k="ssr:gml_id" v="GEOMETRY_5e51bc3d-a96a-4d83-8725-861916a2f48f" />
		<tag k="ssr:gml_nr" v="2" />
	</node>
	<node id="-13895" lat="64.8567583297" lon="13.5870666612">
		<tag k="ssr:gml_id" v="GEOMETRY_fc741450-2189-4ddb-8c58-2ab3b97bc550" />
		<tag k="ssr:gml_nr" v="1" />
	</node>
	<node id="-13894" lat="64.8567555563" lon="13.5870638838">
		<tag k="ssr:gml_id" v="GEOMETRY_0a0ef1cf-2b45-4d86-b4d1-f0df52269be3" />
		<tag k="ssr:gml_nr" v="0" />
	</node>
	<node id="-13883" lat="64.9800361099" lon="13.5870166659">
		<tag k="fixme" v="consider place=isolated_dwelling if not a farm" />
		<tag k="name" v="Heggvoll" />
		<tag k="name:no" v="Heggvoll" />
		<tag k="place" v="farm" />
		<tag k="ssr:date" v="2018-01-09" />
		<tag k="ssr:stedsnr" v="955146" />
	</node>
	<node id="-13875" lat="64.9853638925" lon="13.5838277888">
		<tag k="ssr:gml_id" v="GEOMETRY_c77b8cd4-563e-4249-8356-4237f98b8235" />
		<tag k="ssr:gml_nr" v="2" />
	</node>
	<node id="-13874" lat="64.9853194432" lon="13.5843500063">
		<tag k="ssr:gml_id" v="GEOMETRY_fb0ee9ab-64f1-4761-9747-61d73a0ecd97" />
		<tag k="ssr:gml_nr" v="1" />
	</node>
	<node id="-13873" lat="64.9853166652" lon="13.5843499967">
		<tag k="ssr:gml_id" v="GEOMETRY_673cbd6a-bcf3-4ef3-aca1-d998004a02b4" />
		<tag k="ssr:gml_nr" v="0" />
	</node>
	<node id="-15911" lat="64.7383798593" lon="13.3163358714">
		<tag k="fixme" v="consider place=farm" />
		<tag k="name" v="Mykkelvika" />
		<tag k="name:no" v="Mykkelvika" />
		<tag k="place" v="hamlet" />
		<tag k="ssr:date" v="2018-01-09" />
		<tag k="ssr:stedsnr" v="136300" />
	</node>
	<node id="-13853" lat="64.976744441" lon="13.5874833262">
		<tag k="ssr:gml_id" v="GEOMETRY_c95051ef-19fe-432d-9e3e-f8ce5e66903c" />
		<tag k="ssr:gml_nr" v="1" />
	</node>
	<node id="-13852" lat="64.976741667" lon="13.587480557">
		<tag k="ssr:gml_id" v="GEOMETRY_0ff75a27-19ed-4c9e-b904-b06c9dff36aa" />
		<tag k="ssr:gml_nr" v="0" />
	</node>
	<node id="-13847" lat="64.7586138905" lon="13.4355027761">
		<tag k="ssr:gml_id" v="GEOMETRY_32a9527c-8542-4a5a-a723-9fd60bc196fa" />
		<tag k="ssr:gml_nr" v="2" />
	</node>
	<node id="-13846" lat="64.7584444477" lon="13.4354527798">
		<tag k="ssr:gml_id" v="GEOMETRY_d18fd40e-79be-440b-8847-ee7babb84c76" />
		<tag k="ssr:gml_nr" v="1" />
	</node>
	<node id="-13845" lat="64.7584416629" lon="13.435450006">
		<tag k="ssr:gml_id" v="GEOMETRY_0a550f12-4df6-4d89-82b2-7c7d46048e41" />
		<tag k="ssr:gml_nr" v="0" />
	</node>
	<node id="-13800" lat="64.9817722262" lon="13.587541661">
		<tag k="ssr:gml_id" v="GEOMETRY_8bc5ac23-e2e6-441e-b629-7da539e5b041" />
		<tag k="ssr:gml_nr" v="3" />
	</node>
	<node id="-13799" lat="64.9772250021" lon="13.5902805538">
		<tag k="ssr:gml_id" v="GEOMETRY_0ee4a6b9-961a-40a9-95f9-578b40120d61" />
		<tag k="ssr:gml_nr" v="2" />
	</node>
	<node id="-13798" lat="64.9820833369" lon="13.586238883">
		<tag k="ssr:gml_id" v="GEOMETRY_ba46f1af-e286-49ef-96c8-9872eb8418a7" />
		<tag k="ssr:gml_nr" v="1" />
	</node>
	<node id="-13797" lat="64.9820805539" lon="13.5862361118">
		<tag k="ssr:gml_id" v="GEOMETRY_44b09102-fd3f-426b-85a0-d03a7503dda2" />
		<tag k="ssr:gml_nr" v="0" />
	</node>
	<node id="-15830" lat="64.6596083307" lon="13.1920499987">
		<tag k="ssr:gml_id" v="GEOMETRY_38ea6841-364b-4895-a3e1-ce184540650d" />
		<tag k="ssr:gml_nr" v="1" />
	</node>
	<node id="-13781" lat="64.7885333319" lon="13.6435472288">
		<tag k="ssr:gml_id" v="GEOMETRY_efbb0fc5-8859-4101-bf85-2c3e15d74892" />
		<tag k="ssr:gml_nr" v="2" />
	</node>
	<node id="-13780" lat="64.7885361133" lon="13.6435500061">
		<tag k="ssr:gml_id" v="GEOMETRY_7eb688b5-7662-4f1c-9e03-3dec52a6d028" />
		<tag k="ssr:gml_nr" v="1" />
	</node>
	<node id="-13779" lat="64.7886861122" lon="13.643258327">
		<tag k="ssr:gml_id" v="GEOMETRY_866043f3-105b-433c-8a22-6d9887617d4c" />
		<tag k="ssr:gml_nr" v="0" />
	</node>
	<node id="-13771" lat="64.8443416714" lon="13.3812388806">
		<tag k="ssr:gml_id" v="GEOMETRY_c5bd3779-3e3e-4286-8f91-dbb181e9e195" />
		<tag k="ssr:gml_nr" v="4" />
	</node>
	<node id="-13770" lat="64.8444222196" lon="13.3825666715">
		<tag k="ssr:gml_id" v="GEOMETRY_b430c2a0-7209-44e6-b2c4-a5f00de89093" />
		<tag k="ssr:gml_nr" v="3" />
	</node>
	<node id="-13769" lat="64.8442722199" lon="13.383700003">
		<tag k="ssr:gml_id" v="GEOMETRY_cd4d4a1d-531e-4c11-ba21-3e4b8c2ee76f" />
		<tag k="ssr:gml_nr" v="2" />
	</node>
	<node id="-13768" lat="64.8442749967" lon="13.3837027792">
		<tag k="ssr:gml_id" v="GEOMETRY_c350a877-41a5-49b6-9494-ba480dfb3921" />
		<tag k="ssr:gml_nr" v="1" />
	</node>
	<node id="-13767" lat="64.8442777734" lon="13.3837055554">
		<tag k="ssr:gml_id" v="GEOMETRY_a522e27c-2f31-4cf4-b0e2-130b224d9be5" />
		<tag k="ssr:gml_nr" v="0" />
	</node>
	<node id="-13736" lat="64.9701805578" lon="13.5516305642">
		<tag k="ssr:gml_id" v="GEOMETRY_0e482164-af09-46e1-95d7-a1e5c94430ac" />
		<tag k="ssr:gml_nr" v="1" />
	</node>
	<node id="-13735" lat="64.970311109" lon="13.5523361063">
		<tag k="ssr:gml_id" v="GEOMETRY_d91f2c05-c066-4133-ae7d-448a78a3bd56" />
		<tag k="ssr:gml_nr" v="0" />
	</node>
	<node id="-15780" lat="64.8832166659" lon="13.5657527691">
		<tag k="ssr:gml_id" v="GEOMETRY_e45de5f1-380b-4d03-81fb-78e8b9b739ca" />
		<tag k="ssr:gml_nr" v="3" />
	</node>
	<node id="-15779" lat="64.8832194487" lon="13.5657555486">
		<tag k="ssr:gml_id" v="GEOMETRY_06466db6-60ef-4467-bb05-44c72302898b" />
		<tag k="ssr:gml_nr" v="2" />
	</node>
	<node id="-15778" lat="64.8832222226" lon="13.5657583266">
		<tag k="ssr:gml_id" v="GEOMETRY_be942192-e602-48fa-a207-1a1778e623bb" />
		<tag k="ssr:gml_nr" v="1" />
	</node>
	<node id="-15777" lat="64.8831194427" lon="13.5659055449">
		<tag k="ssr:gml_id" v="GEOMETRY_30359b5c-901a-43b9-9b25-d9f5d24ac9d8" />
		<tag k="ssr:gml_nr" v="0" />
	</node>
	<node id="-13728" lat="64.6605222259" lon="13.1893638867">
		<tag k="name" v="Stallvika" />
		<tag k="name:no" v="Stallvika" />
		<tag k="place" v="farm" />
		<tag k="ssr:date" v="2018-01-09" />
		<tag k="ssr:stedsnr" v="950412" />
	</node>
	<node id="-15773" lat="64.722780552" lon="13.3455305561">
		<tag k="name" v="Fredøy" />
		<tag k="name:no" v="Fredøy" />
		<tag k="place" v="farm" />
		<tag k="ssr:date" v="2018-01-09" />
		<tag k="ssr:stedsnr" v="439253" />
	</node>
	<node id="-13680" lat="64.7840111097" lon="13.3484444421">
		<tag k="ssr:gml_id" v="GEOMETRY_b8621300-4096-4dab-a5a4-47f494d0e702" />
		<tag k="ssr:gml_nr" v="1" />
	</node>
	<node id="-13679" lat="64.7840083322" lon="13.3484416759">
		<tag k="ssr:gml_id" v="GEOMETRY_37ddbac1-ab98-4b58-9625-ad4cc9face3a" />
		<tag k="ssr:gml_nr" v="0" />
	</node>
	<node id="-15705" lat="64.8696555534" lon="13.7790277776">
		<tag k="building" v="cabin" />
		<tag k="name" v="Sundtangen" />
		<tag k="name:no" v="Sundtangen" />
		<tag k="place" v="isolated_dwelling" />
		<tag k="ssr:date" v="2018-01-09" />
		<tag k="ssr:stedsnr" v="168687" />
	</node>
	<node id="-15697" lat="64.6593694417" lon="13.1795111087">
		<tag k="name" v="Lyshaug" />
		<tag k="name:no" v="Lyshaug" />
		<tag k="place" v="farm" />
		<tag k="ssr:date" v="2018-01-09" />
		<tag k="ssr:stedsnr" v="560308" />
	</node>
	<node id="-15670" lat="64.6605222259" lon="13.1893638867">
		<tag k="fixme" v="multiple name tags, choose one and add the other to alt_name" />
		<tag k="name" v="Stallvika;Øvre Stallvika" />
		<tag k="name:no" v="Stallvika;Øvre Stallvika" />
		<tag k="place" v="farm" />
		<tag k="ssr:date" v="2018-01-09" />
		<tag k="ssr:stedsnr" v="889399" />
	</node>
	<node id="-15669" lat="64.8813527814" lon="13.8511083324">
		<tag k="name" v="Elvemoen" />
		<tag k="name:no" v="Elvemoen" />
		<tag k="place" v="farm" />
		<tag k="ssr:date" v="2018-01-09" />
		<tag k="ssr:stedsnr" v="107220" />
	</node>
	<node id="-15661" lat="64.8885611076" lon="13.5495861049">
		<tag k="ssr:gml_id" v="GEOMETRY_97d702fe-2d24-4471-a818-10e22cf2d9d9" />
		<tag k="ssr:gml_nr" v="2" />
	</node>
	<node id="-15660" lat="64.8885638907" lon="13.5495888834">
		<tag k="ssr:gml_id" v="GEOMETRY_797175f7-13ca-479a-b01d-97a6ae8aff27" />
		<tag k="ssr:gml_nr" v="1" />
	</node>
	<node id="-15659" lat="64.8887166634" lon="13.5494277707">
		<tag k="ssr:gml_id" v="GEOMETRY_d90b5ad2-24b9-4978-97e5-65a3d23af595" />
		<tag k="ssr:gml_nr" v="0" />
	</node>
	<node id="-15657" lat="64.799500004" lon="13.6310749956">
		<tag k="name" v="Nergård" />
		<tag k="name:no" v="Nergård" />
		<tag k="place" v="farm" />
		<tag k="ssr:date" v="2018-01-09" />
		<tag k="ssr:stedsnr" v="229595" />
	</node>
	<node id="-15650" lat="64.6602194477" lon="13.2450083433">
		<tag k="name" v="Stallvik-Reinøya" />
		<tag k="name:no" v="Stallvik-Reinøya" />
		<tag k="place" v="farm" />
		<tag k="ssr:date" v="2018-01-09" />
		<tag k="ssr:stedsnr" v="40446" />
	</node>
	<node id="-15618" lat="64.7484666692" lon="13.3493250104">
		<tag k="ssr:gml_id" v="GEOMETRY_f051ad5f-c6f2-40e3-99ed-ef0a34f465d1" />
		<tag k="ssr:gml_nr" v="2" />
	</node>
	<node id="-15617" lat="64.7484694467" lon="13.349327773">
		<tag k="ssr:gml_id" v="GEOMETRY_861390b6-75c9-4b8c-b0a2-0f768c7ffb01" />
		<tag k="ssr:gml_nr" v="1" />
	</node>
	<node id="-15616" lat="64.7485972261" lon="13.3496388891">
		<tag k="ssr:gml_id" v="GEOMETRY_c23c6610-0420-4df0-acaf-3dd8317d75d1" />
		<tag k="ssr:gml_nr" v="0" />
	</node>
	<node id="-13525" lat="64.9800138931" lon="13.5110805626">
		<tag k="building" v="farm_auxiliary" />
		<tag k="name" v="Geitsetra" />
		<tag k="name:no" v="Geitsetra" />
		<tag k="place" v="locality" />
		<tag k="ssr:date" v="2018-01-09" />
		<tag k="ssr:stedsnr" v="533995" />
	</node>
	<node id="-13542" lat="64.7486055596" lon="13.2370777819">
		<tag k="ssr:gml_id" v="GEOMETRY_277585ba-60d6-4f7e-a086-9d23c89bc053" />
		<tag k="ssr:gml_nr" v="4" />
	</node>
	<node id="-13541" lat="64.7485361074" lon="13.2366583345">
		<tag k="ssr:gml_id" v="GEOMETRY_187f29b7-f98c-45bb-a885-be8f863a8230" />
		<tag k="ssr:gml_nr" v="3" />
	</node>
	<node id="-13540" lat="64.7455555565" lon="13.2366583324">
		<tag k="ssr:gml_id" v="GEOMETRY_39fd2d59-0e62-44cd-be44-648c4367cc34" />
		<tag k="ssr:gml_nr" v="2" />
	</node>
	<node id="-13539" lat="64.7485388865" lon="13.2366611065">
		<tag k="ssr:gml_id" v="GEOMETRY_6e4636fa-15b2-4465-8c8d-bb34cdbaff1f" />
		<tag k="ssr:gml_nr" v="1" />
	</node>
	<node id="-13538" lat="64.7485333372" lon="13.2366555639">
		<tag k="ssr:gml_id" v="GEOMETRY_ffa48d50-0a4e-42ed-a380-e8ef5f32741e" />
		<tag k="ssr:gml_nr" v="0" />
	</node>
	<node id="-13528" lat="64.8873499959" lon="13.6855222187">
		<tag k="name" v="Elvebakken" />
		<tag k="name:no" v="Elvebakken" />
		<tag k="place" v="locality" />
		<tag k="ssr:date" v="2018-01-09" />
		<tag k="ssr:stedsnr" v="531144" />
	</node>
	<node id="-15573" lat="64.8827861119" lon="13.8234194351">
		<tag k="ssr:gml_id" v="GEOMETRY_26d8cb0d-9f81-4bc4-91bf-02c92f154e01" />
		<tag k="ssr:gml_nr" v="1" />
	</node>
	<node id="-15572" lat="64.8827888904" lon="13.8234222201">
		<tag k="ssr:gml_id" v="GEOMETRY_172a60ae-e548-40d2-8404-63c77ec4214d" />
		<tag k="ssr:gml_nr" v="0" />
	</node>
	<node id="-13505" lat="65.009547219" lon="13.6211583324">
		<tag k="ssr:gml_id" v="GEOMETRY_1fd51249-581c-4bd9-98c6-22b9bd704a7e" />
		<tag k="ssr:gml_nr" v="2" />
	</node>
	<node id="-13504" lat="65.0094611142" lon="13.6209166602">
		<tag k="ssr:gml_id" v="GEOMETRY_280cb549-3e4b-4157-9298-c06c61b0c6f4" />
		<tag k="ssr:gml_nr" v="1" />
	</node>
	<node id="-13503" lat="65.0093527745" lon="13.621086113">
		<tag k="ssr:gml_id" v="GEOMETRY_95905d3b-41d1-48fd-bbb6-ea15a815a988" />
		<tag k="ssr:gml_nr" v="0" />
	</node>
	<node id="-15901" lat="64.9381527809" lon="13.5891972122">
		<tag k="name" v="Auster Skånalia" />
		<tag k="name:no" v="Auster Skånalia" />
		<tag k="place" v="farm" />
		<tag k="ssr:date" v="2018-01-09" />
		<tag k="ssr:stedsnr" v="896089" />
	</node>
	<node id="-13483" lat="64.6606004696" lon="13.1892352667">
		<tag k="fixme" v="consider place=farm" />
		<tag k="name" v="Stallvika" />
		<tag k="name:no" v="Stallvika" />
		<tag k="place" v="hamlet" />
		<tag k="ssr:date" v="2018-01-09" />
		<tag k="ssr:stedsnr" v="743349" />
	</node>
	<node id="-13480" lat="64.8037249989" lon="13.7007722122">
		<tag k="ssr:gml_id" v="GEOMETRY_add9ab54-6c95-471d-b422-e84cec390e49" />
		<tag k="ssr:gml_nr" v="3" />
	</node>
	<node id="-13479" lat="64.8032083342" lon="13.7009499923">
		<tag k="ssr:gml_id" v="GEOMETRY_8180f6d8-5449-4ab6-9655-30b42b270e54" />
		<tag k="ssr:gml_nr" v="2" />
	</node>
	<node id="-13478" lat="64.8032111145" lon="13.7009527771">
		<tag k="ssr:gml_id" v="GEOMETRY_c850fd9c-bb1d-4e72-8c15-e4732a5cbf65" />
		<tag k="ssr:gml_nr" v="1" />
	</node>
	<node id="-13477" lat="64.8032055533" lon="13.7009472284">
		<tag k="ssr:gml_id" v="GEOMETRY_a1c6df44-257d-461e-8b89-ff8f24582d29" />
		<tag k="ssr:gml_nr" v="0" />
	</node>
	<node id="-15524" lat="64.8844805599" lon="13.5620166699">
		<tag k="amenity" v="school" />
		<tag k="name" v="Røyrvik barne- og ungdomsskole" />
		<tag k="name:no" v="Røyrvik barne- og ungdomsskole" />
		<tag k="ssr:date" v="2018-01-09" />
		<tag k="ssr:stedsnr" v="345257" />
	</node>
	<node id="-13474" lat="64.6646333355" lon="13.1642749928">
		<tag k="name" v="Nyheim" />
		<tag k="name:no" v="Nyheim" />
		<tag k="place" v="farm" />
		<tag k="ssr:date" v="2018-01-09" />
		<tag k="ssr:stedsnr" v="318320" />
	</node>
	<node id="-15510" lat="64.9806250012" lon="13.5843999977">
		<tag k="name" v="Austernamsvatnet" />
		<tag k="name:no" v="Austernamsvatnet" />
		<tag k="place" v="farm" />
		<tag k="ssr:date" v="2018-01-09" />
		<tag k="ssr:stedsnr" v="652099" />
	</node>
	<node id="-13451" lat="64.9875499959" lon="13.5813138916">
		<tag k="fixme" v="consider place=isolated_dwelling if not a farm" />
		<tag k="name" v="Nordbakk" />
		<tag k="name:no" v="Nordbakk" />
		<tag k="place" v="farm" />
		<tag k="ssr:date" v="2018-01-09" />
		<tag k="ssr:stedsnr" v="774117" />
	</node>
	<node id="-13443" lat="64.8589805536" lon="13.401869444">
		<tag k="ssr:gml_id" v="GEOMETRY_0d3a199b-7a98-4120-90b9-511ec5c90027" />
		<tag k="ssr:gml_nr" v="2" />
	</node>
	<node id="-13442" lat="64.8589833318" lon="13.4018694342">
		<tag k="ssr:gml_id" v="GEOMETRY_b500155d-4ad2-420a-915a-23b839a63e41" />
		<tag k="ssr:gml_nr" v="1" />
	</node>
	<node id="-13441" lat="64.8589861082" lon="13.4018722139">
		<tag k="ssr:gml_id" v="GEOMETRY_fd969f1a-bfda-45e3-a860-c1f84634fdf7" />
		<tag k="ssr:gml_nr" v="0" />
	</node>
	<node id="-15472" lat="64.8313453931" lon="13.6182642301">
		<tag k="fixme" v="consider place=farm" />
		<tag k="name" v="Nyvika" />
		<tag k="place" v="hamlet" />
		<tag k="ssr:date" v="2018-01-09" />
		<tag k="ssr:stedsnr" v="971317" />
	</node>
	<node id="-15470" lat="64.8872236385" lon="13.5594699063">
		<tag k="fixme" v="consider place=farm" />
		<tag k="name" v="Røyrvika" />
		<tag k="place" v="hamlet" />
		<tag k="ssr:date" v="2018-01-09" />
		<tag k="ssr:stedsnr" v="971316" />
	</node>
	<node id="-15468" lat="64.9676777784" lon="13.5523166568">
		<tag k="ssr:gml_id" v="GEOMETRY_c323b812-5e76-4a64-8cfa-157b056a0361" />
		<tag k="ssr:gml_nr" v="2" />
	</node>
	<node id="-15467" lat="64.9681833356" lon="13.5514611152">
		<tag k="ssr:gml_id" v="GEOMETRY_b093eab3-6a36-4cce-a31a-e3b69484fd96" />
		<tag k="ssr:gml_nr" v="1" />
	</node>
	<node id="-15466" lat="64.9681805526" lon="13.551458328">
		<tag k="ssr:gml_id" v="GEOMETRY_e2ce2649-5289-4444-b1d0-018d62f438ed" />
		<tag k="ssr:gml_nr" v="0" />
	</node>
	<node id="-13413" lat="64.7111888915" lon="13.0713388856">
		<tag k="ssr:gml_id" v="GEOMETRY_1dd431b1-b9c1-4f1a-974b-1889e8f9d8a8" />
		<tag k="ssr:gml_nr" v="5" />
	</node>
	<node id="-13412" lat="64.6942611126" lon="13.1535472261">
		<tag k="ssr:gml_id" v="GEOMETRY_ff8675f8-5e99-4d53-b9fa-bf84f091d384" />
		<tag k="ssr:gml_nr" v="4" />
	</node>
	<node id="-13411" lat="64.7473888852" lon="13.1773749946">
		<tag k="ssr:gml_id" v="GEOMETRY_5acd170d-4104-4aaf-af60-e8a92c71959b" />
		<tag k="ssr:gml_nr" v="3" />
	</node>
	<node id="-13410" lat="64.7269027746" lon="13.1794861104">
		<tag k="ssr:gml_id" v="GEOMETRY_0be7e1b7-1347-4c0a-9973-c4ef1da714b8" />
		<tag k="ssr:gml_nr" v="2" />
	</node>
	<node id="-13409" lat="64.7075138848" lon="13.1612944435">
		<tag k="ssr:gml_id" v="GEOMETRY_5a2c1ce2-a409-4c5c-8798-f9dfccdcecef" />
		<tag k="ssr:gml_nr" v="1" />
	</node>
	<node id="-15456" lat="64.7961578782" lon="13.3825347338">
		<tag k="fixme" v="consider place=farm" />
		<tag k="name" v="Tunnsjørørvika" />
		<tag k="place" v="hamlet" />
		<tag k="ssr:date" v="2018-01-09" />
		<tag k="ssr:stedsnr" v="971315" />
	</node>
	<node id="-15430" lat="64.8229388873" lon="13.6174694527">
		<tag k="ssr:gml_id" v="GEOMETRY_f1082037-08de-4bc0-9b8d-bcdcd172d5fb" />
		<tag k="ssr:gml_nr" v="2" />
	</node>
	<node id="-15429" lat="64.8229000038" lon="13.6175388829">
		<tag k="ssr:gml_id" v="GEOMETRY_67d92343-7244-460c-ae25-743e0439cf63" />
		<tag k="ssr:gml_nr" v="1" />
	</node>
	<node id="-15428" lat="64.8229" lon="13.6175361168">
		<tag k="ssr:gml_id" v="GEOMETRY_f4ea7872-1365-45e1-9e23-f9897add24c1" />
		<tag k="ssr:gml_nr" v="0" />
	</node>
	<node id="-13379" lat="64.7877305558" lon="13.6447583232">
		<tag k="ssr:gml_id" v="GEOMETRY_ca3a92d4-70c1-400f-a0e5-c098e16efdae" />
		<tag k="ssr:gml_nr" v="0" />
	</node>
	<node id="-13370" lat="64.6586416641" lon="13.1982805633">
		<tag k="name" v="Stallheim" />
		<tag k="name:no" v="Stallheim" />
		<tag k="place" v="farm" />
		<tag k="ssr:date" v="2018-01-09" />
		<tag k="ssr:stedsnr" v="136358" />
	</node>
	<node id="-13360" lat="64.8868694411" lon="13.9657138856">
		<tag k="ssr:gml_id" v="GEOMETRY_96fd83f8-0253-4e49-9ed2-b96aba784feb" />
		<tag k="ssr:gml_nr" v="2" />
	</node>
	<node id="-13359" lat="64.8869305595" lon="13.9659361158">
		<tag k="ssr:gml_id" v="GEOMETRY_e3a3a8d8-05c6-41a5-adac-fd22dcfe6a6b" />
		<tag k="ssr:gml_nr" v="1" />
	</node>
	<node id="-13358" lat="64.8869333359" lon="13.9659388948">
		<tag k="ssr:gml_id" v="GEOMETRY_0e8047cc-a5ec-496c-9fa5-668dd397ab07" />
		<tag k="ssr:gml_nr" v="0" />
	</node>
	<node id="-15405" lat="64.7312361128" lon="13.255586114">
		<tag k="ssr:gml_id" v="GEOMETRY_7117ddff-edc9-44c8-8d3e-8b59753c56c2" />
		<tag k="ssr:gml_nr" v="2" />
	</node>
	<node id="-15404" lat="64.7312388916" lon="13.2555888861">
		<tag k="ssr:gml_id" v="GEOMETRY_67239dc8-18ac-4e41-a4d5-9d9e650f9189" />
		<tag k="ssr:gml_nr" v="1" />
	</node>
	<node id="-15403" lat="64.7304027806" lon="13.260236109">
		<tag k="ssr:gml_id" v="GEOMETRY_a9e1fef9-e18f-4205-b38d-63442e204e32" />
		<tag k="ssr:gml_nr" v="0" />
	</node>
	<node id="-15393" lat="64.8817860882" lon="13.7444705544">
		<tag k="fixme" v="consider place=farm" />
		<tag k="name" v="Hudningslia" />
		<tag k="place" v="hamlet" />
		<tag k="ssr:date" v="2018-02-20" />
		<tag k="ssr:stedsnr" v="971319" />
	</node>
	<node id="-15392" lat="64.8589888919" lon="13.3997166603">
		<tag k="ssr:gml_id" v="GEOMETRY_7333f977-cbd7-420a-a0ef-de6c2a9491fc" />
		<tag k="ssr:gml_nr" v="4" />
	</node>
	<node id="-15391" lat="64.8595500009" lon="13.4123611137">
		<tag k="ssr:gml_id" v="GEOMETRY_7db61e0c-e388-41dd-9ea6-d032c21e6b30" />
		<tag k="ssr:gml_nr" v="3" />
	</node>
	<node id="-15390" lat="64.8570499998" lon="13.4229638855">
		<tag k="ssr:gml_id" v="GEOMETRY_e73c98cd-c69e-43d0-8e71-869d2fb1f604" />
		<tag k="ssr:gml_nr" v="2" />
	</node>
	<node id="-15389" lat="64.8595499996" lon="13.4123638822">
		<tag k="ssr:gml_id" v="GEOMETRY_043a6344-5f5c-45a3-89df-fa6ccebde924" />
		<tag k="ssr:gml_nr" v="1" />
	</node>
	<node id="-15388" lat="64.8595388917" lon="13.4124027857">
		<tag k="ssr:gml_id" v="GEOMETRY_e0ac3d87-1475-4906-8078-241ed407e081" />
		<tag k="ssr:gml_nr" v="0" />
	</node>
	<node id="-13336" lat="64.8879861123" lon="13.9633583299">
		<tag k="ssr:gml_id" v="GEOMETRY_208cfb3d-5fd3-44f6-aa39-b326a508291c" />
		<tag k="ssr:gml_nr" v="2" />
	</node>
	<node id="-13335" lat="64.8844472249" lon="13.9669444553">
		<tag k="ssr:gml_id" v="GEOMETRY_1473e83c-cc1e-4685-85ee-72c37b71b6e6" />
		<tag k="ssr:gml_nr" v="1" />
	</node>
	<node id="-13334" lat="64.8880027801" lon="13.9633222318">
		<tag k="ssr:gml_id" v="GEOMETRY_5c845e26-a84c-49ea-8b55-b0b0e3c1d8f8" />
		<tag k="ssr:gml_nr" v="0" />
	</node>
	<node id="-15381" lat="64.9696000002" lon="13.7108694521">
		<tag k="building" v="cabin" />
		<tag k="name" v="Gollomsetern" />
		<tag k="name:no" v="Gollomsetern" />
		<tag k="place" v="isolated_dwelling" />
		<tag k="ssr:date" v="2018-01-09" />
		<tag k="ssr:stedsnr" v="594533" />
	</node>
	<node id="-13323" lat="64.7935472213" lon="13.3922972252">
		<tag k="ssr:gml_id" v="GEOMETRY_4969be7a-2d08-4b67-ba38-b2e73ba8f181" />
		<tag k="ssr:gml_nr" v="2" />
	</node>
	<node id="-13322" lat="64.7934111111" lon="13.3923749963">
		<tag k="ssr:gml_id" v="GEOMETRY_7e117a0d-d7e0-4bc9-b998-099f9f034139" />
		<tag k="ssr:gml_nr" v="1" />
	</node>
	<node id="-13321" lat="64.7934138877" lon="13.392377768">
		<tag k="ssr:gml_id" v="GEOMETRY_58e12e73-7627-44e7-ac5e-3e697114f027" />
		<tag k="ssr:gml_nr" v="0" />
	</node>
	<node id="-13306" lat="64.8816305578" lon="13.8595777726">
		<tag k="ssr:gml_id" v="GEOMETRY_95b0ee4b-fbed-4cd0-8529-1510ab10f615" />
		<tag k="ssr:gml_nr" v="3" />
	</node>
	<node id="-13305" lat="64.8817666627" lon="13.8595916749">
		<tag k="ssr:gml_id" v="GEOMETRY_c5e94f2e-eae3-4e21-b715-c57890345d99" />
		<tag k="ssr:gml_nr" v="2" />
	</node>
	<node id="-13304" lat="64.8820361082" lon="13.8580722154">
		<tag k="ssr:gml_id" v="GEOMETRY_3d2e9e28-fb87-4fca-a20e-78dc68333ab0" />
		<tag k="ssr:gml_nr" v="1" />
	</node>
	<node id="-13303" lat="64.8817694411" lon="13.8595944424">
		<tag k="ssr:gml_id" v="GEOMETRY_d5faa921-f7ee-4af4-b9cb-1bf50d66e573" />
		<tag k="ssr:gml_nr" v="0" />
	</node>
	<node id="-13295" lat="64.7233805518" lon="13.343269447">
		<tag k="ssr:gml_id" v="GEOMETRY_7e439e45-94d9-434f-8981-a204606c170e" />
		<tag k="ssr:gml_nr" v="1" />
	</node>
	<node id="-13294" lat="64.7235694446" lon="13.3431361126">
		<tag k="ssr:gml_id" v="GEOMETRY_1b63da99-fab2-4a7e-a564-d897c2053ff9" />
		<tag k="ssr:gml_nr" v="0" />
	</node>
	<node id="-13283" lat="64.8873277813" lon="13.5621999916">
		<tag k="ssr:gml_id" v="GEOMETRY_897de78b-7c92-49a3-8bb5-eea47b641ffb" />
		<tag k="ssr:gml_nr" v="2" />
	</node>
	<node id="-13282" lat="64.8837999973" lon="13.5631083278">
		<tag k="ssr:gml_id" v="GEOMETRY_28534808-5a08-46fd-99be-e9980d5e28a0" />
		<tag k="ssr:gml_nr" v="1" />
	</node>
	<node id="-13281" lat="64.8839444402" lon="13.5625611133">
		<tag k="ssr:gml_id" v="GEOMETRY_117ee9f5-645f-45b8-8bbc-e07775cb3126" />
		<tag k="ssr:gml_nr" v="0" />
	</node>
	<node id="-13272" lat="64.8830138933" lon="13.5140916571">
		<tag k="ssr:gml_id" v="GEOMETRY_4c50fe5e-ebab-41fc-8e94-184a82fa3e85" />
		<tag k="ssr:gml_nr" v="2" />
	</node>
	<node id="-13271" lat="64.8831944485" lon="13.5137944511">
		<tag k="ssr:gml_id" v="GEOMETRY_87993c1c-b274-4c76-91f5-86f015f015ec" />
		<tag k="ssr:gml_nr" v="1" />
	</node>
	<node id="-13270" lat="64.8831916647" lon="13.5137916769">
		<tag k="ssr:gml_id" v="GEOMETRY_eba8a0b8-1f10-4529-8000-69f317d4e5fc" />
		<tag k="ssr:gml_nr" v="0" />
	</node>
	<node id="-15309" lat="64.8022694402" lon="13.6420166747">
		<tag k="ssr:gml_id" v="GEOMETRY_05076d07-ac98-4907-95e9-49b50048f984" />
		<tag k="ssr:gml_nr" v="1" />
	</node>
	<node id="-15308" lat="64.8022666678" lon="13.6420138976">
		<tag k="ssr:gml_id" v="GEOMETRY_497fcc0e-8b0a-4c35-bb7d-b16a9714f893" />
		<tag k="ssr:gml_nr" v="0" />
	</node>
	<node id="-15305" lat="64.8593138915" lon="13.4057722246">
		<tag k="ssr:gml_id" v="GEOMETRY_8493aab0-c408-4938-8d51-51330231fd4e" />
		<tag k="ssr:gml_nr" v="3" />
	</node>
	<node id="-15304" lat="64.8593583353" lon="13.4050583428">
		<tag k="ssr:gml_id" v="GEOMETRY_4a0b2c47-a35d-49a1-9cf5-8b153305d611" />
		<tag k="ssr:gml_nr" v="2" />
	</node>
	<node id="-15303" lat="64.8593611123" lon="13.4050611018">
		<tag k="ssr:gml_id" v="GEOMETRY_3f25535c-ccec-4dfd-8733-7b8d54da0e6c" />
		<tag k="ssr:gml_nr" v="1" />
	</node>
	<node id="-15302" lat="64.8593111139" lon="13.405772213">
		<tag k="ssr:gml_id" v="GEOMETRY_f2bb545d-ec07-48e7-8f69-8e48fa0fe1ee" />
		<tag k="ssr:gml_nr" v="0" />
	</node>
	<node id="-15286" lat="64.9471583373" lon="13.5849999972">
		<tag k="ssr:gml_id" v="GEOMETRY_58ba9744-0604-48f9-867f-d2b0ba7db69e" />
		<tag k="ssr:gml_nr" v="1" />
	</node>
	<node id="-15285" lat="64.9471555586" lon="13.5850000088">
		<tag k="ssr:gml_id" v="GEOMETRY_5f7ad54e-be07-4f41-9f46-7e4cce382260" />
		<tag k="ssr:gml_nr" v="0" />
	</node>
	<node id="-15263" lat="64.9332777745" lon="13.5362694399">
		<tag k="ssr:gml_id" v="GEOMETRY_b7affc44-3e75-4e3d-aa44-cf94ecdbbe69" />
		<tag k="ssr:gml_nr" v="3" />
	</node>
	<node id="-15262" lat="64.933049998" lon="13.5379222189">
		<tag k="ssr:gml_id" v="GEOMETRY_fb9cd670-1625-40f9-88bd-4b305aa69481" />
		<tag k="ssr:gml_nr" v="2" />
	</node>
	<node id="-15261" lat="64.9334055525" lon="13.5380027855">
		<tag k="ssr:gml_id" v="GEOMETRY_fcce5ad4-3d75-4bc2-bf3e-04b7218a6fe6" />
		<tag k="ssr:gml_nr" v="1" />
	</node>
	<node id="-15260" lat="64.9334027782" lon="13.538000005">
		<tag k="ssr:gml_id" v="GEOMETRY_f6416302-3a31-45c1-849d-1dd5a2f8e3bd" />
		<tag k="ssr:gml_nr" v="0" />
	</node>
	<node id="-15253" lat="64.6954194417" lon="13.2869444493">
		<tag k="building" v="cabin" />
		<tag k="name" v="Lasseheimen" />
		<tag k="name:no" v="Lasseheimen" />
		<tag k="place" v="isolated_dwelling" />
		<tag k="ssr:date" v="2018-01-09" />
		<tag k="ssr:stedsnr" v="500577" />
	</node>
	<node id="-13193" lat="64.7412194486" lon="13.2447888839">
		<tag k="ssr:gml_id" v="GEOMETRY_dc191c96-2b42-44df-9b11-4018218e888d" />
		<tag k="ssr:gml_nr" v="2" />
	</node>
	<node id="-13192" lat="64.741222218" lon="13.2447916754">
		<tag k="ssr:gml_id" v="GEOMETRY_497e9559-9c51-4b05-ad74-e93fa7a18133" />
		<tag k="ssr:gml_nr" v="1" />
	</node>
	<node id="-13191" lat="64.741519447" lon="13.244883338">
		<tag k="ssr:gml_id" v="GEOMETRY_76a0474b-b63a-4f78-a49b-84267dc23f7a" />
		<tag k="ssr:gml_nr" v="0" />
	</node>
	<node id="-13189" lat="64.9993250032" lon="13.760252778">
		<tag k="ssr:gml_id" v="GEOMETRY_54758876-fb58-493b-aab6-1edbee33b983" />
		<tag k="ssr:gml_nr" v="1" />
	</node>
	<node id="-13188" lat="64.9984166638" lon="13.7565666668">
		<tag k="ssr:gml_id" v="GEOMETRY_f2317c7c-814a-460f-a138-b774a2e8948c" />
		<tag k="ssr:gml_nr" v="0" />
	</node>
	<node id="-14351" lat="64.8256166682" lon="13.6158027857">
		<tag k="ssr:gml_id" v="GEOMETRY_15c2524f-c9d1-48ca-bdde-ab6534908dfc" />
		<tag k="ssr:gml_nr" v="1" />
	</node>
	<node id="-13177" lat="64.8816305595" lon="13.7615249926">
		<tag k="ssr:gml_id" v="GEOMETRY_a6c965a0-03ca-4c54-a61c-4f9f330c5582" />
		<tag k="ssr:gml_nr" v="1" />
	</node>
	<node id="-13176" lat="64.8816333291" lon="13.7615249974">
		<tag k="ssr:gml_id" v="GEOMETRY_7ba9bb78-8d21-47dd-844e-8e5399032296" />
		<tag k="ssr:gml_nr" v="0" />
	</node>
	<node id="-13175" lat="64.8808027759" lon="13.4720722197">
		<tag k="ssr:gml_id" v="GEOMETRY_e6a71360-c825-4c39-8518-8f903c652297" />
		<tag k="ssr:gml_nr" v="3" />
	</node>
	<node id="-13174" lat="64.8816361099" lon="13.4716555511">
		<tag k="ssr:gml_id" v="GEOMETRY_87cc139f-79a6-443a-819a-c66e84f93f2f" />
		<tag k="ssr:gml_nr" v="2" />
	</node>
	<node id="-13173" lat="64.8807888929" lon="13.472138887">
		<tag k="ssr:gml_id" v="GEOMETRY_6e7e4fdd-02e3-4338-a4ed-a346532b8638" />
		<tag k="ssr:gml_nr" v="1" />
	</node>
	<node id="-13172" lat="64.8807861083" lon="13.4721361173">
		<tag k="ssr:gml_id" v="GEOMETRY_9f6bb5d8-3d00-4dae-972b-6b5c9afd67e8" />
		<tag k="ssr:gml_nr" v="0" />
	</node>
	<node id="-13167" lat="64.8883750029" lon="13.6947499995">
		<tag k="ssr:gml_id" v="GEOMETRY_7dd1f9d6-ed56-49dd-8506-e412860a3e02" />
		<tag k="ssr:gml_nr" v="1" />
	</node>
	<node id="-13166" lat="64.8881277782" lon="13.6953305597">
		<tag k="ssr:gml_id" v="GEOMETRY_6c9dab65-8b09-4f30-a9ea-4cfacd83fd54" />
		<tag k="ssr:gml_nr" v="0" />
	</node>
	<node id="-14476" lat="64.8115861143" lon="13.3725638942">
		<tag k="ssr:gml_id" v="GEOMETRY_cea1d0dc-69f9-4aa8-8b66-5475839399da" />
		<tag k="ssr:gml_nr" v="3" />
	</node>
	<node id="-15172" lat="64.7493944446" lon="13.2341361071">
		<tag k="ssr:gml_id" v="GEOMETRY_3ed56daa-cfea-4985-b0e3-dd8eb5cff097" />
		<tag k="ssr:gml_nr" v="3" />
	</node>
	<node id="-15171" lat="64.749877777" lon="13.2340499973">
		<tag k="ssr:gml_id" v="GEOMETRY_7e3c524c-e49f-44cd-b634-ac80cb188dda" />
		<tag k="ssr:gml_nr" v="2" />
	</node>
	<node id="-15170" lat="64.7498805547" lon="13.2340499908">
		<tag k="ssr:gml_id" v="GEOMETRY_ef68f4b1-3752-4100-a47d-f6854e863e90" />
		<tag k="ssr:gml_nr" v="1" />
	</node>
	<node id="-15169" lat="64.7498749979" lon="13.2340472254">
		<tag k="ssr:gml_id" v="GEOMETRY_36d9c51a-d36a-455f-b9a8-e73c088766d6" />
		<tag k="ssr:gml_nr" v="0" />
	</node>
	<node id="-13118" lat="64.6588027793" lon="13.1931000032">
		<tag k="ssr:gml_id" v="GEOMETRY_fd28998a-685a-4f84-90da-ca1ff7c8517c" />
		<tag k="ssr:gml_nr" v="1" />
	</node>
	<node id="-13117" lat="64.6594416679" lon="13.1795277776">
		<tag k="ssr:gml_id" v="GEOMETRY_29d3e989-3d22-4b46-a69f-dd72a4f76668" />
		<tag k="ssr:gml_nr" v="0" />
	</node>
	<node id="-15156" lat="64.8819999983" lon="13.564530551">
		<tag k="ssr:gml_id" v="GEOMETRY_1fa03b4c-592d-4bfe-8a91-f3e0e04551c5" />
		<tag k="ssr:gml_nr" v="1" />
	</node>
	<node id="-15155" lat="64.8819527781" lon="13.5647611145">
		<tag k="ssr:gml_id" v="GEOMETRY_5fb8e84f-f54c-46d3-8bcd-37f704325ef7" />
		<tag k="ssr:gml_nr" v="0" />
	</node>
	<node id="-15151" lat="64.912508332" lon="13.5749027805">
		<tag k="ssr:gml_id" v="GEOMETRY_d6b0224f-a860-4055-a05b-a51f08468ced" />
		<tag k="ssr:gml_nr" v="2" />
	</node>
	<node id="-15150" lat="64.9122777751" lon="13.5760638797">
		<tag k="ssr:gml_id" v="GEOMETRY_df26c8e6-6219-44f2-978c-b4e328c180c4" />
		<tag k="ssr:gml_nr" v="1" />
	</node>
	<node id="-15149" lat="64.9122750008" lon="13.5760611185">
		<tag k="ssr:gml_id" v="GEOMETRY_aec6723f-8eae-4220-93e1-6fb3a36a326f" />
		<tag k="ssr:gml_nr" v="0" />
	</node>
	<node id="-13098" lat="64.8711916683" lon="13.9860611143">
		<tag k="ssr:gml_id" v="GEOMETRY_7ab16cd2-e1f8-4f04-9b27-ce84ce9b8306" />
		<tag k="ssr:gml_nr" v="1" />
	</node>
	<node id="-13097" lat="64.8711944481" lon="13.9860611018">
		<tag k="ssr:gml_id" v="GEOMETRY_6abf8af4-1dcd-48d9-9caf-664183de16ba" />
		<tag k="ssr:gml_nr" v="0" />
	</node>
	<node id="-15143" lat="64.8909833375" lon="13.6774250019">
		<tag k="ssr:gml_id" v="GEOMETRY_4a4adc4b-e000-46d0-b567-6cde35725b4b" />
		<tag k="ssr:gml_nr" v="3" />
	</node>
	<node id="-15142" lat="64.8912805514" lon="13.6779250061">
		<tag k="ssr:gml_id" v="GEOMETRY_945a08d1-748d-481e-a7af-d34b84838342" />
		<tag k="ssr:gml_nr" v="2" />
	</node>
	<node id="-15141" lat="64.8909861099" lon="13.6774277711">
		<tag k="ssr:gml_id" v="GEOMETRY_982a9ab2-f078-490e-9222-bc9c276e09b2" />
		<tag k="ssr:gml_nr" v="1" />
	</node>
	<node id="-15140" lat="64.8904694484" lon="13.6778694394">
		<tag k="ssr:gml_id" v="GEOMETRY_62fe3557-a42f-425b-97cb-910e14fce8ed" />
		<tag k="ssr:gml_nr" v="0" />
	</node>
	<node id="-15129" lat="64.8704777769" lon="13.8581111038">
		<tag k="name" v="Ornes" />
		<tag k="name:no" v="Ornes" />
		<tag k="place" v="locality" />
		<tag k="ssr:date" v="2018-01-09" />
		<tag k="ssr:stedsnr" v="591217" />
	</node>
	<node id="-13069" lat="64.8804194402" lon="13.8487444534">
		<tag k="name" v="Elvebakken" />
		<tag k="name:no" v="Elvebakken" />
		<tag k="place" v="farm" />
		<tag k="ssr:date" v="2018-01-09" />
		<tag k="ssr:stedsnr" v="45242" />
	</node>
	<node id="-15829" lat="64.6596111102" lon="13.1920527776">
		<tag k="ssr:gml_id" v="GEOMETRY_6a12521a-43a0-4669-aa00-66d3cf470cae" />
		<tag k="ssr:gml_nr" v="0" />
	</node>
	<node id="-13045" lat="64.8824444439" lon="13.8100000032">
		<tag k="name" v="Huddingsvatn Camping" />
		<tag k="name:no" v="Huddingsvatn Camping" />
		<tag k="ssr:date" v="2018-01-09" />
		<tag k="ssr:stedsnr" v="45237" />
		<tag k="tourism" v="camp_site" />
	</node>
	<node id="-13038" lat="64.7941750039" lon="13.636277784">
		<tag k="ssr:gml_id" v="GEOMETRY_4b471382-45d8-4c87-b4df-8b2516d78358" />
		<tag k="ssr:gml_nr" v="2" />
	</node>
	<node id="-13037" lat="64.7941777765" lon="13.6362805597">
		<tag k="ssr:gml_id" v="GEOMETRY_b3d0158b-3560-4c59-acf7-b283e5feb76f" />
		<tag k="ssr:gml_nr" v="1" />
	</node>
	<node id="-13036" lat="64.7941750011" lon="13.6362749998">
		<tag k="ssr:gml_id" v="GEOMETRY_72a8268e-6454-4758-b600-eebdad444f3c" />
		<tag k="ssr:gml_nr" v="0" />
	</node>
	<node id="-14802" lat="64.7708555576" lon="13.5502694441">
		<tag k="ssr:gml_id" v="GEOMETRY_d9ba803d-0c4a-4174-8a6a-c99c247586d8" />
		<tag k="ssr:gml_nr" v="2" />
	</node>
	<node id="-14801" lat="64.7707749956" lon="13.5504000026">
		<tag k="ssr:gml_id" v="GEOMETRY_0fe794b1-f956-42a2-a01c-c56020eed8ac" />
		<tag k="ssr:gml_nr" v="1" />
	</node>
	<node id="-15074" lat="64.8192638859" lon="13.6612111125">
		<tag k="ssr:gml_id" v="GEOMETRY_9b010b62-4d4e-4266-b8fa-f2996e913226" />
		<tag k="ssr:gml_nr" v="2" />
	</node>
	<node id="-15073" lat="64.8184777764" lon="13.6614027805">
		<tag k="ssr:gml_id" v="GEOMETRY_6359790a-70b7-43bb-8a24-011952bcaee1" />
		<tag k="ssr:gml_nr" v="1" />
	</node>
	<node id="-15072" lat="64.8184750044" lon="13.6613999996">
		<tag k="ssr:gml_id" v="GEOMETRY_c2425bbe-46d7-4f4e-9d7b-8076c34e01a8" />
		<tag k="ssr:gml_nr" v="0" />
	</node>
	<node id="-15071" lat="64.8927861111" lon="13.6368222194">
		<tag k="ssr:gml_id" v="GEOMETRY_2d10e9b8-166b-4b45-8823-4f348339f0a2" />
		<tag k="ssr:gml_nr" v="2" />
	</node>
	<node id="-15070" lat="64.892788887" lon="13.636827779">
		<tag k="ssr:gml_id" v="GEOMETRY_9d865cc6-485c-48e6-9c1b-b631535f8aaa" />
		<tag k="ssr:gml_nr" v="1" />
	</node>
	<node id="-15069" lat="64.8927861145" lon="13.6368249927">
		<tag k="ssr:gml_id" v="GEOMETRY_62be1e1b-8c71-4615-9412-210df34057d9" />
		<tag k="ssr:gml_nr" v="0" />
	</node>
	<node id="-15051" lat="64.9353638907" lon="13.4052027837">
		<tag k="ssr:gml_id" v="GEOMETRY_cd5b2b05-76d5-4cac-b665-f702fde09085" />
		<tag k="ssr:gml_nr" v="1" />
	</node>
	<node id="-15050" lat="64.9353611144" lon="13.4051999955">
		<tag k="ssr:gml_id" v="GEOMETRY_24420932-32ab-4826-ba80-d73cb3145f59" />
		<tag k="ssr:gml_nr" v="0" />
	</node>
	<node id="-15021" lat="64.7065169514" lon="13.1011329993">
		<tag k="fixme" v="consider place=farm" />
		<tag k="name" v="Småvatna" />
		<tag k="name:no" v="Småvatna" />
		<tag k="place" v="hamlet" />
		<tag k="ssr:date" v="2018-01-09" />
		<tag k="ssr:stedsnr" v="925388" />
	</node>
	<node id="-12972" lat="64.7666000019" lon="13.4319305456">
		<tag k="ssr:gml_id" v="GEOMETRY_2ac4b615-4e77-42e2-aea7-c9222837a526" />
		<tag k="ssr:gml_nr" v="1" />
	</node>
	<node id="-12971" lat="64.7666000035" lon="13.4319277867">
		<tag k="ssr:gml_id" v="GEOMETRY_4fdc8fcd-3734-4c7b-a260-a125cfef90b6" />
		<tag k="ssr:gml_nr" v="0" />
	</node>
	<node id="-15015" lat="64.7147611094" lon="13.219199997">
		<tag k="ssr:gml_id" v="GEOMETRY_53417c80-24dc-4def-951c-132ae4a69574" />
		<tag k="ssr:gml_nr" v="1" />
	</node>
	<node id="-15014" lat="64.7150861099" lon="13.2193333374">
		<tag k="ssr:gml_id" v="GEOMETRY_68241d2f-88dc-4e64-9c0b-c694b803273b" />
		<tag k="ssr:gml_nr" v="0" />
	</node>
	<node id="-14989" lat="64.8884666653" lon="13.6035333313">
		<tag k="ssr:gml_id" v="GEOMETRY_8084eca9-4a4b-4607-b5ce-cab14e812300" />
		<tag k="ssr:gml_nr" v="1" />
	</node>
	<node id="-14988" lat="64.8884638921" lon="13.6035305489">
		<tag k="ssr:gml_id" v="GEOMETRY_f1d37e22-2190-42fd-a45b-f59a8f246f4c" />
		<tag k="ssr:gml_nr" v="0" />
	</node>
	<node id="-14781" lat="64.8039138908" lon="13.3735055659">
		<tag k="ssr:gml_id" v="GEOMETRY_6bf39e86-8f02-40c7-9696-e19a1d974d65" />
		<tag k="ssr:gml_nr" v="1" />
	</node>
	<node id="-14943" lat="65.0117555581" lon="13.5468805584">
		<tag k="fixme" v="consider place=isolated_dwelling if not a farm" />
		<tag k="name" v="Kleiva" />
		<tag k="name:no" v="Kleiva" />
		<tag k="place" v="farm" />
		<tag k="ssr:date" v="2018-01-09" />
		<tag k="ssr:stedsnr" v="715977" />
	</node>
	<node id="-12889" lat="64.8902333368" lon="13.548750011">
		<tag k="name" v="Fagerli" />
		<tag k="name:no" v="Fagerli" />
		<tag k="place" v="farm" />
		<tag k="ssr:date" v="2018-01-09" />
		<tag k="ssr:stedsnr" v="227186" />
	</node>
	<node id="-12884" lat="64.737258335" lon="13.2421083251">
		<tag k="ssr:gml_id" v="GEOMETRY_810a8d3c-8994-4bc3-b9ac-c98ba8460a62" />
		<tag k="ssr:gml_nr" v="1" />
	</node>
	<node id="-12883" lat="64.7377499999" lon="13.2479027791">
		<tag k="ssr:gml_id" v="GEOMETRY_0fd920d4-d8be-49e6-b9d1-120394fd5c8b" />
		<tag k="ssr:gml_nr" v="0" />
	</node>
	<node id="-12874" lat="64.8813415411" lon="13.7455058347">
		<tag k="name" v="Vestgård" />
		<tag k="name:no" v="Vestgård" />
		<tag k="place" v="farm" />
		<tag k="ssr:date" v="2018-02-20" />
		<tag k="ssr:stedsnr" v="135241" />
	</node>
	<node id="-13408" lat="64.6921666659" lon="13.1980027784">
		<tag k="ssr:gml_id" v="GEOMETRY_885b55ba-37f5-4dcf-960e-37899e5418cf" />
		<tag k="ssr:gml_nr" v="0" />
	</node>
	<node id="-14910" lat="65.0267749969" lon="13.5366027845">
		<tag k="fixme" v="consider place=isolated_dwelling if not a farm" />
		<tag k="name" v="Solheim" />
		<tag k="name:no" v="Solheim" />
		<tag k="place" v="farm" />
		<tag k="ssr:date" v="2018-01-09" />
		<tag k="ssr:stedsnr" v="958955" />
	</node>
	<node id="-12851" lat="64.8844694433" lon="13.8891111075">
		<tag k="ssr:gml_id" v="GEOMETRY_58b462cf-d851-4e82-a9a4-f53cceb6dade" />
		<tag k="ssr:gml_nr" v="2" />
	</node>
	<node id="-12850" lat="64.8845250039" lon="13.8907138807">
		<tag k="ssr:gml_id" v="GEOMETRY_5f9f95be-0d95-4289-bb88-6f53f608e343" />
		<tag k="ssr:gml_nr" v="1" />
	</node>
	<node id="-12849" lat="64.8845277811" lon="13.8907166728">
		<tag k="ssr:gml_id" v="GEOMETRY_769e77a2-fee7-4109-a4e6-6d8f699d9e48" />
		<tag k="ssr:gml_nr" v="0" />
	</node>
	<node id="-14889" lat="64.9294750016" lon="13.5272805617">
		<tag k="building" v="cabin" />
		<tag k="name" v="Berntbua" />
		<tag k="name:no" v="Berntbua" />
		<tag k="place" v="isolated_dwelling" />
		<tag k="ssr:date" v="2018-01-09" />
		<tag k="ssr:stedsnr" v="713094" />
	</node>
	<node id="-12839" lat="64.8811750029" lon="13.7334138803">
		<tag k="ssr:gml_id" v="GEOMETRY_a0aecaf6-7467-4f5c-b407-58c9786eb56d" />
		<tag k="ssr:gml_nr" v="2" />
	</node>
	<node id="-12838" lat="64.8811777735" lon="13.7334166753">
		<tag k="ssr:gml_id" v="GEOMETRY_a12ff819-307e-4d23-ba1f-5fde39a38ef1" />
		<tag k="ssr:gml_nr" v="1" />
	</node>
	<node id="-12837" lat="64.8809611094" lon="13.7329999989">
		<tag k="ssr:gml_id" v="GEOMETRY_1a130d79-c17d-4b82-bde0-fbf33a67d365" />
		<tag k="ssr:gml_nr" v="0" />
	</node>
	<node id="-14865" lat="64.8841472255" lon="13.7038277718">
		<tag k="ssr:gml_id" v="GEOMETRY_52fa7acc-60d3-4544-bf2a-55424a270dff" />
		<tag k="ssr:gml_nr" v="2" />
	</node>
	<node id="-14864" lat="64.8841499966" lon="13.7038305641">
		<tag k="ssr:gml_id" v="GEOMETRY_228831c8-3a50-46aa-ad1e-0ae38c2584b2" />
		<tag k="ssr:gml_nr" v="1" />
	</node>
	<node id="-14863" lat="64.8842194459" lon="13.7038194422">
		<tag k="ssr:gml_id" v="GEOMETRY_98d66690-c3fe-42a6-9f05-c0a38505ade3" />
		<tag k="ssr:gml_nr" v="0" />
	</node>
	<node id="-12802" lat="64.9064250026" lon="13.5001500098">
		<tag k="ssr:gml_id" v="GEOMETRY_de0b1492-d6ca-4721-a7e9-e4fa5b2a1746" />
		<tag k="ssr:gml_nr" v="3" />
	</node>
	<node id="-12801" lat="64.9063666676" lon="13.5005250097">
		<tag k="ssr:gml_id" v="GEOMETRY_7d870178-8257-4fe1-a5cd-daef8144af22" />
		<tag k="ssr:gml_nr" v="2" />
	</node>
	<node id="-12800" lat="64.9063694457" lon="13.5005250103">
		<tag k="ssr:gml_id" v="GEOMETRY_2e1917ae-a5b9-4836-a2a6-11675112e459" />
		<tag k="ssr:gml_nr" v="1" />
	</node>
	<node id="-12799" lat="64.9063638895" lon="13.5005250092">
		<tag k="ssr:gml_id" v="GEOMETRY_dd622136-240a-4b0b-b90f-d19ab4c04f97" />
		<tag k="ssr:gml_nr" v="0" />
	</node>
	<node id="-12788" lat="64.8927333302" lon="13.6042444514">
		<tag k="ssr:gml_id" v="GEOMETRY_d9e88253-d1a4-4627-8bbc-60950d203ee0" />
		<tag k="ssr:gml_nr" v="3" />
	</node>
	<node id="-12787" lat="64.8927333341" lon="13.6042472247">
		<tag k="ssr:gml_id" v="GEOMETRY_db635de0-d1ef-428a-9994-2a1273b36bf7" />
		<tag k="ssr:gml_nr" v="2" />
	</node>
	<node id="-12786" lat="64.8927361128" lon="13.6042472149">
		<tag k="ssr:gml_id" v="GEOMETRY_c3bf6a52-7a2d-4416-b32d-faeba69e5af9" />
		<tag k="ssr:gml_nr" v="1" />
	</node>
	<node id="-12785" lat="64.8924249964" lon="13.6040916699">
		<tag k="ssr:gml_id" v="GEOMETRY_a0d2d535-9091-4530-87fc-2e9f04fe228d" />
		<tag k="ssr:gml_nr" v="0" />
	</node>
	<node id="-12783" lat="64.8839916643" lon="13.8144750081">
		<tag k="ssr:gml_id" v="GEOMETRY_ccc9c0e5-0cd5-49d8-8707-6003878c26b1" />
		<tag k="ssr:gml_nr" v="3" />
	</node>
	<node id="-12782" lat="64.8825027776" lon="13.8155583339">
		<tag k="ssr:gml_id" v="GEOMETRY_b9f1715c-c0a6-42c9-b1bf-ff48bf33c8f1" />
		<tag k="ssr:gml_nr" v="2" />
	</node>
	<node id="-12781" lat="64.8839944436" lon="13.8144749989">
		<tag k="ssr:gml_id" v="GEOMETRY_e591e7b0-f89d-49c8-b8e7-b2095e9adbfa" />
		<tag k="ssr:gml_nr" v="1" />
	</node>
	<node id="-12780" lat="64.8839527774" lon="13.8139166695">
		<tag k="ssr:gml_id" v="GEOMETRY_806a734b-f2e0-4641-ad13-3bf3185e0530" />
		<tag k="ssr:gml_nr" v="0" />
	</node>
	<node id="-14823" lat="64.851394444" lon="13.5969944497">
		<tag k="name" v="Seterhaug" />
		<tag k="name:no" v="Seterhaug" />
		<tag k="place" v="farm" />
		<tag k="ssr:date" v="2018-01-09" />
		<tag k="ssr:stedsnr" v="682436" />
	</node>
	<node id="-12774" lat="64.8817638919" lon="13.5164000062">
		<tag k="name" v="Plassbakken" />
		<tag k="name:no" v="Plassbakken" />
		<tag k="place" v="farm" />
		<tag k="ssr:date" v="2018-01-09" />
		<tag k="ssr:stedsnr" v="167085" />
	</node>
	<node id="-14819" lat="64.7919055563" lon="13.4251000086">
		<tag k="name" v="Nybua" />
		<tag k="name:no" v="Nybua" />
		<tag k="place" v="locality" />
		<tag k="ssr:date" v="2018-01-09" />
		<tag k="ssr:stedsnr" v="47121" />
	</node>
	<node id="-12766" lat="64.9425555531" lon="13.58253056">
		<tag k="ssr:gml_id" v="GEOMETRY_7704f9c4-a24c-4464-9657-b2e5c02044de" />
		<tag k="ssr:gml_nr" v="2" />
	</node>
	<node id="-12765" lat="64.9425055511" lon="13.5826777839">
		<tag k="ssr:gml_id" v="GEOMETRY_5398318e-399a-4c22-baa1-cfe6bb2f5efc" />
		<tag k="ssr:gml_nr" v="1" />
	</node>
	<node id="-12764" lat="64.9425638898" lon="13.5824972129">
		<tag k="ssr:gml_id" v="GEOMETRY_ce3b08b0-d265-4ba3-9bf7-698954bae29f" />
		<tag k="ssr:gml_nr" v="0" />
	</node>
	<node id="-12754" lat="64.885477782" lon="13.515216673">
		<tag k="ssr:gml_id" v="GEOMETRY_5c9ad278-0144-4c66-82ff-b01df0ff2c5a" />
		<tag k="ssr:gml_nr" v="1" />
	</node>
	<node id="-12753" lat="64.8854805511" lon="13.5152166734">
		<tag k="ssr:gml_id" v="GEOMETRY_8158afc8-d151-4ffe-ac17-15464145b029" />
		<tag k="ssr:gml_nr" v="0" />
	</node>
	<node id="-12752" lat="64.8697666651" lon="13.8564277688">
		<tag k="ssr:gml_id" v="GEOMETRY_b4227b7b-9302-49c4-bd91-69ace5a1385b" />
		<tag k="ssr:gml_nr" v="3" />
	</node>
	<node id="-12751" lat="64.8696888899" lon="13.8568555597">
		<tag k="ssr:gml_id" v="GEOMETRY_3526f8dd-036e-41e1-b08a-77906ad7dbac" />
		<tag k="ssr:gml_nr" v="2" />
	</node>
	<node id="-12750" lat="64.8696916624" lon="13.857333331">
		<tag k="ssr:gml_id" v="GEOMETRY_4da1334b-8bee-40b5-9e53-557e1b4b52e9" />
		<tag k="ssr:gml_nr" v="1" />
	</node>
	<node id="-12749" lat="64.8696916684" lon="13.8568583257">
		<tag k="ssr:gml_id" v="GEOMETRY_6cf0ad32-084f-49c8-8224-9776a39c9d8b" />
		<tag k="ssr:gml_nr" v="0" />
	</node>
	<node id="-12427" lat="64.7523111116" lon="13.3586444501">
		<tag k="ssr:gml_id" v="GEOMETRY_12f8652f-b661-47c1-9626-3e50d1b27049" />
		<tag k="ssr:gml_nr" v="0" />
	</node>
	<node id="-12736" lat="65.052094448" lon="13.8172750007">
		<tag k="ssr:gml_id" v="GEOMETRY_e5be8e82-289b-4f71-9e56-48f1967e1f9f" />
		<tag k="ssr:gml_nr" v="3" />
	</node>
	<node id="-12735" lat="65.0521027785" lon="13.8172999973">
		<tag k="ssr:gml_id" v="GEOMETRY_b16eb127-da95-4a84-8c06-8978519783ae" />
		<tag k="ssr:gml_nr" v="2" />
	</node>
	<node id="-12734" lat="65.0520916688" lon="13.8172750089">
		<tag k="ssr:gml_id" v="GEOMETRY_ef37909b-ec62-48d1-87c0-15d3d9ebb39d" />
		<tag k="ssr:gml_nr" v="1" />
	</node>
	<node id="-12733" lat="65.0520999994" lon="13.8172972158">
		<tag k="ssr:gml_id" v="GEOMETRY_85bc5423-b191-475c-92c2-abd65b9dd1de" />
		<tag k="ssr:gml_nr" v="0" />
	</node>
	<node id="-14780" lat="64.8039111145" lon="13.373502774">
		<tag k="ssr:gml_id" v="GEOMETRY_1ac7a40a-5e25-4898-96c7-861c45d944a8" />
		<tag k="ssr:gml_nr" v="0" />
	</node>
	<node id="-14769" lat="64.8899472213" lon="13.6321777845">
		<tag k="name" v="Fossbakk" />
		<tag k="name:no" v="Fossbakk" />
		<tag k="place" v="locality" />
		<tag k="ssr:date" v="2018-01-09" />
		<tag k="ssr:stedsnr" v="228213" />
	</node>
	<node id="-12705" lat="64.8284916649" lon="13.6141166708">
		<tag k="ssr:gml_id" v="GEOMETRY_96f55e8b-8b0b-40dd-bed9-ece594d53fbe" />
		<tag k="ssr:gml_nr" v="3" />
	</node>
	<node id="-12704" lat="64.8283805597" lon="13.6143833364">
		<tag k="ssr:gml_id" v="GEOMETRY_bf8ab973-2fc2-49df-a7d9-e9afb708411c" />
		<tag k="ssr:gml_nr" v="2" />
	</node>
	<node id="-12703" lat="64.8283833327" lon="13.6143861135">
		<tag k="ssr:gml_id" v="GEOMETRY_152d12e8-0572-4b62-8712-46677f12deee" />
		<tag k="ssr:gml_nr" v="1" />
	</node>
	<node id="-12702" lat="64.8283777778" lon="13.6143805577">
		<tag k="ssr:gml_id" v="GEOMETRY_ae812ad9-08cc-4ab7-b2f8-d3e3b7c7448b" />
		<tag k="ssr:gml_nr" v="0" />
	</node>
	<node id="-13380" lat="64.7877333365" lon="13.6447611216">
		<tag k="ssr:gml_id" v="GEOMETRY_7942f447-4c78-4cb7-8819-f286f0dbab08" />
		<tag k="ssr:gml_nr" v="1" />
	</node>
	<node id="-14698" lat="64.7996527821" lon="13.6211888853">
		<tag k="ssr:gml_id" v="GEOMETRY_71bf43e0-20f1-40a5-9a75-8217668f58d3" />
		<tag k="ssr:gml_nr" v="5" />
	</node>
	<node id="-14697" lat="64.7996861105" lon="13.6213138796">
		<tag k="ssr:gml_id" v="GEOMETRY_69b1cc16-d029-420a-ba0a-200fbc94814f" />
		<tag k="ssr:gml_nr" v="4" />
	</node>
	<node id="-14696" lat="64.7991916683" lon="13.6209388918">
		<tag k="ssr:gml_id" v="GEOMETRY_19da8af9-da63-4597-916b-59bff6c54a76" />
		<tag k="ssr:gml_nr" v="3" />
	</node>
	<node id="-14695" lat="64.7991944411" lon="13.6209416665">
		<tag k="ssr:gml_id" v="GEOMETRY_08b0ac38-f205-4dc4-98fb-730887b0fc54" />
		<tag k="ssr:gml_nr" v="2" />
	</node>
	<node id="-14694" lat="64.7972166638" lon="13.6177694432">
		<tag k="ssr:gml_id" v="GEOMETRY_2be023a3-d2a8-4d91-9217-858e0e9018b6" />
		<tag k="ssr:gml_nr" v="1" />
	</node>
	<node id="-14693" lat="64.7991972229" lon="13.6209444427">
		<tag k="ssr:gml_id" v="GEOMETRY_fd30df15-e579-436a-b36d-3e2f99ec79cc" />
		<tag k="ssr:gml_nr" v="0" />
	</node>
	<node id="-14683" lat="64.9600555594" lon="13.5395361222">
		<tag k="landuse" v="residential" />
		<tag k="name" v="Nybekkvika hyttefelt" />
		<tag k="name:no" v="Nybekkvika hyttefelt" />
		<tag k="place" v="neighbourhood" />
		<tag k="ssr:date" v="2018-01-09" />
		<tag k="ssr:stedsnr" v="907714" />
	</node>
	<node id="-12634" lat="65.0088333345" lon="13.6032888948">
		<tag k="ssr:gml_id" v="GEOMETRY_1fa8c9c2-a9c3-46b1-a1ad-56a282ac27fc" />
		<tag k="ssr:gml_nr" v="0" />
	</node>
	<node id="-14669" lat="64.8533861109" lon="13.4064499939">
		<tag k="ssr:gml_id" v="GEOMETRY_0e716e33-de0a-4fa3-a0a6-5b70b2020664" />
		<tag k="ssr:gml_nr" v="3" />
	</node>
	<node id="-14668" lat="64.852799997" lon="13.4068138969">
		<tag k="ssr:gml_id" v="GEOMETRY_ee8ea9b5-9507-4d31-bb6f-79b6a8a89cbc" />
		<tag k="ssr:gml_nr" v="2" />
	</node>
	<node id="-14667" lat="64.8527999957" lon="13.4068166647">
		<tag k="ssr:gml_id" v="GEOMETRY_388b7444-a9d0-43a5-a4c1-f5725ba2d3db" />
		<tag k="ssr:gml_nr" v="1" />
	</node>
	<node id="-14666" lat="64.8533833327" lon="13.4064500032">
		<tag k="ssr:gml_id" v="GEOMETRY_263cc7b6-9290-4158-aba1-2da90d956b8d" />
		<tag k="ssr:gml_nr" v="0" />
	</node>
	<node id="-12611" lat="64.8816222259" lon="13.7615055495">
		<tag k="name" v="Huddingsvatn" />
		<tag k="name:no" v="Huddingsvatn" />
		<tag k="place" v="farm" />
		<tag k="ssr:date" v="2018-01-09" />
		<tag k="ssr:stedsnr" v="348212" />
	</node>
	<node id="-14653" lat="64.8810111121" lon="13.7099361094">
		<tag k="name" v="Buheim" />
		<tag k="name:no" v="Buheim" />
		<tag k="place" v="farm" />
		<tag k="ssr:date" v="2018-01-09" />
		<tag k="ssr:stedsnr" v="470170" />
	</node>
	<node id="-14639" lat="65.024363886" lon="13.5391861193">
		<tag k="fixme" v="consider place=isolated_dwelling if not a farm" />
		<tag k="name" v="Vollheim" />
		<tag k="name:no" v="Vollheim" />
		<tag k="place" v="farm" />
		<tag k="ssr:date" v="2018-01-09" />
		<tag k="ssr:stedsnr" v="109930" />
	</node>
	<node id="-12550" lat="64.8821250016" lon="13.559772215">
		<tag k="ssr:gml_id" v="GEOMETRY_412d5c6b-56d3-432f-adba-7c2cf1ba15f2" />
		<tag k="ssr:gml_nr" v="2" />
	</node>
	<node id="-12549" lat="64.8821277756" lon="13.5597749923">
		<tag k="ssr:gml_id" v="GEOMETRY_d2ec1ecc-4045-48f5-8795-ef9bfe9c16ca" />
		<tag k="ssr:gml_nr" v="1" />
	</node>
	<node id="-12548" lat="64.8820027788" lon="13.5641611145">
		<tag k="ssr:gml_id" v="GEOMETRY_dc335e1b-4692-429d-97b0-5b0b6d75333b" />
		<tag k="ssr:gml_nr" v="0" />
	</node>
	<node id="-12547" lat="64.8805861153" lon="13.8517666573">
		<tag k="name" v="Elveseter" />
		<tag k="name:no" v="Elveseter" />
		<tag k="place" v="farm" />
		<tag k="ssr:date" v="2018-01-09" />
		<tag k="ssr:stedsnr" v="713235" />
	</node>
	<node id="-14586" lat="64.8307777784" lon="13.6114111094">
		<tag k="ssr:gml_id" v="GEOMETRY_daab980d-4848-4b61-a4c7-307890e36b77" />
		<tag k="ssr:gml_nr" v="3" />
	</node>
	<node id="-14585" lat="64.8306666663" lon="13.6116749981">
		<tag k="ssr:gml_id" v="GEOMETRY_1e9f095a-c074-4045-8a55-b880bf3f17d5" />
		<tag k="ssr:gml_nr" v="2" />
	</node>
	<node id="-14584" lat="64.8306694443" lon="13.6116750098">
		<tag k="ssr:gml_id" v="GEOMETRY_17b9a5fd-fde1-40fa-94a0-c288b843ba9c" />
		<tag k="ssr:gml_nr" v="1" />
	</node>
	<node id="-14583" lat="64.8306611146" lon="13.6116722302">
		<tag k="ssr:gml_id" v="GEOMETRY_dd72d993-018f-4b38-8c00-a9bc868fa3bc" />
		<tag k="ssr:gml_nr" v="0" />
	</node>
	<node id="-12523" lat="64.9240138926" lon="13.6007416682">
		<tag k="ssr:gml_id" v="GEOMETRY_6be15a54-b137-40a3-909e-4e804d47accd" />
		<tag k="ssr:gml_nr" v="1" />
	</node>
	<node id="-12522" lat="64.9240111105" lon="13.6007388807">
		<tag k="ssr:gml_id" v="GEOMETRY_94c9c873-c504-40b0-9482-2c4381069006" />
		<tag k="ssr:gml_nr" v="0" />
	</node>
	<node id="-12514" lat="65.0037388855" lon="13.8258750005">
		<tag k="name" v="Gammelgården" />
		<tag k="name:no" v="Gammelgården" />
		<tag k="place" v="locality" />
		<tag k="ssr:date" v="2018-01-09" />
		<tag k="ssr:stedsnr" v="653442" />
	</node>
	<node id="-14532" lat="64.982736112" lon="13.5839194349">
		<tag k="name" v="Vesternamsvatnet" />
		<tag k="name:no" v="Vesternamsvatnet" />
		<tag k="place" v="farm" />
		<tag k="ssr:date" v="2018-01-09" />
		<tag k="ssr:stedsnr" v="651160" />
	</node>
	<node id="-12479" lat="64.6621972182" lon="13.1946555647">
		<tag k="name" v="Berg" />
		<tag k="name:no" v="Berg" />
		<tag k="place" v="farm" />
		<tag k="ssr:date" v="2018-01-09" />
		<tag k="ssr:stedsnr" v="121471" />
	</node>
	<node id="-14519" lat="64.8880722226" lon="13.6784000005">
		<tag k="ssr:gml_id" v="GEOMETRY_52a0b1c3-0854-473a-a62d-276987a51f5b" />
		<tag k="ssr:gml_nr" v="1" />
	</node>
	<node id="-14518" lat="64.8880250006" lon="13.6783750044">
		<tag k="ssr:gml_id" v="GEOMETRY_74f7b716-d1a6-424d-b8b6-05623f6b9ba8" />
		<tag k="ssr:gml_nr" v="0" />
	</node>
	<node id="-12467" lat="64.6770972203" lon="13.3158722205">
		<tag k="ssr:gml_id" v="GEOMETRY_5e21dd44-fad5-46b4-b039-860bee4858da" />
		<tag k="ssr:gml_nr" v="2" />
	</node>
	<node id="-12466" lat="64.6771194421" lon="13.3162749908">
		<tag k="ssr:gml_id" v="GEOMETRY_c2491ee1-28e8-4ce0-ad4b-149aef4a3269" />
		<tag k="ssr:gml_nr" v="1" />
	</node>
	<node id="-12465" lat="64.6770416684" lon="13.316344445">
		<tag k="ssr:gml_id" v="GEOMETRY_3915c20f-a846-4c29-9a85-109e85215a69" />
		<tag k="ssr:gml_nr" v="0" />
	</node>
	<node id="-12460" lat="64.7942361091" lon="13.3888000037">
		<tag k="ssr:gml_id" v="GEOMETRY_8c0c9728-fc84-4529-afa8-33829503d7ab" />
		<tag k="ssr:gml_nr" v="2" />
	</node>
	<node id="-12459" lat="64.7942388858" lon="13.3888027751">
		<tag k="ssr:gml_id" v="GEOMETRY_d9162d41-fbc7-4115-b290-0f3b2d32ce8b" />
		<tag k="ssr:gml_nr" v="1" />
	</node>
	<node id="-12458" lat="64.794480554" lon="13.389002771">
		<tag k="ssr:gml_id" v="GEOMETRY_653c7113-116a-4df7-b87a-ad3b00b5b673" />
		<tag k="ssr:gml_nr" v="0" />
	</node>
	<node id="-12456" lat="64.7940833313" lon="13.3915166572">
		<tag k="ssr:gml_id" v="GEOMETRY_6d203300-bd7a-4a81-86d6-3df6547cb1b4" />
		<tag k="ssr:gml_nr" v="2" />
	</node>
	<node id="-12455" lat="64.7940861074" lon="13.3915194498">
		<tag k="ssr:gml_id" v="GEOMETRY_e21c0d4b-33b5-4e97-91c0-5c3c0dd9cea4" />
		<tag k="ssr:gml_nr" v="1" />
	</node>
	<node id="-12454" lat="64.7938694463" lon="13.3914388983">
		<tag k="ssr:gml_id" v="GEOMETRY_23b59347-9665-434e-9381-53cbd9cb652a" />
		<tag k="ssr:gml_nr" v="0" />
	</node>
	<node id="-14481" lat="64.868613893" lon="13.554858329">
		<tag k="ssr:gml_id" v="GEOMETRY_481e3c34-ba64-4a7b-848e-96a704f2be48" />
		<tag k="ssr:gml_nr" v="4" />
	</node>
	<node id="-14480" lat="64.8686861111" lon="13.55450001">
		<tag k="ssr:gml_id" v="GEOMETRY_e35b7124-3aef-46cf-a047-1e7ff8669c37" />
		<tag k="ssr:gml_nr" v="3" />
	</node>
	<node id="-14479" lat="64.8684027809" lon="13.554694446">
		<tag k="ssr:gml_id" v="GEOMETRY_74ffc15d-b201-434f-97a6-ba17bce54d1b" />
		<tag k="ssr:gml_nr" v="2" />
	</node>
	<node id="-14478" lat="64.868405555" lon="13.5546972213">
		<tag k="ssr:gml_id" v="GEOMETRY_98b59ab6-3a10-47f1-8ee1-b6d11fdc8ee3" />
		<tag k="ssr:gml_nr" v="1" />
	</node>
	<node id="-14477" lat="64.8686861112" lon="13.5547638802">
		<tag k="ssr:gml_id" v="GEOMETRY_a5bec902-abd6-40aa-83de-510efbfab35f" />
		<tag k="ssr:gml_nr" v="0" />
	</node>
	<node id="-12428" lat="64.7523083348" lon="13.3586416653">
		<tag k="ssr:gml_id" v="GEOMETRY_a0a5d5ba-70cf-4c7c-9e6c-a17e0a6c9e62" />
		<tag k="ssr:gml_nr" v="1" />
	</node>
	<node id="-14475" lat="64.7934249984" lon="13.3816249893">
		<tag k="ssr:gml_id" v="GEOMETRY_31f3b5c3-ffd8-4fe4-8458-cd306459bb8f" />
		<tag k="ssr:gml_nr" v="2" />
	</node>
	<node id="-14474" lat="64.7934277747" lon="13.3816277809">
		<tag k="ssr:gml_id" v="GEOMETRY_94468268-435c-47f5-87dc-d7b4ccfcfc17" />
		<tag k="ssr:gml_nr" v="1" />
	</node>
	<node id="-14473" lat="64.7939861112" lon="13.3815722213">
		<tag k="ssr:gml_id" v="GEOMETRY_7599dd18-79f5-4c8d-bb84-418f9d1dbbcf" />
		<tag k="ssr:gml_nr" v="0" />
	</node>
	<node id="-12417" lat="64.767374996" lon="13.4311805588">
		<tag k="ssr:gml_id" v="GEOMETRY_19d4c25f-42ec-421c-8ad7-007d698a5739" />
		<tag k="ssr:gml_nr" v="3" />
	</node>
	<node id="-12416" lat="64.7673333306" lon="13.4310388892">
		<tag k="ssr:gml_id" v="GEOMETRY_d98f33b4-dd84-4000-b5ea-7c118531beea" />
		<tag k="ssr:gml_nr" v="2" />
	</node>
	<node id="-12415" lat="64.7673361155" lon="13.4310416635">
		<tag k="ssr:gml_id" v="GEOMETRY_adf1fc01-6352-4abf-9eae-6f5fd08db058" />
		<tag k="ssr:gml_nr" v="1" />
	</node>
	<node id="-12414" lat="64.7673305547" lon="13.4310361163">
		<tag k="ssr:gml_id" v="GEOMETRY_05b7c039-3043-4e1d-a7e6-dc26c3ff4b2d" />
		<tag k="ssr:gml_nr" v="0" />
	</node>
	<node id="-14357" lat="64.8254666624" lon="13.6156388915">
		<tag k="ssr:gml_id" v="GEOMETRY_79d999f9-b343-4e71-85d5-503eb0b88bf8" />
		<tag k="ssr:gml_nr" v="7" />
	</node>
	<node id="-14356" lat="64.828336107" lon="13.6102722135">
		<tag k="ssr:gml_id" v="GEOMETRY_a49d1c3c-715c-4d82-96d6-a31fcfcf50a2" />
		<tag k="ssr:gml_nr" v="6" />
	</node>
	<node id="-14355" lat="64.8256027797" lon="13.6156833346">
		<tag k="ssr:gml_id" v="GEOMETRY_97420f0a-2d8a-44dd-af31-45c07b195ac2" />
		<tag k="ssr:gml_nr" v="5" />
	</node>
	<node id="-14447" lat="64.6781555549" lon="13.3142527855">
		<tag k="ssr:gml_id" v="GEOMETRY_acdcc39b-6644-4a64-8611-a12feefd5d68" />
		<tag k="ssr:gml_nr" v="1" />
	</node>
	<node id="-14446" lat="64.679008337" lon="13.3174083328">
		<tag k="ssr:gml_id" v="GEOMETRY_156148d4-e58d-4e3c-8bdd-c3771c71fea0" />
		<tag k="ssr:gml_nr" v="0" />
	</node>
	<node id="-14354" lat="64.8255916658" lon="13.6155972316">
		<tag k="ssr:gml_id" v="GEOMETRY_af4f94f2-cc7e-41b6-9d80-514df4d9f617" />
		<tag k="ssr:gml_nr" v="4" />
	</node>
	<node id="-14353" lat="64.8255944445" lon="13.6155972227">
		<tag k="ssr:gml_id" v="GEOMETRY_66734323-c82e-46f3-a0fd-326fbb94bb69" />
		<tag k="ssr:gml_nr" v="3" />
	</node>
	<node id="-14352" lat="64.8255999978" lon="13.6156805561">
		<tag k="ssr:gml_id" v="GEOMETRY_56270795-fde6-4e51-8baf-e5343ded1304" />
		<tag k="ssr:gml_nr" v="2" />
	</node>
	<node id="-14429" lat="64.9882638905" lon="13.5800722177">
		<tag k="ssr:gml_id" v="GEOMETRY_7f912a87-bc41-476e-a1a5-f4a61c0f63b3" />
		<tag k="ssr:gml_nr" v="4" />
	</node>
	<node id="-14428" lat="64.9869416702" lon="13.5786166624">
		<tag k="ssr:gml_id" v="GEOMETRY_09a0b4db-01c5-4c95-84cb-2027381670fb" />
		<tag k="ssr:gml_nr" v="3" />
	</node>
	<node id="-14427" lat="64.9869388871" lon="13.5786138914">
		<tag k="ssr:gml_id" v="GEOMETRY_67699f4c-c01f-4b7d-a24f-363618325088" />
		<tag k="ssr:gml_nr" v="2" />
	</node>
	<node id="-14426" lat="64.9882666639" lon="13.5800750085">
		<tag k="ssr:gml_id" v="GEOMETRY_bc9fcccb-3037-4b5c-af1f-97f08cd76b61" />
		<tag k="ssr:gml_nr" v="1" />
	</node>
	<node id="-14425" lat="64.9877944451" lon="13.5802583365">
		<tag k="ssr:gml_id" v="GEOMETRY_7af67353-0fa9-4a21-ba44-dff2e1d9bc14" />
		<tag k="ssr:gml_nr" v="0" />
	</node>
	<node id="-14350" lat="64.8255916627" lon="13.6155944442">
		<tag k="ssr:gml_id" v="GEOMETRY_f53373ca-405e-48d3-9a37-953f667fb1ba" />
		<tag k="ssr:gml_nr" v="0" />
	</node>
	<node id="-12354" lat="64.8014333297" lon="13.6301777765">
		<tag k="ssr:gml_id" v="GEOMETRY_00968c4e-94b2-444d-b98b-8d1f93babcc7" />
		<tag k="ssr:gml_nr" v="2" />
	</node>
	<node id="-12353" lat="64.8013888865" lon="13.6295861149">
		<tag k="ssr:gml_id" v="GEOMETRY_fd680b7b-4bb2-404a-8d65-6c809b1926ee" />
		<tag k="ssr:gml_nr" v="1" />
	</node>
	<node id="-12352" lat="64.8013861139" lon="13.6295833391">
		<tag k="ssr:gml_id" v="GEOMETRY_71353303-64ca-42dd-b01f-5b069b3baff8" />
		<tag k="ssr:gml_nr" v="0" />
	</node>
	<node id="-15369" lat="64.9134916695" lon="13.5692333237">
		<tag k="name" v="Vester Vekterlia" />
		<tag k="name:no" v="Vester Vekterlia" />
		<tag k="place" v="farm" />
		<tag k="ssr:date" v="2018-01-09" />
		<tag k="ssr:stedsnr" v="652079" />
	</node>
	<node id="-14800" lat="64.7707722265" lon="13.550399999">
		<tag k="ssr:gml_id" v="GEOMETRY_4baadda6-d96a-46bc-b29b-19a7bc3317d4" />
		<tag k="ssr:gml_nr" v="0" />
	</node>
	<node id="-12635" lat="65.0088250016" lon="13.6030388982">
		<tag k="ssr:gml_id" v="GEOMETRY_3482d769-a4af-4e49-b706-e84794bb11c8" />
		<tag k="ssr:gml_nr" v="1" />
	</node>
	<node id="-12310" lat="64.7506972186" lon="13.3554805594">
		<tag k="ssr:gml_id" v="GEOMETRY_915c50dd-c610-4bca-b26a-07e690b68960" />
		<tag k="ssr:gml_nr" v="3" />
	</node>
	<node id="-12309" lat="64.7486111079" lon="13.3533416667">
		<tag k="ssr:gml_id" v="GEOMETRY_111db1b7-8d46-4e44-b9de-2dc5598c86bc" />
		<tag k="ssr:gml_nr" v="2" />
	</node>
	<node id="-12308" lat="64.7505888867" lon="13.354702777">
		<tag k="ssr:gml_id" v="GEOMETRY_24279706-32f3-4997-b738-3c17218e4ed0" />
		<tag k="ssr:gml_nr" v="1" />
	</node>
	<node id="-12307" lat="64.7506999963" lon="13.3554805654">
		<tag k="ssr:gml_id" v="GEOMETRY_884c96e5-b73b-45e2-86b1-8fbff3ac8512" />
		<tag k="ssr:gml_nr" v="0" />
	</node>
	<node id="-12306" lat="64.8305861132" lon="13.8998055513">
		<tag k="ssr:gml_id" v="GEOMETRY_d049d003-a815-44b6-9234-08b233aa0f16" />
		<tag k="ssr:gml_nr" v="4" />
	</node>
	<node id="-12305" lat="64.8307861066" lon="13.8988416727">
		<tag k="ssr:gml_id" v="GEOMETRY_1dd1e120-e60c-4d56-820f-acc1ec730c2f" />
		<tag k="ssr:gml_nr" v="3" />
	</node>
	<node id="-12304" lat="64.8418138904" lon="13.8617333422">
		<tag k="ssr:gml_id" v="GEOMETRY_ed9a24c3-ff1d-4579-8f2d-5b04505c7bff" />
		<tag k="ssr:gml_nr" v="2" />
	</node>
	<node id="-12303" lat="64.8497722197" lon="13.8204999905">
		<tag k="ssr:gml_id" v="GEOMETRY_99d636c2-91ee-4092-82f8-882ad540396e" />
		<tag k="ssr:gml_nr" v="1" />
	</node>
	<node id="-12302" lat="64.8548249969" lon="13.8543472175">
		<tag k="ssr:gml_id" v="GEOMETRY_c96576d2-58ed-4a09-9783-593403f51b54" />
		<tag k="ssr:gml_nr" v="0" />
	</node>
	<node id="-12973" lat="64.7666111073" lon="13.4319722207">
		<tag k="ssr:gml_id" v="GEOMETRY_c8676968-beac-4809-87bd-07e2cb5e5ba4" />
		<tag k="ssr:gml_nr" v="2" />
	</node>
	<node id="-12297" lat="64.8594998229" lon="13.4023528067">
		<tag k="fixme" v="consider place=farm" />
		<tag k="name" v="Gjersvika" />
		<tag k="name:no" v="Gjersvika" />
		<tag k="place" v="hamlet" />
		<tag k="ssr:date" v="2018-01-09" />
		<tag k="ssr:stedsnr" v="711777" />
	</node>
	<way id="-4095">
		<tag k="name" v="Sagvika" />
		<tag k="name:no" v="Sagvika" />
		<tag k="place" v="farm" />
		<tag k="ssr:date" v="2018-01-09" />
		<tag k="ssr:stedsnr" v="14304" />
		<nd ref="-14477" />
		<nd ref="-14478" />
		<nd ref="-14479" />
		<nd ref="-14480" />
		<nd ref="-14481" />
	</way>
	<way id="-4094">
		<tag k="name" v="Fagerstrand" />
		<tag k="name:no" v="Fagerstrand" />
		<tag k="place" v="farm" />
		<tag k="ssr:date" v="2018-01-09" />
		<tag k="ssr:stedsnr" v="378328" />
		<nd ref="-14473" />
		<nd ref="-14474" />
		<nd ref="-14475" />
		<nd ref="-14476" />
	</way>
	<way id="-4086">
		<tag k="building" v="cabin" />
		<tag k="name" v="Strandvika" />
		<tag k="name:no" v="Strandvika" />
		<tag k="place" v="isolated_dwelling" />
		<tag k="ssr:date" v="2018-01-09" />
		<tag k="ssr:stedsnr" v="560455" />
		<nd ref="-14446" />
		<nd ref="-14447" />
	</way>
	<way id="-4083">
		<tag k="name" v="Fredheim" />
		<tag k="name:no" v="Fredheim" />
		<tag k="place" v="farm" />
		<tag k="ssr:date" v="2018-01-09" />
		<tag k="ssr:stedsnr" v="742046" />
		<nd ref="-14425" />
		<nd ref="-14426" />
		<nd ref="-14427" />
		<nd ref="-14428" />
		<nd ref="-14429" />
	</way>
	<way id="-4065">
		<tag k="alt_name:no" v="Austergården;Austre Nyvika" />
		<tag k="name" v="Orre-vijhke" />
		<tag k="name:sma" v="Orre-vijhke" />
		<tag k="place" v="farm" />
		<tag k="ssr:date" v="2018-01-09" />
		<tag k="ssr:stedsnr" v="864465" />
		<nd ref="-14350" />
		<nd ref="-14351" />
		<nd ref="-14352" />
		<nd ref="-14353" />
		<nd ref="-14354" />
		<nd ref="-14355" />
		<nd ref="-14356" />
		<nd ref="-14357" />
	</way>
	<way id="-4044">
		<tag k="landuse" v="residential" />
		<tag k="name" v="Søråsen hyttefelt" />
		<tag k="name:no" v="Søråsen hyttefelt" />
		<tag k="place" v="neighbourhood" />
		<tag k="ssr:date" v="2018-01-09" />
		<tag k="ssr:stedsnr" v="421786" />
		<nd ref="-14282" />
		<nd ref="-14283" />
	</way>
	<way id="-4020">
		<tag k="name" v="Vesterås" />
		<tag k="name:no" v="Vesterås" />
		<tag k="place" v="farm" />
		<tag k="ssr:date" v="2018-01-09" />
		<tag k="ssr:stedsnr" v="500482" />
		<nd ref="-14189" />
		<nd ref="-14190" />
		<nd ref="-14191" />
		<nd ref="-14192" />
	</way>
	<way id="-4011">
		<tag k="name" v="Åsheim" />
		<tag k="name:no" v="Åsheim" />
		<tag k="place" v="farm" />
		<tag k="ssr:date" v="2018-01-09" />
		<tag k="ssr:stedsnr" v="257342" />
		<nd ref="-14148" />
		<nd ref="-14149" />
		<nd ref="-14150" />
	</way>
	<way id="-4009">
		<tag k="name" v="Lauvnes" />
		<tag k="name:no" v="Lauvnes" />
		<tag k="place" v="farm" />
		<tag k="ssr:date" v="2018-01-09" />
		<tag k="ssr:stedsnr" v="135327" />
		<nd ref="-14142" />
		<nd ref="-14143" />
		<nd ref="-14144" />
	</way>
	<way id="-4008">
		<tag k="fixme" v="consider place=hamlet" />
		<tag k="name" v="Tunnsjørørvika" />
		<tag k="name:no" v="Tunnsjørørvika" />
		<tag k="place" v="village" />
		<tag k="ssr:date" v="2018-01-09" />
		<tag k="ssr:stedsnr" v="804458" />
		<nd ref="-14140" />
		<nd ref="-14141" />
	</way>
	<way id="-3980">
		<tag k="name" v="Gamsetervollen" />
		<tag k="name:no" v="Gamsetervollen" />
		<tag k="place" v="locality" />
		<tag k="ssr:date" v="2018-01-09" />
		<tag k="ssr:stedsnr" v="197458" />
		<nd ref="-13970" />
		<nd ref="-13971" />
		<nd ref="-13972" />
	</way>
	<way id="-3973">
		<tag k="name" v="Norheim" />
		<tag k="name:no" v="Norheim" />
		<tag k="place" v="farm" />
		<tag k="ssr:date" v="2018-01-09" />
		<tag k="ssr:stedsnr" v="257050" />
		<nd ref="-13936" />
		<nd ref="-13937" />
		<nd ref="-13938" />
		<nd ref="-13939" />
	</way>
	<way id="-3965">
		<tag k="building" v="farm_auxiliary" />
		<tag k="name" v="Nyrud" />
		<tag k="name:no" v="Nyrud" />
		<tag k="place" v="locality" />
		<tag k="ssr:date" v="2018-01-09" />
		<tag k="ssr:stedsnr" v="196367" />
		<nd ref="-13894" />
		<nd ref="-13895" />
		<nd ref="-13896" />
	</way>
	<way id="-3961">
		<tag k="name" v="Moen" />
		<tag k="name:no" v="Moen" />
		<tag k="place" v="farm" />
		<tag k="ssr:date" v="2018-01-09" />
		<tag k="ssr:stedsnr" v="135037" />
		<nd ref="-13873" />
		<nd ref="-13874" />
		<nd ref="-13875" />
	</way>
	<way id="-3956">
		<tag k="name" v="Heggvoll" />
		<tag k="name:no" v="Heggvoll" />
		<tag k="place" v="farm" />
		<tag k="ssr:date" v="2018-01-09" />
		<tag k="ssr:stedsnr" v="257041" />
		<nd ref="-13852" />
		<nd ref="-13853" />
	</way>
	<way id="-3953">
		<tag k="name" v="Myrvika" />
		<tag k="name:no" v="Myrvika" />
		<tag k="place" v="farm" />
		<tag k="ssr:date" v="2018-01-09" />
		<tag k="ssr:stedsnr" v="803343" />
		<nd ref="-13845" />
		<nd ref="-13846" />
		<nd ref="-13847" />
	</way>
	<way id="-3944">
		<tag k="fixme" v="consider place=farm" />
		<tag k="name" v="Namsvatnet" />
		<tag k="name:no" v="Namsvatnet" />
		<tag k="place" v="hamlet" />
		<tag k="ssr:date" v="2018-01-09" />
		<tag k="ssr:stedsnr" v="803043" />
		<nd ref="-13797" />
		<nd ref="-13798" />
		<nd ref="-13799" />
		<nd ref="-13800" />
	</way>
	<way id="-3940">
		<tag k="name" v="Nyvikmoen" />
		<tag k="name:no" v="Nyvikmoen" />
		<tag k="place" v="farm" />
		<tag k="ssr:date" v="2018-01-09" />
		<tag k="ssr:stedsnr" v="136386" />
		<nd ref="-13779" />
		<nd ref="-13780" />
		<nd ref="-13781" />
	</way>
	<way id="-3938">
		<tag k="historic" v="summer_mountain_farm" />
		<tag k="name" v="Vestre Gjersviksætra" />
		<tag k="name:no" v="Vestre Gjersviksætra" />
		<tag k="place" v="locality" />
		<tag k="ssr:date" v="2018-01-09" />
		<tag k="ssr:stedsnr" v="196363" />
		<nd ref="-13767" />
		<nd ref="-13768" />
		<nd ref="-13769" />
		<nd ref="-13770" />
		<nd ref="-13771" />
	</way>
	<way id="-3728">
		<tag k="building" v="cabin" />
		<tag k="name" v="Tomasseteren" />
		<tag k="name:no" v="Tomasseteren" />
		<tag k="place" v="isolated_dwelling" />
		<tag k="ssr:date" v="2018-01-09" />
		<tag k="ssr:stedsnr" v="257523" />
		<nd ref="-12799" />
		<nd ref="-12800" />
		<nd ref="-12801" />
		<nd ref="-12802" />
	</way>
	<way id="-3932">
		<tag k="name" v="Sørås" />
		<tag k="name:no" v="Sørås" />
		<tag k="place" v="farm" />
		<tag k="ssr:date" v="2018-01-09" />
		<tag k="ssr:stedsnr" v="803038" />
		<nd ref="-13735" />
		<nd ref="-13736" />
	</way>
	<way id="-3711">
		<tag k="building" v="farm_auxiliary" />
		<tag k="name" v="Johkegaske - Virmaneset" />
		<tag k="name:no" v="Virmaneset" />
		<tag k="name:sma" v="Johkegaske" />
		<tag k="place" v="locality" />
		<tag k="ssr:date" v="2018-01-09" />
		<tag k="ssr:stedsnr" v="621813" />
		<nd ref="-12733" />
		<nd ref="-12734" />
		<nd ref="-12735" />
		<nd ref="-12736" />
	</way>
	<way id="-3919">
		<tag k="name" v="Vakkervollen" />
		<tag k="name:no" v="Vakkervollen" />
		<tag k="place" v="locality" />
		<tag k="ssr:date" v="2018-01-09" />
		<tag k="ssr:stedsnr" v="318325" />
		<nd ref="-13679" />
		<nd ref="-13680" />
	</way>
	<way id="-3886">
		<tag k="building" v="farm_auxiliary" />
		<tag k="name" v="Øvre Mykkelvikseteren" />
		<tag k="name:no" v="Øvre Mykkelvikseteren" />
		<tag k="place" v="locality" />
		<tag k="ssr:date" v="2018-01-09" />
		<tag k="ssr:stedsnr" v="378252" />
		<nd ref="-13538" />
		<nd ref="-13539" />
		<nd ref="-13540" />
		<nd ref="-13541" />
		<nd ref="-13542" />
	</way>
	<way id="-3877">
		<tag k="building" v="cabin" />
		<tag k="name" v="Jonasmoen" />
		<tag k="name:no" v="Jonasmoen" />
		<tag k="place" v="isolated_dwelling" />
		<tag k="ssr:date" v="2018-01-09" />
		<tag k="ssr:stedsnr" v="682874" />
		<nd ref="-13503" />
		<nd ref="-13504" />
		<nd ref="-13505" />
	</way>
	<way id="-4383">
		<tag k="name" v="Stallvikgrenda" />
		<tag k="name:no" v="Stallvikgrenda" />
		<tag k="place" v="hamlet" />
		<tag k="ssr:date" v="2018-01-09" />
		<tag k="ssr:stedsnr" v="936491" />
		<nd ref="-15829" />
		<nd ref="-15830" />
	</way>
	<way id="-3870">
		<tag k="name" v="Nyvikmoseteren" />
		<tag k="name:no" v="Nyvikmoseteren" />
		<tag k="place" v="locality" />
		<tag k="ssr:date" v="2018-01-09" />
		<tag k="ssr:stedsnr" v="136367" />
		<nd ref="-13477" />
		<nd ref="-13478" />
		<nd ref="-13479" />
		<nd ref="-13480" />
	</way>
	<way id="-3863">
		<tag k="name" v="Vestre Gjersvika" />
		<tag k="name:no" v="Vestre Gjersvika" />
		<tag k="place" v="farm" />
		<tag k="ssr:date" v="2018-01-09" />
		<tag k="ssr:stedsnr" v="560374" />
		<nd ref="-13441" />
		<nd ref="-13442" />
		<nd ref="-13443" />
	</way>
	<way id="-4373">
		<tag k="name" v="Rørfoss" />
		<tag k="name:no" v="Rørfoss" />
		<tag k="place" v="farm" />
		<tag k="ssr:date" v="2018-01-09" />
		<tag k="ssr:stedsnr" v="803499" />
		<nd ref="-15777" />
		<nd ref="-15778" />
		<nd ref="-15779" />
		<nd ref="-15780" />
	</way>
	<way id="-3858">
		<tag k="name" v="Småvatna statsallmenning" />
		<tag k="name:no" v="Småvatna statsallmenning" />
		<tag k="old_name:no" v="Småvatnan statsskog" />
		<tag k="place" v="locality" />
		<tag k="ssr:date" v="2018-01-09" />
		<tag k="ssr:stedsnr" v="894152" />
		<nd ref="-13408" />
		<nd ref="-13409" />
		<nd ref="-13410" />
		<nd ref="-13411" />
		<nd ref="-13412" />
		<nd ref="-13413" />
	</way>
	<way id="-3852">
		<tag k="name" v="Kringstad" />
		<tag k="name:no" v="Kringstad" />
		<tag k="place" v="farm" />
		<tag k="ssr:date" v="2018-01-09" />
		<tag k="ssr:stedsnr" v="75345" />
		<nd ref="-13379" />
		<nd ref="-13380" />
	</way>
	<way id="-3848">
		<tag k="name" v="Vallheim" />
		<tag k="name:no" v="Vallheim" />
		<tag k="place" v="farm" />
		<tag k="ssr:date" v="2018-01-09" />
		<tag k="ssr:stedsnr" v="621289" />
		<nd ref="-13358" />
		<nd ref="-13359" />
		<nd ref="-13360" />
	</way>
	<way id="-3842">
		<tag k="name" v="Vallervatnet" />
		<tag k="name:no" v="Vallervatnet" />
		<tag k="place" v="farm" />
		<tag k="ssr:date" v="2018-01-09" />
		<tag k="ssr:stedsnr" v="621287" />
		<nd ref="-13334" />
		<nd ref="-13335" />
		<nd ref="-13336" />
	</way>
	<way id="-3838">
		<tag k="name" v="Bergli" />
		<tag k="name:no" v="Bergli" />
		<tag k="place" v="farm" />
		<tag k="ssr:date" v="2018-01-09" />
		<tag k="ssr:stedsnr" v="75339" />
		<nd ref="-13321" />
		<nd ref="-13322" />
		<nd ref="-13323" />
	</way>
	<way id="-4348">
		<tag k="name" v="Røset" />
		<tag k="name:no" v="Røset" />
		<tag k="place" v="farm" />
		<tag k="ssr:date" v="2018-01-09" />
		<tag k="ssr:stedsnr" v="15516" />
		<nd ref="-15659" />
		<nd ref="-15660" />
		<nd ref="-15661" />
	</way>
	<way id="-3835">
		<tag k="name" v="Nygård" />
		<tag k="name:no" v="Nygård" />
		<tag k="place" v="farm" />
		<tag k="ssr:date" v="2018-01-09" />
		<tag k="ssr:stedsnr" v="803289" />
		<nd ref="-13303" />
		<nd ref="-13304" />
		<nd ref="-13305" />
		<nd ref="-13306" />
	</way>
	<way id="-3833">
		<tag k="name" v="Øyheim" />
		<tag k="name:no" v="Øyheim" />
		<tag k="place" v="farm" />
		<tag k="ssr:date" v="2018-01-09" />
		<tag k="ssr:stedsnr" v="15303" />
		<nd ref="-13294" />
		<nd ref="-13295" />
	</way>
	<way id="-3830">
		<tag k="name" v="Raarvihke - Røyrvik" />
		<tag k="name:no" v="Røyrvik" />
		<tag k="name:sma" v="Raarvihke" />
		<tag k="place" v="village" />
		<tag k="ssr:date" v="2018-01-09" />
		<tag k="ssr:stedsnr" v="257548" />
		<nd ref="-13281" />
		<nd ref="-13282" />
		<nd ref="-13283" />
	</way>
	<way id="-3828">
		<tag k="name" v="Rørlia" />
		<tag k="name:no" v="Rørlia" />
		<tag k="place" v="farm" />
		<tag k="ssr:date" v="2018-01-09" />
		<tag k="ssr:stedsnr" v="621547" />
		<nd ref="-13270" />
		<nd ref="-13271" />
		<nd ref="-13272" />
	</way>
	<way id="-4339">
		<tag k="name" v="Heimly" />
		<tag k="name:no" v="Heimly" />
		<tag k="place" v="farm" />
		<tag k="ssr:date" v="2018-01-09" />
		<tag k="ssr:stedsnr" v="75255" />
		<nd ref="-15616" />
		<nd ref="-15617" />
		<nd ref="-15618" />
	</way>
	<way id="-4136">
		<tag k="name" v="Slåttvika" />
		<tag k="name:no" v="Slåttvika" />
		<tag k="place" v="farm" />
		<tag k="ssr:date" v="2018-01-09" />
		<tag k="ssr:stedsnr" v="75452" />
		<nd ref="-14693" />
		<nd ref="-14694" />
		<nd ref="-14695" />
		<nd ref="-14696" />
		<nd ref="-14697" />
		<nd ref="-14698" />
	</way>
	<way id="-4329">
		<tag k="name" v="Skoglund" />
		<tag k="name:no" v="Skoglund" />
		<tag k="place" v="farm" />
		<tag k="ssr:date" v="2018-01-09" />
		<tag k="ssr:stedsnr" v="864290" />
		<nd ref="-15572" />
		<nd ref="-15573" />
	</way>
	<way id="-3811">
		<tag k="name" v="Vestre Mykkelvikseteren" />
		<tag k="name:no" v="Vestre Mykkelvikseteren" />
		<tag k="place" v="locality" />
		<tag k="ssr:date" v="2018-01-09" />
		<tag k="ssr:stedsnr" v="621263" />
		<nd ref="-13191" />
		<nd ref="-13192" />
		<nd ref="-13193" />
	</way>
	<way id="-3810">
		<tag k="building" v="cabin" />
		<tag k="name" v="Rokstad" />
		<tag k="name:no" v="Rokstad" />
		<tag k="place" v="isolated_dwelling" />
		<tag k="ssr:date" v="2018-01-09" />
		<tag k="ssr:stedsnr" v="351559" />
		<nd ref="-13188" />
		<nd ref="-13189" />
	</way>
	<way id="-3807">
		<tag k="name" v="Østgård" />
		<tag k="name:no" v="Østgård" />
		<tag k="place" v="farm" />
		<tag k="ssr:date" v="2018-01-09" />
		<tag k="ssr:stedsnr" v="227215" />
		<nd ref="-13176" />
		<nd ref="-13177" />
	</way>
	<way id="-3806">
		<tag k="name" v="Vestereng" />
		<tag k="name:no" v="Vestereng" />
		<tag k="place" v="farm" />
		<tag k="ssr:date" v="2018-01-09" />
		<tag k="ssr:stedsnr" v="621544" />
		<nd ref="-13172" />
		<nd ref="-13173" />
		<nd ref="-13174" />
		<nd ref="-13175" />
	</way>
	<way id="-3804">
		<tag k="name" v="Litlbotn" />
		<tag k="name:no" v="Litlbotn" />
		<tag k="place" v="farm" />
		<tag k="ssr:date" v="2018-01-09" />
		<tag k="ssr:stedsnr" v="499316" />
		<nd ref="-13166" />
		<nd ref="-13167" />
	</way>
	<way id="-4307">
		<tag k="name" v="Bustadmo" />
		<tag k="name:no" v="Bustadmo" />
		<tag k="place" v="farm" />
		<tag k="ssr:date" v="2018-01-09" />
		<tag k="ssr:stedsnr" v="864031" />
		<nd ref="-15466" />
		<nd ref="-15467" />
		<nd ref="-15468" />
	</way>
	<way id="-3793">
		<tag k="name" v="Vollheim" />
		<tag k="name:no" v="Vollheim" />
		<tag k="place" v="farm" />
		<tag k="ssr:date" v="2018-01-09" />
		<tag k="ssr:stedsnr" v="75329" />
		<nd ref="-13117" />
		<nd ref="-13118" />
	</way>
	<way id="-4301">
		<tag k="name" v="Haugen" />
		<tag k="name:no" v="Haugen" />
		<tag k="place" v="farm" />
		<tag k="ssr:date" v="2018-01-09" />
		<tag k="ssr:stedsnr" v="621462" />
		<nd ref="-15428" />
		<nd ref="-15429" />
		<nd ref="-15430" />
	</way>
	<way id="-3787">
		<tag k="name" v="Østnes" />
		<tag k="name:no" v="Østnes" />
		<tag k="place" v="farm" />
		<tag k="ssr:date" v="2018-01-09" />
		<tag k="ssr:stedsnr" v="592238" />
		<nd ref="-13097" />
		<nd ref="-13098" />
	</way>
	<way id="-4296">
		<tag k="name" v="Mykkelmoen" />
		<tag k="name:no" v="Mykkelmoen" />
		<tag k="place" v="farm" />
		<tag k="ssr:date" v="2018-01-09" />
		<tag k="ssr:stedsnr" v="500316" />
		<nd ref="-15403" />
		<nd ref="-15404" />
		<nd ref="-15405" />
	</way>
	<way id="-4294">
		<tag k="name" v="Gjersvika" />
		<tag k="name:no" v="Gjersvika" />
		<tag k="place" v="hamlet" />
		<tag k="ssr:date" v="2018-01-09" />
		<tag k="ssr:stedsnr" v="257450" />
		<nd ref="-15388" />
		<nd ref="-15389" />
		<nd ref="-15390" />
		<nd ref="-15391" />
		<nd ref="-15392" />
	</way>
	<way id="-4128">
		<tag k="historic" v="summer_mountain_farm" />
		<tag k="name" v="Austre Gjersviksætra" />
		<tag k="name:no" v="Austre Gjersviksætra" />
		<tag k="place" v="locality" />
		<tag k="ssr:date" v="2018-01-09" />
		<tag k="ssr:stedsnr" v="14317" />
		<nd ref="-14666" />
		<nd ref="-14667" />
		<nd ref="-14668" />
		<nd ref="-14669" />
	</way>
	<way id="-3773">
		<tag k="name" v="Barbo" />
		<tag k="name:no" v="Barbo" />
		<tag k="place" v="farm" />
		<tag k="ssr:date" v="2018-01-09" />
		<tag k="ssr:stedsnr" v="75326" />
		<nd ref="-13036" />
		<nd ref="-13037" />
		<nd ref="-13038" />
	</way>
	<way id="-3766">
		<tag k="name" v="Tjønnvika" />
		<tag k="name:no" v="Tjønnvika" />
		<tag k="place" v="farm" />
		<tag k="ssr:date" v="2018-01-09" />
		<tag k="ssr:stedsnr" v="196312" />
		<nd ref="-12971" />
		<nd ref="-12972" />
		<nd ref="-12973" />
	</way>
	<way id="-4276">
		<tag k="building" v="farm_auxiliary" />
		<tag k="name" v="Oppgård" />
		<tag k="name:no" v="Oppgård" />
		<tag k="place" v="locality" />
		<tag k="ssr:date" v="2018-01-09" />
		<tag k="ssr:stedsnr" v="682483" />
		<nd ref="-15308" />
		<nd ref="-15309" />
	</way>
	<way id="-4275">
		<tag k="name" v="Austre Gjersvika" />
		<tag k="name:no" v="Austre Gjersvika" />
		<tag k="place" v="farm" />
		<tag k="ssr:date" v="2018-01-09" />
		<tag k="ssr:stedsnr" v="257440" />
		<nd ref="-15302" />
		<nd ref="-15303" />
		<nd ref="-15304" />
		<nd ref="-15305" />
	</way>
	<way id="-4271">
		<tag k="name" v="Trongen" />
		<tag k="name:no" v="Trongen" />
		<tag k="place" v="locality" />
		<tag k="ssr:date" v="2018-01-09" />
		<tag k="ssr:stedsnr" v="135436" />
		<nd ref="-15285" />
		<nd ref="-15286" />
	</way>
	<way id="-4264">
		<tag k="name" v="Myrheim" />
		<tag k="name:no" v="Myrheim" />
		<tag k="place" v="farm" />
		<tag k="ssr:date" v="2018-01-09" />
		<tag k="ssr:stedsnr" v="682502" />
		<nd ref="-15260" />
		<nd ref="-15261" />
		<nd ref="-15262" />
		<nd ref="-15263" />
	</way>
	<way id="-3745">
		<tag k="name" v="Elvnesa" />
		<tag k="name:no" v="Elvnesa" />
		<tag k="place" v="locality" />
		<tag k="ssr:date" v="2018-01-09" />
		<tag k="ssr:stedsnr" v="682291" />
		<nd ref="-12883" />
		<nd ref="-12884" />
	</way>
	<way id="-3739">
		<tag k="name" v="Høyslett" />
		<tag k="name:no" v="Høyslett" />
		<tag k="place" v="farm" />
		<tag k="ssr:date" v="2018-01-09" />
		<tag k="ssr:stedsnr" v="318278" />
		<nd ref="-12849" />
		<nd ref="-12850" />
		<nd ref="-12851" />
	</way>
	<way id="-3735">
		<tag k="name" v="Rønningen" />
		<tag k="name:no" v="Rønningen" />
		<tag k="place" v="farm" />
		<tag k="ssr:date" v="2018-01-09" />
		<tag k="ssr:stedsnr" v="621260" />
		<nd ref="-12837" />
		<nd ref="-12838" />
		<nd ref="-12839" />
	</way>
	<way id="-4244">
		<tag k="historic" v="summer_mountain_farm" />
		<tag k="name" v="Holmoseteren" />
		<tag k="name:no" v="Holmoseteren" />
		<tag k="place" v="locality" />
		<tag k="ssr:date" v="2018-01-09" />
		<tag k="ssr:stedsnr" v="620340" />
		<nd ref="-15169" />
		<nd ref="-15170" />
		<nd ref="-15171" />
		<nd ref="-15172" />
	</way>
	<way id="-4240">
		<tag k="name" v="Setermoen" />
		<tag k="name:no" v="Setermoen" />
		<tag k="place" v="farm" />
		<tag k="ssr:date" v="2018-01-09" />
		<tag k="ssr:stedsnr" v="378400" />
		<nd ref="-15155" />
		<nd ref="-15156" />
	</way>
	<way id="-4239">
		<tag k="name" v="Vektarlia" />
		<tag k="name:no" v="Vektarlia" />
		<tag k="place" v="farm" />
		<tag k="ssr:date" v="2018-01-09" />
		<tag k="ssr:stedsnr" v="439466" />
		<nd ref="-15149" />
		<nd ref="-15150" />
		<nd ref="-15151" />
	</way>
	<way id="-4238">
		<tag k="name" v="Myrmo" />
		<tag k="name:no" v="Myrmo" />
		<tag k="place" v="farm" />
		<tag k="ssr:date" v="2018-01-09" />
		<tag k="ssr:stedsnr" v="743497" />
		<nd ref="-15140" />
		<nd ref="-15141" />
		<nd ref="-15142" />
		<nd ref="-15143" />
	</way>
	<way id="-3724">
		<tag k="name" v="Bjørkmo" />
		<tag k="name:no" v="Bjørkmo" />
		<tag k="ssr:date" v="2018-01-09" />
		<tag k="ssr:stedsnr" v="621540" />
		<tag k="tourism" v="camp_site" />
		<nd ref="-12785" />
		<nd ref="-12786" />
		<nd ref="-12787" />
		<nd ref="-12788" />
	</way>
	<way id="-3723">
		<tag k="name" v="Kjærnes" />
		<tag k="name:no" v="Kjærnes" />
		<tag k="place" v="farm" />
		<tag k="ssr:date" v="2018-01-09" />
		<tag k="ssr:stedsnr" v="135234" />
		<nd ref="-12780" />
		<nd ref="-12781" />
		<nd ref="-12782" />
		<nd ref="-12783" />
	</way>
	<way id="-3719">
		<tag k="alt_name:no" v="Skånalia;Vester Skånalia" />
		<tag k="name" v="Vestre Skånalia" />
		<tag k="name:no" v="Vestre Skånalia" />
		<tag k="place" v="farm" />
		<tag k="ssr:date" v="2018-01-09" />
		<tag k="ssr:stedsnr" v="925491" />
		<nd ref="-12764" />
		<nd ref="-12765" />
		<nd ref="-12766" />
	</way>
	<way id="-3715">
		<tag k="landuse" v="residential" />
		<tag k="name" v="Småtjønnin hytteområde" />
		<tag k="name:no" v="Småtjønnin hytteområde" />
		<tag k="place" v="neighbourhood" />
		<tag k="ssr:date" v="2018-01-09" />
		<tag k="ssr:stedsnr" v="118748" />
		<nd ref="-12753" />
		<nd ref="-12754" />
	</way>
	<way id="-3714">
		<tag k="name" v="Ornes" />
		<tag k="name:no" v="Ornes" />
		<tag k="place" v="farm" />
		<tag k="ssr:date" v="2018-01-09" />
		<tag k="ssr:stedsnr" v="136316" />
		<nd ref="-12749" />
		<nd ref="-12750" />
		<nd ref="-12751" />
		<nd ref="-12752" />
	</way>
	<way id="-4224">
		<tag k="name" v="Nyvikseteren" />
		<tag k="name:no" v="Nyvikseteren" />
		<tag k="place" v="locality" />
		<tag k="ssr:date" v="2018-01-09" />
		<tag k="ssr:stedsnr" v="682480" />
		<nd ref="-15072" />
		<nd ref="-15073" />
		<nd ref="-15074" />
	</way>
	<way id="-4223">
		<tag k="fixme" v="consider place=isolated_dwelling if not a farm" />
		<tag k="name" v="Seteråsen" />
		<tag k="name:no" v="Seteråsen" />
		<tag k="place" v="farm" />
		<tag k="ssr:date" v="2018-01-09" />
		<tag k="ssr:stedsnr" v="136506" />
		<nd ref="-15069" />
		<nd ref="-15070" />
		<nd ref="-15071" />
	</way>
	<way id="-4218">
		<tag k="building" v="cabin" />
		<tag k="name" v="Sturjenhytta" />
		<tag k="name:no" v="Sturjenhytta" />
		<tag k="place" v="isolated_dwelling" />
		<tag k="ssr:date" v="2018-01-09" />
		<tag k="ssr:stedsnr" v="742405" />
		<nd ref="-15050" />
		<nd ref="-15051" />
	</way>
	<way id="-3704">
		<tag k="name" v="Skogli" />
		<tag k="name:no" v="Skogli" />
		<tag k="place" v="farm" />
		<tag k="ssr:date" v="2018-01-09" />
		<tag k="ssr:stedsnr" v="925468" />
		<nd ref="-12702" />
		<nd ref="-12703" />
		<nd ref="-12704" />
		<nd ref="-12705" />
	</way>
	<way id="-4211">
		<tag k="name" v="Hausvika" />
		<tag k="name:no" v="Hausvika" />
		<tag k="place" v="farm" />
		<tag k="ssr:date" v="2018-01-09" />
		<tag k="ssr:stedsnr" v="500563" />
		<nd ref="-15014" />
		<nd ref="-15015" />
	</way>
	<way id="-4205">
		<tag k="name" v="Kvilåsen" />
		<tag k="name:no" v="Kvilåsen" />
		<tag k="place" v="locality" />
		<tag k="ssr:date" v="2018-01-09" />
		<tag k="ssr:stedsnr" v="317344" />
		<nd ref="-14988" />
		<nd ref="-14989" />
	</way>
	<way id="-3689">
		<tag k="name" v="Nerli" />
		<tag k="name:no" v="Nerli" />
		<tag k="place" v="farm" />
		<tag k="ssr:date" v="2018-01-09" />
		<tag k="ssr:stedsnr" v="136841" />
		<nd ref="-12634" />
		<nd ref="-12635" />
	</way>
	<way id="-3674">
		<tag k="name" v="Heggli" />
		<tag k="name:no" v="Heggli" />
		<tag k="place" v="farm" />
		<tag k="ssr:date" v="2018-01-09" />
		<tag k="ssr:stedsnr" v="317441" />
		<nd ref="-12548" />
		<nd ref="-12549" />
		<nd ref="-12550" />
	</way>
	<way id="-3669">
		<tag k="building" v="cabin" />
		<tag k="name" v="Dergahytta" />
		<tag k="name:no" v="Dergahytta" />
		<tag k="place" v="isolated_dwelling" />
		<tag k="ssr:date" v="2018-01-09" />
		<tag k="ssr:stedsnr" v="378490" />
		<nd ref="-12522" />
		<nd ref="-12523" />
	</way>
	<way id="-4172">
		<tag k="name" v="Lauvmoen" />
		<tag k="name:no" v="Lauvmoen" />
		<tag k="place" v="farm" />
		<tag k="ssr:date" v="2018-01-09" />
		<tag k="ssr:stedsnr" v="681368" />
		<nd ref="-14863" />
		<nd ref="-14864" />
		<nd ref="-14865" />
	</way>
	<way id="-3653">
		<tag k="name" v="Bukta" />
		<tag k="name:no" v="Bukta" />
		<tag k="place" v="farm" />
		<tag k="ssr:date" v="2018-01-09" />
		<tag k="ssr:stedsnr" v="257501" />
		<nd ref="-12465" />
		<nd ref="-12466" />
		<nd ref="-12467" />
	</way>
	<way id="-3650">
		<tag k="name" v="Solberg" />
		<tag k="name:no" v="Solberg" />
		<tag k="place" v="farm" />
		<tag k="ssr:date" v="2018-01-09" />
		<tag k="ssr:stedsnr" v="804353" />
		<nd ref="-12458" />
		<nd ref="-12459" />
		<nd ref="-12460" />
	</way>
	<way id="-3649">
		<tag k="name" v="Bekkheim" />
		<tag k="name:no" v="Bekkheim" />
		<tag k="place" v="farm" />
		<tag k="ssr:date" v="2018-01-09" />
		<tag k="ssr:stedsnr" v="804352" />
		<nd ref="-12454" />
		<nd ref="-12455" />
		<nd ref="-12456" />
	</way>
	<way id="-4160">
		<tag k="name" v="Myrvoll" />
		<tag k="name:no" v="Myrvoll" />
		<tag k="place" v="farm" />
		<tag k="ssr:date" v="2018-01-09" />
		<tag k="ssr:stedsnr" v="257398" />
		<nd ref="-14800" />
		<nd ref="-14801" />
		<nd ref="-14802" />
	</way>
	<way id="-4156">
		<tag k="name" v="Oskarstakken" />
		<tag k="name:no" v="Oskarstakken" />
		<tag k="place" v="locality" />
		<tag k="ssr:date" v="2018-01-09" />
		<tag k="ssr:stedsnr" v="75457" />
		<nd ref="-14780" />
		<nd ref="-14781" />
	</way>
	<way id="-3642">
		<tag k="name" v="Sagmoen" />
		<tag k="name:no" v="Sagmoen" />
		<tag k="place" v="farm" />
		<tag k="ssr:date" v="2018-01-09" />
		<tag k="ssr:stedsnr" v="168133" />
		<nd ref="-12427" />
		<nd ref="-12428" />
	</way>
	<way id="-3639">
		<tag k="name" v="Setermo" />
		<tag k="name:no" v="Setermo" />
		<tag k="place" v="farm" />
		<tag k="ssr:date" v="2018-01-09" />
		<tag k="ssr:stedsnr" v="317320" />
		<nd ref="-12414" />
		<nd ref="-12415" />
		<nd ref="-12416" />
		<nd ref="-12417" />
	</way>
	<way id="-3624">
		<tag k="name" v="Slåttnes" />
		<tag k="name:no" v="Slåttnes" />
		<tag k="place" v="farm" />
		<tag k="ssr:date" v="2018-01-09" />
		<tag k="ssr:stedsnr" v="439423" />
		<nd ref="-12352" />
		<nd ref="-12353" />
		<nd ref="-12354" />
	</way>
	<way id="-3616">
		<tag k="alt_name:no" v="Holmo" />
		<tag k="name" v="Holmmo" />
		<tag k="name:no" v="Holmmo" />
		<tag k="place" v="farm" />
		<tag k="ssr:date" v="2018-01-09" />
		<tag k="ssr:stedsnr" v="257383" />
		<nd ref="-12307" />
		<nd ref="-12308" />
		<nd ref="-12309" />
		<nd ref="-12310" />
	</way>
	<way id="-3615">
		<tag k="name" v="Jomali statsskog" />
		<tag k="name:no" v="Jomali statsskog" />
		<tag k="place" v="locality" />
		<tag k="ssr:date" v="2018-01-09" />
		<tag k="ssr:stedsnr" v="774252" />
		<nd ref="-12302" />
		<nd ref="-12303" />
		<nd ref="-12304" />
		<nd ref="-12305" />
		<nd ref="-12306" />
	</way>
	<way id="-4113">
		<tag k="fixme" v="multiple name tags, choose one and add the other to alt_name" />
		<tag k="name" v="Vestre Nyvika;Vestergården" />
		<tag k="name:no" v="Vestre Nyvika;Vestergården" />
		<tag k="place" v="farm" />
		<tag k="ssr:date" v="2018-01-09" />
		<tag k="ssr:stedsnr" v="500503" />
		<nd ref="-14583" />
		<nd ref="-14584" />
		<nd ref="-14585" />
		<nd ref="-14586" />
	</way>
	<way id="-4100">
		<tag k="name" v="Landingen" />
		<tag k="name:no" v="Landingen" />
		<tag k="place" v="farm" />
		<tag k="ssr:date" v="2018-01-09" />
		<tag k="ssr:stedsnr" v="742355" />
		<nd ref="-14518" />
		<nd ref="-14519" />
	</way>
</osm>
