<?xml version="1.0" encoding="UTF-8"?>
<osm generator="osmapis" version="0.6">
	<node id="-13311" lat="65.1070416686" lon="14.2020444504">
		<tag k="name" v="Jitnemenjaevrie - Jetnamsvatnet" />
		<tag k="name:no" v="Jetnamsvatnet" />
		<tag k="name:sma" v="Jitnemenjaevrie" />
		<tag k="ssr:date" v="2018-01-09" />
		<tag k="ssr:stedsnr" v="603273" />
	</node>
	<node id="-13815" lat="64.6687416698" lon="13.1981444403">
		<tag k="name" v="Bustadtangen" />
		<tag k="name:no" v="Bustadtangen" />
		<tag k="ssr:date" v="2018-01-09" />
		<tag k="ssr:stedsnr" v="969257" />
	</node>
	<node id="-15017" lat="64.8856666636" lon="13.5632138861">
		<tag k="name" v="Røyrvikveien" />
		<tag k="name:no" v="Røyrvikveien" />
		<tag k="ssr:date" v="2018-01-09" />
		<tag k="ssr:stedsnr" v="300820" />
	</node>
	<node id="-15851" lat="64.6804111142" lon="13.0880527776">
		<tag k="name" v="Tunnsjøflyan" />
		<tag k="name:no" v="Tunnsjøflyan" />
		<tag k="ssr:date" v="2018-01-09" />
		<tag k="ssr:stedsnr" v="362273" />
	</node>
	<node id="-14826" lat="64.6667111069" lon="13.1828722149">
		<tag k="name" v="Tangan" />
		<tag k="name:no" v="Tangan" />
		<tag k="ssr:date" v="2018-01-09" />
		<tag k="ssr:stedsnr" v="59207" />
	</node>
	<node id="-15849" lat="65.012658331" lon="13.6738777689">
		<tag k="name" v="Raajhkerenjohke - Rekarvasselva" />
		<tag k="name:no" v="Rekarvasselva" />
		<tag k="name:sma" v="Raajhkerenjohke" />
		<tag k="ssr:date" v="2018-01-09" />
		<tag k="ssr:stedsnr" v="846252" />
	</node>
	<node id="-14311" lat="64.9779527779" lon="14.032836103">
		<tag k="name" v="Ovrejaevrie - Orvatnet" />
		<tag k="name:no" v="Orvatnet" />
		<tag k="name:sma" v="Ovrejaevrie" />
		<tag k="ssr:date" v="2018-01-09" />
		<tag k="ssr:stedsnr" v="785272" />
	</node>
	<node id="-15330" lat="64.8965277778" lon="13.5532916587">
		<tag k="name" v="Saksvassveien" />
		<tag k="name:no" v="Saksvassveien" />
		<tag k="ssr:date" v="2018-01-09" />
		<tag k="ssr:stedsnr" v="178803" />
	</node>
	<node id="-13280" lat="64.7911999963" lon="13.4666083251">
		<tag k="name" v="Merkestjønna" />
		<tag k="name:no" v="Merkestjønna" />
		<tag k="ssr:date" v="2018-01-09" />
		<tag k="ssr:stedsnr" v="302445" />
	</node>
	<node id="-15610" lat="65.0541499967" lon="13.7836083383">
		<tag k="ssr:gml_id" v="GEOMETRY_ae09a905-7b84-42a1-a1c7-f32b12937ab5" />
		<tag k="ssr:gml_nr" v="0" />
	</node>
	<node id="-12882" lat="64.9815944406" lon="13.5987750086">
		<tag k="name" v="Merkesberget" />
		<tag k="name:no" v="Merkesberget" />
		<tag k="ssr:date" v="2018-01-09" />
		<tag k="ssr:stedsnr" v="848482" />
	</node>
	<node id="-15831" lat="64.7017027741" lon="13.1522277809">
		<tag k="name" v="Langvasshytta" />
		<tag k="name:no" v="Langvasshytta" />
		<tag k="ssr:date" v="2018-01-09" />
		<tag k="ssr:stedsnr" v="848447" />
	</node>
	<node id="-14798" lat="64.8010527744" lon="13.6315611183">
		<tag k="bridge" v="yes" />
		<tag k="layer" v="1" />
		<tag k="name" v="Slåttnesbrua" />
		<tag k="name:no" v="Slåttnesbrua" />
		<tag k="ssr:date" v="2018-01-09" />
		<tag k="ssr:stedsnr" v="47933" />
	</node>
	<node id="-14793" lat="64.8813444433" lon="13.9115333329">
		<tag k="ford" v="yes" />
		<tag k="name" v="Gaaloe" />
		<tag k="name:sma" v="Gaaloe" />
		<tag k="place" v="locality" />
		<tag k="ssr:date" v="2018-01-09" />
		<tag k="ssr:stedsnr" v="228222" />
	</node>
	<node id="-15807" lat="64.9632194486" lon="13.5593000048">
		<tag k="name" v="Damveien" />
		<tag k="name:no" v="Damveien" />
		<tag k="ssr:date" v="2018-01-09" />
		<tag k="ssr:stedsnr" v="360796" />
	</node>
	<node id="-15288" lat="64.8930722238" lon="13.6529861191">
		<tag k="name" v="Seteråsveien" />
		<tag k="name:no" v="Seteråsveien" />
		<tag k="ssr:date" v="2018-01-09" />
		<tag k="ssr:stedsnr" v="178797" />
	</node>
	<node id="-15284" lat="64.8899916678" lon="13.6728972224">
		<tag k="name" v="Landingveien" />
		<tag k="name:no" v="Landingveien" />
		<tag k="ssr:date" v="2018-01-09" />
		<tag k="ssr:stedsnr" v="542810" />
	</node>
	<node id="-14255" lat="64.8813888856" lon="13.911555563">
		<tag k="ford" v="yes" />
		<tag k="name" v="Vadet" />
		<tag k="name:no" v="Vadet" />
		<tag k="place" v="locality" />
		<tag k="ssr:date" v="2018-01-09" />
		<tag k="ssr:stedsnr" v="167232" />
	</node>
	<node id="-14765" lat="64.7720777737" lon="13.4062444366">
		<tag k="name" v="Tjønnvikveien" />
		<tag k="name:no" v="Tjønnvikveien" />
		<tag k="ssr:date" v="2018-01-09" />
		<tag k="ssr:stedsnr" v="421856" />
	</node>
	<node id="-13227" lat="64.9888166648" lon="13.7380861117">
		<tag k="name" v="Sultifisktjønna" />
		<tag k="name:no" v="Sultifisktjønna" />
		<tag k="ssr:date" v="2018-01-09" />
		<tag k="ssr:stedsnr" v="603277" />
	</node>
	<node id="-15786" lat="65.045950004" lon="13.7763083299">
		<tag k="name" v="Reiret" />
		<tag k="name:no" v="Reiret" />
		<tag k="ssr:date" v="2018-01-09" />
		<tag k="ssr:stedsnr" v="724299" />
	</node>
	<node id="-14245" lat="65.0470333356" lon="13.6528749944">
		<tag k="loc_name:no" v="Rekaren" />
		<tag k="name" v="Raajhkere" />
		<tag k="name:sma" v="Raajhkere" />
		<tag k="ssr:date" v="2018-01-09" />
		<tag k="ssr:stedsnr" v="178294" />
	</node>
	<node id="-15259" lat="64.9652472243" lon="13.6874499913">
		<tag k="ssr:gml_id" v="GEOMETRY_3be00793-613f-4c56-bb78-119850d178c9" />
		<tag k="ssr:gml_nr" v="1" />
	</node>
	<node id="-15258" lat="64.9706000031" lon="13.6715472331">
		<tag k="ssr:gml_id" v="GEOMETRY_bcf6d608-8e91-48ba-a1e1-d8d65ee6a7c2" />
		<tag k="ssr:gml_nr" v="0" />
	</node>
	<node id="-12687" lat="64.9931111084" lon="13.7104000026">
		<tag k="name" v="Godfisktjønna" />
		<tag k="name:no" v="Godfisktjønna" />
		<tag k="ssr:date" v="2018-01-09" />
		<tag k="ssr:stedsnr" v="728274" />
	</node>
	<node id="-12681" lat="64.8083861077" lon="13.4265305521">
		<tag k="name" v="Kvernbekktjønnin" />
		<tag k="name:no" v="Kvernbekktjønnin" />
		<tag k="ssr:date" v="2018-01-09" />
		<tag k="ssr:stedsnr" v="484406" />
	</node>
	<node id="-14211" lat="65.0153111128" lon="13.5644388791">
		<tag k="name" v="Langtjønna" />
		<tag k="name:no" v="Langtjønna" />
		<tag k="ssr:date" v="2018-01-09" />
		<tag k="ssr:stedsnr" v="360254" />
	</node>
	<node id="-15234" lat="64.7029583364" lon="13.2775750089">
		<tag k="name" v="Litlfjelløya" />
		<tag k="name:no" v="Litlfjelløya" />
		<tag k="ssr:date" v="2018-01-09" />
		<tag k="ssr:stedsnr" v="909274" />
	</node>
	<node id="-15223" lat="64.6890611096" lon="13.2048638852">
		<tag k="name" v="Sandtangveien" />
		<tag k="name:no" v="Sandtangveien" />
		<tag k="ssr:date" v="2018-01-09" />
		<tag k="ssr:stedsnr" v="178784" />
	</node>
	<node id="-13165" lat="64.9886388852" lon="13.5862166559">
		<tag k="name" v="Krokvassveien" />
		<tag k="name:no" v="Krokvassveien" />
		<tag k="ssr:date" v="2018-01-09" />
		<tag k="ssr:stedsnr" v="664793" />
	</node>
	<node id="-15724" lat="64.6772666641" lon="13.3205166666">
		<tag k="name" v="Bukta" />
		<tag k="name:no" v="Bukta" />
		<tag k="ssr:date" v="2018-01-09" />
		<tag k="ssr:stedsnr" v="787254" />
	</node>
	<node id="-12775" lat="64.9338444435" lon="13.5978500066">
		<tag k="bridge" v="yes" />
		<tag k="layer" v="1" />
		<tag k="name" v="Øystre Skånalibrua" />
		<tag k="name:no" v="Øystre Skånalibrua" />
		<tag k="ssr:date" v="2018-01-09" />
		<tag k="ssr:stedsnr" v="411914" />
	</node>
	<node id="-15207" lat="64.9345388872" lon="13.4046250062">
		<tag k="name" v="Sturjenhytta" />
		<tag k="name:no" v="Sturjenhytta" />
		<tag k="ssr:date" v="2018-01-09" />
		<tag k="ssr:stedsnr" v="424427" />
	</node>
	<node id="-15206" lat="64.7249833325" lon="13.3706416701">
		<tag k="name" v="Tjåehkere - Gudfjelløya" />
		<tag k="name:no" v="Gudfjelløya" />
		<tag k="name:sma" v="Tjåehkere" />
		<tag k="ssr:date" v="2018-01-09" />
		<tag k="ssr:stedsnr" v="969459" />
	</node>
	<node id="-15204" lat="64.9982222229" lon="13.7581194491">
		<tag k="name" v="Rokstad" />
		<tag k="name:no" v="Rokstad" />
		<tag k="ssr:date" v="2018-01-09" />
		<tag k="ssr:stedsnr" v="724261" />
	</node>
	<node id="-15202" lat="64.8178249965" lon="13.6294833299">
		<tag k="generator:source" v="hydro" />
		<tag k="landuse" v="industrial" />
		<tag k="name" v="Nyvikelva kraftverk" />
		<tag k="name:no" v="Nyvikelva kraftverk" />
		<tag k="power" v="generator" />
		<tag k="ssr:date" v="2018-01-09" />
		<tag k="ssr:stedsnr" v="970159" />
	</node>
	<node id="-13661" lat="64.7666000019" lon="13.4319305456">
		<tag k="name" v="Heggliveien" />
		<tag k="name:no" v="Heggliveien" />
		<tag k="ssr:date" v="2018-01-09" />
		<tag k="ssr:stedsnr" v="724821" />
	</node>
	<node id="-15706" lat="64.690469446" lon="13.1993277745">
		<tag k="name" v="Jakopsundet" />
		<tag k="name:no" v="Jakopsundet" />
		<tag k="ssr:date" v="2018-01-09" />
		<tag k="ssr:stedsnr" v="787258" />
	</node>
	<node id="-15683" lat="64.6570999973" lon="13.2060333419">
		<tag k="name" v="Båstangenveien" />
		<tag k="name:no" v="Båstangenveien" />
		<tag k="ssr:date" v="2018-01-09" />
		<tag k="ssr:stedsnr" v="360799" />
	</node>
	<node id="-14652" lat="64.8838833316" lon="13.5139111036">
		<tag k="name" v="Caravanplass" />
		<tag k="name:no" v="Caravanplass" />
		<tag k="ssr:date" v="2018-01-09" />
		<tag k="ssr:stedsnr" v="603772" />
	</node>
	<node id="-13394" lat="64.9891277743" lon="13.7123944368">
		<tag k="alt_name:no" v="Litlgollomsvatnet" />
		<tag k="name" v="Vulien Golmen-jaevrie" />
		<tag k="name:sma" v="Vulien Golmen-jaevrie" />
		<tag k="ssr:date" v="2018-01-09" />
		<tag k="ssr:stedsnr" v="482288" />
	</node>
	<node id="-12596" lat="64.8562194469" lon="13.8599194514">
		<tag k="name" v="Jomalia" />
		<tag k="name:no" v="Jomalia" />
		<tag k="ssr:date" v="2018-01-09" />
		<tag k="ssr:stedsnr" v="181444" />
	</node>
	<node id="-13621" lat="65.0096250016" lon="13.6211361127">
		<tag k="name" v="Jonasmoen" />
		<tag k="name:no" v="Jonasmoen" />
		<tag k="ssr:date" v="2018-01-09" />
		<tag k="ssr:stedsnr" v="57245" />
	</node>
	<node id="-14644" lat="64.9243972194" lon="13.9060111045">
		<tag k="name" v="Raentsere - Renselvatnet" />
		<tag k="name:no" v="Renselvatnet" />
		<tag k="name:sma" v="Raentsere" />
		<tag k="ssr:date" v="2018-01-09" />
		<tag k="ssr:stedsnr" v="241447" />
	</node>
	<node id="-14131" lat="64.6591027807" lon="13.0896638971">
		<tag k="name" v="Styggdalen" />
		<tag k="name:no" v="Styggdalen" />
		<tag k="ssr:date" v="2018-01-09" />
		<tag k="ssr:stedsnr" v="787454" />
	</node>
	<node id="-13106" lat="64.658055556" lon="13.187661114">
		<tag k="name" v="Staldvika" />
		<tag k="name:no" v="Staldvika" />
		<tag k="ssr:date" v="2018-01-09" />
		<tag k="ssr:stedsnr" v="664810" />
	</node>
	<node id="-14641" lat="64.767708332" lon="13.4343249916">
		<tag k="name" v="Leikhaugveien" />
		<tag k="name:no" v="Leikhaugveien" />
		<tag k="ssr:date" v="2018-01-09" />
		<tag k="ssr:stedsnr" v="482777" />
	</node>
	<node id="-14640" lat="64.8479083375" lon="13.5979805532">
		<tag k="bridge" v="yes" />
		<tag k="layer" v="1" />
		<tag k="name" v="Storbekkbrua" />
		<tag k="name:no" v="Storbekkbrua" />
		<tag k="ssr:date" v="2018-01-09" />
		<tag k="ssr:stedsnr" v="532927" />
	</node>
	<node id="-13614" lat="64.8821138871" lon="13.5606833272">
		<tag k="name" v="Nyvikveien" />
		<tag k="name:no" v="Nyvikveien" />
		<tag k="ssr:date" v="2018-01-09" />
		<tag k="ssr:stedsnr" v="118816" />
	</node>
	<node id="-14637" lat="64.657400002" lon="13.1790444506">
		<tag k="name" v="Staldvikveien" />
		<tag k="name:no" v="Staldvikveien" />
		<tag k="ssr:date" v="2018-01-09" />
		<tag k="ssr:stedsnr" v="663827" />
	</node>
	<node id="-15148" lat="64.8622499969" lon="13.5754472223">
		<tag k="bridge" v="yes" />
		<tag k="layer" v="1" />
		<tag k="name" v="Sagvikmarkbrua" />
		<tag k="name:no" v="Sagvikmarkbrua" />
		<tag k="ssr:date" v="2018-01-09" />
		<tag k="ssr:stedsnr" v="229933" />
	</node>
	<node id="-15145" lat="64.9208694454" lon="13.690911108">
		<tag k="name" v="Husviktjønnin" />
		<tag k="name:no" v="Husviktjønnin" />
		<tag k="ssr:date" v="2018-01-09" />
		<tag k="ssr:stedsnr" v="120449" />
	</node>
	<node id="-13603" lat="65.0062416629" lon="13.8297444335">
		<tag k="alt_name:no" v="Storvika" />
		<tag k="name" v="Stoerre-loekte" />
		<tag k="name:sma" v="Stoerre-loekte" />
		<tag k="ssr:date" v="2018-01-09" />
		<tag k="ssr:stedsnr" v="57246" />
	</node>
	<node id="-14626" lat="64.8575416683" lon="13.3376666683">
		<tag k="name" v="Steinfjellveien" />
		<tag k="name:no" v="Steinfjellveien" />
		<tag k="ssr:date" v="2018-01-09" />
		<tag k="ssr:stedsnr" v="663826" />
	</node>
	<node id="-13601" lat="64.6976416687" lon="13.0746916713">
		<tag k="name" v="Småvatnveien" />
		<tag k="name:no" v="Småvatnveien" />
		<tag k="ssr:date" v="2018-01-09" />
		<tag k="ssr:stedsnr" v="967776" />
	</node>
	<node id="-15648" lat="65.017725004" lon="13.5436083304">
		<tag k="name" v="Nååmesjenvuemie - Namslian" />
		<tag k="name:no" v="Namslian" />
		<tag k="name:sma" v="Nååmesjenvuemie" />
		<tag k="ssr:date" v="2018-01-09" />
		<tag k="ssr:stedsnr" v="544320" />
	</node>
	<node id="-14620" lat="64.62189722" lon="13.1913027798">
		<tag k="name" v="Olatjønna" />
		<tag k="name:no" v="Olatjønna" />
		<tag k="ssr:date" v="2018-01-09" />
		<tag k="ssr:stedsnr" v="605243" />
	</node>
	<node id="-14613" lat="64.8824333288" lon="13.5628333378">
		<tag k="name" v="Sætermoveien" />
		<tag k="name:no" v="Sætermoveien" />
		<tag k="ssr:date" v="2018-01-09" />
		<tag k="ssr:stedsnr" v="421835" />
	</node>
	<node id="-14610" lat="64.7578027761" lon="13.4363416651">
		<tag k="name" v="Myrvikveien" />
		<tag k="name:no" v="Myrvikveien" />
		<tag k="ssr:date" v="2018-01-09" />
		<tag k="ssr:stedsnr" v="603753" />
	</node>
	<node id="-13072" lat="64.7861666672" lon="13.403397221">
		<tag k="bridge" v="yes" />
		<tag k="layer" v="1" />
		<tag k="name" v="Storbekkbrua" />
		<tag k="name:no" v="Storbekkbrua" />
		<tag k="ssr:date" v="2018-01-09" />
		<tag k="ssr:stedsnr" v="351940" />
	</node>
	<node id="-14094" lat="64.6133999979" lon="13.2264055533">
		<tag k="name" v="Blåhammartjønna" />
		<tag k="name:no" v="Blåhammartjønna" />
		<tag k="ssr:date" v="2018-01-09" />
		<tag k="ssr:stedsnr" v="181217" />
	</node>
	<node id="-15117" lat="64.8864416666" lon="13.5958472204">
		<tag k="name" v="Nordgårdsseteren" />
		<tag k="name:no" v="Nordgårdsseteren" />
		<tag k="ssr:date" v="2018-01-09" />
		<tag k="ssr:stedsnr" v="424419" />
	</node>
	<node id="-15319" lat="64.5452027754" lon="13.108930552">
		<tag k="loc_name:no" v="Gaizeren;Gaiseren" />
		<tag k="name" v="Gaajsjaevrie" />
		<tag k="name:no" v="Gaajsjaevrie" />
		<tag k="ssr:date" v="2018-01-09" />
		<tag k="ssr:stedsnr" v="362227" />
	</node>
	<node id="-15621" lat="64.8857388856" lon="13.5597138869">
		<tag k="name" v="Hamnegata" />
		<tag k="name:no" v="Hamnegata" />
		<tag k="ssr:date" v="2018-01-09" />
		<tag k="ssr:stedsnr" v="785795" />
	</node>
	<node id="-13060" lat="64.7458250009" lon="13.1705194379">
		<tag k="name" v="Postskardet" />
		<tag k="name:no" v="Postskardet" />
		<tag k="ssr:date" v="2018-01-09" />
		<tag k="ssr:stedsnr" v="363390" />
	</node>
	<node id="-13059" lat="64.768258333" lon="13.4283083397">
		<tag k="bridge" v="yes" />
		<tag k="layer" v="1" />
		<tag k="name" v="Tjønnbekkbrua" />
		<tag k="name:no" v="Tjønnbekkbrua" />
		<tag k="ssr:date" v="2018-01-09" />
		<tag k="ssr:stedsnr" v="776927" />
	</node>
	<node id="-13355" lat="64.8429611124" lon="13.6929027697">
		<tag k="name" v="Njueniesjaevrie - Halvvegesvatnet" />
		<tag k="name:no" v="Halvvegesvatnet" />
		<tag k="name:sma" v="Njueniesjaevrie" />
		<tag k="ssr:date" v="2018-01-09" />
		<tag k="ssr:stedsnr" v="302464" />
	</node>
	<node id="-12544" lat="64.8793083324" lon="13.8444222234">
		<tag k="name" v="Jomaveien" />
		<tag k="name:no" v="Jomaveien" />
		<tag k="ssr:date" v="2018-01-09" />
		<tag k="ssr:stedsnr" v="481838" />
	</node>
	<node id="-14591" lat="64.8562666657" lon="13.4220444548">
		<tag k="bridge" v="yes" />
		<tag k="layer" v="1" />
		<tag k="name" v="Gjersvikbrua" />
		<tag k="name:no" v="Gjersvikbrua" />
		<tag k="ssr:date" v="2018-01-09" />
		<tag k="ssr:stedsnr" v="350904" />
	</node>
	<node id="-15611" lat="65.0533777817" lon="13.7934222158">
		<tag k="ssr:gml_id" v="GEOMETRY_6a82006b-823b-4ffe-a53d-0e8b0d9a7b01" />
		<tag k="ssr:gml_nr" v="1" />
	</node>
	<node id="-13050" lat="64.7884000044" lon="13.3730027733">
		<tag k="bridge" v="yes" />
		<tag k="layer" v="1" />
		<tag k="name" v="Styggebekkbrua" />
		<tag k="name:no" v="Styggebekkbrua" />
		<tag k="ssr:date" v="2018-01-09" />
		<tag k="ssr:stedsnr" v="836921" />
	</node>
	<node id="-15608" lat="64.7847083336" lon="13.4093416694">
		<tag k="name" v="Blauthalsveien" />
		<tag k="name:no" v="Blauthalsveien" />
		<tag k="ssr:date" v="2018-01-09" />
		<tag k="ssr:stedsnr" v="785792" />
	</node>
	<node id="-15603" lat="64.8455027769" lon="13.3785194436">
		<tag k="name" v="Bjørkvassveien" />
		<tag k="name:no" v="Bjørkvassveien" />
		<tag k="ssr:date" v="2018-01-09" />
		<tag k="ssr:stedsnr" v="785788" />
	</node>
	<node id="-14063" lat="64.9746499983" lon="13.6134944523">
		<tag k="name" v="Harratangen" />
		<tag k="name:no" v="Harratangen" />
		<tag k="ssr:date" v="2018-01-09" />
		<tag k="ssr:stedsnr" v="59469" />
	</node>
	<node id="-14568" lat="64.8878583301" lon="13.5553972305">
		<tag k="name" v="Ungkarsveien" />
		<tag k="name:no" v="Ungkarsveien" />
		<tag k="ssr:date" v="2018-01-09" />
		<tag k="ssr:stedsnr" v="846820" />
	</node>
	<node id="-14549" lat="64.8849083358" lon="13.5171083431">
		<tag k="name" v="Rørliveien" />
		<tag k="name:no" v="Rørliveien" />
		<tag k="ssr:date" v="2018-01-09" />
		<tag k="ssr:stedsnr" v="421824" />
	</node>
	<node id="-13524" lat="64.9653444462" lon="13.5577527789">
		<tag k="name" v="Søråsveien" />
		<tag k="name:no" v="Søråsveien" />
		<tag k="ssr:date" v="2018-01-09" />
		<tag k="ssr:stedsnr" v="967782" />
	</node>
	<node id="-14711" lat="64.8874166689" lon="13.9181916602">
		<tag k="name" v="Renselvassveien" />
		<tag k="name:no" v="Renselvassveien" />
		<tag k="ssr:date" v="2018-01-09" />
		<tag k="ssr:stedsnr" v="482780" />
	</node>
	<node id="-15558" lat="64.8879638932" lon="13.5586749945">
		<tag k="name" v="Arnveien" />
		<tag k="name:no" v="Arnveien" />
		<tag k="ssr:date" v="2018-01-09" />
		<tag k="ssr:stedsnr" v="178823" />
	</node>
	<node id="-15905" lat="64.8841999981" lon="13.5632388886">
		<tag k="name" v="Loddoveien" />
		<tag k="name:no" v="Loddoveien" />
		<tag k="ssr:date" v="2018-01-09" />
		<tag k="ssr:stedsnr" v="785819" />
	</node>
	<node id="-14527" lat="64.881433336" lon="13.5611194495">
		<tag k="name" v="Haugaveien" />
		<tag k="name:no" v="Haugaveien" />
		<tag k="ssr:date" v="2018-01-09" />
		<tag k="ssr:stedsnr" v="846811" />
	</node>
	<node id="-15542" lat="64.8165083348" lon="13.244377787">
		<tag k="name" v="Vuelie-Trompenjaevrie - Litltromsvatnet" />
		<tag k="name:no" v="Litltromsvatnet" />
		<tag k="name:sma" v="Vuelie-Trompenjaevrie" />
		<tag k="ssr:date" v="2018-01-09" />
		<tag k="ssr:stedsnr" v="969463" />
	</node>
	<node id="-15529" lat="64.8612472189" lon="13.4099361012">
		<tag k="name" v="Storkroktjønnveien" />
		<tag k="name:no" v="Storkroktjønnveien" />
		<tag k="ssr:date" v="2018-01-09" />
		<tag k="ssr:stedsnr" v="360773" />
	</node>
	<node id="-15016" lat="65.005774997" lon="13.6319472267">
		<tag k="name" v="Sandviktangen" />
		<tag k="name:no" v="Sandviktangen" />
		<tag k="ssr:date" v="2018-01-09" />
		<tag k="ssr:stedsnr" v="967249" />
	</node>
	<node id="-13475" lat="64.9373444418" lon="13.5812222208">
		<tag k="name" v="Myrheimveien" />
		<tag k="name:no" v="Myrheimveien" />
		<tag k="ssr:date" v="2018-01-09" />
		<tag k="ssr:stedsnr" v="239840" />
	</node>
	<node id="-12449" lat="64.6894555517" lon="13.2099861179">
		<tag k="name" v="Flyanveien" />
		<tag k="name:no" v="Flyanveien" />
		<tag k="ssr:date" v="2018-01-09" />
		<tag k="ssr:stedsnr" v="907743" />
	</node>
	<node id="-12958" lat="64.8981583299" lon="13.431836117">
		<tag k="name" v="Austvatnet" />
		<tag k="name:no" v="Austvatnet" />
		<tag k="ssr:date" v="2018-01-09" />
		<tag k="ssr:stedsnr" v="484431" />
	</node>
	<node id="-15003" lat="64.8960472225" lon="13.5560694421">
		<tag k="name" v="Hudningsdalsveien" />
		<tag k="name:no" v="Hudningsdalsveien" />
		<tag k="ssr:date" v="2018-01-09" />
		<tag k="ssr:stedsnr" v="907783" />
	</node>
	<node id="-14993" lat="64.8970722228" lon="13.5621694434">
		<tag k="name" v="Namsvassveien" />
		<tag k="name:no" v="Namsvassveien" />
		<tag k="ssr:date" v="2018-01-09" />
		<tag k="ssr:stedsnr" v="482814" />
	</node>
	<node id="-13456" lat="64.8898888855" lon="13.5563361209">
		<tag k="name" v="Myrveien" />
		<tag k="name:no" v="Myrveien" />
		<tag k="ssr:date" v="2018-01-09" />
		<tag k="ssr:stedsnr" v="118805" />
	</node>
	<node id="-12942" lat="64.9015055595" lon="14.010680564">
		<tag k="name" v="Lybekkdalen" />
		<tag k="name:no" v="Lybekkdalen" />
		<tag k="ssr:date" v="2018-01-09" />
		<tag k="ssr:stedsnr" v="484432" />
	</node>
	<node id="-15497" lat="64.8829305525" lon="13.5645472287">
		<tag k="name" v="Rørfossveien" />
		<tag k="name:no" v="Rørfossveien" />
		<tag k="ssr:date" v="2018-01-09" />
		<tag k="ssr:stedsnr" v="178818" />
	</node>
	<node id="-14977" lat="64.8854277819" lon="13.5160333425">
		<tag k="name" v="Vektarklumpveien" />
		<tag k="name:no" v="Vektarklumpveien" />
		<tag k="ssr:date" v="2018-01-09" />
		<tag k="ssr:stedsnr" v="907754" />
	</node>
	<node id="-13952" lat="64.8875333292" lon="13.5607166619">
		<tag k="name" v="Basstuveien" />
		<tag k="name:no" v="Basstuveien" />
		<tag k="ssr:date" v="2018-01-09" />
		<tag k="ssr:stedsnr" v="724828" />
	</node>
	<node id="-15295" lat="64.8102916637" lon="13.6267972287">
		<tag k="name" v="Gåsvassveien" />
		<tag k="name:no" v="Gåsvassveien" />
		<tag k="ssr:date" v="2018-01-09" />
		<tag k="ssr:stedsnr" v="542811" />
	</node>
	<node id="-14454" lat="65.0056722192" lon="13.586933324">
		<tag k="name" v="Hopbekktangen" />
		<tag k="name:no" v="Hopbekktangen" />
		<tag k="ssr:date" v="2018-01-09" />
		<tag k="ssr:stedsnr" v="785269" />
	</node>
	<node id="-12917" lat="65.0523666703" lon="13.8131527709">
		<tag k="name" v="Johkegaske - Virmaneset" />
		<tag k="name:no" v="Virmaneset" />
		<tag k="name:sma" v="Johkegaske" />
		<tag k="ssr:date" v="2018-01-09" />
		<tag k="ssr:stedsnr" v="663298" />
	</node>
	<node id="-15474" lat="64.8861333336" lon="13.5591888893">
		<tag k="name" v="Buenget" />
		<tag k="name:no" v="Buenget" />
		<tag k="ssr:date" v="2018-01-09" />
		<tag k="ssr:stedsnr" v="178810" />
	</node>
	<node id="-14444" lat="64.8790194432" lon="13.8187888861">
		<tag k="name" v="Sørsundveien" />
		<tag k="name:no" v="Sørsundveien" />
		<tag k="ssr:date" v="2018-01-09" />
		<tag k="ssr:stedsnr" v="421812" />
	</node>
	<node id="-13440" lat="64.888638892" lon="13.5604805537">
		<tag k="name" v="Kvennhusveien" />
		<tag k="name:no" v="Kvennhusveien" />
		<tag k="ssr:date" v="2018-01-09" />
		<tag k="ssr:stedsnr" v="967787" />
	</node>
	<node id="-14441" lat="65.0282777774" lon="13.7368666562">
		<tag k="name" v="Bustadslåtten" />
		<tag k="name:no" v="Bustadslåtten" />
		<tag k="ssr:date" v="2018-01-09" />
		<tag k="ssr:stedsnr" v="785266" />
	</node>
	<node id="-15975" lat="64.6548916683" lon="13.1780916683">
		<tag k="name" v="Hitertjønnveien" />
		<tag k="name:no" v="Hitertjønnveien" />
		<tag k="ssr:date" v="2018-01-09" />
		<tag k="ssr:stedsnr" v="785806" />
	</node>
	<node id="-13921" lat="64.8910111074" lon="13.5540083381">
		<tag k="name" v="Skytterveien" />
		<tag k="name:no" v="Skytterveien" />
		<tag k="ssr:date" v="2018-01-09" />
		<tag k="ssr:stedsnr" v="724825" />
	</node>
	<node id="-15455" lat="64.8854166668" lon="13.513152773">
		<tag k="name" v="Småtjønnveien" />
		<tag k="name:no" v="Småtjønnveien" />
		<tag k="ssr:date" v="2018-01-09" />
		<tag k="ssr:stedsnr" v="542815" />
	</node>
	<node id="-14936" lat="64.8874222214" lon="13.5579055452">
		<tag k="name" v="Dergaveien" />
		<tag k="name:no" v="Dergaveien" />
		<tag k="ssr:date" v="2018-01-09" />
		<tag k="ssr:stedsnr" v="300812" />
	</node>
	<node id="-12644" lat="64.8860777767" lon="13.5448333429">
		<tag k="name" v="Gjersvikveien" />
		<tag k="name:no" v="Gjersvikveien" />
		<tag k="ssr:date" v="2018-01-09" />
		<tag k="ssr:stedsnr" v="785828" />
	</node>
	<node id="-15446" lat="64.8838361138" lon="13.5125277694">
		<tag k="name" v="Børgefjellsenterveien" />
		<tag k="name:no" v="Børgefjellsenterveien" />
		<tag k="ssr:date" v="2018-01-09" />
		<tag k="ssr:stedsnr" v="542817" />
	</node>
	<node id="-15118" lat="64.7704666632" lon="13.5490472279">
		<tag k="name" v="Myrvoll" />
		<tag k="name:no" v="Myrvoll" />
		<tag k="ssr:date" v="2018-01-09" />
		<tag k="ssr:stedsnr" v="666444" />
	</node>
	<node id="-13906" lat="64.871394447" lon="13.6229833244">
		<tag k="name" v="Storlia" />
		<tag k="name:no" v="Storlia" />
		<tag k="ssr:date" v="2018-01-09" />
		<tag k="ssr:stedsnr" v="59462" />
	</node>
	<node id="-14927" lat="64.8899361117" lon="13.5536333244">
		<tag k="name" v="Sommerfjøsveien" />
		<tag k="name:no" v="Sommerfjøsveien" />
		<tag k="ssr:date" v="2018-01-09" />
		<tag k="ssr:stedsnr" v="300810" />
	</node>
	<node id="-15950" lat="64.883425" lon="13.5120777702">
		<tag k="name" v="Gamle Gjersvikveien" />
		<tag k="name:no" v="Gamle Gjersvikveien" />
		<tag k="ssr:date" v="2018-01-09" />
		<tag k="ssr:stedsnr" v="785803" />
	</node>
	<node id="-13389" lat="64.6584500032" lon="13.1949361061">
		<tag k="name" v="Seterdalsveien" />
		<tag k="name:no" v="Seterdalsveien" />
		<tag k="ssr:date" v="2018-01-09" />
		<tag k="ssr:stedsnr" v="118793" />
	</node>
	<node id="-13383" lat="64.8567749963" lon="13.4264055594">
		<tag k="name" v="Gruvveien" />
		<tag k="name:no" v="Gruvveien" />
		<tag k="ssr:date" v="2018-01-09" />
		<tag k="ssr:stedsnr" v="724795" />
	</node>
	<node id="-14945" lat="64.7405972179" lon="13.237813889">
		<tag k="name" v="Mykkelvikseterveien" />
		<tag k="name:no" v="Mykkelvikseterveien" />
		<tag k="ssr:date" v="2018-01-09" />
		<tag k="ssr:stedsnr" v="907758" />
	</node>
	<node id="-13378" lat="64.8593527738" lon="13.4150027683">
		<tag k="bridge" v="yes" />
		<tag k="layer" v="1" />
		<tag k="name" v="Sagbekkbrua" />
		<tag k="name:no" v="Sagbekkbrua" />
		<tag k="ssr:date" v="2018-01-09" />
		<tag k="ssr:stedsnr" v="472920" />
	</node>
	<node id="-14401" lat="64.8711555575" lon="13.8525583322">
		<tag k="bridge" v="yes" />
		<tag k="layer" v="1" />
		<tag k="name" v="Orelvbrua" />
		<tag k="name:no" v="Orelvbrua" />
		<tag k="ssr:date" v="2018-01-09" />
		<tag k="ssr:stedsnr" v="715918" />
	</node>
	<node id="-13376" lat="64.6972333321" lon="13.2252888979">
		<tag k="name" v="Storholmen" />
		<tag k="name:no" v="Storholmen" />
		<tag k="ssr:date" v="2018-01-09" />
		<tag k="ssr:stedsnr" v="120248" />
	</node>
	<node id="-15935" lat="64.9708722211" lon="13.5917222306">
		<tag k="name" v="Gollomsveien" />
		<tag k="name:no" v="Gollomsveien" />
		<tag k="ssr:date" v="2018-01-09" />
		<tag k="ssr:stedsnr" v="785799" />
	</node>
	<node id="-15420" lat="64.6568916626" lon="13.1766583277">
		<tag k="name" v="Finnkruhaugveien" />
		<tag k="name:no" v="Finnkruhaugveien" />
		<tag k="ssr:date" v="2018-01-09" />
		<tag k="ssr:stedsnr" v="178806" />
	</node>
	<node id="-13877" lat="64.6648333321" lon="13.2075250051">
		<tag k="name" v="Stallvikholmen" />
		<tag k="name:no" v="Stallvikholmen" />
		<tag k="ssr:date" v="2018-01-09" />
		<tag k="ssr:stedsnr" v="545195" />
	</node>
	<node id="-14896" lat="64.883438893" lon="13.5614166584">
		<tag k="name" v="Stadionveien" />
		<tag k="name:no" v="Stadionveien" />
		<tag k="ssr:date" v="2018-01-09" />
		<tag k="ssr:stedsnr" v="907766" />
	</node>
	<node id="-14895" lat="64.8890861093" lon="13.5573416659">
		<tag k="name" v="Åkerveien" />
		<tag k="name:no" v="Åkerveien" />
		<tag k="ssr:date" v="2018-01-09" />
		<tag k="ssr:stedsnr" v="482802" />
	</node>
	<node id="-13867" lat="64.6324527749" lon="13.2384666732">
		<tag k="name" v="Setertjønna" />
		<tag k="name:no" v="Setertjønna" />
		<tag k="ssr:date" v="2018-01-09" />
		<tag k="ssr:stedsnr" v="545197" />
	</node>
	<node id="-14883" lat="64.8835972238" lon="13.5638555584">
		<tag k="name" v="Bergveien" />
		<tag k="name:no" v="Bergveien" />
		<tag k="ssr:date" v="2018-01-09" />
		<tag k="ssr:stedsnr" v="907767" />
	</node>
	<node id="-14369" lat="64.7534333349" lon="13.2815055498">
		<tag k="name" v="Litlfisktjønna" />
		<tag k="name:no" v="Litlfisktjønna" />
		<tag k="ssr:date" v="2018-01-09" />
		<tag k="ssr:stedsnr" v="241421" />
	</node>
	<node id="-15900" lat="64.8869222221" lon="13.9176499977">
		<tag k="bridge" v="yes" />
		<tag k="layer" v="1" />
		<tag k="name" v="Landbrua" />
		<tag k="name:no" v="Landbrua" />
		<tag k="ssr:date" v="2018-01-09" />
		<tag k="ssr:stedsnr" v="956243" />
	</node>
	<node id="-13337" lat="64.8008888847" lon="13.6302000064">
		<tag k="name" v="Slåttvikveien" />
		<tag k="name:no" v="Slåttvikveien" />
		<tag k="ssr:date" v="2018-01-09" />
		<tag k="ssr:stedsnr" v="724791" />
	</node>
	<node id="-12311" lat="64.8489138865" lon="13.4126249912">
		<tag k="name" v="Trollvikveien" />
		<tag k="name:no" v="Trollvikveien" />
		<tag k="ssr:date" v="2018-01-09" />
		<tag k="ssr:stedsnr" v="846807" />
	</node>
	<node id="-12376" lat="64.7655416702" lon="13.4330555631">
		<tag k="bridge" v="yes" />
		<tag k="layer" v="1" />
		<tag k="name" v="Flåbekkbrua" />
		<tag k="name:no" v="Flåbekkbrua" />
		<tag k="ssr:date" v="2018-01-09" />
		<tag k="ssr:stedsnr" v="958941" />
	</node>
	<node id="-12375" lat="64.9097111102" lon="13.6216722216">
		<tag k="name" v="Husvikveien" />
		<tag k="name:no" v="Husvikveien" />
		<tag k="ssr:date" v="2018-01-09" />
		<tag k="ssr:stedsnr" v="421844" />
	</node>
	<node id="-13832" lat="64.8317277772" lon="13.4016972209">
		<tag k="name" v="Gjersvikruveien" />
		<tag k="name:no" v="Gjersvikruveien" />
		<tag k="ssr:date" v="2018-01-09" />
		<tag k="ssr:stedsnr" v="724837" />
	</node>
	<node id="-12374" lat="64.8160472225" lon="13.6227416742">
		<tag k="name" v="Nyviktangveien" />
		<tag k="name:no" v="Nyviktangveien" />
		<tag k="ssr:date" v="2018-01-09" />
		<tag k="ssr:stedsnr" v="482789" />
	</node>
	<way id="-4263">
		<tag k="name" v="Golmesjaevrieh - Storgollomsvatnet" />
		<tag k="name:no" v="Storgollomsvatnet" />
		<tag k="name:sma" v="Golmesjaevrieh" />
		<tag k="ssr:date" v="2018-01-09" />
		<tag k="ssr:stedsnr" v="724267" />
		<nd ref="-15258" />
		<nd ref="-15259" />
	</way>
	<way id="-4337">
		<tag k="name" v="Stoerrejohke - Storelva" />
		<tag k="name:no" v="Storelva" />
		<tag k="name:sma" v="Stoerrejohke" />
		<tag k="ssr:date" v="2018-01-09" />
		<tag k="ssr:stedsnr" v="118312" />
		<nd ref="-15610" />
		<nd ref="-15611" />
	</way>
</osm>
