<?xml version="1.0" encoding="UTF-8"?>
<osm generator="osmapis" version="0.6">
	<node id="-14592" lat="64.8427638892" lon="13.9569944487">
		<tag k="historic" v="boundary_stone" />
		<tag k="man_made" v="cairn" />
		<tag k="name" v="Sijliesjohke" />
		<tag k="name:no" v="Sijliesjohke" />
		<tag k="place" v="locality" />
		<tag k="ssr:date" v="2018-01-09" />
		<tag k="ssr:stedsnr" v="717854" />
	</node>
	<node id="-12516" lat="65.0486805536" lon="14.2269527865">
		<tag k="ssr:gml_id" v="GEOMETRY_e09f6466-b3f7-4a63-a58c-647af8d9607b" />
		<tag k="ssr:gml_nr" v="1" />
	</node>
	<node id="-12515" lat="65.0486833339" lon="14.2269527787">
		<tag k="ssr:gml_id" v="GEOMETRY_c1929f9a-1b16-497c-9d34-15bc21f0976c" />
		<tag k="ssr:gml_nr" v="0" />
	</node>
	<node id="-15329" lat="64.8898000016" lon="14.0152250068">
		<tag k="ssr:gml_id" v="GEOMETRY_c5ef61a7-ba42-454d-938e-38a1a0a19865" />
		<tag k="ssr:gml_nr" v="1" />
	</node>
	<node id="-15328" lat="64.8898027777" lon="14.0152277701">
		<tag k="ssr:gml_id" v="GEOMETRY_6b4d865b-90cb-4427-ac5c-16864575dda0" />
		<tag k="ssr:gml_nr" v="0" />
	</node>
	<node id="-13021" lat="65.0619666699" lon="14.2457194358">
		<tag k="ssr:gml_id" v="GEOMETRY_2e383999-cdc5-4cd1-b68f-4f0a4b0570f0" />
		<tag k="ssr:gml_nr" v="1" />
	</node>
	<node id="-15836" lat="64.9237777747" lon="14.0581361014">
		<tag k="ssr:gml_id" v="GEOMETRY_5a0267fd-a899-4372-920c-039bf54f290e" />
		<tag k="ssr:gml_nr" v="1" />
	</node>
	<node id="-15835" lat="64.9237805537" lon="14.0581361177">
		<tag k="ssr:gml_id" v="GEOMETRY_641ac714-a16e-4287-8aa2-84be73808d2c" />
		<tag k="ssr:gml_nr" v="0" />
	</node>
	<node id="-15317" lat="64.9132833312" lon="14.0448583262">
		<tag k="historic" v="boundary_stone" />
		<tag k="man_made" v="cairn" />
		<tag k="name" v="Austermyra" />
		<tag k="name:no" v="Austermyra" />
		<tag k="place" v="locality" />
		<tag k="ssr:date" v="2018-01-09" />
		<tag k="ssr:stedsnr" v="777923" />
	</node>
	<node id="-14862" lat="64.9785527771" lon="14.1298805519">
		<tag k="ssr:gml_id" v="GEOMETRY_cd06496c-c6b5-4117-99cb-ca2348c27b2e" />
		<tag k="ssr:gml_nr" v="1" />
	</node>
	<node id="-15440" lat="64.8878222234" lon="13.558363884">
		<tag k="ssr:gml_id" v="GEOMETRY_919de9a7-4360-406f-ad50-f5ac8c1b730b" />
		<tag k="ssr:gml_nr" v="4" />
	</node>
	<node id="-15439" lat="65.0788861132" lon="13.7825027702">
		<tag k="ssr:gml_id" v="GEOMETRY_e1667d84-158f-42de-8b6d-3f4e4190a838" />
		<tag k="ssr:gml_nr" v="3" />
	</node>
	<node id="-15438" lat="64.8878250015" lon="13.5583638905">
		<tag k="ssr:gml_id" v="GEOMETRY_7d611851-582b-4c1b-8e7b-ecfd7d1830d0" />
		<tag k="ssr:gml_nr" v="2" />
	</node>
	<node id="-15437" lat="64.8837972186" lon="13.563108342">
		<tag k="ssr:gml_id" v="GEOMETRY_ef93950f-ecc0-4ea9-9c63-7edce399ae9a" />
		<tag k="ssr:gml_nr" v="1" />
	</node>
	<node id="-15436" lat="64.8837999973" lon="13.5631083278">
		<tag k="ssr:gml_id" v="GEOMETRY_51fe1f7f-9c76-4378-b541-f7bb54208d1b" />
		<tag k="ssr:gml_nr" v="0" />
	</node>
	<node id="-13122" lat="64.9618472199" lon="14.1076722224">
		<tag k="historic" v="boundary_stone" />
		<tag k="man_made" v="cairn" />
		<tag k="name" v="Buhtjeme-njuana" />
		<tag k="name:no" v="Buhtjeme-njuana" />
		<tag k="place" v="locality" />
		<tag k="ssr:date" v="2018-01-09" />
		<tag k="ssr:stedsnr" v="535878" />
	</node>
	<node id="-13108" lat="64.9517388858" lon="14.0899944333">
		<tag k="historic" v="boundary_stone" />
		<tag k="man_made" v="cairn" />
		<tag k="name" v="Vaellierøysa" />
		<tag k="name:no" v="Vaellierøysa" />
		<tag k="place" v="locality" />
		<tag k="ssr:date" v="2018-01-09" />
		<tag k="ssr:stedsnr" v="480384" />
	</node>
	<node id="-13616" lat="64.9389305553" lon="14.0772888857">
		<tag k="ssr:gml_id" v="GEOMETRY_0ce773dd-8efa-471d-8397-911034870b8c" />
		<tag k="ssr:gml_nr" v="1" />
	</node>
	<node id="-13615" lat="64.9389333301" lon="14.0772916606">
		<tag k="ssr:gml_id" v="GEOMETRY_938bdac9-fd00-435e-9d30-6f5e45e7af0a" />
		<tag k="ssr:gml_nr" v="0" />
	</node>
	<node id="-14254" lat="64.8595027753" lon="13.9779111073">
		<tag k="ssr:gml_id" v="GEOMETRY_d13cb46e-166b-4935-9df6-d17794f3d126" />
		<tag k="ssr:gml_nr" v="1" />
	</node>
	<node id="-14253" lat="64.8595055544" lon="13.9779111149">
		<tag k="ssr:gml_id" v="GEOMETRY_44459d7d-662a-4f0a-b977-e3c5bbdbb637" />
		<tag k="ssr:gml_nr" v="0" />
	</node>
	<node id="-13020" lat="65.0619694405" lon="14.2457194494">
		<tag k="ssr:gml_id" v="GEOMETRY_caa65fc3-9f0d-4eff-a743-cef1ef885994" />
		<tag k="ssr:gml_nr" v="0" />
	</node>
	<node id="-16036" lat="63.5169210211" lon="10.4860505232">
		<tag k="name" v="Trøndelag fylke" />
		<tag k="ssr:date" v="2018-01-09" />
		<tag k="ssr:stedsnr" v="980645" />
	</node>
	<node id="-14882" lat="65.1189055584" lon="14.3260305658">
		<tag k="ssr:gml_id" v="GEOMETRY_393cc478-346d-4954-8769-74dd2cb7c3da" />
		<tag k="ssr:gml_nr" v="1" />
	</node>
	<node id="-14881" lat="65.1189083305" lon="14.3260305456">
		<tag k="ssr:gml_id" v="GEOMETRY_2e70308b-5332-4be6-aa10-6c83728a004c" />
		<tag k="ssr:gml_nr" v="0" />
	</node>
	<node id="-13340" lat="65.0125194424" lon="14.176850007">
		<tag k="historic" v="boundary_stone" />
		<tag k="man_made" v="cairn" />
		<tag k="name" v="Baajmerøysa" />
		<tag k="name:no" v="Baajmerøysa" />
		<tag k="place" v="locality" />
		<tag k="ssr:date" v="2018-01-09" />
		<tag k="ssr:stedsnr" v="413883" />
	</node>
	<node id="-13722" lat="65.0353166672" lon="14.2084444503">
		<tag k="historic" v="boundary_stone" />
		<tag k="man_made" v="cairn" />
		<tag k="name" v="Austre Sipmeken N" />
		<tag k="name:no" v="Austre Sipmeken N" />
		<tag k="place" v="locality" />
		<tag k="ssr:date" v="2018-01-09" />
		<tag k="ssr:stedsnr" v="171574" />
	</node>
	<node id="-12974" lat="65.1955062865" lon="13.9421417132">
		<tag k="fixme" v="consider boundary=protected_area and relevant protect_class if not nature reserve" />
		<tag k="leisure" v="nature_reserve" />
		<tag k="name" v="Børgefjell/Byrkije nasjonalpark" />
		<tag k="name:no" v="Børgefjell/Byrkije nasjonalpark" />
		<tag k="old_name:no" v="Børgefjell nasjonalpark" />
		<tag k="ssr:date" v="2018-01-09" />
		<tag k="ssr:stedsnr" v="317726" />
	</node>
	<node id="-13838" lat="65.0220000014" lon="14.1899916674">
		<tag k="historic" v="boundary_stone" />
		<tag k="man_made" v="cairn" />
		<tag k="name" v="Austre Sipmeken S" />
		<tag k="name:no" v="Austre Sipmeken S" />
		<tag k="place" v="locality" />
		<tag k="ssr:date" v="2018-01-09" />
		<tag k="ssr:stedsnr" v="171581" />
	</node>
	<node id="-14861" lat="64.9785555568" lon="14.1298805548">
		<tag k="ssr:gml_id" v="GEOMETRY_19dc8e42-30cd-4c84-974d-c8b4bfa125bc" />
		<tag k="ssr:gml_nr" v="0" />
	</node>
	<way id="-3902">
		<tag k="historic" v="boundary_stone" />
		<tag k="man_made" v="cairn" />
		<tag k="name" v="Giedtietjahkerøysa" />
		<tag k="name:no" v="Giedtietjahkerøysa" />
		<tag k="old_name:no" v="Nordsvells Røset;Nordsvellsrøysa" />
		<tag k="place" v="locality" />
		<tag k="ssr:date" v="2018-01-09" />
		<tag k="ssr:stedsnr" v="171938" />
		<nd ref="-13615" />
		<nd ref="-13616" />
	</way>
	<way id="-3769">
		<tag k="historic" v="boundary_stone" />
		<tag k="man_made" v="cairn" />
		<tag k="name" v="Sipmektindrøysa" />
		<tag k="name:no" v="Sipmektindrøysa" />
		<tag k="place" v="locality" />
		<tag k="ssr:date" v="2018-01-09" />
		<tag k="ssr:stedsnr" v="284677" />
		<nd ref="-13020" />
		<nd ref="-13021" />
	</way>
	<way id="-4281">
		<tag k="historic" v="boundary_stone" />
		<tag k="man_made" v="cairn" />
		<tag k="name" v="Røysfjellrøysa" />
		<tag k="name:no" v="Røysfjellrøysa" />
		<tag k="old_name:no" v="Jodarøysa;Joda Røset" />
		<tag k="place" v="locality" />
		<tag k="ssr:date" v="2018-01-09" />
		<tag k="ssr:stedsnr" v="717938" />
		<nd ref="-15328" />
		<nd ref="-15329" />
	</way>
	<way id="-3667">
		<tag k="historic" v="boundary_stone" />
		<tag k="man_made" v="cairn" />
		<tag k="name" v="Sipmekrøysa" />
		<tag k="name:no" v="Sipmekrøysa" />
		<tag k="place" v="locality" />
		<tag k="ssr:date" v="2018-01-09" />
		<tag k="ssr:stedsnr" v="110878" />
		<nd ref="-12515" />
		<nd ref="-12516" />
	</way>
	<way id="-4177">
		<tag k="historic" v="boundary_stone" />
		<tag k="man_made" v="cairn" />
		<tag k="name" v="Jetnamsrøysa" />
		<tag k="name:no" v="Jetnamsrøysa" />
		<tag k="place" v="locality" />
		<tag k="ssr:date" v="2018-01-09" />
		<tag k="ssr:stedsnr" v="49870" />
		<nd ref="-14881" />
		<nd ref="-14882" />
	</way>
	<way id="-4303">
		<tag k="alt_name:sma" v="Raarvihke;Raarvihken tjïelte" />
		<tag k="name" v="Røyrvik kommune" />
		<tag k="name:no" v="Røyrvik kommune" />
		<tag k="ssr:date" v="2018-01-09" />
		<tag k="ssr:stedsnr" v="632417" />
		<nd ref="-15436" />
		<nd ref="-15437" />
		<nd ref="-15438" />
		<nd ref="-15439" />
		<nd ref="-15440" />
	</way>
	<way id="-4171">
		<tag k="historic" v="boundary_stone" />
		<tag k="man_made" v="cairn" />
		<tag k="name" v="Gruksfjellsrøysa" />
		<tag k="name:no" v="Gruksfjellsrøysa" />
		<tag k="place" v="locality" />
		<tag k="ssr:date" v="2018-01-09" />
		<tag k="ssr:stedsnr" v="49865" />
		<nd ref="-14861" />
		<nd ref="-14862" />
	</way>
	<way id="-4038">
		<tag k="historic" v="boundary_stone" />
		<tag k="man_made" v="cairn" />
		<tag k="name" v="Middagsklumprøysa" />
		<tag k="name:no" v="Middagsklumprøysa" />
		<tag k="place" v="locality" />
		<tag k="ssr:date" v="2018-01-09" />
		<tag k="ssr:stedsnr" v="595908" />
		<nd ref="-14253" />
		<nd ref="-14254" />
	</way>
	<way id="-4385">
		<tag k="historic" v="boundary_stone" />
		<tag k="man_made" v="cairn" />
		<tag k="name" v="Gåetievartoerøysa" />
		<tag k="name:no" v="Gåetievartoerøysa" />
		<tag k="place" v="locality" />
		<tag k="ssr:date" v="2018-01-09" />
		<tag k="ssr:stedsnr" v="231934" />
		<nd ref="-15835" />
		<nd ref="-15836" />
	</way>
</osm>
