<?xml version="1.0" encoding="UTF-8"?>
<osm generator="osmapis" version="0.6">
	<node id="-45054" lat="70.0348139012" lon="25.8337774941">
		<tag k="ssr:gml_id" v="GEOMETRY_0742767c-1f79-4633-838b-1baa07943f4c" />
		<tag k="ssr:gml_nr" v="2" />
	</node>
	<node id="-45053" lat="70.0348194572" lon="25.8337830409">
		<tag k="ssr:gml_id" v="GEOMETRY_d845eed8-f375-495e-8394-43108f46c91f" />
		<tag k="ssr:gml_nr" v="1" />
	</node>
	<node id="-45052" lat="70.0353777865" lon="25.7993635996">
		<tag k="ssr:gml_id" v="GEOMETRY_ae1c8855-c37b-40a7-b4e1-5f581ae8fb08" />
		<tag k="ssr:gml_nr" v="0" />
	</node>
	<node id="-45027" lat="70.038327781" lon="24.9828886935">
		<tag k="ssr:gml_id" v="GEOMETRY_93ed9f0b-3173-4c5d-b053-c7634d259453" />
		<tag k="ssr:gml_nr" v="1" />
	</node>
	<node id="-45026" lat="70.0383333449" lon="24.9828942412">
		<tag k="ssr:gml_id" v="GEOMETRY_5e9075d5-2556-4d41-b868-28bd6337f442" />
		<tag k="ssr:gml_nr" v="0" />
	</node>
	<node id="-47056" lat="70.3104333371" lon="24.9666109156">
		<tag k="name" v="Skáhpenjunijeakkit" />
		<tag k="name:se" v="Skáhpenjunijeakkit" />
		<tag k="natural" v="wetland" />
		<tag k="ssr:date" v="2016-05-11" />
		<tag k="ssr:stedsnr" v="688688" />
	</node>
	<node id="-47047" lat="70.4033888958" lon="25.739038634">
		<tag k="ssr:gml_id" v="GEOMETRY_f5aba827-af4b-4fb6-b164-6df850b69220" />
		<tag k="ssr:gml_nr" v="2" />
	</node>
	<node id="-47046" lat="70.4033889015" lon="25.7390414025">
		<tag k="ssr:gml_id" v="GEOMETRY_edaa8d15-9322-40ce-b086-aee35d39e381" />
		<tag k="ssr:gml_nr" v="1" />
	</node>
	<node id="-47045" lat="70.4033861215" lon="25.7390386413">
		<tag k="ssr:gml_id" v="GEOMETRY_5d17d231-3ec7-4e2e-bea7-2586688ef1f5" />
		<tag k="ssr:gml_nr" v="0" />
	</node>
	<node id="-42914" lat="70.2774000036" lon="24.4535831943">
		<tag k="name" v="Nillabašleakši" />
		<tag k="name:se" v="Nillabašleakši" />
		<tag k="natural" v="wetland" />
		<tag k="old_name:se" v="Nillabašlækši" />
		<tag k="ssr:date" v="2016-05-10" />
		<tag k="ssr:stedsnr" v="19709" />
	</node>
	<node id="-44946" lat="70.4863166707" lon="25.7324969784">
		<tag k="name" v="Gáhkkorjeakkit" />
		<tag k="name:se" v="Gáhkkorjeakkit" />
		<tag k="natural" v="wetland" />
		<tag k="ssr:date" v="2016-05-10" />
		<tag k="ssr:stedsnr" v="268845" />
	</node>
	<node id="-46970" lat="70.5487666766" lon="26.0051969396">
		<tag k="ssr:gml_id" v="GEOMETRY_7fa99eca-ad7c-4a8c-8f5a-56bad36a2237" />
		<tag k="ssr:gml_nr" v="1" />
	</node>
	<node id="-46969" lat="70.5487638963" lon="26.0051941714">
		<tag k="ssr:gml_id" v="GEOMETRY_4a37c16d-3b6c-4a74-91ee-a1cc6e7fa196" />
		<tag k="ssr:gml_nr" v="0" />
	</node>
	<node id="-42864" lat="70.2983139" lon="25.5552830877">
		<tag k="ssr:gml_id" v="GEOMETRY_33696183-4745-494a-8cc0-caad1f05a782" />
		<tag k="ssr:gml_nr" v="1" />
	</node>
	<node id="-42863" lat="70.2983111217" lon="25.555280316">
		<tag k="ssr:gml_id" v="GEOMETRY_68f8c7b4-462a-4ef3-8402-7ca415106872" />
		<tag k="ssr:gml_nr" v="0" />
	</node>
	<node id="-44906" lat="70.2598666689" lon="24.8563914938">
		<tag k="name" v="Luoppaljeakkit" />
		<tag k="name:se" v="Luoppaljeakkit" />
		<tag k="natural" v="wetland" />
		<tag k="ssr:date" v="2016-05-10" />
		<tag k="ssr:stedsnr" v="263603" />
	</node>
	<node id="-46948" lat="70.5916166746" lon="26.0166302829">
		<tag k="ssr:gml_id" v="GEOMETRY_6d918bf8-81c7-4d3a-84f3-e6c262de1d13" />
		<tag k="ssr:gml_nr" v="2" />
	</node>
	<node id="-46947" lat="70.5916166734" lon="26.0166274887">
		<tag k="ssr:gml_id" v="GEOMETRY_91d1d62b-bdca-4728-a0c5-7af4afba846e" />
		<tag k="ssr:gml_nr" v="1" />
	</node>
	<node id="-46946" lat="70.5993194516" lon="25.9967775176">
		<tag k="ssr:gml_id" v="GEOMETRY_00d0cc04-3990-4295-a228-0eb4781def4d" />
		<tag k="ssr:gml_nr" v="0" />
	</node>
	<node id="-47867" lat="69.9060166752" lon="25.7059691479">
		<tag k="ssr:gml_id" v="GEOMETRY_7a52e397-d617-4beb-9e36-6c6efdb5d0ef" />
		<tag k="ssr:gml_nr" v="0" />
	</node>
	<node id="-46897" lat="70.3758055642" lon="25.6976358654">
		<tag k="ssr:gml_id" v="GEOMETRY_7219e780-09f0-46f6-8f42-2688531ed1a3" />
		<tag k="ssr:gml_nr" v="1" />
	</node>
	<node id="-46896" lat="70.375802786" lon="25.6976330883">
		<tag k="ssr:gml_id" v="GEOMETRY_8ed1a2d4-8bee-4577-a535-13a9843e6078" />
		<tag k="ssr:gml_nr" v="0" />
	</node>
	<node id="-48942" lat="70.542277782" lon="25.8301497438">
		<tag k="name" v="Sunnajeaggi" />
		<tag k="name:se" v="Sunnajeaggi" />
		<tag k="natural" v="wetland" />
		<tag k="ssr:date" v="2016-05-11" />
		<tag k="ssr:stedsnr" v="956069" />
	</node>
	<node id="-48941" lat="70.5728138924" lon="25.89789696">
		<tag k="name" v="Gurnargieddi" />
		<tag k="name:se" v="Gurnargieddi" />
		<tag k="place" v="locality" />
		<tag k="ssr:date" v="2016-05-11" />
		<tag k="ssr:stedsnr" v="956051" />
	</node>
	<node id="-42796" lat="70.1196305605" lon="24.9989470262">
		<tag k="ssr:gml_id" v="GEOMETRY_190b5920-0adf-45b0-ba81-af8154595b37" />
		<tag k="ssr:gml_nr" v="1" />
	</node>
	<node id="-41797" lat="70.0293222255" lon="24.9327136829">
		<tag k="name" v="Kirkkoruto" />
		<tag k="name:fkv" v="Kirkkoruto" />
		<tag k="natural" v="wood" />
		<tag k="ssr:date" v="2016-05-10" />
		<tag k="ssr:stedsnr" v="283903" />
	</node>
	<node id="-48934" lat="70.2034083371" lon="24.8489720531">
		<tag k="name" v="Niitovuovdi" />
		<tag k="name:se" v="Niitovuovdi" />
		<tag k="natural" v="wood" />
		<tag k="ssr:date" v="2016-05-11" />
		<tag k="ssr:stedsnr" v="942779" />
	</node>
	<node id="-48931" lat="70.4812805603" lon="25.665058096">
		<tag k="landuse" v="farmland" />
		<tag k="name" v="Goaskinbáhgieddi" />
		<tag k="name:se" v="Goaskinbáhgieddi" />
		<tag k="ssr:date" v="2016-05-11" />
		<tag k="ssr:stedsnr" v="942740" />
	</node>
	<node id="-48917" lat="70.4083111173" lon="25.196277565">
		<tag k="name" v="Uhcačohkašjeaggi" />
		<tag k="name:se" v="Uhcačohkašjeaggi" />
		<tag k="natural" v="wetland" />
		<tag k="ssr:date" v="2016-05-11" />
		<tag k="ssr:stedsnr" v="942360" />
	</node>
	<node id="-48912" lat="70.2447194481" lon="25.4172164427">
		<tag k="name" v="Ankarilahđenruto" />
		<tag k="name:fkv" v="Ankarilahđenruto" />
		<tag k="natural" v="wood" />
		<tag k="ssr:date" v="2016-05-11" />
		<tag k="ssr:stedsnr" v="942273" />
	</node>
	<node id="-46863" lat="70.0194833389" lon="25.1209747899">
		<tag k="ssr:gml_id" v="GEOMETRY_cbe11df7-bf0f-44d3-bb4f-49738d714884" />
		<tag k="ssr:gml_nr" v="3" />
	</node>
	<node id="-46862" lat="70.0143666721" lon="25.1233747987">
		<tag k="ssr:gml_id" v="GEOMETRY_e50a11a2-86d9-4463-857f-3490b715460d" />
		<tag k="ssr:gml_nr" v="2" />
	</node>
	<node id="-41796" lat="70.0293222255" lon="24.9327136829">
		<tag k="landuse" v="meadow" />
		<tag k="name" v="Halosenkenttä" />
		<tag k="name:fkv" v="Halosenkenttä" />
		<tag k="ssr:date" v="2016-05-10" />
		<tag k="ssr:stedsnr" v="283902" />
	</node>
	<node id="-46860" lat="70.0143638981" lon="25.1233720005">
		<tag k="ssr:gml_id" v="GEOMETRY_5eb05ecc-8f4c-42ac-82d5-9362f18eeb17" />
		<tag k="ssr:gml_nr" v="0" />
	</node>
	<node id="-48904" lat="70.0510805614" lon="25.0882220065">
		<tag k="name" v="Palon vittikka" />
		<tag k="name:fkv" v="Palon vittikka" />
		<tag k="natural" v="wetland" />
		<tag k="ssr:date" v="2016-05-11" />
		<tag k="ssr:stedsnr" v="941371" />
	</node>
	<node id="-44770" lat="70.2809250022" lon="24.9480053832">
		<tag k="ssr:gml_id" v="GEOMETRY_6a537ceb-b8fd-4f4f-81e8-9e467265ac6f" />
		<tag k="ssr:gml_nr" v="1" />
	</node>
	<node id="-44769" lat="70.2809222315" lon="24.9480026009">
		<tag k="ssr:gml_id" v="GEOMETRY_bc40d409-4dff-42b7-b847-bc0ce0271a79" />
		<tag k="ssr:gml_nr" v="0" />
	</node>
	<node id="-48841" lat="70.1943500034" lon="24.9295998047">
		<tag k="ssr:gml_id" v="GEOMETRY_1608c208-be90-4ac3-b917-0a41fc19227b" />
		<tag k="ssr:gml_nr" v="2" />
	</node>
	<node id="-48840" lat="70.1943500086" lon="24.9296025896">
		<tag k="ssr:gml_id" v="GEOMETRY_05eb7db1-1205-4bf2-b4a1-c687d9c66675" />
		<tag k="ssr:gml_nr" v="1" />
	</node>
	<node id="-48839" lat="70.1943527882" lon="24.9296053634">
		<tag k="ssr:gml_id" v="GEOMETRY_6f6fe919-523c-4b72-8346-fbc80e3e7f24" />
		<tag k="ssr:gml_nr" v="0" />
	</node>
	<node id="-48815" lat="70.5723500021" lon="25.0429220398">
		<tag k="ssr:gml_id" v="GEOMETRY_e87cbbb6-521f-488e-9470-a64fd87c8258" />
		<tag k="ssr:gml_nr" v="1" />
	</node>
	<node id="-48814" lat="70.5723472262" lon="25.042919278">
		<tag k="ssr:gml_id" v="GEOMETRY_798e9647-3aa3-490d-8e0a-cfbbfc770a64" />
		<tag k="ssr:gml_nr" v="0" />
	</node>
	<node id="-42669" lat="70.1195777862" lon="24.4920387413">
		<tag k="ssr:gml_id" v="GEOMETRY_5b42abad-6bd1-420d-8de7-cfb9795b37d4" />
		<tag k="ssr:gml_nr" v="1" />
	</node>
	<node id="-42668" lat="70.1195861184" lon="24.4920470755">
		<tag k="ssr:gml_id" v="GEOMETRY_10cddea4-b60f-4dd0-93ae-9c5b78235974" />
		<tag k="ssr:gml_nr" v="0" />
	</node>
	<node id="-48810" lat="69.835777786" lon="25.3274691927">
		<tag k="ssr:gml_id" v="GEOMETRY_9a2c577f-d74d-4002-bb30-0fb2c7b3564d" />
		<tag k="ssr:gml_nr" v="1" />
	</node>
	<node id="-48809" lat="69.835775013" lon="25.3274664189">
		<tag k="ssr:gml_id" v="GEOMETRY_6572eb2b-7067-4a4a-b577-96b0e62d0ae5" />
		<tag k="ssr:gml_nr" v="0" />
	</node>
	<node id="-44704" lat="70.3306166751" lon="25.6692108721">
		<tag k="ssr:gml_id" v="GEOMETRY_e2a40d66-20ab-45ea-9347-f618ced2f3fa" />
		<tag k="ssr:gml_nr" v="1" />
	</node>
	<node id="-44703" lat="70.3306138987" lon="25.6692080802">
		<tag k="ssr:gml_id" v="GEOMETRY_b68010be-2133-4221-b92d-b34c9c1d5a36" />
		<tag k="ssr:gml_nr" v="0" />
	</node>
	<node id="-42654" lat="70.5917055613" lon="25.94254694">
		<tag k="landuse" v="meadow" />
		<tag k="name" v="Mielcegieddi" />
		<tag k="name:se" v="Mielcegieddi" />
		<tag k="ssr:date" v="2016-05-11" />
		<tag k="ssr:stedsnr" v="895093" />
	</node>
	<node id="-42646" lat="70.3459305597" lon="25.0336609327">
		<tag k="name" v="Ulvemyra" />
		<tag k="name:no" v="Ulvemyra" />
		<tag k="natural" v="wetland" />
		<tag k="ssr:date" v="2016-05-11" />
		<tag k="ssr:stedsnr" v="881932" />
	</node>
	<node id="-42638" lat="70.5978166782" lon="26.0190247198">
		<tag k="name" v="Jorbarohtu" />
		<tag k="name:se" v="Jorbarohtu" />
		<tag k="natural" v="wood" />
		<tag k="ssr:date" v="2016-05-10" />
		<tag k="ssr:stedsnr" v="410081" />
	</node>
	<node id="-42605" lat="70.4052833381" lon="25.5598192071">
		<tag k="name" v="Mourujänkkä" />
		<tag k="name:fkv" v="Mourujänkkä" />
		<tag k="natural" v="wetland" />
		<tag k="ssr:date" v="2016-05-10" />
		<tag k="ssr:stedsnr" v="395581" />
	</node>
	<node id="-42620" lat="70.3305361138" lon="25.5504331031">
		<tag k="name" v="Kapperinjänkkä" />
		<tag k="name:fkv" v="Kapperinjänkkä" />
		<tag k="natural" v="wetland" />
		<tag k="ssr:date" v="2016-05-10" />
		<tag k="ssr:stedsnr" v="396582" />
	</node>
	<node id="-46712" lat="70.5935805629" lon="25.9951747127">
		<tag k="name" v="Goađabalssat" />
		<tag k="name:se" v="Goađabalssat" />
		<tag k="natural" v="wetland" />
		<tag k="ssr:date" v="2016-05-10" />
		<tag k="ssr:stedsnr" v="652050" />
	</node>
	<node id="-46710" lat="70.5590861195" lon="25.8731191963">
		<tag k="name" v="Gielasjeaggi" />
		<tag k="name:se" v="Gielasjeaggi" />
		<tag k="natural" v="wetland" />
		<tag k="ssr:date" v="2016-05-10" />
		<tag k="ssr:stedsnr" v="652038" />
	</node>
	<node id="-44653" lat="70.1016250075" lon="25.5267747544">
		<tag k="ssr:gml_id" v="GEOMETRY_2c9c7d8b-81a2-450a-97ba-6835d4fe6628" />
		<tag k="ssr:gml_nr" v="1" />
	</node>
	<node id="-44652" lat="70.1016222333" lon="25.5267719652">
		<tag k="ssr:gml_id" v="GEOMETRY_f634041f-e5d1-451b-9f44-62c23a48c034" />
		<tag k="ssr:gml_nr" v="0" />
	</node>
	<node id="-42597" lat="70.3263250082" lon="25.6081331013">
		<tag k="landuse" v="farmland" />
		<tag k="name" v="Jokiruto" />
		<tag k="name:fkv" v="Jokiruto" />
		<tag k="ssr:date" v="2016-05-10" />
		<tag k="ssr:stedsnr" v="395447" />
	</node>
	<node id="-42590" lat="70.0547305634" lon="25.1160831328">
		<tag k="name" v="Isopounu" />
		<tag k="name:fkv" v="Isopounu" />
		<tag k="natural" v="wetland" />
		<tag k="ssr:date" v="2016-05-10" />
		<tag k="ssr:stedsnr" v="395373" />
	</node>
	<node id="-42587" lat="70.056413896" lon="25.0845775689">
		<tag k="name" v="Salamonsumpen" />
		<tag k="name:no" v="Salamonsumpen" />
		<tag k="natural" v="wetland" />
		<tag k="ssr:date" v="2016-05-10" />
		<tag k="ssr:stedsnr" v="395018" />
	</node>
	<node id="-46681" lat="70.4818833366" lon="25.0015109198">
		<tag k="name" v="Iŋggájeaggi" />
		<tag k="name:se" v="Iŋggájeaggi" />
		<tag k="natural" v="wetland" />
		<tag k="ssr:date" v="2016-05-10" />
		<tag k="ssr:stedsnr" v="638220" />
	</node>
	<node id="-46674" lat="70.407425011" lon="25.2210525719">
		<tag k="name" v="Gumpejeaggi" />
		<tag k="name:se" v="Gumpejeaggi" />
		<tag k="natural" v="wetland" />
		<tag k="ssr:date" v="2016-05-10" />
		<tag k="ssr:stedsnr" v="637527" />
	</node>
	<node id="-46667" lat="70.2724805661" lon="25.5184691947">
		<tag k="name" v="Aaronisojänkkä" />
		<tag k="name:fkv" v="Aaronisojänkkä" />
		<tag k="natural" v="wetland" />
		<tag k="ssr:date" v="2016-05-10" />
		<tag k="ssr:stedsnr" v="637411" />
	</node>
	<node id="-42567" lat="70.4086333406" lon="25.5557636429">
		<tag k="name" v="Varritbáhjeaggi" />
		<tag k="name:se" v="Varritbáhjeaggi" />
		<tag k="natural" v="wetland" />
		<tag k="ssr:date" v="2016-05-10" />
		<tag k="ssr:stedsnr" v="388939" />
	</node>
	<node id="-46661" lat="70.4551777801" lon="25.195044244">
		<tag k="name" v="Knutmyra" />
		<tag k="name:no" v="Knutmyra" />
		<tag k="natural" v="wetland" />
		<tag k="ssr:date" v="2016-05-10" />
		<tag k="ssr:stedsnr" v="637366" />
	</node>
	<node id="-42562" lat="70.3869861216" lon="25.5486803299">
		<tag k="alt_name:se" v="Gohpirohtu" />
		<tag k="name" v="Koparuto" />
		<tag k="name:fkv" v="Koparuto" />
		<tag k="natural" v="wood" />
		<tag k="ssr:date" v="2016-05-10" />
		<tag k="ssr:stedsnr" v="387935" />
	</node>
	<node id="-44602" lat="70.1007083402" lon="25.0149136942">
		<tag k="ssr:gml_id" v="GEOMETRY_5dcbc541-d97c-4585-a85a-12807c0129df" />
		<tag k="ssr:gml_nr" v="2" />
	</node>
	<node id="-44601" lat="70.100705562" lon="25.0149109229">
		<tag k="ssr:gml_id" v="GEOMETRY_21efa80c-8867-46d4-9da1-57a9567de325" />
		<tag k="ssr:gml_nr" v="1" />
	</node>
	<node id="-44600" lat="70.1007111184" lon="25.0149164655">
		<tag k="ssr:gml_id" v="GEOMETRY_07cd806a-5cb6-48a5-a85b-6b991939d68a" />
		<tag k="ssr:gml_nr" v="0" />
	</node>
	<node id="-46644" lat="70.4292000077" lon="25.7735052897">
		<tag k="name" v="Hánddu - Hanttu" />
		<tag k="name:fkv" v="Hanttu" />
		<tag k="name:se" v="Hánddu" />
		<tag k="natural" v="wetland" />
		<tag k="ssr:date" v="2016-05-10" />
		<tag k="ssr:stedsnr" v="630935" />
	</node>
	<node id="-44591" lat="70.1417833418" lon="25.0275081318">
		<tag k="ssr:gml_id" v="GEOMETRY_fcb6dd26-112c-44c5-82a9-0476dea56df9" />
		<tag k="ssr:gml_nr" v="1" />
	</node>
	<node id="-44590" lat="70.1417805638" lon="25.0275053528">
		<tag k="ssr:gml_id" v="GEOMETRY_0b069b2d-d358-41c7-8608-540e27401287" />
		<tag k="ssr:gml_nr" v="0" />
	</node>
	<node id="-46622" lat="70.5716416683" lon="24.9576664873">
		<tag k="ssr:gml_id" v="GEOMETRY_896b4500-6e81-45ad-bdee-73a4085bd227" />
		<tag k="ssr:gml_nr" v="3" />
	</node>
	<node id="-46621" lat="70.5716416686" lon="24.9576692657">
		<tag k="ssr:gml_id" v="GEOMETRY_1022f64a-f48d-4184-83e1-e2f56887ce1d" />
		<tag k="ssr:gml_nr" v="2" />
	</node>
	<node id="-46620" lat="70.5849916674" lon="24.977399836">
		<tag k="ssr:gml_id" v="GEOMETRY_83b2e33f-2789-434f-a058-29624bf4c2aa" />
		<tag k="ssr:gml_nr" v="1" />
	</node>
	<node id="-46619" lat="70.5849888928" lon="24.9773970554">
		<tag k="ssr:gml_id" v="GEOMETRY_3079f32e-bcf9-464d-8a86-6f27450e45b5" />
		<tag k="ssr:gml_nr" v="0" />
	</node>
	<node id="-48656" lat="70.0289000098" lon="25.1015303491">
		<tag k="ssr:gml_id" v="GEOMETRY_6f0cfe25-2ddd-45d5-84d8-0647e432da35" />
		<tag k="ssr:gml_nr" v="2" />
	</node>
	<node id="-48655" lat="70.0289000094" lon="25.1015275615">
		<tag k="ssr:gml_id" v="GEOMETRY_fd7e0300-bba2-47e3-8032-1b84d67cae12" />
		<tag k="ssr:gml_nr" v="1" />
	</node>
	<node id="-48654" lat="70.0289027866" lon="25.1015331213">
		<tag k="ssr:gml_id" v="GEOMETRY_7243b67a-07d2-4290-a3e6-67b68f50228a" />
		<tag k="ssr:gml_nr" v="0" />
	</node>
	<node id="-48653" lat="70.0308305652" lon="24.998444253">
		<tag k="ssr:gml_id" v="GEOMETRY_86fdaec7-c184-4dff-989c-e1cedf22103b" />
		<tag k="ssr:gml_nr" v="1" />
	</node>
	<node id="-48652" lat="70.0308333414" lon="24.9984470371">
		<tag k="ssr:gml_id" v="GEOMETRY_789e02b8-67b5-4734-9455-2ce248b000a6" />
		<tag k="ssr:gml_nr" v="0" />
	</node>
	<node id="-42503" lat="70.1497722291" lon="24.8077581693">
		<tag k="ssr:gml_id" v="GEOMETRY_a0f430f0-8f59-49f2-b2eb-9b694ced9d71" />
		<tag k="ssr:gml_nr" v="1" />
	</node>
	<node id="-42502" lat="70.1497777793" lon="24.8077637149">
		<tag k="ssr:gml_id" v="GEOMETRY_9ec73dfc-056c-446d-a935-0b7a919c57f0" />
		<tag k="ssr:gml_nr" v="0" />
	</node>
	<node id="-46591" lat="70.3879583446" lon="25.5653692035">
		<tag k="ssr:gml_id" v="GEOMETRY_2743aee7-d31a-47b2-98eb-b7c399b986f4" />
		<tag k="ssr:gml_nr" v="1" />
	</node>
	<node id="-46590" lat="70.3879555641" lon="25.5653664426">
		<tag k="ssr:gml_id" v="GEOMETRY_d0bd5e42-c95b-4ca8-a4fb-f9b1f8b74a38" />
		<tag k="ssr:gml_nr" v="0" />
	</node>
	<node id="-44538" lat="70.0450000125" lon="25.7920413763">
		<tag k="ssr:gml_id" v="GEOMETRY_0b18c76b-b59f-4cc7-af30-91f95cb23d1e" />
		<tag k="ssr:gml_nr" v="2" />
	</node>
	<node id="-44537" lat="70.0450027845" lon="25.7920441672">
		<tag k="ssr:gml_id" v="GEOMETRY_ccde92d9-5bac-4d15-8cec-dff6761b1db3" />
		<tag k="ssr:gml_nr" v="1" />
	</node>
	<node id="-44536" lat="70.045000012" lon="25.7920386058">
		<tag k="ssr:gml_id" v="GEOMETRY_da060947-d44b-4afb-ae28-7a57ae53fda3" />
		<tag k="ssr:gml_nr" v="0" />
	</node>
	<node id="-44512" lat="70.6019055614" lon="26.0408969512">
		<tag k="name" v="Vilgesjeaggi" />
		<tag k="name:se" v="Vilgesjeaggi" />
		<tag k="natural" v="wetland" />
		<tag k="ssr:date" v="2016-05-10" />
		<tag k="ssr:stedsnr" v="228092" />
	</node>
	<node id="-44492" lat="70.301186115" lon="25.0805247987">
		<tag k="ssr:gml_id" v="GEOMETRY_84ae5ed2-faea-42fd-96ac-50b435c25d0f" />
		<tag k="ssr:gml_nr" v="1" />
	</node>
	<node id="-44491" lat="70.3011833443" lon="25.0805220211">
		<tag k="ssr:gml_id" v="GEOMETRY_39529da8-2a99-4574-8ea2-521f6e6a85f8" />
		<tag k="ssr:gml_nr" v="0" />
	</node>
	<node id="-44489" lat="70.4482027849" lon="25.6357219822">
		<tag k="name" v="Barfi" />
		<tag k="name:se" v="Barfi" />
		<tag k="natural" v="wetland" />
		<tag k="ssr:date" v="2016-05-10" />
		<tag k="ssr:stedsnr" v="213769" />
	</node>
	<node id="-44488" lat="70.4589194484" lon="25.6346941903">
		<tag k="landuse" v="farmland" />
		<tag k="name" v="Buoiddatgieddi" />
		<tag k="name:se" v="Buoiddatgieddi" />
		<tag k="ssr:date" v="2016-05-10" />
		<tag k="ssr:stedsnr" v="213765" />
	</node>
	<node id="-44487" lat="70.4814777893" lon="25.7276108557">
		<tag k="name" v="Hánnocárrirohtu" />
		<tag k="name:se" v="Hánnocárrirohtu" />
		<tag k="natural" v="wood" />
		<tag k="ssr:date" v="2016-05-10" />
		<tag k="ssr:stedsnr" v="213757" />
	</node>
	<node id="-44486" lat="70.2975722309" lon="25.0782025865">
		<tag k="name" v="Geahtavuovdi" />
		<tag k="name:se" v="Geahtavuovdi" />
		<tag k="natural" v="wood" />
		<tag k="ssr:date" v="2016-05-10" />
		<tag k="ssr:stedsnr" v="213685" />
	</node>
	<node id="-44477" lat="70.3146194543" lon="25.4622469936">
		<tag k="landuse" v="meadow" />
		<tag k="name" v="Antin Erikin Kenttä" />
		<tag k="name:fkv" v="Antin Erikin Kenttä" />
		<tag k="ssr:date" v="2016-05-10" />
		<tag k="ssr:stedsnr" v="213431" />
	</node>
	<node id="-44466" lat="70.4602916786" lon="25.7300997423">
		<tag k="name" v="Dápmotvuovdi" />
		<tag k="name:se" v="Dápmotvuovdi" />
		<tag k="natural" v="wood" />
		<tag k="ssr:date" v="2016-05-10" />
		<tag k="ssr:stedsnr" v="209965" />
	</node>
	<node id="-46663" lat="70.0538611165" lon="25.0917248033">
		<tag k="name" v="Lehtirohtu" />
		<tag k="name:fkv" v="Lehtirohtu" />
		<tag k="natural" v="wood" />
		<tag k="ssr:date" v="2016-05-10" />
		<tag k="ssr:stedsnr" v="637388" />
	</node>
	<node id="-42670" lat="70.1195750059" lon="24.4920359611">
		<tag k="ssr:gml_id" v="GEOMETRY_27c1ee8d-5a03-44c9-b97b-b44293b72f29" />
		<tag k="ssr:gml_nr" v="2" />
	</node>
	<node id="-42379" lat="70.2739638972" lon="25.5869692086">
		<tag k="ssr:gml_id" v="GEOMETRY_a20989cb-bac5-4880-8791-13fcd381f49d" />
		<tag k="ssr:gml_nr" v="1" />
	</node>
	<node id="-42378" lat="70.2739611219" lon="25.5869664109">
		<tag k="ssr:gml_id" v="GEOMETRY_5d77ab66-0dfa-4fca-b64e-eab45ce71c74" />
		<tag k="ssr:gml_nr" v="0" />
	</node>
	<node id="-43584" lat="70.3522083379" lon="25.4440942162">
		<tag k="name" v="Valsakenttä" />
		<tag k="name:fkv" v="Valsakenttä" />
		<tag k="natural" v="wetland" />
		<tag k="ssr:date" v="2016-05-10" />
		<tag k="ssr:stedsnr" v="92615" />
	</node>
	<node id="-47679" lat="70.0697805648" lon="25.0955747903">
		<tag k="ssr:gml_id" v="GEOMETRY_1c2c492d-040d-430b-93de-ba9dd0c9d71e" />
		<tag k="ssr:gml_nr" v="0" />
	</node>
	<node id="-48504" lat="70.0317277778" lon="24.0912554276">
		<tag k="ssr:gml_id" v="GEOMETRY_b51d4747-fb71-41b3-86cd-c063b42fa04c" />
		<tag k="ssr:gml_nr" v="2" />
	</node>
	<node id="-48503" lat="70.0317305584" lon="24.0912582175">
		<tag k="ssr:gml_id" v="GEOMETRY_9738d6ad-047e-459f-be55-c4df699ebdcd" />
		<tag k="ssr:gml_nr" v="1" />
	</node>
	<node id="-48502" lat="70.0317388957" lon="24.0912665301">
		<tag k="ssr:gml_id" v="GEOMETRY_f6a33351-567d-4a7b-99a1-98cd8ada4844" />
		<tag k="ssr:gml_nr" v="0" />
	</node>
	<node id="-48500" lat="70.3147833393" lon="25.1577775717">
		<tag k="landuse" v="meadow" />
		<tag k="name" v="Cuoppogieddi" />
		<tag k="name:se" v="Cuoppogieddi" />
		<tag k="ssr:date" v="2016-05-11" />
		<tag k="ssr:stedsnr" v="881756" />
	</node>
	<node id="-48498" lat="70.446652789" lon="25.631141416">
		<tag k="name" v="Gáldosjeaggi" />
		<tag k="name:se" v="Gáldosjeaggi" />
		<tag k="natural" v="wetland" />
		<tag k="ssr:date" v="2016-05-11" />
		<tag k="ssr:stedsnr" v="881732" />
	</node>
	<node id="-48496" lat="70.4681666717" lon="25.6612081012">
		<tag k="name" v="Biškunrohtu" />
		<tag k="name:se" v="Biškunrohtu" />
		<tag k="natural" v="wood" />
		<tag k="ssr:date" v="2016-05-11" />
		<tag k="ssr:stedsnr" v="881723" />
	</node>
	<node id="-48492" lat="70.3061250064" lon="25.5551636512">
		<tag k="name" v="Rautajänkkä" />
		<tag k="name:fkv" v="Rautajänkkä" />
		<tag k="natural" v="wetland" />
		<tag k="ssr:date" v="2016-05-11" />
		<tag k="ssr:stedsnr" v="881599" />
	</node>
	<node id="-48485" lat="70.2967500096" lon="25.4496080997">
		<tag k="name" v="Pessaren-karko" />
		<tag k="name:fkv" v="Pessaren-karko" />
		<tag k="natural" v="beach" />
		<tag k="ssr:date" v="2016-05-11" />
		<tag k="ssr:stedsnr" v="881399" />
		<tag k="surface" v="sand" />
	</node>
	<node id="-42340" lat="70.2559638934" lon="25.6624247507">
		<tag k="ssr:gml_id" v="GEOMETRY_46e327e1-94e3-43f0-985b-0c6fa68f5d6a" />
		<tag k="ssr:gml_nr" v="0" />
	</node>
	<node id="-48471" lat="70.0716972287" lon="24.9145303795">
		<tag k="name" v="Rahppa" />
		<tag k="name:fkv" v="Rahppa" />
		<tag k="natural" v="scree" />
		<tag k="ssr:date" v="2016-05-11" />
		<tag k="ssr:stedsnr" v="881004" />
	</node>
	<node id="-46419" lat="70.1493250066" lon="24.5459776115">
		<tag k="ssr:gml_id" v="GEOMETRY_45e8b297-ee38-4fa6-aaab-84f6d1f881d1" />
		<tag k="ssr:gml_nr" v="2" />
	</node>
	<node id="-46418" lat="70.149325007" lon="24.5459804095">
		<tag k="ssr:gml_id" v="GEOMETRY_01a06b57-8e52-4b12-aa4b-cebf2feab081" />
		<tag k="ssr:gml_nr" v="1" />
	</node>
	<node id="-46417" lat="70.1493333409" lon="24.5459887277">
		<tag k="ssr:gml_id" v="GEOMETRY_3c9ffd3a-d169-45cf-8a26-5aa9bd693465" />
		<tag k="ssr:gml_nr" v="0" />
	</node>
	<node id="-44367" lat="70.298966672" lon="24.9008414805">
		<tag k="ssr:gml_id" v="GEOMETRY_4441cd76-d67c-4586-be5f-5b5b6b7aa808" />
		<tag k="ssr:gml_nr" v="1" />
	</node>
	<node id="-44366" lat="70.2989638897" lon="24.9008387206">
		<tag k="ssr:gml_id" v="GEOMETRY_33138af7-6101-4a95-a326-7acb9d43fec4" />
		<tag k="ssr:gml_nr" v="0" />
	</node>
	<node id="-44360" lat="70.30408612" lon="25.0327498214">
		<tag k="ssr:gml_id" v="GEOMETRY_dd5ecb21-fd4a-4e3f-8ae4-6eb4503682f7" />
		<tag k="ssr:gml_nr" v="1" />
	</node>
	<node id="-44359" lat="70.3079555608" lon="25.0426470264">
		<tag k="ssr:gml_id" v="GEOMETRY_8ab0abeb-c4e1-4762-997d-0fbbd26ee83e" />
		<tag k="ssr:gml_nr" v="0" />
	</node>
	<node id="-48437" lat="70.5793611144" lon="24.9843914934">
		<tag k="ssr:gml_id" v="GEOMETRY_f5818169-1c00-475f-8718-0fea4e2a9339" />
		<tag k="ssr:gml_nr" v="1" />
	</node>
	<node id="-48436" lat="70.5793583399" lon="24.9843887127">
		<tag k="ssr:gml_id" v="GEOMETRY_ac6c411e-e992-413f-8596-1f799d1db394" />
		<tag k="ssr:gml_nr" v="0" />
	</node>
	<node id="-44337" lat="70.5301722256" lon="25.8038219645">
		<tag k="ssr:gml_id" v="GEOMETRY_e1944656-632c-4b01-9883-a8f123268830" />
		<tag k="ssr:gml_nr" v="3" />
	</node>
	<node id="-44336" lat="70.5306861212" lon="25.806191403">
		<tag k="ssr:gml_id" v="GEOMETRY_55d3d805-b66d-4889-9ba0-e56d74410ce9" />
		<tag k="ssr:gml_nr" v="2" />
	</node>
	<node id="-44335" lat="70.5301750044" lon="25.8038247537">
		<tag k="ssr:gml_id" v="GEOMETRY_af9fe276-e4e2-422b-a41a-a269dfa52dd1" />
		<tag k="ssr:gml_nr" v="1" />
	</node>
	<node id="-44334" lat="70.5306888955" lon="25.8061914068">
		<tag k="ssr:gml_id" v="GEOMETRY_6e9d147a-31dc-46eb-937f-b384ac96ad72" />
		<tag k="ssr:gml_nr" v="0" />
	</node>
	<node id="-48429" lat="70.3039750061" lon="25.029649805">
		<tag k="name" v="Guhkesjeakkit" />
		<tag k="name:se" v="Guhkesjeakkit" />
		<tag k="natural" v="wetland" />
		<tag k="ssr:date" v="2016-05-11" />
		<tag k="ssr:stedsnr" v="870680" />
	</node>
	<node id="-44324" lat="70.3253694489" lon="25.5157025347">
		<tag k="ssr:gml_id" v="GEOMETRY_5e6e4012-7cfd-40e7-b4d9-2844f1230844" />
		<tag k="ssr:gml_nr" v="1" />
	</node>
	<node id="-44323" lat="70.3237277844" lon="25.5170331052">
		<tag k="ssr:gml_id" v="GEOMETRY_44795e4b-13ad-4121-976c-03918fde378a" />
		<tag k="ssr:gml_nr" v="0" />
	</node>
	<node id="-48413" lat="70.3422777795" lon="25.0303942672">
		<tag k="ssr:gml_id" v="GEOMETRY_92cb71c7-5968-48f4-98ff-f0c3ea31d779" />
		<tag k="ssr:gml_nr" v="1" />
	</node>
	<node id="-48412" lat="70.342275008" lon="25.0303914902">
		<tag k="ssr:gml_id" v="GEOMETRY_3411cf15-ae55-45b8-8abf-8a8d17355968" />
		<tag k="ssr:gml_nr" v="0" />
	</node>
	<node id="-45954" lat="70.4477500079" lon="25.8296636293">
		<tag k="ssr:gml_id" v="GEOMETRY_dea08d28-4ecd-4f0c-bce8-27b5ca97ecd6" />
		<tag k="ssr:gml_nr" v="0" />
	</node>
	<node id="-42223" lat="70.5732833384" lon="25.9059525071">
		<tag k="name" v="Gáranasrohtu" />
		<tag k="name:se" v="Gáranasrohtu" />
		<tag k="natural" v="wood" />
		<tag k="ssr:date" v="2016-05-10" />
		<tag k="ssr:stedsnr" v="349059" />
	</node>
	<node id="-46318" lat="70.151902781" lon="24.8295248198">
		<tag k="ssr:gml_id" v="GEOMETRY_4de11be4-b09c-4c9e-83f1-8bf1c47d891f" />
		<tag k="ssr:gml_nr" v="1" />
	</node>
	<node id="-46317" lat="70.1519083391" lon="24.8295303787">
		<tag k="ssr:gml_id" v="GEOMETRY_cf737038-f55c-4544-a658-f497801aa7b7" />
		<tag k="ssr:gml_nr" v="0" />
	</node>
	<node id="-46316" lat="70.1518833386" lon="24.854433155">
		<tag k="ssr:gml_id" v="GEOMETRY_7e762a3c-5196-4a23-b80f-7d218a2efc85" />
		<tag k="ssr:gml_nr" v="1" />
	</node>
	<node id="-46315" lat="70.1518861172" lon="24.8544359377">
		<tag k="ssr:gml_id" v="GEOMETRY_cce6a923-0341-460c-af45-e83fabe50e85" />
		<tag k="ssr:gml_nr" v="0" />
	</node>
	<node id="-42218" lat="70.2114361147" lon="24.8912442526">
		<tag k="name" v="Heastajeaggi" />
		<tag k="name:se" v="Heastajeaggi" />
		<tag k="natural" v="wetland" />
		<tag k="ssr:date" v="2016-05-10" />
		<tag k="ssr:stedsnr" v="335871" />
	</node>
	<node id="-42208" lat="70.3930833378" lon="25.5783108665">
		<tag k="landuse" v="farmland" />
		<tag k="name" v="Kaltaruto" />
		<tag k="name:fkv" v="Kaltaruto" />
		<tag k="ssr:date" v="2016-05-10" />
		<tag k="ssr:stedsnr" v="335576" />
	</node>
	<node id="-42207" lat="70.4103277846" lon="25.560921996">
		<tag k="name" v="Paiskijänkkä" />
		<tag k="name:fkv" v="Paiskijänkkä" />
		<tag k="natural" v="wetland" />
		<tag k="ssr:date" v="2016-05-10" />
		<tag k="ssr:stedsnr" v="335564" />
	</node>
	<node id="-42198" lat="70.4435277839" lon="25.2151942457">
		<tag k="landuse" v="meadow" />
		<tag k="name" v="Storjorda" />
		<tag k="name:no" v="Storjorda" />
		<tag k="ssr:date" v="2016-05-10" />
		<tag k="ssr:stedsnr" v="335395" />
	</node>
	<node id="-44239" lat="69.9789166763" lon="25.2034581116">
		<tag k="ssr:gml_id" v="GEOMETRY_5fd38267-7d06-4eff-b664-1685264c64d0" />
		<tag k="ssr:gml_nr" v="1" />
	</node>
	<node id="-44238" lat="69.9789138926" lon="25.2034553263">
		<tag k="ssr:gml_id" v="GEOMETRY_e9f694b8-295e-4bfd-a777-1b02780b5da3" />
		<tag k="ssr:gml_nr" v="0" />
	</node>
	<node id="-46282" lat="70.2590777825" lon="24.8845025952">
		<tag k="name" v="Váreduogijeaggi" />
		<tag k="name:se" v="Váreduogijeaggi" />
		<tag k="natural" v="wetland" />
		<tag k="ssr:date" v="2016-05-10" />
		<tag k="ssr:stedsnr" v="577854" />
	</node>
	<node id="-46279" lat="70.4475000043" lon="25.6188886599">
		<tag k="landuse" v="farmland" />
		<tag k="name" v="Goađegieddi" />
		<tag k="name:se" v="Goađegieddi" />
		<tag k="ssr:date" v="2016-05-10" />
		<tag k="ssr:stedsnr" v="577776" />
	</node>
	<node id="-46278" lat="70.370211117" lon="24.9139414841">
		<tag k="name" v="Niittyjänkkä" />
		<tag k="name:fkv" v="Niittyjänkkä" />
		<tag k="natural" v="wetland" />
		<tag k="ssr:date" v="2016-05-10" />
		<tag k="ssr:stedsnr" v="577707" />
	</node>
	<node id="-46276" lat="70.2652361172" lon="25.0808553662">
		<tag k="name" v="Snoalta" />
		<tag k="name:se" v="Snoalta" />
		<tag k="natural" v="stone" />
		<tag k="ssr:date" v="2016-05-10" />
		<tag k="ssr:stedsnr" v="577694" />
	</node>
	<node id="-42176" lat="70.5005083446" lon="25.7463191884">
		<tag k="ssr:gml_id" v="GEOMETRY_74339db9-443f-4c95-9a6d-e1a27bbed8fc" />
		<tag k="ssr:gml_nr" v="1" />
	</node>
	<node id="-46271" lat="70.372697226" lon="25.6210414273">
		<tag k="name" v="Skalvijängät" />
		<tag k="name:fkv" v="Skalvijängät" />
		<tag k="natural" v="wetland" />
		<tag k="ssr:date" v="2016-05-10" />
		<tag k="ssr:stedsnr" v="577589" />
	</node>
	<node id="-43893" lat="70.4034805563" lon="24.9350859395">
		<tag k="ssr:gml_id" v="GEOMETRY_1044cd7a-05df-44e3-8f69-9c4ec9576ff5" />
		<tag k="ssr:gml_nr" v="0" />
	</node>
	<node id="-44215" lat="70.2923611191" lon="25.6750053036">
		<tag k="ssr:gml_id" v="GEOMETRY_0298b442-b154-42bc-b08d-81ac2bd8449b" />
		<tag k="ssr:gml_nr" v="1" />
	</node>
	<node id="-44214" lat="70.2923583428" lon="25.6750025166">
		<tag k="ssr:gml_id" v="GEOMETRY_ac37b2b5-68d7-460c-b55e-f6778d586e3d" />
		<tag k="ssr:gml_nr" v="0" />
	</node>
	<node id="-44209" lat="70.2984638952" lon="25.529596985">
		<tag k="ssr:gml_id" v="GEOMETRY_93420b7b-f37c-4426-af38-a805dd7a45e3" />
		<tag k="ssr:gml_nr" v="1" />
	</node>
	<node id="-44208" lat="70.2998888942" lon="25.5293358701">
		<tag k="ssr:gml_id" v="GEOMETRY_a86890f6-3be1-4657-8734-3bb7d497e859" />
		<tag k="ssr:gml_nr" v="0" />
	</node>
	<node id="-46255" lat="70.2954972312" lon="25.5196525291">
		<tag k="name" v="Kotakentänruto" />
		<tag k="name:fkv" v="Kotakentänruto" />
		<tag k="natural" v="wood" />
		<tag k="ssr:date" v="2016-05-10" />
		<tag k="ssr:stedsnr" v="577408" />
	</node>
	<node id="-44206" lat="70.3128194534" lon="25.88441082">
		<tag k="ssr:gml_id" v="GEOMETRY_29a7a0d2-bb92-4a0b-a39e-6d6d81b81012" />
		<tag k="ssr:gml_nr" v="1" />
	</node>
	<node id="-44205" lat="70.3128222285" lon="25.8844136128">
		<tag k="ssr:gml_id" v="GEOMETRY_2d909c78-c32b-4695-badf-e5d6b4252e45" />
		<tag k="ssr:gml_nr" v="0" />
	</node>
	<node id="-46252" lat="70.2926805661" lon="25.5101108799">
		<tag k="name" v="Syyrykopanjänkkä" />
		<tag k="name:fkv" v="Syyrykopanjänkkä" />
		<tag k="natural" v="wetland" />
		<tag k="ssr:date" v="2016-05-10" />
		<tag k="ssr:stedsnr" v="577395" />
	</node>
	<node id="-46249" lat="70.0515277892" lon="25.105783122">
		<tag k="name" v="Bihkurohtu" />
		<tag k="name:se" v="Bihkurohtu" />
		<tag k="natural" v="wood" />
		<tag k="ssr:date" v="2016-05-10" />
		<tag k="ssr:stedsnr" v="577370" />
	</node>
	<node id="-46247" lat="70.5284138934" lon="25.0900220296">
		<tag k="landuse" v="farmland" />
		<tag k="name" v="Vårplassen" />
		<tag k="name:no" v="Vårplassen" />
		<tag k="ssr:date" v="2016-05-10" />
		<tag k="ssr:stedsnr" v="577351" />
	</node>
	<node id="-46243" lat="70.2631444481" lon="25.5120581005">
		<tag k="name" v="Markitan-Pounut" />
		<tag k="name:fkv" v="Markitan-Pounut" />
		<tag k="natural" v="wetland" />
		<tag k="ssr:date" v="2016-05-10" />
		<tag k="ssr:stedsnr" v="577270" />
	</node>
	<node id="-46238" lat="70.4863527871" lon="25.7849469639">
		<tag k="name" v="Áinnetrohtu" />
		<tag k="name:se" v="Áinnetrohtu" />
		<tag k="natural" v="wood" />
		<tag k="ssr:date" v="2016-05-10" />
		<tag k="ssr:stedsnr" v="575367" />
	</node>
	<node id="-46237" lat="70.4941250077" lon="25.6743053214">
		<tag k="name" v="Jiellenjárgieddi" />
		<tag k="name:se" v="Jiellenjárgieddi" />
		<tag k="place" v="locality" />
		<tag k="ssr:date" v="2016-05-10" />
		<tag k="ssr:stedsnr" v="575334" />
	</node>
	<node id="-43202" lat="70.2102861165" lon="24.8734081505">
		<tag k="ssr:gml_id" v="GEOMETRY_74aa61e5-5172-4a7f-95a0-2a6779183efb" />
		<tag k="ssr:gml_nr" v="0" />
	</node>
	<node id="-48258" lat="70.3583361194" lon="25.4779720062">
		<tag k="ssr:gml_id" v="GEOMETRY_9cdc149a-55aa-4242-bc07-a66457f16065" />
		<tag k="ssr:gml_nr" v="1" />
	</node>
	<node id="-48257" lat="70.3583333422" lon="25.4779692104">
		<tag k="ssr:gml_id" v="GEOMETRY_f99255c2-34b6-487c-bd10-76b64ee5740a" />
		<tag k="ssr:gml_nr" v="0" />
	</node>
	<node id="-42175" lat="70.5005111158" lon="25.746321958">
		<tag k="ssr:gml_id" v="GEOMETRY_95705c9e-b17f-404a-a9e9-21c1384bc2a4" />
		<tag k="ssr:gml_nr" v="0" />
	</node>
	<node id="-46199" lat="70.3313805616" lon="25.0303164843">
		<tag k="name" v="Silisjárjeakkit" />
		<tag k="name:se" v="Silisjárjeakkit" />
		<tag k="natural" v="wetland" />
		<tag k="ssr:date" v="2016-05-10" />
		<tag k="ssr:stedsnr" v="566638" />
	</node>
	<node id="-46269" lat="70.3866694494" lon="25.5616108664">
		<tag k="name" v="Isosokanjänkkä" />
		<tag k="name:fkv" v="Isosokanjänkkä" />
		<tag k="natural" v="wetland" />
		<tag k="ssr:date" v="2016-05-10" />
		<tag k="ssr:stedsnr" v="577557" />
	</node>
	<node id="-48234" lat="70.1323638973" lon="25.7896775006">
		<tag k="ssr:gml_id" v="GEOMETRY_40dab24b-54d1-4a38-aa83-e30af2618a9c" />
		<tag k="ssr:gml_nr" v="2" />
	</node>
	<node id="-48233" lat="70.1323611229" lon="25.7896747222">
		<tag k="ssr:gml_id" v="GEOMETRY_f3ea335a-0d49-48f8-96c3-a51d0f43d803" />
		<tag k="ssr:gml_nr" v="1" />
	</node>
	<node id="-48232" lat="70.1323666717" lon="25.789680279">
		<tag k="ssr:gml_id" v="GEOMETRY_f07c5bda-11c7-4549-b016-eb26437deb1f" />
		<tag k="ssr:gml_nr" v="0" />
	</node>
	<node id="-41830" lat="70.188036118" lon="24.8534803708">
		<tag k="ssr:gml_id" v="GEOMETRY_a65c6c8e-adc5-471d-b2ac-3c10d38684a6" />
		<tag k="ssr:gml_nr" v="1" />
	</node>
	<node id="-45925" lat="70.0493611136" lon="25.001363701">
		<tag k="ssr:gml_id" v="GEOMETRY_a2452a07-eed2-400c-b323-c0a78738d315" />
		<tag k="ssr:gml_nr" v="1" />
	</node>
	<node id="-44120" lat="70.1185611165" lon="25.098966462">
		<tag k="ssr:gml_id" v="GEOMETRY_055ce478-5c8d-4b56-a770-ebd2c09ac324" />
		<tag k="ssr:gml_nr" v="1" />
	</node>
	<node id="-44119" lat="70.1185666723" lon="25.098972007">
		<tag k="ssr:gml_id" v="GEOMETRY_8478aa98-4310-49eb-ac33-0c1c2bae5671" />
		<tag k="ssr:gml_nr" v="0" />
	</node>
	<node id="-44118" lat="70.0760888942" lon="24.6888220525">
		<tag k="ssr:gml_id" v="GEOMETRY_3c18b166-89f8-429c-b469-f3eebc322a55" />
		<tag k="ssr:gml_nr" v="1" />
	</node>
	<node id="-44117" lat="70.0760944526" lon="24.688827602">
		<tag k="ssr:gml_id" v="GEOMETRY_0de4cb86-e865-49e6-baf1-22d7ec76dfdb" />
		<tag k="ssr:gml_nr" v="0" />
	</node>
	<node id="-46160" lat="70.3070694491" lon="25.5754969746">
		<tag k="ssr:gml_id" v="GEOMETRY_86092c8d-4a02-4ac6-b555-6e21c48f42d9" />
		<tag k="ssr:gml_nr" v="1" />
	</node>
	<node id="-46159" lat="70.307072227" lon="25.5754997503">
		<tag k="ssr:gml_id" v="GEOMETRY_81e4d6bd-d1d4-4cfa-823a-30aead5f07d0" />
		<tag k="ssr:gml_nr" v="0" />
	</node>
	<node id="-48191" lat="70.0410027852" lon="25.017502574">
		<tag k="ssr:gml_id" v="GEOMETRY_05f78cd7-8e1a-4106-ac5e-c706209de918" />
		<tag k="ssr:gml_nr" v="2" />
	</node>
	<node id="-48190" lat="70.0410055611" lon="25.017505362">
		<tag k="ssr:gml_id" v="GEOMETRY_5662e6ef-32f4-436b-8812-7d0d65cb1d49" />
		<tag k="ssr:gml_nr" v="1" />
	</node>
	<node id="-48189" lat="70.0410083393" lon="25.0175081249">
		<tag k="ssr:gml_id" v="GEOMETRY_987e4b04-05ec-4981-9311-47e2792369bd" />
		<tag k="ssr:gml_nr" v="0" />
	</node>
	<node id="-42040" lat="70.3647111159" lon="25.4950747666">
		<tag k="ssr:gml_id" v="GEOMETRY_7b811888-89f7-4e62-aefe-8119fa5c2999" />
		<tag k="ssr:gml_nr" v="1" />
	</node>
	<node id="-42039" lat="70.3647083366" lon="25.4950719931">
		<tag k="ssr:gml_id" v="GEOMETRY_da8a29a9-8c50-4290-bda2-7b455b654bd3" />
		<tag k="ssr:gml_nr" v="0" />
	</node>
	<node id="-44083" lat="70.1524277853" lon="24.579124854">
		<tag k="ssr:gml_id" v="GEOMETRY_cdf13eb5-9f2f-4e01-a333-4a22e50ea71e" />
		<tag k="ssr:gml_nr" v="2" />
	</node>
	<node id="-44082" lat="70.1524305577" lon="24.5791276187">
		<tag k="ssr:gml_id" v="GEOMETRY_cf75d303-1ba7-4d43-a2fc-77c36b46cd92" />
		<tag k="ssr:gml_nr" v="1" />
	</node>
	<node id="-48177" lat="70.0759472298" lon="25.1811025591">
		<tag k="ssr:gml_id" v="GEOMETRY_761208c5-2b6b-4718-be8b-5a34a1d45531" />
		<tag k="ssr:gml_nr" v="3" />
	</node>
	<node id="-48176" lat="70.0822277868" lon="25.1855247969">
		<tag k="ssr:gml_id" v="GEOMETRY_39436786-fbbf-4571-a0ba-6dc8ce91d440" />
		<tag k="ssr:gml_nr" v="2" />
	</node>
	<node id="-48175" lat="70.0795472319" lon="25.1822081335">
		<tag k="ssr:gml_id" v="GEOMETRY_0c9512e6-0fdb-4452-8752-4fc7de0857c2" />
		<tag k="ssr:gml_nr" v="1" />
	</node>
	<node id="-48174" lat="70.0795444479" lon="25.1822053361">
		<tag k="ssr:gml_id" v="GEOMETRY_99257309-c3df-40fc-8cba-f250a42de75c" />
		<tag k="ssr:gml_nr" v="0" />
	</node>
	<node id="-48168" lat="70.1016138986" lon="24.7291137152">
		<tag k="ssr:gml_id" v="GEOMETRY_bf527251-10fd-4cf5-b0bc-e29b6a435a94" />
		<tag k="ssr:gml_nr" v="1" />
	</node>
	<node id="-48167" lat="70.1016194469" lon="24.7291192763">
		<tag k="ssr:gml_id" v="GEOMETRY_2ff9044d-7436-4f37-beb7-b5bd7c61794b" />
		<tag k="ssr:gml_nr" v="0" />
	</node>
	<node id="-44207" lat="70.3128194498" lon="25.8844080641">
		<tag k="ssr:gml_id" v="GEOMETRY_94bcb51e-0b23-4b8b-8fa7-b35f2e319208" />
		<tag k="ssr:gml_nr" v="2" />
	</node>
	<node id="-44053" lat="70.3699472271" lon="25.465846987">
		<tag k="name" v="Skinskejeaggi" />
		<tag k="name:se" v="Skinskejeaggi" />
		<tag k="natural" v="wetland" />
		<tag k="ssr:date" v="2016-05-10" />
		<tag k="ssr:stedsnr" v="153516" />
	</node>
	<node id="-48139" lat="70.1465388969" lon="24.8725470496">
		<tag k="ssr:gml_id" v="GEOMETRY_ef5b677e-4813-4bca-a721-a69f382a28da" />
		<tag k="ssr:gml_nr" v="1" />
	</node>
	<node id="-48138" lat="70.1465444496" lon="24.8725498145">
		<tag k="ssr:gml_id" v="GEOMETRY_ebf681a9-9d89-4c5a-8061-53859f62e617" />
		<tag k="ssr:gml_nr" v="0" />
	</node>
	<node id="-44040" lat="70.4501527854" lon="25.6365164174">
		<tag k="name" v="Áimejeaggi" />
		<tag k="name:se" v="Áimejeaggi" />
		<tag k="natural" v="wetland" />
		<tag k="ssr:date" v="2016-05-10" />
		<tag k="ssr:stedsnr" v="152765" />
	</node>
	<node id="-44034" lat="70.3575805644" lon="25.4514081063">
		<tag k="name" v="Snuipanpahta" />
		<tag k="name:fkv" v="Snuipanpahta" />
		<tag k="natural" v="scree" />
		<tag k="ssr:date" v="2016-05-10" />
		<tag k="ssr:stedsnr" v="152636" />
	</node>
	<node id="-41985" lat="70.2659750101" lon="25.514788638">
		<tag k="ssr:gml_id" v="GEOMETRY_6cf34ed3-9f95-4860-b89e-eaa66fb6e016" />
		<tag k="ssr:gml_nr" v="1" />
	</node>
	<node id="-41984" lat="70.2659750061" lon="25.5147914318">
		<tag k="ssr:gml_id" v="GEOMETRY_dd52e09a-34f9-4360-a73e-a26ca36e2971" />
		<tag k="ssr:gml_nr" v="0" />
	</node>
	<node id="-44028" lat="70.4531166719" lon="25.6917469717">
		<tag k="name" v="Nils Biehtár Rohtu - Niileksen Pietarin Ruto" />
		<tag k="name:fkv" v="Niileksen Pietarin Ruto" />
		<tag k="name:se" v="Nils Biehtár Rohtu" />
		<tag k="natural" v="wood" />
		<tag k="ssr:date" v="2016-05-10" />
		<tag k="ssr:stedsnr" v="152550" />
	</node>
	<node id="-44026" lat="70.2527055574" lon="25.0148720321">
		<tag k="name" v="Čievra" />
		<tag k="name:se" v="Čievra" />
		<tag k="natural" v="scree" />
		<tag k="ssr:date" v="2016-05-10" />
		<tag k="ssr:stedsnr" v="152835" />
	</node>
	<node id="-46067" lat="69.7656111144" lon="25.0785275596">
		<tag k="ssr:gml_id" v="GEOMETRY_e4039250-0376-4028-903e-31984d7a4a06" />
		<tag k="ssr:gml_nr" v="1" />
	</node>
	<node id="-46066" lat="69.7656138957" lon="25.0785303471">
		<tag k="ssr:gml_id" v="GEOMETRY_145eb755-9807-4919-856c-e38941e92b64" />
		<tag k="ssr:gml_nr" v="0" />
	</node>
	<node id="-44015" lat="70.2944416738" lon="25.5238692038">
		<tag k="name" v="Kalantonruto" />
		<tag k="name:fkv" v="Kalantonruto" />
		<tag k="natural" v="wood" />
		<tag k="ssr:date" v="2016-05-10" />
		<tag k="ssr:stedsnr" v="152426" />
	</node>
	<node id="-44014" lat="70.2752638936" lon="25.5227997551">
		<tag k="name" v="Aaronalajänkkä" />
		<tag k="name:fkv" v="Aaronalajänkkä" />
		<tag k="natural" v="wetland" />
		<tag k="ssr:date" v="2016-05-10" />
		<tag k="ssr:stedsnr" v="152422" />
	</node>
	<node id="-44009" lat="70.5282750064" lon="25.0877359294">
		<tag k="landuse" v="farmland" />
		<tag k="name" v="Nordmo" />
		<tag k="name:no" v="Nordmo" />
		<tag k="ssr:date" v="2016-05-10" />
		<tag k="ssr:stedsnr" v="152319" />
	</node>
	<node id="-44007" lat="70.5165416738" lon="25.8195164218">
		<tag k="name" v="Juovlarohtu" />
		<tag k="name:se" v="Juovlarohtu" />
		<tag k="natural" v="wood" />
		<tag k="ssr:date" v="2016-05-10" />
		<tag k="ssr:stedsnr" v="150430" />
	</node>
	<node id="-43989" lat="70.4875888919" lon="25.7874219727">
		<tag k="name" v="Áinnetjeakkit" />
		<tag k="name:se" v="Áinnetjeakkit" />
		<tag k="natural" v="wetland" />
		<tag k="ssr:date" v="2016-05-10" />
		<tag k="ssr:stedsnr" v="144902" />
	</node>
	<node id="-43983" lat="70.4036833407" lon="25.2135748009">
		<tag k="name" v="Jávrrešgasjeaggi" />
		<tag k="name:se" v="Jávrrešgasjeaggi" />
		<tag k="natural" v="wetland" />
		<tag k="ssr:date" v="2016-05-10" />
		<tag k="ssr:stedsnr" v="152523" />
	</node>
	<node id="-43982" lat="70.4060972312" lon="25.2135248079">
		<tag k="name" v="Miellemohkejeaggi" />
		<tag k="name:se" v="Miellemohkejeaggi" />
		<tag k="natural" v="wetland" />
		<tag k="ssr:date" v="2016-05-10" />
		<tag k="ssr:stedsnr" v="152524" />
	</node>
	<node id="-41932" lat="69.854883342" lon="25.4758275197">
		<tag k="ssr:gml_id" v="GEOMETRY_c705239b-f399-416d-a63e-6cd1bc0d32df" />
		<tag k="ssr:gml_nr" v="1" />
	</node>
	<node id="-41931" lat="69.8548805606" lon="25.4758247416">
		<tag k="ssr:gml_id" v="GEOMETRY_c1081e78-1431-4fed-849a-b839a8f87771" />
		<tag k="ssr:gml_nr" v="0" />
	</node>
	<node id="-48059" lat="70.5926694497" lon="26.0496691687">
		<tag k="name" v="Guhkesrohtu" />
		<tag k="name:se" v="Guhkesrohtu" />
		<tag k="natural" v="wood" />
		<tag k="ssr:date" v="2016-05-11" />
		<tag k="ssr:stedsnr" v="835080" />
	</node>
	<node id="-48048" lat="70.2187638992" lon="24.8682414862">
		<tag k="name" v="Johkkit" />
		<tag k="name:se" v="Johkkit" />
		<tag k="natural" v="scree" />
		<tag k="ssr:date" v="2016-05-11" />
		<tag k="ssr:stedsnr" v="821786" />
	</node>
	<node id="-48039" lat="70.2518222309" lon="24.870738717">
		<tag k="ssr:gml_id" v="GEOMETRY_a409fb95-41bc-4988-a065-e5c0e95a2396" />
		<tag k="ssr:gml_nr" v="1" />
	</node>
	<node id="-48038" lat="70.2525500078" lon="24.8816164958">
		<tag k="ssr:gml_id" v="GEOMETRY_340ad3a8-5e2a-40ff-bc54-469f54ddcae7" />
		<tag k="ssr:gml_nr" v="0" />
	</node>
	<node id="-48035" lat="70.3681805649" lon="25.520771992">
		<tag k="landuse" v="farmland" />
		<tag k="name" v="Serinelund" />
		<tag k="name:no" v="Serinelund" />
		<tag k="ssr:date" v="2016-05-11" />
		<tag k="ssr:stedsnr" v="820571" />
	</node>
	<node id="-48033" lat="70.4424666784" lon="25.6222914254">
		<tag k="landuse" v="farmland" />
		<tag k="name" v="Livagieddi" />
		<tag k="name:se" v="Livagieddi" />
		<tag k="ssr:date" v="2016-05-11" />
		<tag k="ssr:stedsnr" v="820509" />
	</node>
	<node id="-48032" lat="70.0540416771" lon="25.130702571">
		<tag k="name" v="Ajunrohtu" />
		<tag k="name:fkv" v="Ajunrohtu" />
		<tag k="natural" v="wood" />
		<tag k="ssr:date" v="2016-05-11" />
		<tag k="ssr:stedsnr" v="820501" />
	</node>
	<node id="-48031" lat="70.395925006" lon="25.2037553551">
		<tag k="name" v="Guhkesjeaggi - Langmyra" />
		<tag k="name:no" v="Langmyra" />
		<tag k="name:se" v="Guhkesjeaggi" />
		<tag k="natural" v="wetland" />
		<tag k="ssr:date" v="2016-05-11" />
		<tag k="ssr:stedsnr" v="820498" />
	</node>
	<node id="-48029" lat="70.4066166725" lon="25.2264164684">
		<tag k="name" v="Seakkojeaggi" />
		<tag k="name:se" v="Seakkojeaggi" />
		<tag k="natural" v="wetland" />
		<tag k="ssr:date" v="2016-05-11" />
		<tag k="ssr:stedsnr" v="820476" />
	</node>
	<node id="-48028" lat="70.3396472326" lon="25.6382053016">
		<tag k="name" v="Ylimäinen vuoma" />
		<tag k="name:fkv" v="Ylimäinen vuoma" />
		<tag k="natural" v="wetland" />
		<tag k="ssr:date" v="2016-05-11" />
		<tag k="ssr:stedsnr" v="820462" />
	</node>
	<node id="-48024" lat="70.3070111227" lon="25.464694203">
		<tag k="name" v="Hevosenniemenkarko" />
		<tag k="name:fkv" v="Hevosenniemenkarko" />
		<tag k="natural" v="beach" />
		<tag k="ssr:date" v="2016-05-11" />
		<tag k="ssr:stedsnr" v="820409" />
		<tag k="surface" v="sand" />
	</node>
	<node id="-43927" lat="70.5554972325" lon="25.8847330745">
		<tag k="ssr:gml_id" v="GEOMETRY_5ebb9570-dba7-4c04-9a68-9941579d90e8" />
		<tag k="ssr:gml_nr" v="3" />
	</node>
	<node id="-43926" lat="70.5466027871" lon="25.8600775277">
		<tag k="ssr:gml_id" v="GEOMETRY_bb41924d-886e-431e-a99d-c4876f68d830" />
		<tag k="ssr:gml_nr" v="2" />
	</node>
	<node id="-43925" lat="70.5466055588" lon="25.860080294">
		<tag k="ssr:gml_id" v="GEOMETRY_9bf2c417-fabd-4589-bc3a-83f6526fcca1" />
		<tag k="ssr:gml_nr" v="1" />
	</node>
	<node id="-43924" lat="70.5466027844" lon="25.8600913945">
		<tag k="ssr:gml_id" v="GEOMETRY_44870a27-e254-41de-bc80-c8db81d2807d" />
		<tag k="ssr:gml_nr" v="0" />
	</node>
	<node id="-43502" lat="70.2717000051" lon="24.9126081407">
		<tag k="ssr:gml_id" v="GEOMETRY_d6586955-84ca-459d-9fcd-64a295a1fc11" />
		<tag k="ssr:gml_nr" v="1" />
	</node>
	<node id="-48017" lat="70.5104472325" lon="25.7646191994">
		<tag k="name" v="Heargeveaddinjeaggi" />
		<tag k="name:se" v="Heargeveaddinjeaggi" />
		<tag k="natural" v="wetland" />
		<tag k="ssr:date" v="2016-05-11" />
		<tag k="ssr:stedsnr" v="818444" />
	</node>
	<node id="-43501" lat="70.2715444539" lon="24.9055275932">
		<tag k="ssr:gml_id" v="GEOMETRY_d5021ba9-c7e0-4d47-8f1b-e9afe5318c5e" />
		<tag k="ssr:gml_nr" v="0" />
	</node>
	<node id="-48006" lat="70.4037083414" lon="25.5973469869">
		<tag k="name" v="Fielmmájeakkit" />
		<tag k="name:se" v="Fielmmájeakkit" />
		<tag k="natural" v="wetland" />
		<tag k="ssr:date" v="2016-05-11" />
		<tag k="ssr:stedsnr" v="814949" />
	</node>
	<node id="-45956" lat="70.4477500104" lon="25.8296580621">
		<tag k="ssr:gml_id" v="GEOMETRY_bc8b917a-ed41-4aea-8e9b-7fabf922b371" />
		<tag k="ssr:gml_nr" v="2" />
	</node>
	<node id="-45955" lat="70.4477500036" lon="25.8296608549">
		<tag k="ssr:gml_id" v="GEOMETRY_a7eb4bc1-5b90-411e-b844-01564d48dd3d" />
		<tag k="ssr:gml_nr" v="1" />
	</node>
	<node id="-48002" lat="70.3641888923" lon="25.5709747654">
		<tag k="alt_name:se" v="Rámbejuovva" />
		<tag k="name" v="Rampinjuova" />
		<tag k="name:fkv" v="Rampinjuova" />
		<tag k="natural" v="scree" />
		<tag k="ssr:date" v="2016-05-11" />
		<tag k="ssr:stedsnr" v="812940" />
	</node>
	<node id="-47998" lat="70.3007861137" lon="25.0798692593">
		<tag k="name" v="Gáhkkorjeaggi" />
		<tag k="name:se" v="Gáhkkorjeaggi" />
		<tag k="natural" v="wetland" />
		<tag k="ssr:date" v="2016-05-11" />
		<tag k="ssr:stedsnr" v="810681" />
	</node>
	<node id="-47997" lat="70.3081333433" lon="25.1021386855">
		<tag k="name" v="Ánnájeaggi" />
		<tag k="name:se" v="Ánnájeaggi" />
		<tag k="natural" v="wetland" />
		<tag k="ssr:date" v="2016-05-11" />
		<tag k="ssr:stedsnr" v="810674" />
	</node>
	<node id="-47996" lat="70.3122527804" lon="24.9520609279">
		<tag k="name" v="Náránaščohkajeakkit" />
		<tag k="name:se" v="Náránaščohkajeakkit" />
		<tag k="natural" v="wetland" />
		<tag k="ssr:date" v="2016-05-11" />
		<tag k="ssr:stedsnr" v="810664" />
	</node>
	<node id="-47992" lat="70.2903138929" lon="25.0536859091">
		<tag k="name" v="Mákkašjeaggi" />
		<tag k="name:se" v="Mákkašjeaggi" />
		<tag k="natural" v="wetland" />
		<tag k="ssr:date" v="2016-05-11" />
		<tag k="ssr:stedsnr" v="810573" />
	</node>
	<node id="-43894" lat="70.403483338" lon="24.9350887197">
		<tag k="ssr:gml_id" v="GEOMETRY_3c3edb13-517c-4eb7-9095-b08083cca6aa" />
		<tag k="ssr:gml_nr" v="1" />
	</node>
	<node id="-45941" lat="70.0016361158" lon="24.9276942422">
		<tag k="ssr:gml_id" v="GEOMETRY_7670adba-b865-404e-8f46-1e7001b3f80f" />
		<tag k="ssr:gml_nr" v="1" />
	</node>
	<node id="-45940" lat="70.0016388909" lon="24.9276970378">
		<tag k="ssr:gml_id" v="GEOMETRY_2974d016-ff21-48ef-816a-38f127e9c00e" />
		<tag k="ssr:gml_nr" v="0" />
	</node>
	<node id="-45926" lat="70.0493583375" lon="25.0013609139">
		<tag k="ssr:gml_id" v="GEOMETRY_ace8255e-5f5d-4e4f-b464-bbb437b3bad4" />
		<tag k="ssr:gml_nr" v="2" />
	</node>
	<node id="-41829" lat="70.1880388966" lon="24.8534831588">
		<tag k="ssr:gml_id" v="GEOMETRY_d529c1a5-a642-40d5-92b8-89ace0b614c7" />
		<tag k="ssr:gml_nr" v="0" />
	</node>
	<node id="-45924" lat="70.0493638921" lon="25.001366463">
		<tag k="ssr:gml_id" v="GEOMETRY_1640a67f-8e81-4dd6-9824-fe2db147caf3" />
		<tag k="ssr:gml_nr" v="0" />
	</node>
	<node id="-45915" lat="70.0482055667" lon="25.0985858958">
		<tag k="ssr:gml_id" v="GEOMETRY_51b66717-461c-4b9d-b29f-75162ceb7439" />
		<tag k="ssr:gml_nr" v="3" />
	</node>
	<node id="-45914" lat="70.0482083435" lon="25.0985886705">
		<tag k="ssr:gml_id" v="GEOMETRY_205a8487-4ade-4e63-8066-8aab13e98b4e" />
		<tag k="ssr:gml_nr" v="2" />
	</node>
	<node id="-45913" lat="70.0554500091" lon="25.1390081256">
		<tag k="ssr:gml_id" v="GEOMETRY_2db222a4-3c87-439b-8ed1-5184d2ebbda8" />
		<tag k="ssr:gml_nr" v="1" />
	</node>
	<node id="-45912" lat="70.0482111179" lon="25.0985914704">
		<tag k="ssr:gml_id" v="GEOMETRY_577ef817-1e67-4152-b3d5-babf4fafcf40" />
		<tag k="ssr:gml_nr" v="0" />
	</node>
	<node id="-41805" lat="70.5529805611" lon="25.8548858369">
		<tag k="name" v="Civatjeaggi" />
		<tag k="name:se" v="Civatjeaggi" />
		<tag k="natural" v="wetland" />
		<tag k="ssr:date" v="2016-05-10" />
		<tag k="ssr:stedsnr" v="288048" />
	</node>
	<node id="-47948" lat="70.2740611133" lon="24.87467205">
		<tag k="name" v="Jorbmi" />
		<tag k="name:se" v="Jorbmi" />
		<tag k="natural" v="wetland" />
		<tag k="ssr:date" v="2016-05-11" />
		<tag k="ssr:stedsnr" v="809596" />
	</node>
	<node id="-43851" lat="70.2488666702" lon="24.5374720648">
		<tag k="ssr:gml_id" v="GEOMETRY_21b45e3a-89fa-4b44-8fc4-6012b1da1941" />
		<tag k="ssr:gml_nr" v="3" />
	</node>
	<node id="-43850" lat="70.2621861134" lon="24.5585304129">
		<tag k="ssr:gml_id" v="GEOMETRY_18323957-87bc-4ea3-aa66-1d51268789f4" />
		<tag k="ssr:gml_nr" v="2" />
	</node>
	<node id="-43849" lat="70.244050001" lon="24.5334581783">
		<tag k="ssr:gml_id" v="GEOMETRY_f677b04f-6320-4d35-a8f5-9899cf52d268" />
		<tag k="ssr:gml_nr" v="1" />
	</node>
	<node id="-43848" lat="70.2440500078" lon="24.5334498609">
		<tag k="ssr:gml_id" v="GEOMETRY_08115bc1-e44e-4f02-b829-7f18cf6b4b1a" />
		<tag k="ssr:gml_nr" v="0" />
	</node>
	<node id="-45893" lat="70.1367000032" lon="25.0433192562">
		<tag k="ssr:gml_id" v="GEOMETRY_e3ea0a3c-cf8f-4f5c-b0ed-3fb0d5d46cd6" />
		<tag k="ssr:gml_nr" v="1" />
	</node>
	<node id="-45892" lat="70.1367000106" lon="25.0433164607">
		<tag k="ssr:gml_id" v="GEOMETRY_f0aeda65-a688-467d-8de5-c9bcefaa285e" />
		<tag k="ssr:gml_nr" v="0" />
	</node>
	<node id="-41795" lat="70.2098000029" lon="24.8953303671">
		<tag k="name" v="Dimbbarjeaggi" />
		<tag k="name:se" v="Dimbbarjeaggi" />
		<tag k="natural" v="wetland" />
		<tag k="ssr:date" v="2016-05-10" />
		<tag k="ssr:stedsnr" v="275833" />
	</node>
	<node id="-41794" lat="70.1986833346" lon="24.9154109358">
		<tag k="landuse" v="farmland" />
		<tag k="name" v="Anna-Jongieddi" />
		<tag k="name:se" v="Anna-Jongieddi" />
		<tag k="ssr:date" v="2016-05-10" />
		<tag k="ssr:stedsnr" v="275827" />
	</node>
	<node id="-45884" lat="70.1964027837" lon="24.8402776037">
		<tag k="ssr:gml_id" v="GEOMETRY_cedcfddb-f8c0-4a78-9420-365d3fbbd108" />
		<tag k="ssr:gml_nr" v="1" />
	</node>
	<node id="-45883" lat="70.1964055625" lon="24.8402803912">
		<tag k="ssr:gml_id" v="GEOMETRY_9cc43cae-dc62-42f2-900f-d61597c3144b" />
		<tag k="ssr:gml_nr" v="0" />
	</node>
	<node id="-41782" lat="70.2491694458" lon="24.8826276077">
		<tag k="name" v="Guljamanjeaggi" />
		<tag k="name:se" v="Guljamanjeaggi" />
		<tag k="natural" v="wetland" />
		<tag k="ssr:date" v="2016-05-10" />
		<tag k="ssr:stedsnr" v="274672" />
	</node>
	<node id="-41778" lat="70.3926055636" lon="25.5751247575">
		<tag k="name" v="Kaltarudonjänkkä" />
		<tag k="name:fkv" v="Kaltarudonjänkkä" />
		<tag k="natural" v="wetland" />
		<tag k="ssr:date" v="2016-05-10" />
		<tag k="ssr:stedsnr" v="274550" />
	</node>
	<node id="-47915" lat="70.2592666764" lon="24.9946386915">
		<tag k="ssr:gml_id" v="GEOMETRY_28b657aa-1817-4e03-8291-f242f9141574" />
		<tag k="ssr:gml_nr" v="1" />
	</node>
	<node id="-47914" lat="70.2592694462" lon="24.9946414768">
		<tag k="ssr:gml_id" v="GEOMETRY_e7f9539f-b9e0-41d0-989e-bbdc25ffdf7b" />
		<tag k="ssr:gml_nr" v="0" />
	</node>
	<node id="-47913" lat="70.260483335" lon="24.859166497">
		<tag k="ssr:gml_id" v="GEOMETRY_064441bf-a9cc-4397-9aac-cda1f4b3019a" />
		<tag k="ssr:gml_nr" v="1" />
	</node>
	<node id="-47912" lat="70.2606777828" lon="24.8591692775">
		<tag k="ssr:gml_id" v="GEOMETRY_72c76802-6cb0-40f2-84d2-f699cad2de4e" />
		<tag k="ssr:gml_nr" v="0" />
	</node>
	<node id="-47909" lat="70.3808305584" lon="25.5647497592">
		<tag k="ssr:gml_id" v="GEOMETRY_d405abf0-4bf7-4fff-92c5-8f5ef2488a18" />
		<tag k="ssr:gml_nr" v="1" />
	</node>
	<node id="-47908" lat="70.3815444471" lon="25.563071989">
		<tag k="ssr:gml_id" v="GEOMETRY_81be60d8-5ec7-4f99-ae78-6862dccf3339" />
		<tag k="ssr:gml_nr" v="0" />
	</node>
	<node id="-41753" lat="70.4895944474" lon="25.7203803073">
		<tag k="name" v="Omu-Niillasjeaggi" />
		<tag k="name:se" v="Omu-Niillasjeaggi" />
		<tag k="natural" v="wetland" />
		<tag k="ssr:date" v="2016-05-10" />
		<tag k="ssr:stedsnr" v="272327" />
	</node>
	<node id="-41748" lat="70.4447888995" lon="25.6607775458">
		<tag k="name" v="Gusaidvuovdi" />
		<tag k="name:se" v="Gusaidvuovdi" />
		<tag k="natural" v="wood" />
		<tag k="ssr:date" v="2016-05-10" />
		<tag k="ssr:stedsnr" v="269962" />
	</node>
	<node id="-42797" lat="70.119633339" lon="24.9989497981">
		<tag k="ssr:gml_id" v="GEOMETRY_6f2209ad-b163-45cc-82c5-dd882dd78f0a" />
		<tag k="ssr:gml_nr" v="2" />
	</node>
	<node id="-42795" lat="70.1196361218" lon="24.9989498022">
		<tag k="ssr:gml_id" v="GEOMETRY_d52e8fd1-bb5c-4e8a-b7d3-7936770dcb42" />
		<tag k="ssr:gml_nr" v="0" />
	</node>
	<node id="-45820" lat="70.1887861151" lon="24.8188609458">
		<tag k="ssr:gml_id" v="GEOMETRY_b693dc0c-baeb-4378-868a-26aa507dbd36" />
		<tag k="ssr:gml_nr" v="1" />
	</node>
	<node id="-45819" lat="70.1887916758" lon="24.8188664873">
		<tag k="ssr:gml_id" v="GEOMETRY_bbf8bc12-69a7-4b2d-91d9-7d180bccf3b4" />
		<tag k="ssr:gml_nr" v="0" />
	</node>
	<node id="-43764" lat="70.3716805591" lon="25.543916427">
		<tag k="ssr:gml_id" v="GEOMETRY_1f5ecfc9-b2d9-4c19-87c7-e1a2c216b1ac" />
		<tag k="ssr:gml_nr" v="1" />
	</node>
	<node id="-43763" lat="70.3716777892" lon="25.543913653">
		<tag k="ssr:gml_id" v="GEOMETRY_225d8002-4ee1-4271-856a-bb27a6c65f68" />
		<tag k="ssr:gml_nr" v="0" />
	</node>
	<node id="-43475" lat="70.3253500055" lon="25.5289997585">
		<tag k="ssr:gml_id" v="GEOMETRY_1fd035b2-1615-41c5-a39d-94d31906a820" />
		<tag k="ssr:gml_nr" v="1" />
	</node>
	<node id="-45799" lat="70.2683388921" lon="24.9822442565">
		<tag k="name" v="Suotnju" />
		<tag k="name:se" v="Suotnju" />
		<tag k="natural" v="wetland" />
		<tag k="ssr:date" v="2016-05-10" />
		<tag k="ssr:stedsnr" v="517847" />
	</node>
	<node id="-45797" lat="70.4744138939" lon="25.675971973">
		<tag k="name" v="Evrojeaggi" />
		<tag k="name:se" v="Evrojeaggi" />
		<tag k="natural" v="wetland" />
		<tag k="ssr:date" v="2016-05-10" />
		<tag k="ssr:stedsnr" v="517748" />
	</node>
	<node id="-45795" lat="70.4856388917" lon="25.6877219795">
		<tag k="name" v="Buollánrohtu" />
		<tag k="name:se" v="Buollánrohtu" />
		<tag k="natural" v="wood" />
		<tag k="ssr:date" v="2016-05-10" />
		<tag k="ssr:stedsnr" v="517733" />
	</node>
	<node id="-47842" lat="69.9899305617" lon="24.804583156">
		<tag k="ssr:gml_id" v="GEOMETRY_4b296296-668d-4d86-a38a-420f78ee7cc0" />
		<tag k="ssr:gml_nr" v="1" />
	</node>
	<node id="-47841" lat="69.9899333389" lon="24.8045859335">
		<tag k="ssr:gml_id" v="GEOMETRY_67be96c8-c420-4a46-b81f-dce29c931bd3" />
		<tag k="ssr:gml_nr" v="0" />
	</node>
	<node id="-45792" lat="70.3034166745" lon="25.0377609299">
		<tag k="name" v="Guovžarohtu" />
		<tag k="name:se" v="Guovžarohtu" />
		<tag k="natural" v="wood" />
		<tag k="ssr:date" v="2016-05-10" />
		<tag k="ssr:stedsnr" v="517657" />
	</node>
	<node id="-45787" lat="70.3891277852" lon="25.5727942177">
		<tag k="name" v="Staurunmellanjänkkä" />
		<tag k="name:fkv" v="Staurunmellanjänkkä" />
		<tag k="natural" v="wetland" />
		<tag k="ssr:date" v="2016-05-10" />
		<tag k="ssr:stedsnr" v="517568" />
	</node>
	<node id="-45785" lat="70.3926527827" lon="25.5505719757">
		<tag k="name" v="Laajinjänkkä" />
		<tag k="name:fkv" v="Laajinjänkkä" />
		<tag k="natural" v="wetland" />
		<tag k="ssr:date" v="2016-05-10" />
		<tag k="ssr:stedsnr" v="517555" />
	</node>
	<node id="-45784" lat="70.3765222259" lon="25.5064497712">
		<tag k="name" v="Kentänjänkät" />
		<tag k="name:fkv" v="Kentänjänkät" />
		<tag k="natural" v="wetland" />
		<tag k="ssr:date" v="2016-05-10" />
		<tag k="ssr:stedsnr" v="517516" />
	</node>
	<node id="-45780" lat="70.3341388937" lon="25.6347830861">
		<tag k="name" v="Alainenvuoma" />
		<tag k="name:fkv" v="Alainenvuoma" />
		<tag k="natural" v="wood" />
		<tag k="ssr:date" v="2016-05-10" />
		<tag k="ssr:stedsnr" v="517443" />
	</node>
	<node id="-45779" lat="70.319580559" lon="25.5742247559">
		<tag k="name" v="Padokohdanjänkkä" />
		<tag k="name:fkv" v="Padokohdanjänkkä" />
		<tag k="natural" v="wetland" />
		<tag k="ssr:date" v="2016-05-10" />
		<tag k="ssr:stedsnr" v="517434" />
	</node>
	<node id="-45778" lat="70.3211333396" lon="25.5687441888">
		<tag k="name" v="Niitynjänkkä" />
		<tag k="name:fkv" v="Niitynjänkkä" />
		<tag k="natural" v="wetland" />
		<tag k="ssr:date" v="2016-05-10" />
		<tag k="ssr:stedsnr" v="517432" />
	</node>
	<node id="-45774" lat="70.3133916703" lon="25.5360747615">
		<tag k="name" v="Lantoruto" />
		<tag k="name:fkv" v="Lantoruto" />
		<tag k="natural" v="wood" />
		<tag k="ssr:date" v="2016-05-10" />
		<tag k="ssr:stedsnr" v="517388" />
	</node>
	<node id="-45773" lat="70.2773527834" lon="25.5329775383">
		<tag k="name" v="Pounujänkkä" />
		<tag k="name:fkv" v="Pounujänkkä" />
		<tag k="natural" v="wetland" />
		<tag k="ssr:date" v="2016-05-10" />
		<tag k="ssr:stedsnr" v="517379" />
	</node>
	<node id="-45770" lat="70.2560166737" lon="25.4930747674">
		<tag k="name" v="Liikajoen Isojänkät" />
		<tag k="name:fkv" v="Liikajoen Isojänkät" />
		<tag k="natural" v="wetland" />
		<tag k="ssr:date" v="2016-05-10" />
		<tag k="ssr:stedsnr" v="517290" />
	</node>
	<node id="-47816" lat="69.9688638961" lon="25.4979330729">
		<tag k="ssr:gml_id" v="GEOMETRY_04410b88-300d-4e25-a9a8-a50ae07e4630" />
		<tag k="ssr:gml_nr" v="1" />
	</node>
	<node id="-47815" lat="69.9688611214" lon="25.4979303072">
		<tag k="ssr:gml_id" v="GEOMETRY_b82a46c3-20e2-4feb-b166-f6983eedaebd" />
		<tag k="ssr:gml_nr" v="0" />
	</node>
	<node id="-45763" lat="70.4963611164" lon="25.74287753">
		<tag k="name" v="Bižusgieddi" />
		<tag k="name:se" v="Bižusgieddi" />
		<tag k="natural" v="wetland" />
		<tag k="ssr:date" v="2016-05-10" />
		<tag k="ssr:stedsnr" v="515441" />
	</node>
	<node id="-43713" lat="70.0719250039" lon="25.1768219927">
		<tag k="ssr:gml_id" v="GEOMETRY_9ef0d4d8-10c1-4eb1-b11d-427ca9374c49" />
		<tag k="ssr:gml_nr" v="1" />
	</node>
	<node id="-43712" lat="70.0719277896" lon="25.1768275562">
		<tag k="ssr:gml_id" v="GEOMETRY_08d3701e-03e8-45a9-9525-110bbe215e80" />
		<tag k="ssr:gml_nr" v="0" />
	</node>
	<node id="-45759" lat="70.4594305597" lon="25.6747219849">
		<tag k="name" v="Čoarverohtu" />
		<tag k="name:se" v="Čoarverohtu" />
		<tag k="natural" v="wood" />
		<tag k="ssr:date" v="2016-05-10" />
		<tag k="ssr:stedsnr" v="512965" />
	</node>
	<node id="-45756" lat="70.4582694505" lon="25.6922164273">
		<tag k="name" v="Ceakkorohtu" />
		<tag k="name:se" v="Ceakkorohtu" />
		<tag k="natural" v="wood" />
		<tag k="ssr:date" v="2016-05-10" />
		<tag k="ssr:stedsnr" v="511908" />
	</node>
	<node id="-45742" lat="70.3718750083" lon="25.6983414136">
		<tag k="alt_name:se" v="Fielmmavuovdi" />
		<tag k="name" v="Fielmanouta" />
		<tag k="name:fkv" v="Fielmanouta" />
		<tag k="natural" v="wood" />
		<tag k="ssr:date" v="2016-05-10" />
		<tag k="ssr:stedsnr" v="509882" />
	</node>
	<node id="-45737" lat="70.207183341" lon="25.5095525443">
		<tag k="ssr:gml_id" v="GEOMETRY_0d8edd09-4d68-4774-88cf-176dc5d744ee" />
		<tag k="ssr:gml_nr" v="1" />
	</node>
	<node id="-45736" lat="70.2071888945" lon="25.5095580989">
		<tag k="ssr:gml_id" v="GEOMETRY_6bb9beb0-d850-4755-b594-d06e0fd1be61" />
		<tag k="ssr:gml_nr" v="0" />
	</node>
	<node id="-47740" lat="70.1055638951" lon="25.5631692016">
		<tag k="ssr:gml_id" v="GEOMETRY_35464492-ce08-421e-9217-358307feb907" />
		<tag k="ssr:gml_nr" v="2" />
	</node>
	<node id="-47739" lat="70.1055611216" lon="25.5631664069">
		<tag k="ssr:gml_id" v="GEOMETRY_cfa62b46-d33f-4119-80af-c25b74b72ecd" />
		<tag k="ssr:gml_nr" v="1" />
	</node>
	<node id="-47738" lat="70.105566671" lon="25.563171971">
		<tag k="ssr:gml_id" v="GEOMETRY_70a51268-40e2-4b1c-846e-d01b1cc8eebc" />
		<tag k="ssr:gml_nr" v="0" />
	</node>
	<node id="-43629" lat="70.3756444534" lon="25.8658497225">
		<tag k="ssr:gml_id" v="GEOMETRY_e3baa625-11ba-449c-b625-b1504c7478a6" />
		<tag k="ssr:gml_nr" v="2" />
	</node>
	<node id="-43628" lat="70.3756444548" lon="25.8658525125">
		<tag k="ssr:gml_id" v="GEOMETRY_5fdf5964-2301-4f2b-bae7-89a680fbd0fc" />
		<tag k="ssr:gml_nr" v="1" />
	</node>
	<node id="-43627" lat="70.3756472326" lon="25.8658552869">
		<tag k="ssr:gml_id" v="GEOMETRY_6dbf2c72-8087-4ca9-adc4-51a7f522800b" />
		<tag k="ssr:gml_nr" v="0" />
	</node>
	<node id="-43623" lat="70.0826750061" lon="25.0571109068">
		<tag k="ssr:gml_id" v="GEOMETRY_9f588117-2b4b-41d7-b982-39475d171eb8" />
		<tag k="ssr:gml_nr" v="1" />
	</node>
	<node id="-43622" lat="70.0826750026" lon="25.0571081371">
		<tag k="ssr:gml_id" v="GEOMETRY_31765611-74fb-4d3a-bc7f-da9a71a78dc2" />
		<tag k="ssr:gml_nr" v="0" />
	</node>
	<node id="-46861" lat="70.0143694485" lon="25.1233775717">
		<tag k="ssr:gml_id" v="GEOMETRY_5db01775-4b83-452b-92a5-accf715931a7" />
		<tag k="ssr:gml_nr" v="1" />
	</node>
	<node id="-47690" lat="70.0400694478" lon="25.1218692446">
		<tag k="ssr:gml_id" v="GEOMETRY_a42ea2c9-ff57-451b-95c7-ae96545b1079" />
		<tag k="ssr:gml_nr" v="1" />
	</node>
	<node id="-47689" lat="70.0400666705" lon="25.1218803307">
		<tag k="ssr:gml_id" v="GEOMETRY_8eccfd3e-7f9f-4417-a34e-326128f48475" />
		<tag k="ssr:gml_nr" v="0" />
	</node>
	<node id="-43588" lat="70.3042083398" lon="25.0794164668">
		<tag k="name" v="Lábbájeakkit" />
		<tag k="name:se" v="Lábbájeakkit" />
		<tag k="natural" v="wetland" />
		<tag k="ssr:date" v="2016-05-10" />
		<tag k="ssr:stedsnr" v="92659" />
	</node>
	<node id="-47680" lat="70.069775003" lon="25.0955720215">
		<tag k="ssr:gml_id" v="GEOMETRY_b6384e28-2f59-4eb9-9ae8-601b0fdc9ebe" />
		<tag k="ssr:gml_nr" v="1" />
	</node>
	<node id="-43583" lat="70.3420472316" lon="25.4334081219">
		<tag k="name" v="Maararuto" />
		<tag k="name:fkv" v="Maararuto" />
		<tag k="natural" v="wood" />
		<tag k="ssr:date" v="2016-05-10" />
		<tag k="ssr:stedsnr" v="92612" />
	</node>
	<node id="-43582" lat="70.3945416748" lon="25.5752692095">
		<tag k="name" v="Varistievänjänkkä" />
		<tag k="name:fkv" v="Varistievänjänkkä" />
		<tag k="natural" v="wetland" />
		<tag k="ssr:date" v="2016-05-10" />
		<tag k="ssr:stedsnr" v="92582" />
	</node>
	<node id="-43578" lat="70.3167833374" lon="25.5931275257">
		<tag k="name" v="Rapakkojänkät" />
		<tag k="name:fkv" v="Rapakkojänkät" />
		<tag k="natural" v="wetland" />
		<tag k="ssr:date" v="2016-05-10" />
		<tag k="ssr:stedsnr" v="92539" />
	</node>
	<node id="-43575" lat="70.0568555575" lon="25.1245359066">
		<tag k="name" v="Ellenjänkkä" />
		<tag k="name:fkv" v="Ellenjänkkä" />
		<tag k="natural" v="wetland" />
		<tag k="ssr:date" v="2016-05-10" />
		<tag k="ssr:stedsnr" v="92490" />
	</node>
	<node id="-43570" lat="70.3456194504" lon="25.6089164096">
		<tag k="name" v="Perjojänkkä" />
		<tag k="name:fkv" v="Perjojänkkä" />
		<tag k="natural" v="wetland" />
		<tag k="ssr:date" v="2016-05-10" />
		<tag k="ssr:stedsnr" v="92463" />
	</node>
	<node id="-43553" lat="70.4949888993" lon="25.7157719686">
		<tag k="name" v="Suorbmajeaggi" />
		<tag k="name:se" v="Suorbmajeaggi" />
		<tag k="natural" v="wetland" />
		<tag k="ssr:date" v="2016-05-10" />
		<tag k="ssr:stedsnr" v="90323" />
	</node>
	<node id="-45588" lat="70.5032277824" lon="25.753444192">
		<tag k="ssr:gml_id" v="GEOMETRY_fa5309c6-2f21-4ec1-a1ad-54e0d4de8b27" />
		<tag k="ssr:gml_nr" v="1" />
	</node>
	<node id="-45587" lat="70.5032305654" lon="25.7534441953">
		<tag k="ssr:gml_id" v="GEOMETRY_6bd80d22-7622-4eb6-a2b1-7790a5a5303b" />
		<tag k="ssr:gml_nr" v="0" />
	</node>
	<node id="-45584" lat="70.3322361203" lon="25.5574386574">
		<tag k="ssr:gml_id" v="GEOMETRY_89714dfd-a270-472d-b153-b2fb1da08c51" />
		<tag k="ssr:gml_nr" v="1" />
	</node>
	<node id="-45583" lat="70.3336805604" lon="25.5588664162">
		<tag k="ssr:gml_id" v="GEOMETRY_f4f65ed5-d016-46b6-9215-c64a2220a421" />
		<tag k="ssr:gml_nr" v="0" />
	</node>
	<node id="-43532" lat="70.4125111194" lon="25.6239136358">
		<tag k="name" v="Áinnetrohtu" />
		<tag k="name:se" v="Áinnetrohtu" />
		<tag k="natural" v="wood" />
		<tag k="ssr:date" v="2016-05-10" />
		<tag k="ssr:stedsnr" v="84937" />
	</node>
	<node id="-45551" lat="70.1179805646" lon="25.633505281">
		<tag k="ssr:gml_id" v="GEOMETRY_2e9fcbcf-bd1f-491d-af1d-3161ef33d241" />
		<tag k="ssr:gml_nr" v="4" />
	</node>
	<node id="-45550" lat="70.1177722339" lon="25.6255969729">
		<tag k="ssr:gml_id" v="GEOMETRY_1b867466-1628-47d3-a342-69d1bc0fe73d" />
		<tag k="ssr:gml_nr" v="3" />
	</node>
	<node id="-45549" lat="70.1179805616" lon="25.6335025004">
		<tag k="ssr:gml_id" v="GEOMETRY_bcff60ba-7cd6-4882-b18c-69b6ee647f12" />
		<tag k="ssr:gml_nr" v="2" />
	</node>
	<node id="-45548" lat="70.1179777875" lon="25.6335025256">
		<tag k="ssr:gml_id" v="GEOMETRY_8f77c3a2-e10a-49a6-be6d-370012b037a0" />
		<tag k="ssr:gml_nr" v="1" />
	</node>
	<node id="-45547" lat="70.1179833393" lon="25.6335080616">
		<tag k="ssr:gml_id" v="GEOMETRY_fe323b51-6f15-4f44-96ed-e2d861c927c6" />
		<tag k="ssr:gml_nr" v="0" />
	</node>
	<node id="-43497" lat="70.5904611175" lon="25.9809497213">
		<tag k="ssr:gml_id" v="GEOMETRY_1b0841dc-1d89-442a-98d7-98f65911ca3c" />
		<tag k="ssr:gml_nr" v="1" />
	</node>
	<node id="-43496" lat="70.5904583409" lon="25.9809497183">
		<tag k="ssr:gml_id" v="GEOMETRY_b05cd25c-9261-4465-9c06-b316be3937f9" />
		<tag k="ssr:gml_nr" v="0" />
	</node>
	<node id="-47868" lat="69.9060139017" lon="25.7059663889">
		<tag k="ssr:gml_id" v="GEOMETRY_a4f5078b-ecb2-4064-a7bc-363193c8196a" />
		<tag k="ssr:gml_nr" v="1" />
	</node>
	<node id="-47589" lat="70.2559472285" lon="25.5084136425">
		<tag k="name" v="Jouninjänkkä" />
		<tag k="name:fkv" v="Jouninjänkkä" />
		<tag k="natural" v="wetland" />
		<tag k="ssr:date" v="2016-05-11" />
		<tag k="ssr:stedsnr" v="760269" />
	</node>
	<node id="-47585" lat="70.4757916771" lon="25.6660553154">
		<tag k="name" v="Evrorohtu" />
		<tag k="name:se" v="Evrorohtu" />
		<tag k="natural" v="wood" />
		<tag k="ssr:date" v="2016-05-11" />
		<tag k="ssr:stedsnr" v="759733" />
	</node>
	<node id="-43485" lat="70.3366055652" lon="25.074372039">
		<tag k="ssr:gml_id" v="GEOMETRY_a50c4638-b932-40dc-9eb6-64c7f09e9045" />
		<tag k="ssr:gml_nr" v="1" />
	</node>
	<node id="-43484" lat="70.339716675" lon="25.0764859113">
		<tag k="ssr:gml_id" v="GEOMETRY_0025a00d-708c-4cc7-bc9f-10cce0b63641" />
		<tag k="ssr:gml_nr" v="0" />
	</node>
	<node id="-47572" lat="70.3997500042" lon="25.2220692421">
		<tag k="ssr:gml_id" v="GEOMETRY_57e83131-3a86-4cbc-8686-3863eb2df577" />
		<tag k="ssr:gml_nr" v="1" />
	</node>
	<node id="-47571" lat="70.3997833398" lon="25.2264747872">
		<tag k="ssr:gml_id" v="GEOMETRY_f8c6ba58-fd0b-41d8-a0dd-a501dccefc92" />
		<tag k="ssr:gml_nr" v="0" />
	</node>
	<node id="-43474" lat="70.32564167" lon="25.5341692146">
		<tag k="ssr:gml_id" v="GEOMETRY_f8e17a55-6eac-4a5e-beaf-63b5b6253fff" />
		<tag k="ssr:gml_nr" v="0" />
	</node>
	<node id="-47556" lat="70.5177277832" lon="25.0660664954">
		<tag k="landuse" v="farmland" />
		<tag k="name" v="Sletteng" />
		<tag k="name:no" v="Sletteng" />
		<tag k="ssr:date" v="2016-05-11" />
		<tag k="ssr:stedsnr" v="759336" />
	</node>
	<node id="-43441" lat="70.5128277874" lon="25.9735747379">
		<tag k="ssr:gml_id" v="GEOMETRY_b0b6e360-2c6e-4e92-ac5d-3435eab9757e" />
		<tag k="ssr:gml_nr" v="1" />
	</node>
	<node id="-43440" lat="70.5128250109" lon="25.973574737">
		<tag k="ssr:gml_id" v="GEOMETRY_e4891d0e-7f12-4d7f-a7b9-2a3d041ebce7" />
		<tag k="ssr:gml_nr" v="0" />
	</node>
	<node id="-47527" lat="70.0557527872" lon="25.1150164558">
		<tag k="name" v="Jänkänmukka" />
		<tag k="name:fkv" v="Jänkänmukka" />
		<tag k="natural" v="wetland" />
		<tag k="ssr:date" v="2016-05-11" />
		<tag k="ssr:stedsnr" v="752529" />
	</node>
	<node id="-48909" lat="70.2672027861" lon="25.4795914315">
		<tag k="landuse" v="meadow" />
		<tag k="name" v="Liikajoenkenttä" />
		<tag k="name:fkv" v="Liikajoenkenttä" />
		<tag k="ssr:date" v="2016-05-11" />
		<tag k="ssr:stedsnr" v="942243" />
	</node>
	<node id="-47460" lat="70.3275194537" lon="25.0197581417">
		<tag k="ssr:gml_id" v="GEOMETRY_f9e48128-7bb9-457f-a191-2b2b5bed7fae" />
		<tag k="ssr:gml_nr" v="1" />
	</node>
	<node id="-47459" lat="70.3275222284" lon="25.0196637095">
		<tag k="ssr:gml_id" v="GEOMETRY_25b8815a-3def-4c87-85c5-97189966a5ce" />
		<tag k="ssr:gml_nr" v="0" />
	</node>
	<node id="-45381" lat="70.0674638939" lon="25.0591525611">
		<tag k="ssr:gml_id" v="GEOMETRY_c0dcc275-dbc8-459a-ba4b-d029ce5c0a7e" />
		<tag k="ssr:gml_nr" v="5" />
	</node>
	<node id="-45380" lat="70.0570500066" lon="25.0628386891">
		<tag k="ssr:gml_id" v="GEOMETRY_d78681c2-cbf9-4a56-9d8a-2779eab10f75" />
		<tag k="ssr:gml_nr" v="4" />
	</node>
	<node id="-45379" lat="70.0686888922" lon="25.0448442492">
		<tag k="ssr:gml_id" v="GEOMETRY_8af34e3c-cea8-433d-8f21-a9e8de21c8c6" />
		<tag k="ssr:gml_nr" v="3" />
	</node>
	<node id="-45378" lat="70.0575305643" lon="25.0412164748">
		<tag k="ssr:gml_id" v="GEOMETRY_e7563eca-9573-4b5e-905f-945218dc047b" />
		<tag k="ssr:gml_nr" v="2" />
	</node>
	<node id="-45377" lat="70.0649250107" lon="25.0698775737">
		<tag k="ssr:gml_id" v="GEOMETRY_5369dd53-31a0-4a10-ba72-2ca2bd40a0d0" />
		<tag k="ssr:gml_nr" v="1" />
	</node>
	<node id="-45376" lat="70.0649250075" lon="25.0698748065">
		<tag k="ssr:gml_id" v="GEOMETRY_3ac317e6-9d91-4faa-bb75-d0f353f9fbf7" />
		<tag k="ssr:gml_nr" v="0" />
	</node>
	<node id="-47156" lat="70.3316416756" lon="25.6253775395">
		<tag k="landuse" v="farmland" />
		<tag k="name" v="Pimmeeruto" />
		<tag k="name:fkv" v="Pimmeeruto" />
		<tag k="ssr:date" v="2016-05-11" />
		<tag k="ssr:stedsnr" v="699434" />
	</node>
	<node id="-42360" lat="70.0621638921" lon="25.3415108868">
		<tag k="ssr:gml_id" v="GEOMETRY_0c7b0b99-792a-40ab-8947-2dce0e639708" />
		<tag k="ssr:gml_nr" v="1" />
	</node>
	<node id="-43308" lat="70.0689805616" lon="25.2734775556">
		<tag k="ssr:gml_id" v="GEOMETRY_af7cd938-1013-4d1f-8ee7-03d7eb002149" />
		<tag k="ssr:gml_nr" v="1" />
	</node>
	<node id="-43307" lat="70.0689777855" lon="25.2734747797">
		<tag k="ssr:gml_id" v="GEOMETRY_a167eccb-8d7f-49a3-9665-84e58e5b78a8" />
		<tag k="ssr:gml_nr" v="0" />
	</node>
	<node id="-44081" lat="70.1524388899" lon="24.5791359515">
		<tag k="ssr:gml_id" v="GEOMETRY_84adea7a-feb0-4870-a23f-128edef0552a" />
		<tag k="ssr:gml_nr" v="0" />
	</node>
	<node id="-47395" lat="69.8225500064" lon="25.5481636288">
		<tag k="ssr:gml_id" v="GEOMETRY_41a4f123-9075-4ef9-8a6f-c8f0036321fa" />
		<tag k="ssr:gml_nr" v="2" />
	</node>
	<node id="-47394" lat="69.8270583399" lon="25.5369441614">
		<tag k="ssr:gml_id" v="GEOMETRY_98c2f87e-dcde-4523-bba4-167a767f6640" />
		<tag k="ssr:gml_nr" v="1" />
	</node>
	<node id="-47393" lat="69.8225500087" lon="25.548166395">
		<tag k="ssr:gml_id" v="GEOMETRY_c8b628bd-d4a6-4697-a9c8-f4baad0ecad5" />
		<tag k="ssr:gml_nr" v="0" />
	</node>
	<node id="-45332" lat="70.6074166775" lon="26.0232830731">
		<tag k="name" v="Gáhkkorjeaggi" />
		<tag k="name:se" v="Gáhkkorjeaggi" />
		<tag k="natural" v="wetland" />
		<tag k="ssr:date" v="2016-05-10" />
		<tag k="ssr:stedsnr" v="470075" />
	</node>
	<node id="-43269" lat="70.0253916742" lon="25.8293885912">
		<tag k="ssr:gml_id" v="GEOMETRY_180a0668-71ac-430d-9813-7d1edd498700" />
		<tag k="ssr:gml_nr" v="1" />
	</node>
	<node id="-43268" lat="70.0253944565" lon="25.8293913661">
		<tag k="ssr:gml_id" v="GEOMETRY_c461f7d4-aa84-4e1a-83c9-2561979f7d17" />
		<tag k="ssr:gml_nr" v="0" />
	</node>
	<node id="-43260" lat="70.0517083387" lon="25.6291580575">
		<tag k="ssr:gml_id" v="GEOMETRY_49767cf3-0bd4-47fc-928b-0476bfff7044" />
		<tag k="ssr:gml_nr" v="1" />
	</node>
	<node id="-43259" lat="70.0517138945" lon="25.6291636302">
		<tag k="ssr:gml_id" v="GEOMETRY_a4c45baf-8f83-414b-81e5-53397f9a6777" />
		<tag k="ssr:gml_nr" v="0" />
	</node>
	<node id="-45305" lat="70.3623777861" lon="25.5847719828">
		<tag k="name" v="Varsanjuova" />
		<tag k="name:fkv" v="Varsanjuova" />
		<tag k="natural" v="scree" />
		<tag k="ssr:date" v="2016-05-10" />
		<tag k="ssr:stedsnr" v="456578" />
	</node>
	<node id="-45299" lat="70.4037527879" lon="25.2353247962">
		<tag k="name" v="Knivmyra" />
		<tag k="name:no" v="Knivmyra" />
		<tag k="natural" v="wetland" />
		<tag k="ssr:date" v="2016-05-10" />
		<tag k="ssr:stedsnr" v="456459" />
	</node>
	<node id="-45288" lat="70.4161722295" lon="25.1475803678">
		<tag k="name" v="Suovka" />
		<tag k="name:se" v="Suovka" />
		<tag k="natural" v="wood" />
		<tag k="ssr:date" v="2016-05-10" />
		<tag k="ssr:stedsnr" v="456384" />
	</node>
	<node id="-45283" lat="70.0676888931" lon="25.1224525664">
		<tag k="name" v="Iso Kivi" />
		<tag k="name:fkv" v="Iso Kivi" />
		<tag k="natural" v="stone" />
		<tag k="ssr:date" v="2016-05-10" />
		<tag k="ssr:stedsnr" v="456124" />
	</node>
	<node id="-45282" lat="70.0654277879" lon="25.1062525766">
		<tag k="landuse" v="meadow" />
		<tag k="name" v="Åsrud" />
		<tag k="name:no" v="Åsrud" />
		<tag k="ssr:date" v="2016-05-10" />
		<tag k="ssr:stedsnr" v="456123" />
	</node>
	<node id="-42361" lat="70.062166678" lon="25.3415136524">
		<tag k="ssr:gml_id" v="GEOMETRY_9f0dc6ce-8ee2-4610-852a-fe450ba20cb4" />
		<tag k="ssr:gml_nr" v="2" />
	</node>
	<node id="-45263" lat="70.4615444532" lon="25.6500303089">
		<tag k="name" v="Bealkalotjeaggi" />
		<tag k="name:se" v="Bealkalotjeaggi" />
		<tag k="natural" v="wetland" />
		<tag k="ssr:date" v="2016-05-10" />
		<tag k="ssr:stedsnr" v="456731" />
	</node>
	<node id="-42359" lat="70.062169453" lon="25.3415164363">
		<tag k="ssr:gml_id" v="GEOMETRY_ef74ac51-80f3-488a-8a4f-ad3a2e77e3de" />
		<tag k="ssr:gml_nr" v="0" />
	</node>
	<node id="-43203" lat="70.210283336" lon="24.8734053819">
		<tag k="ssr:gml_id" v="GEOMETRY_a7183f0c-68c7-43fa-ae79-5aa16e68a5c2" />
		<tag k="ssr:gml_nr" v="1" />
	</node>
	<node id="-47298" lat="70.0019833424" lon="25.256799769">
		<tag k="ssr:gml_id" v="GEOMETRY_cff48de6-33b9-41f5-94a6-2bd1f537b38d" />
		<tag k="ssr:gml_nr" v="2" />
	</node>
	<node id="-47297" lat="70.0019805659" lon="25.2567970053">
		<tag k="ssr:gml_id" v="GEOMETRY_b07fb9a7-25cd-47af-bd98-6e1b98ba2b4b" />
		<tag k="ssr:gml_nr" v="1" />
	</node>
	<node id="-47296" lat="70.0019861184" lon="25.2567997742">
		<tag k="ssr:gml_id" v="GEOMETRY_efc7a2e2-c795-4c7d-a397-bcf8198da5b8" />
		<tag k="ssr:gml_nr" v="0" />
	</node>
	<node id="-47285" lat="70.1072277848" lon="25.7576219456">
		<tag k="ssr:gml_id" v="GEOMETRY_b751cb62-6222-4e6f-98f7-b519e75944d4" />
		<tag k="ssr:gml_nr" v="1" />
	</node>
	<node id="-47284" lat="70.1072333423" lon="25.7576247145">
		<tag k="ssr:gml_id" v="GEOMETRY_935fdf74-f1a8-4eb6-8868-59231b4e376e" />
		<tag k="ssr:gml_nr" v="0" />
	</node>
	<node id="-45235" lat="70.3125666719" lon="24.9536248306">
		<tag k="ssr:gml_id" v="GEOMETRY_19284075-d80c-427a-9cc9-7d446326a353" />
		<tag k="ssr:gml_nr" v="1" />
	</node>
	<node id="-45234" lat="70.3126611214" lon="24.9530859212">
		<tag k="ssr:gml_id" v="GEOMETRY_6b7c2472-fd69-4a97-a883-eefe9302eae0" />
		<tag k="ssr:gml_nr" v="0" />
	</node>
	<node id="-43160" lat="70.1261361205" lon="25.0164414773">
		<tag k="ssr:gml_id" v="GEOMETRY_c27790db-a674-40a5-8b06-195025432ace" />
		<tag k="ssr:gml_nr" v="2" />
	</node>
	<node id="-43159" lat="70.1261333423" lon="25.0164387021">
		<tag k="ssr:gml_id" v="GEOMETRY_2b717e64-7087-4274-aafc-681e10de7bfc" />
		<tag k="ssr:gml_nr" v="1" />
	</node>
	<node id="-43158" lat="70.1261388987" lon="25.0164442526">
		<tag k="ssr:gml_id" v="GEOMETRY_698fc679-e988-47df-8b82-9738204d813a" />
		<tag k="ssr:gml_nr" v="0" />
	</node>
	<node id="-43145" lat="70.1604861172" lon="24.9064720413">
		<tag k="ssr:gml_id" v="GEOMETRY_74409c0b-35c5-46a3-8ec4-c420472dab8e" />
		<tag k="ssr:gml_nr" v="1" />
	</node>
	<node id="-43144" lat="70.1604916693" lon="24.9064748175">
		<tag k="ssr:gml_id" v="GEOMETRY_b0b27ff1-384e-4e7d-a684-8fd3e3dbdd9b" />
		<tag k="ssr:gml_nr" v="0" />
	</node>
	<node id="-45186" lat="70.3815027848" lon="25.5328719787">
		<tag k="ssr:gml_id" v="GEOMETRY_e29647d9-6e7f-496b-86d4-02b922b26aa4" />
		<tag k="ssr:gml_nr" v="1" />
	</node>
	<node id="-45185" lat="70.3815000062" lon="25.5328691975">
		<tag k="ssr:gml_id" v="GEOMETRY_c99f596c-04ba-44bd-a4be-02ed1e335984" />
		<tag k="ssr:gml_nr" v="0" />
	</node>
	<node id="-47228" lat="70.217952788" lon="25.636671978">
		<tag k="ssr:gml_id" v="GEOMETRY_b21e4ecb-f884-44ce-9fa1-0a99a972be58" />
		<tag k="ssr:gml_nr" v="1" />
	</node>
	<node id="-47227" lat="70.2179583419" lon="25.6366775193">
		<tag k="ssr:gml_id" v="GEOMETRY_17328978-5293-4e3c-8109-a5ebb11f8d32" />
		<tag k="ssr:gml_nr" v="0" />
	</node>
	<node id="-43113" lat="70.2830861166" lon="24.9839053742">
		<tag k="name" v="Miektavuovdi" />
		<tag k="name:se" v="Miektavuovdi" />
		<tag k="natural" v="wood" />
		<tag k="ssr:date" v="2016-05-10" />
		<tag k="ssr:stedsnr" v="31667" />
	</node>
	<node id="-43112" lat="70.3995944513" lon="25.5589914325">
		<tag k="name" v="Návrrašjeaggi - Naurisjänkkä" />
		<tag k="name:fkv" v="Naurisjänkkä" />
		<tag k="name:se" v="Návrrašjeaggi" />
		<tag k="natural" v="wetland" />
		<tag k="ssr:date" v="2016-05-10" />
		<tag k="ssr:stedsnr" v="31554" />
	</node>
	<node id="-43111" lat="70.3282861222" lon="25.6389053038">
		<tag k="name" v="Pimmeeruto" />
		<tag k="name:fkv" v="Pimmeeruto" />
		<tag k="natural" v="wood" />
		<tag k="ssr:date" v="2016-05-10" />
		<tag k="ssr:stedsnr" v="31435" />
	</node>
	<node id="-43106" lat="69.9948111191" lon="24.9170275984">
		<tag k="name" v="Slootanvaaranalus" />
		<tag k="name:fkv" v="Slootanvaaranalus" />
		<tag k="natural" v="wetland" />
		<tag k="ssr:date" v="2016-05-10" />
		<tag k="ssr:stedsnr" v="31475" />
	</node>
	<node id="-42341" lat="70.2559666699" lon="25.6624275304">
		<tag k="ssr:gml_id" v="GEOMETRY_9633edee-a83e-433b-91b0-9a4522cb75c4" />
		<tag k="ssr:gml_nr" v="1" />
	</node>
	<node id="-43921" lat="70.2567666711" lon="24.9887664768">
		<tag k="name" v="Skierrejeaggi" />
		<tag k="name:se" v="Skierrejeaggi" />
		<tag k="natural" v="wetland" />
		<tag k="ssr:date" v="2016-05-10" />
		<tag k="ssr:stedsnr" v="141592" />
	</node>
	<node id="-47176" lat="70.4575777826" lon="25.6290219702">
		<tag k="landuse" v="farmland" />
		<tag k="name" v="Biesaidgieddi" />
		<tag k="name:se" v="Biesaidgieddi" />
		<tag k="ssr:date" v="2016-05-11" />
		<tag k="ssr:stedsnr" v="699725" />
	</node>
	<node id="-47174" lat="70.2632333387" lon="25.066469237">
		<tag k="name" v="Njárggarohtu" />
		<tag k="name:se" v="Njárggarohtu" />
		<tag k="natural" v="wood" />
		<tag k="ssr:date" v="2016-05-11" />
		<tag k="ssr:stedsnr" v="699648" />
	</node>
	<node id="-47167" lat="70.3041250044" lon="25.557619193">
		<tag k="name" v="Laatjänkkä" />
		<tag k="name:fkv" v="Laatjänkkä" />
		<tag k="natural" v="wetland" />
		<tag k="ssr:date" v="2016-05-11" />
		<tag k="ssr:stedsnr" v="699525" />
	</node>
	<node id="-45108" lat="69.9854611211" lon="25.2414192312">
		<tag k="ssr:gml_id" v="GEOMETRY_1d7230c7-e999-489f-9647-637296a059d8" />
		<tag k="ssr:gml_nr" v="2" />
	</node>
	<node id="-45107" lat="69.9816638935" lon="25.2394747592">
		<tag k="ssr:gml_id" v="GEOMETRY_114ba90f-dab6-4377-a130-63c965c3f360" />
		<tag k="ssr:gml_nr" v="1" />
	</node>
	<node id="-45106" lat="69.9854638979" lon="25.2414219905">
		<tag k="ssr:gml_id" v="GEOMETRY_fb479266-93b9-4113-95f4-ecb7171f56b0" />
		<tag k="ssr:gml_nr" v="0" />
	</node>
	<node id="-45105" lat="69.9924305637" lon="25.3493664209">
		<tag k="ssr:gml_id" v="GEOMETRY_5e3d44b1-9b6b-4966-9887-712a00a0dd72" />
		<tag k="ssr:gml_nr" v="1" />
	</node>
	<node id="-45104" lat="69.9924333386" lon="25.3493691955">
		<tag k="ssr:gml_id" v="GEOMETRY_890ded82-5b4c-4bdd-9720-ec87154a0832" />
		<tag k="ssr:gml_nr" v="0" />
	</node>
	<node id="-47138" lat="70.2495250051" lon="25.4849025448">
		<tag k="name" v="Hevosraukanruto" />
		<tag k="name:fkv" v="Hevosraukanruto" />
		<tag k="natural" v="wood" />
		<tag k="ssr:date" v="2016-05-11" />
		<tag k="ssr:stedsnr" v="699279" />
	</node>
	<node id="-47134" lat="70.2526027893" lon="25.5140664304">
		<tag k="name" v="Jouninruto" />
		<tag k="name:fkv" v="Jouninruto" />
		<tag k="natural" v="wood" />
		<tag k="ssr:date" v="2016-05-11" />
		<tag k="ssr:stedsnr" v="699240" />
	</node>
	<node id="-47133" lat="70.0976416742" lon="25.0022498037">
		<tag k="landuse" v="meadow" />
		<tag k="name" v="Isokenttä" />
		<tag k="name:fkv" v="Isokenttä" />
		<tag k="ssr:date" v="2016-05-11" />
		<tag k="ssr:stedsnr" v="699167" />
	</node>
	<node id="-47123" lat="70.5076138954" lon="25.732108081">
		<tag k="name" v="Buollángárggu" />
		<tag k="name:se" v="Buollángárggu" />
		<tag k="natural" v="wetland" />
		<tag k="ssr:date" v="2016-05-11" />
		<tag k="ssr:stedsnr" v="697385" />
	</node>
	<node id="-45073" lat="70.1831722319" lon="25.8809469229">
		<tag k="ssr:gml_id" v="GEOMETRY_e80c1375-16f6-4750-9b09-12c700a4600c" />
		<tag k="ssr:gml_nr" v="1" />
	</node>
	<node id="-45072" lat="70.1831694566" lon="25.88094415">
		<tag k="ssr:gml_id" v="GEOMETRY_418e46ed-442d-40f7-8a5f-43e45d62e771" />
		<tag k="ssr:gml_nr" v="0" />
	</node>
	<node id="-45071" lat="70.0715555666" lon="25.8558497063">
		<tag k="ssr:gml_id" v="GEOMETRY_c37b330f-d2d1-42ef-9cab-7614cc916a25" />
		<tag k="ssr:gml_nr" v="1" />
	</node>
	<node id="-45070" lat="70.0715583403" lon="25.8558497105">
		<tag k="ssr:gml_id" v="GEOMETRY_50e5493e-eefd-490a-a7c2-55b3f5854ce3" />
		<tag k="ssr:gml_nr" v="0" />
	</node>
	<node id="-45069" lat="70.0232138938" lon="25.450924749">
		<tag k="ssr:gml_id" v="GEOMETRY_38b92994-5853-4b8a-bbaa-3dd3dbced66b" />
		<tag k="ssr:gml_nr" v="4" />
	</node>
	<node id="-45068" lat="70.0197222297" lon="25.4533775297">
		<tag k="ssr:gml_id" v="GEOMETRY_70db5fdd-bfd1-4aa0-968e-3b67173333e6" />
		<tag k="ssr:gml_nr" v="3" />
	</node>
	<node id="-45067" lat="70.0232138964" lon="25.4509219879">
		<tag k="ssr:gml_id" v="GEOMETRY_a97044c2-bc78-4bea-bcf8-22d8a2ee1188" />
		<tag k="ssr:gml_nr" v="2" />
	</node>
	<node id="-45066" lat="70.0232111183" lon="25.4509219815">
		<tag k="ssr:gml_id" v="GEOMETRY_9e1ff91e-4ec5-431d-8d42-7e67b1a0f6b3" />
		<tag k="ssr:gml_nr" v="1" />
	</node>
	<node id="-45065" lat="70.0232166719" lon="25.4509247554">
		<tag k="ssr:gml_id" v="GEOMETRY_56b61cec-2c4f-4f7e-90f0-e482e860fb92" />
		<tag k="ssr:gml_nr" v="0" />
	</node>
	<way id="-10239">
		<tag k="name" v="Rohči - Rotsi" />
		<tag k="name:fkv" v="Rotsi" />
		<tag k="name:se" v="Rohči" />
		<tag k="natural" v="wood" />
		<tag k="ssr:date" v="2016-05-11" />
		<tag k="ssr:stedsnr" v="747341" />
		<nd ref="-47296" />
		<nd ref="-47297" />
		<nd ref="-47298" />
	</way>
	<way id="-10235">
		<tag k="name" v="Čorggošleakšá" />
		<tag k="name:se" v="Čorggošleakšá" />
		<tag k="natural" v="wetland" />
		<tag k="ssr:date" v="2016-05-11" />
		<tag k="ssr:stedsnr" v="747307" />
		<nd ref="-47284" />
		<nd ref="-47285" />
	</way>
	<way id="-9206">
		<tag k="name" v="Boŋkaleakši" />
		<tag k="name:se" v="Boŋkaleakši" />
		<tag k="natural" v="wetland" />
		<tag k="old_name:se" v="Båŋkalækši" />
		<tag k="ssr:date" v="2016-05-10" />
		<tag k="ssr:stedsnr" v="140990" />
		<nd ref="-43848" />
		<nd ref="-43849" />
		<nd ref="-43850" />
		<nd ref="-43851" />
	</way>
	<way id="-10663">
		<tag k="name" v="Goržžajeaggi - Kurkkionjänkkä" />
		<tag k="name:fkv" v="Kurkkionjänkkä" />
		<tag k="name:se" v="Goržžajeaggi" />
		<tag k="natural" v="wetland" />
		<tag k="ssr:date" v="2016-05-11" />
		<tag k="ssr:stedsnr" v="930278" />
		<nd ref="-48654" />
		<nd ref="-48655" />
		<nd ref="-48656" />
	</way>
	<way id="-8679">
		<tag k="fixme" v="multiple name tags, choose one and add the other to alt_name" />
		<tag k="name" v="Liigajoga Stuorrajeaggi;Liigajohjeaggi - Liikajoen Isojänkkä" />
		<tag k="name:fkv" v="Liikajoen Isojänkkä" />
		<tag k="name:se" v="Liigajoga Stuorrajeaggi;Liigajohjeaggi" />
		<tag k="natural" v="wetland" />
		<tag k="ssr:date" v="2016-05-10" />
		<tag k="ssr:stedsnr" v="323290" />
		<nd ref="-41984" />
		<nd ref="-41985" />
	</way>
	<way id="-10214">
		<tag k="name" v="Doaresleakšá" />
		<tag k="name:se" v="Doaresleakšá" />
		<tag k="natural" v="wetland" />
		<tag k="ssr:date" v="2016-05-11" />
		<tag k="ssr:stedsnr" v="747270" />
		<nd ref="-47227" />
		<nd ref="-47228" />
	</way>
	<way id="-10723">
		<tag k="name" v="Doaresgárggu" />
		<tag k="name:se" v="Doaresgárggu" />
		<tag k="place" v="locality" />
		<tag k="ssr:date" v="2016-05-11" />
		<tag k="ssr:stedsnr" v="931066" />
		<nd ref="-48839" />
		<nd ref="-48840" />
		<nd ref="-48841" />
	</way>
	<way id="-8699">
		<tag k="name" v="Gáicafielmmajeaggi - Geitmyra - Kaitsifielmanjänkkä" />
		<tag k="name:fkv" v="Kaitsifielmanjänkkä" />
		<tag k="name:no" v="Geitmyra" />
		<tag k="name:se" v="Gáicafielmmajeaggi" />
		<tag k="natural" v="wetland" />
		<tag k="ssr:date" v="2016-05-10" />
		<tag k="ssr:stedsnr" v="323493" />
		<nd ref="-42039" />
		<nd ref="-42040" />
	</way>
	<way id="-10716">
		<tag k="name" v="Loddoaijeaggi" />
		<tag k="name:se" v="Loddoaijeaggi" />
		<tag k="natural" v="wetland" />
		<tag k="old_name:se" v="Låddoaijæggi" />
		<tag k="ssr:date" v="2016-05-11" />
		<tag k="ssr:stedsnr" v="930932" />
		<nd ref="-48814" />
		<nd ref="-48815" />
	</way>
	<way id="-10714">
		<tag k="name" v="Rávnnaleakšá" />
		<tag k="name:se" v="Rávnnaleakšá" />
		<tag k="natural" v="wetland" />
		<tag k="old_name:se" v="Ravnalækša" />
		<tag k="ssr:date" v="2016-05-11" />
		<tag k="ssr:stedsnr" v="930903" />
		<nd ref="-48809" />
		<nd ref="-48810" />
	</way>
	<way id="-9176">
		<tag k="name" v="Ápmirjeaggi - Abmirmyra - Apmiranjänkkä" />
		<tag k="name:fkv" v="Apmiranjänkkä" />
		<tag k="name:no" v="Abmirmyra" />
		<tag k="name:se" v="Ápmirjeaggi" />
		<tag k="natural" v="wetland" />
		<tag k="ssr:date" v="2016-05-10" />
		<tag k="ssr:stedsnr" v="140402" />
		<nd ref="-43763" />
		<nd ref="-43764" />
	</way>
	<way id="-8660">
		<tag k="name" v="Vuopmevárjeaggi" />
		<tag k="name:se" v="Vuopmevárjeaggi" />
		<tag k="natural" v="wetland" />
		<tag k="old_name:se" v="Vuobmevarjæggi" />
		<tag k="ssr:date" v="2016-05-10" />
		<tag k="ssr:stedsnr" v="322910" />
		<nd ref="-41931" />
		<nd ref="-41932" />
	</way>
	<way id="-9675">
		<tag k="name" v="Stuorrajeaggi - Stormyra - Isojänkkä" />
		<tag k="name:fkv" v="Isojänkkä" />
		<tag k="name:no" v="Stormyra" />
		<tag k="name:se" v="Stuorrajeaggi" />
		<tag k="natural" v="wetland" />
		<tag k="ssr:date" v="2016-05-10" />
		<tag k="ssr:stedsnr" v="504159" />
		<nd ref="-45376" />
		<nd ref="-45377" />
		<nd ref="-45378" />
		<nd ref="-45379" />
		<nd ref="-45380" />
		<nd ref="-45381" />
	</way>
	<way id="-10180">
		<tag k="name" v="Áilegasvuopmi - Ailikaisenvuoma" />
		<tag k="name:fkv" v="Ailikaisenvuoma" />
		<tag k="name:se" v="Áilegasvuopmi" />
		<tag k="natural" v="wood" />
		<tag k="ssr:date" v="2016-05-11" />
		<tag k="ssr:stedsnr" v="688409" />
		<nd ref="-47045" />
		<nd ref="-47046" />
		<nd ref="-47047" />
	</way>
	<way id="-9650">
		<tag k="name" v="Jovnnajeaggi" />
		<tag k="name:se" v="Jovnnajeaggi" />
		<tag k="natural" v="wetland" />
		<tag k="ssr:date" v="2016-05-10" />
		<tag k="ssr:stedsnr" v="445598" />
		<nd ref="-45234" />
		<nd ref="-45235" />
	</way>
	<way id="-9032">
		<tag k="name" v="Čorvošrohtu - Sorvusruto" />
		<tag k="name:fkv" v="Sorvusruto" />
		<tag k="name:se" v="Čorvošrohtu" />
		<tag k="natural" v="wood" />
		<tag k="ssr:date" v="2016-05-10" />
		<tag k="ssr:stedsnr" v="80450" />
		<nd ref="-43307" />
		<nd ref="-43308" />
	</way>
	<way id="-8620">
		<tag k="fixme" v="multiple name tags, choose one and add the other to alt_name" />
		<tag k="name" v="Máđirjeaggi;Máđarjeaggi" />
		<tag k="name:se" v="Máđirjeaggi;Máđarjeaggi" />
		<tag k="natural" v="wetland" />
		<tag k="ssr:date" v="2016-05-10" />
		<tag k="ssr:stedsnr" v="322066" />
		<nd ref="-41829" />
		<nd ref="-41830" />
	</way>
	<way id="-10151">
		<tag k="name" v="Moksavuopmi" />
		<tag k="name:se" v="Moksavuopmi" />
		<tag k="natural" v="wood" />
		<tag k="old_name:se" v="Måksavuobmi" />
		<tag k="ssr:date" v="2016-05-11" />
		<tag k="ssr:stedsnr" v="687616" />
		<nd ref="-46969" />
		<nd ref="-46970" />
	</way>
	<way id="-10662">
		<tag k="name" v="Koijukonjänkkä" />
		<tag k="name:fkv" v="Koijukonjänkkä" />
		<tag k="natural" v="wetland" />
		<tag k="ssr:date" v="2016-05-11" />
		<tag k="ssr:stedsnr" v="930272" />
		<nd ref="-48652" />
		<nd ref="-48653" />
	</way>
	<way id="-9124">
		<tag k="name" v="Myrbukta" />
		<tag k="name:no" v="Myrbukta" />
		<tag k="natural" v="wetland" />
		<tag k="ssr:date" v="2016-05-10" />
		<tag k="ssr:stedsnr" v="140150" />
		<nd ref="-43622" />
		<nd ref="-43623" />
	</way>
	<way id="-9632">
		<tag k="name" v="Stuorrajeaggi - Stormyra - Isojänkkä" />
		<tag k="name:fkv" v="Isojänkkä" />
		<tag k="name:no" v="Stormyra" />
		<tag k="name:se" v="Stuorrajeaggi" />
		<tag k="natural" v="wetland" />
		<tag k="ssr:date" v="2016-05-10" />
		<tag k="ssr:stedsnr" v="445423" />
		<nd ref="-45185" />
		<nd ref="-45186" />
	</way>
	<way id="-10143">
		<tag k="name" v="Stuorrajeaggi" />
		<tag k="name:se" v="Stuorrajeaggi" />
		<tag k="natural" v="wetland" />
		<tag k="old_name:se" v="Stuorrajæggi" />
		<tag k="ssr:date" v="2016-05-11" />
		<tag k="ssr:stedsnr" v="687563" />
		<nd ref="-46946" />
		<nd ref="-46947" />
		<nd ref="-46948" />
	</way>
	<way id="-9105">
		<tag k="name" v="Gierddotjárjeaggi" />
		<tag k="name:se" v="Gierddotjárjeaggi" />
		<tag k="natural" v="wetland" />
		<tag k="ssr:date" v="2016-05-10" />
		<tag k="ssr:stedsnr" v="81628" />
		<nd ref="-43501" />
		<nd ref="-43502" />
	</way>
	<way id="-9103">
		<tag k="name" v="Hearmanrohtu" />
		<tag k="name:se" v="Hearmanrohtu" />
		<tag k="natural" v="wood" />
		<tag k="old_name:se" v="Hærmanråtto" />
		<tag k="ssr:date" v="2016-05-10" />
		<tag k="ssr:stedsnr" v="81598" />
		<nd ref="-43496" />
		<nd ref="-43497" />
	</way>
	<way id="-10123">
		<tag k="name" v="Fielmmajeaggi - Fielmanjänkkä" />
		<tag k="name:fkv" v="Fielmanjänkkä" />
		<tag k="name:se" v="Fielmmajeaggi" />
		<tag k="natural" v="wetland" />
		<tag k="ssr:date" v="2016-05-11" />
		<tag k="ssr:stedsnr" v="687397" />
		<nd ref="-46896" />
		<nd ref="-46897" />
	</way>
	<way id="-9098">
		<tag k="landuse" v="meadow" />
		<tag k="name" v="Njoaski" />
		<tag k="name:se" v="Njoaski" />
		<tag k="ssr:date" v="2016-05-10" />
		<tag k="ssr:stedsnr" v="81566" />
		<nd ref="-43484" />
		<nd ref="-43485" />
	</way>
	<way id="-9094">
		<tag k="name" v="Äijänjänkkä" />
		<tag k="name:fkv" v="Äijänjänkkä" />
		<tag k="natural" v="wetland" />
		<tag k="ssr:date" v="2016-05-10" />
		<tag k="ssr:stedsnr" v="81512" />
		<nd ref="-43474" />
		<nd ref="-43475" />
	</way>
	<way id="-10110">
		<tag k="name" v="Alggašvuovdi" />
		<tag k="name:se" v="Alggašvuovdi" />
		<tag k="natural" v="wood" />
		<tag k="ssr:date" v="2016-05-11" />
		<tag k="ssr:stedsnr" v="687260" />
		<nd ref="-46860" />
		<nd ref="-46861" />
		<nd ref="-46862" />
		<nd ref="-46863" />
	</way>
	<way id="-9597">
		<tag k="name" v="Guollejárjeaggi" />
		<tag k="name:se" v="Guollejárjeaggi" />
		<tag k="natural" v="wetland" />
		<tag k="old_name:se" v="Guollejarjæggi" />
		<tag k="ssr:date" v="2016-05-10" />
		<tag k="ssr:stedsnr" v="444551" />
		<nd ref="-45104" />
		<nd ref="-45105" />
	</way>
	<way id="-9023">
		<tag k="name" v="Beaišleakšá" />
		<tag k="name:se" v="Beaišleakšá" />
		<tag k="natural" v="wetland" />
		<tag k="ssr:date" v="2016-05-10" />
		<tag k="ssr:stedsnr" v="80334" />
		<nd ref="-43259" />
		<nd ref="-43260" />
	</way>
	<way id="-9080">
		<tag k="name" v="Moksajeakkit" />
		<tag k="name:se" v="Moksajeakkit" />
		<tag k="natural" v="wetland" />
		<tag k="old_name:se" v="Måksajæggit" />
		<tag k="ssr:date" v="2016-05-10" />
		<tag k="ssr:stedsnr" v="81610" />
		<nd ref="-43440" />
		<nd ref="-43441" />
	</way>
	<way id="-9585">
		<tag k="name" v="Lohpparohtu" />
		<tag k="name:se" v="Lohpparohtu" />
		<tag k="natural" v="wood" />
		<tag k="old_name:se" v="Låpparåtto" />
		<tag k="ssr:date" v="2016-05-10" />
		<tag k="ssr:stedsnr" v="444352" />
		<nd ref="-45072" />
		<nd ref="-45073" />
	</way>
	<way id="-10608">
		<tag k="name" v="Bohkošsuovka" />
		<tag k="name:se" v="Bohkošsuovka" />
		<tag k="natural" v="wood" />
		<tag k="ssr:date" v="2016-05-11" />
		<tag k="ssr:stedsnr" v="929001" />
		<nd ref="-48502" />
		<nd ref="-48503" />
		<nd ref="-48504" />
	</way>
	<way id="-9583">
		<tag k="name" v="Luostejohjeakkit - Luostijoenjänkkä" />
		<tag k="name:fkv" v="Luostijoenjänkkä" />
		<tag k="name:se" v="Luostejohjeakkit" />
		<tag k="natural" v="wetland" />
		<tag k="ssr:date" v="2016-05-10" />
		<tag k="ssr:stedsnr" v="444329" />
		<nd ref="-45065" />
		<nd ref="-45066" />
		<nd ref="-45067" />
		<nd ref="-45068" />
		<nd ref="-45069" />
	</way>
	<way id="-9578">
		<tag k="name" v="Gállotráhppát" />
		<tag k="name:se" v="Gállotráhppát" />
		<tag k="natural" v="scree" />
		<tag k="ssr:date" v="2016-05-10" />
		<tag k="ssr:stedsnr" v="444299" />
		<nd ref="-45052" />
		<nd ref="-45053" />
		<nd ref="-45054" />
	</way>
	<way id="-10599">
		<tag k="name" v="Vilgesgeađggit - Kvitsteinan" />
		<tag k="name:no" v="Kvitsteinan" />
		<tag k="name:se" v="Vilgesgeađggit" />
		<tag k="natural" v="stone" />
		<tag k="old_name:se" v="Vilgesgæđgiŧ" />
		<tag k="ssr:date" v="2016-05-11" />
		<tag k="ssr:stedsnr" v="870880" />
		<nd ref="-48436" />
		<nd ref="-48437" />
	</way>
	<way id="-9569">
		<tag k="name" v="Pikanjänkkä" />
		<tag k="name:fkv" v="Pikanjänkkä" />
		<tag k="natural" v="wetland" />
		<tag k="ssr:date" v="2016-05-10" />
		<tag k="ssr:stedsnr" v="444198" />
		<nd ref="-45026" />
		<nd ref="-45027" />
	</way>
	<way id="-10591">
		<tag k="name" v="Leaiberohtu" />
		<tag k="name:se" v="Leaiberohtu" />
		<tag k="natural" v="wood" />
		<tag k="ssr:date" v="2016-05-11" />
		<tag k="ssr:stedsnr" v="870544" />
		<nd ref="-48412" />
		<nd ref="-48413" />
	</way>
	<way id="-10056">
		<tag k="name" v="Vilgesgeađggejeakkit" />
		<tag k="name:se" v="Vilgesgeađggejeakkit" />
		<tag k="natural" v="wetland" />
		<tag k="old_name:se" v="Vilgesgæđgejæggit;Vilgesgeadgejeaggit" />
		<tag k="ssr:date" v="2016-05-10" />
		<tag k="ssr:stedsnr" v="627888" />
		<nd ref="-46619" />
		<nd ref="-46620" />
		<nd ref="-46621" />
		<nd ref="-46622" />
	</way>
	<way id="-9027">
		<tag k="name" v="Gottetleakšá" />
		<tag k="name:se" v="Gottetleakšá" />
		<tag k="natural" v="wetland" />
		<tag k="ssr:date" v="2016-05-10" />
		<tag k="ssr:stedsnr" v="80371" />
		<nd ref="-43268" />
		<nd ref="-43269" />
	</way>
	<way id="-10047">
		<tag k="name" v="Krokmyra - Skopinjänkkä" />
		<tag k="name:fkv" v="Skopinjänkkä" />
		<tag k="name:no" v="Krokmyra" />
		<tag k="natural" v="wetland" />
		<tag k="ssr:date" v="2016-05-10" />
		<tag k="ssr:stedsnr" v="627414" />
		<nd ref="-46590" />
		<nd ref="-46591" />
	</way>
	<way id="-9006">
		<tag k="name" v="Morššajeaggi" />
		<tag k="name:se" v="Morššajeaggi" />
		<tag k="natural" v="wetland" />
		<tag k="ssr:date" v="2016-05-10" />
		<tag k="ssr:stedsnr" v="80086" />
		<nd ref="-43202" />
		<nd ref="-43203" />
	</way>
	<way id="-10539">
		<tag k="name" v="Krokmyra" />
		<tag k="name:no" v="Krokmyra" />
		<tag k="natural" v="wetland" />
		<tag k="ssr:date" v="2016-05-11" />
		<tag k="ssr:stedsnr" v="869512" />
		<nd ref="-48257" />
		<nd ref="-48258" />
	</way>
	<way id="-10530">
		<tag k="name" v="Goasorohtu - Kuosuruto" />
		<tag k="name:fkv" v="Kuosuruto" />
		<tag k="name:se" v="Goasorohtu" />
		<tag k="natural" v="wood" />
		<tag k="ssr:date" v="2016-05-11" />
		<tag k="ssr:stedsnr" v="869364" />
		<nd ref="-48232" />
		<nd ref="-48233" />
		<nd ref="-48234" />
	</way>
	<way id="-8990">
		<tag k="name" v="Hánssajeaggi - Hansmyra - Hansinjänkkä" />
		<tag k="name:fkv" v="Hansinjänkkä" />
		<tag k="name:no" v="Hansmyra" />
		<tag k="name:se" v="Hánssajeaggi" />
		<tag k="natural" v="wetland" />
		<tag k="ssr:date" v="2016-05-10" />
		<tag k="ssr:stedsnr" v="80146" />
		<nd ref="-43158" />
		<nd ref="-43159" />
		<nd ref="-43160" />
	</way>
	<way id="-8984">
		<tag k="name" v="Váldatjeaggi" />
		<tag k="name:se" v="Váldatjeaggi" />
		<tag k="natural" v="wetland" />
		<tag k="ssr:date" v="2016-05-10" />
		<tag k="ssr:stedsnr" v="80104" />
		<nd ref="-43144" />
		<nd ref="-43145" />
	</way>
	<way id="-10515">
		<tag k="name" v="Ildskogmyra - Tyllyruđonjänkkä" />
		<tag k="name:fkv" v="Tyllyruđonjänkkä" />
		<tag k="name:no" v="Ildskogmyra" />
		<tag k="natural" v="wetland" />
		<tag k="ssr:date" v="2016-05-11" />
		<tag k="ssr:stedsnr" v="869261" />
		<nd ref="-48189" />
		<nd ref="-48190" />
		<nd ref="-48191" />
	</way>
	<way id="-10510">
		<tag k="name" v="Sarrakanjänkkä" />
		<tag k="name:fkv" v="Sarrakanjänkkä" />
		<tag k="natural" v="wetland" />
		<tag k="ssr:date" v="2016-05-11" />
		<tag k="ssr:stedsnr" v="869229" />
		<nd ref="-48174" />
		<nd ref="-48175" />
		<nd ref="-48176" />
		<nd ref="-48177" />
	</way>
	<way id="-10507">
		<tag k="name" v="Rásserohtu" />
		<tag k="name:se" v="Rásserohtu" />
		<tag k="natural" v="wood" />
		<tag k="ssr:date" v="2016-05-11" />
		<tag k="ssr:stedsnr" v="869206" />
		<nd ref="-48167" />
		<nd ref="-48168" />
	</way>
	<way id="-9480">
		<tag k="name" v="Lávkejeaggi" />
		<tag k="name:se" v="Lávkejeaggi" />
		<tag k="natural" v="wetland" />
		<tag k="ssr:date" v="2016-05-10" />
		<tag k="ssr:stedsnr" v="262605" />
		<nd ref="-44769" />
		<nd ref="-44770" />
	</way>
	<way id="-10499">
		<tag k="name" v="Kunsavársuotnju" />
		<tag k="name:se" v="Kunsavársuotnju" />
		<tag k="natural" v="wetland" />
		<tag k="ssr:date" v="2016-05-11" />
		<tag k="ssr:stedsnr" v="869163" />
		<nd ref="-48138" />
		<nd ref="-48139" />
	</way>
	<way id="-9983">
		<tag k="name" v="Deappovuopmi" />
		<tag k="name:se" v="Deappovuopmi" />
		<tag k="natural" v="wood" />
		<tag k="old_name:se" v="Dæbbuvuobmi" />
		<tag k="ssr:date" v="2016-05-10" />
		<tag k="ssr:stedsnr" v="625972" />
		<nd ref="-46417" />
		<nd ref="-46418" />
		<nd ref="-46419" />
	</way>
	<way id="-9598">
		<tag k="name" v="Gussajeaggi" />
		<tag k="name:se" v="Gussajeaggi" />
		<tag k="natural" v="wetland" />
		<tag k="old_name:se" v="Gussajæggi" />
		<tag k="ssr:date" v="2016-05-10" />
		<tag k="ssr:stedsnr" v="444554" />
		<nd ref="-45106" />
		<nd ref="-45107" />
		<nd ref="-45108" />
	</way>
	<way id="-9453">
		<tag k="name" v="Silffarjeakkit - Silfarmyra - Silfarinjänkkä" />
		<tag k="name:fkv" v="Silfarinjänkkä" />
		<tag k="name:no" v="Silfarmyra" />
		<tag k="name:se" v="Silffarjeakkit" />
		<tag k="natural" v="wetland" />
		<tag k="ssr:date" v="2016-05-10" />
		<tag k="ssr:stedsnr" v="262512" />
		<nd ref="-44703" />
		<nd ref="-44704" />
	</way>
	<way id="-10474">
		<tag k="name" v="Duolbajárjeakkit" />
		<tag k="name:se" v="Duolbajárjeakkit" />
		<tag k="natural" v="wetland" />
		<tag k="ssr:date" v="2016-05-11" />
		<tag k="ssr:stedsnr" v="820665" />
		<nd ref="-48038" />
		<nd ref="-48039" />
	</way>
	<way id="-9441">
		<tag k="fixme" v="multiple name tags, choose one and add the other to alt_name" />
		<tag k="name" v="Bajimus Rákkasleakšá - Päälimäinen Raakkasjänkkä;Päälimäinen Raakkaslakso" />
		<tag k="name:fkv" v="Päälimäinen Raakkasjänkkä;Päälimäinen Raakkaslakso" />
		<tag k="name:se" v="Bajimus Rákkasleakšá" />
		<tag k="natural" v="wetland" />
		<tag k="ssr:date" v="2016-05-10" />
		<tag k="ssr:stedsnr" v="262306" />
		<nd ref="-44652" />
		<nd ref="-44653" />
	</way>
	<way id="-9951">
		<tag k="name" v="Njallavárjeaggi" />
		<tag k="name:se" v="Njallavárjeaggi" />
		<tag k="natural" v="wetland" />
		<tag k="ssr:date" v="2016-05-10" />
		<tag k="ssr:stedsnr" v="625094" />
		<nd ref="-46317" />
		<nd ref="-46318" />
	</way>
	<way id="-9950">
		<tag k="name" v="Lodderođojeaggi" />
		<tag k="name:se" v="Lodderođojeaggi" />
		<tag k="natural" v="wetland" />
		<tag k="ssr:date" v="2016-05-10" />
		<tag k="ssr:stedsnr" v="625092" />
		<nd ref="-46315" />
		<nd ref="-46316" />
	</way>
	<way id="-9423">
		<tag k="name" v="Gusttojeaggi - Gustavmyra - Kustonjänkkä" />
		<tag k="name:fkv" v="Kustonjänkkä" />
		<tag k="name:no" v="Gustavmyra" />
		<tag k="name:se" v="Gusttojeaggi" />
		<tag k="natural" v="wetland" />
		<tag k="ssr:date" v="2016-05-10" />
		<tag k="ssr:stedsnr" v="262187" />
		<nd ref="-44600" />
		<nd ref="-44601" />
		<nd ref="-44602" />
	</way>
	<way id="-10445">
		<tag k="name" v="Darfejeaggi" />
		<tag k="name:se" v="Darfejeaggi" />
		<tag k="natural" v="wetland" />
		<tag k="ssr:date" v="2016-05-11" />
		<tag k="ssr:stedsnr" v="809443" />
		<nd ref="-47914" />
		<nd ref="-47915" />
	</way>
	<way id="-10444">
		<tag k="name" v="Buoidenjunjeaggi" />
		<tag k="name:se" v="Buoidenjunjeaggi" />
		<tag k="natural" v="wetland" />
		<tag k="ssr:date" v="2016-05-11" />
		<tag k="ssr:stedsnr" v="809439" />
		<nd ref="-47912" />
		<nd ref="-47913" />
	</way>
	<way id="-9419">
		<tag k="name" v="Stormyra" />
		<tag k="name:no" v="Stormyra" />
		<tag k="natural" v="wetland" />
		<tag k="ssr:date" v="2016-05-10" />
		<tag k="ssr:stedsnr" v="262152" />
		<nd ref="-44590" />
		<nd ref="-44591" />
	</way>
	<way id="-10442">
		<tag k="name" v="Hánddu - Hantunjänkkä" />
		<tag k="name:fkv" v="Hantunjänkkä" />
		<tag k="name:se" v="Hánddu" />
		<tag k="natural" v="wetland" />
		<tag k="ssr:date" v="2016-05-11" />
		<tag k="ssr:stedsnr" v="809417" />
		<nd ref="-47908" />
		<nd ref="-47909" />
	</way>
	<way id="-8903">
		<tag k="name" v="Marasto" />
		<tag k="name:fkv" v="Marasto" />
		<tag k="place" v="locality" />
		<tag k="ssr:date" v="2016-05-10" />
		<tag k="ssr:stedsnr" v="19427" />
		<nd ref="-42863" />
		<nd ref="-42864" />
	</way>
	<way id="-9921">
		<tag k="fixme" v="multiple name tags, choose one and add the other to alt_name" />
		<tag k="name" v="Gukkujeaggi;Giehkajeaggi - Kukkujänkkä" />
		<tag k="name:fkv" v="Kukkujänkkä" />
		<tag k="name:se" v="Gukkujeaggi;Giehkajeaggi" />
		<tag k="natural" v="wetland" />
		<tag k="ssr:date" v="2016-05-10" />
		<tag k="ssr:stedsnr" v="566455" />
		<nd ref="-46159" />
		<nd ref="-46160" />
	</way>
	<way id="-10426">
		<tag k="name" v="Gáranasleakšá" />
		<tag k="name:se" v="Gáranasleakšá" />
		<tag k="natural" v="wetland" />
		<tag k="old_name:se" v="Garanaslækša" />
		<tag k="ssr:date" v="2016-05-11" />
		<tag k="ssr:stedsnr" v="808930" />
		<nd ref="-47867" />
		<nd ref="-47868" />
	</way>
	<way id="-9399">
		<tag k="name" v="Solggotleakšá" />
		<tag k="name:se" v="Solggotleakšá" />
		<tag k="natural" v="wetland" />
		<tag k="ssr:date" v="2016-05-10" />
		<tag k="ssr:stedsnr" v="261343" />
		<nd ref="-44536" />
		<nd ref="-44537" />
		<nd ref="-44538" />
	</way>
	<way id="-10416">
		<tag k="name" v="Oppardatjeaggi" />
		<tag k="name:se" v="Oppardatjeaggi" />
		<tag k="natural" v="wetland" />
		<tag k="old_name:se" v="Åbbardatjæggi" />
		<tag k="ssr:date" v="2016-05-11" />
		<tag k="ssr:stedsnr" v="808695" />
		<nd ref="-47841" />
		<nd ref="-47842" />
	</way>
	<way id="-8879">
		<tag k="name" v="Heargebáhjeaggi - Oksebergmyra - Härkepahđanjänkkä" />
		<tag k="name:fkv" v="Härkepahđanjänkkä" />
		<tag k="name:no" v="Oksebergmyra" />
		<tag k="name:se" v="Heargebáhjeaggi" />
		<tag k="natural" v="wetland" />
		<tag k="ssr:date" v="2016-05-10" />
		<tag k="ssr:stedsnr" v="19166" />
		<nd ref="-42795" />
		<nd ref="-42796" />
		<nd ref="-42797" />
	</way>
	<way id="-9390">
		<tag k="name" v="Geahtarohtu" />
		<tag k="name:se" v="Geahtarohtu" />
		<tag k="natural" v="wood" />
		<tag k="ssr:date" v="2016-05-10" />
		<tag k="ssr:stedsnr" v="213798" />
		<nd ref="-44491" />
		<nd ref="-44492" />
	</way>
	<way id="-10405">
		<tag k="name" v="Oađášsieđga" />
		<tag k="name:se" v="Oađášsieđga" />
		<tag k="natural" v="wetland" />
		<tag k="old_name:se" v="Oađašsiđga" />
		<tag k="ssr:date" v="2016-05-11" />
		<tag k="ssr:stedsnr" v="808567" />
		<nd ref="-47815" />
		<nd ref="-47816" />
	</way>
	<way id="-9888">
		<tag k="name" v="Divgajeaggi" />
		<tag k="name:se" v="Divgajeaggi" />
		<tag k="natural" v="wetland" />
		<tag k="old_name:se" v="Divgajæggi" />
		<tag k="ssr:date" v="2016-05-10" />
		<tag k="ssr:stedsnr" v="565627" />
		<nd ref="-46066" />
		<nd ref="-46067" />
	</way>
	<way id="-9584">
		<tag k="name" v="Solggotleakšá" />
		<tag k="name:se" v="Solggotleakšá" />
		<tag k="natural" v="wetland" />
		<tag k="old_name:se" v="Sålgutlækša" />
		<tag k="ssr:date" v="2016-05-10" />
		<tag k="ssr:stedsnr" v="444340" />
		<nd ref="-45070" />
		<nd ref="-45071" />
	</way>
	<way id="-8859">
		<tag k="name" v="Behtošorda" />
		<tag k="name:se" v="Behtošorda" />
		<tag k="natural" v="wood" />
		<tag k="old_name:se" v="Bettušårda" />
		<tag k="ssr:date" v="2016-05-10" />
		<tag k="ssr:stedsnr" v="19024" />
		<nd ref="-42668" />
		<nd ref="-42669" />
		<nd ref="-42670" />
	</way>
	<way id="-9156">
		<tag k="name" v="Isojänkkä" />
		<tag k="name:fkv" v="Isojänkkä" />
		<tag k="natural" v="wetland" />
		<tag k="ssr:date" v="2016-05-10" />
		<tag k="ssr:stedsnr" v="140213" />
		<nd ref="-43712" />
		<nd ref="-43713" />
	</way>
	<way id="-9364">
		<tag k="name" v="Gottetvuovdi" />
		<tag k="name:se" v="Gottetvuovdi" />
		<tag k="natural" v="wood" />
		<tag k="ssr:date" v="2016-05-10" />
		<tag k="ssr:stedsnr" v="202613" />
		<nd ref="-44366" />
		<nd ref="-44367" />
	</way>
	<way id="-9361">
		<tag k="name" v="Ruovdejeaggi" />
		<tag k="name:se" v="Ruovdejeaggi" />
		<tag k="natural" v="wetland" />
		<tag k="ssr:date" v="2016-05-10" />
		<tag k="ssr:stedsnr" v="202604" />
		<nd ref="-44359" />
		<nd ref="-44360" />
	</way>
	<way id="-9126">
		<tag k="name" v="Rástejeaggi" />
		<tag k="name:se" v="Rástejeaggi" />
		<tag k="natural" v="wetland" />
		<tag k="old_name:se" v="Rastejæggi" />
		<tag k="ssr:date" v="2016-05-10" />
		<tag k="ssr:stedsnr" v="140266" />
		<nd ref="-43627" />
		<nd ref="-43628" />
		<nd ref="-43629" />
	</way>
	<way id="-10377">
		<tag k="name" v="Gaskkamus Rákkasleakšá - Raakkasuoivi" />
		<tag k="name:fkv" v="Raakkasuoivi" />
		<tag k="name:se" v="Gaskkamus Rákkasleakšá" />
		<tag k="natural" v="wetland" />
		<tag k="ssr:date" v="2016-05-11" />
		<tag k="ssr:stedsnr" v="808308" />
		<nd ref="-47738" />
		<nd ref="-47739" />
		<nd ref="-47740" />
	</way>
	<way id="-9351">
		<tag k="name" v="Stuorrajeaggi - Stormyra" />
		<tag k="name:no" v="Stormyra" />
		<tag k="name:se" v="Stuorrajeaggi" />
		<tag k="natural" v="wetland" />
		<tag k="ssr:date" v="2016-05-10" />
		<tag k="ssr:stedsnr" v="202527" />
		<nd ref="-44334" />
		<nd ref="-44335" />
		<nd ref="-44336" />
		<nd ref="-44337" />
	</way>
	<way id="-9346">
		<tag k="name" v="Kesäsijanjänkkä" />
		<tag k="name:fkv" v="Kesäsijanjänkkä" />
		<tag k="natural" v="wetland" />
		<tag k="ssr:date" v="2016-05-10" />
		<tag k="ssr:stedsnr" v="202494" />
		<nd ref="-44323" />
		<nd ref="-44324" />
	</way>
	<way id="-8833">
		<tag k="name" v="Girkogárdderohtu" />
		<tag k="name:se" v="Girkogárdderohtu" />
		<tag k="place" v="locality" />
		<tag k="ssr:date" v="2016-05-10" />
		<tag k="ssr:stedsnr" v="384092" />
		<nd ref="-42502" />
		<nd ref="-42503" />
	</way>
	<way id="-9849">
		<tag k="name" v="Soljjot" />
		<tag k="name:se" v="Soljjot" />
		<tag k="natural" v="wood" />
		<tag k="old_name:se" v="Såljut" />
		<tag k="ssr:date" v="2016-05-10" />
		<tag k="ssr:stedsnr" v="565291" />
		<nd ref="-45954" />
		<nd ref="-45955" />
		<nd ref="-45956" />
	</way>
	<way id="-10360">
		<tag k="name" v="Lohtijänkkä" />
		<tag k="name:fkv" v="Lohtijänkkä" />
		<tag k="natural" v="wetland" />
		<tag k="ssr:date" v="2016-05-11" />
		<tag k="ssr:stedsnr" v="808204" />
		<nd ref="-47689" />
		<nd ref="-47690" />
	</way>
	<way id="-10357">
		<tag k="name" v="Riitajänkkä" />
		<tag k="name:fkv" v="Riitajänkkä" />
		<tag k="natural" v="wetland" />
		<tag k="ssr:date" v="2016-05-11" />
		<tag k="ssr:stedsnr" v="808183" />
		<nd ref="-47679" />
		<nd ref="-47680" />
	</way>
	<way id="-9844">
		<tag k="landuse" v="meadow" />
		<tag k="name" v="Matarakenttä" />
		<tag k="name:fkv" v="Matarakenttä" />
		<tag k="ssr:date" v="2016-05-10" />
		<tag k="ssr:stedsnr" v="565267" />
		<nd ref="-45940" />
		<nd ref="-45941" />
	</way>
	<way id="-9839">
		<tag k="name" v="Alajänkkä" />
		<tag k="name:fkv" v="Alajänkkä" />
		<tag k="natural" v="wetland" />
		<tag k="ssr:date" v="2016-05-10" />
		<tag k="ssr:stedsnr" v="565240" />
		<nd ref="-45924" />
		<nd ref="-45925" />
		<nd ref="-45926" />
	</way>
	<way id="-9835">
		<tag k="name" v="Brennelvmyra - Palonjänkkä" />
		<tag k="name:fkv" v="Palonjänkkä" />
		<tag k="name:no" v="Brennelvmyra" />
		<tag k="natural" v="wetland" />
		<tag k="ssr:date" v="2016-05-10" />
		<tag k="ssr:stedsnr" v="565214" />
		<nd ref="-45912" />
		<nd ref="-45913" />
		<nd ref="-45914" />
		<nd ref="-45915" />
	</way>
	<way id="-9827">
		<tag k="name" v="Vestmyra" />
		<tag k="name:no" v="Vestmyra" />
		<tag k="natural" v="wetland" />
		<tag k="ssr:date" v="2016-05-10" />
		<tag k="ssr:stedsnr" v="565116" />
		<nd ref="-45892" />
		<nd ref="-45893" />
	</way>
	<way id="-9313">
		<tag k="name" v="Roživuopmi" />
		<tag k="name:se" v="Roživuopmi" />
		<tag k="natural" v="wood" />
		<tag k="old_name:se" v="Råživuobmi" />
		<tag k="ssr:date" v="2016-05-10" />
		<tag k="ssr:stedsnr" v="201502" />
		<nd ref="-44238" />
		<nd ref="-44239" />
	</way>
	<way id="-9823">
		<tag k="name" v="Čuosgáljeaggi" />
		<tag k="name:se" v="Čuosgáljeaggi" />
		<tag k="natural" v="wetland" />
		<tag k="ssr:date" v="2016-05-10" />
		<tag k="ssr:stedsnr" v="565065" />
		<nd ref="-45883" />
		<nd ref="-45884" />
	</way>
	<way id="-9310">
		<tag k="name" v="Godderohtu - Tunturinruto" />
		<tag k="name:fkv" v="Tunturinruto" />
		<tag k="name:se" v="Godderohtu" />
		<tag k="natural" v="wood" />
		<tag k="ssr:date" v="2016-05-10" />
		<tag k="ssr:stedsnr" v="201436" />
		<nd ref="-44214" />
		<nd ref="-44215" />
	</way>
	<way id="-9307">
		<tag k="name" v="Bávošjeaggi - Pavusjänkkä" />
		<tag k="name:fkv" v="Pavusjänkkä" />
		<tag k="name:se" v="Bávošjeaggi" />
		<tag k="natural" v="wetland" />
		<tag k="ssr:date" v="2016-05-10" />
		<tag k="ssr:stedsnr" v="201414" />
		<nd ref="-44208" />
		<nd ref="-44209" />
	</way>
	<way id="-9306">
		<tag k="name" v="Áiterohtu" />
		<tag k="name:se" v="Áiterohtu" />
		<tag k="natural" v="wood" />
		<tag k="old_name:se" v="Aiteråtto" />
		<tag k="ssr:date" v="2016-05-10" />
		<tag k="ssr:stedsnr" v="201337" />
		<nd ref="-44205" />
		<nd ref="-44206" />
		<nd ref="-44207" />
	</way>
	<way id="-10329">
		<tag k="name" v="Kumyra" />
		<tag k="name:no" v="Kumyra" />
		<tag k="natural" v="wetland" />
		<tag k="ssr:date" v="2016-05-11" />
		<tag k="ssr:stedsnr" v="759490" />
		<nd ref="-47571" />
		<nd ref="-47572" />
	</way>
	<way id="-8789">
		<tag k="name" v="Aškkasleakšá - Askaslakso" />
		<tag k="name:fkv" v="Askaslakso" />
		<tag k="name:se" v="Aškkasleakšá" />
		<tag k="natural" v="wetland" />
		<tag k="ssr:date" v="2016-05-10" />
		<tag k="ssr:stedsnr" v="383348" />
		<nd ref="-42359" />
		<nd ref="-42360" />
		<nd ref="-42361" />
	</way>
	<way id="-8783">
		<tag k="name" v="Goddeleakšá - Kottilakso" />
		<tag k="name:fkv" v="Kottilakso" />
		<tag k="name:se" v="Goddeleakšá" />
		<tag k="natural" v="wetland" />
		<tag k="ssr:date" v="2016-05-10" />
		<tag k="ssr:stedsnr" v="383307" />
		<nd ref="-42340" />
		<nd ref="-42341" />
	</way>
	<way id="-9802">
		<tag k="name" v="Sákkinjeaggi" />
		<tag k="name:se" v="Sákkinjeaggi" />
		<tag k="natural" v="wetland" />
		<tag k="ssr:date" v="2016-05-10" />
		<tag k="ssr:stedsnr" v="564053" />
		<nd ref="-45819" />
		<nd ref="-45820" />
	</way>
	<way id="-9796">
		<tag k="name" v="Juoksanruto" />
		<tag k="name:fkv" v="Juoksanruto" />
		<tag k="natural" v="wood" />
		<tag k="ssr:date" v="2016-05-10" />
		<tag k="ssr:stedsnr" v="506766" />
		<nd ref="-45736" />
		<nd ref="-45737" />
	</way>
	<way id="-10301">
		<tag k="name" v="Ávggosjeaggi" />
		<tag k="name:se" v="Ávggosjeaggi" />
		<tag k="natural" v="wetland" />
		<tag k="ssr:date" v="2016-05-11" />
		<tag k="ssr:stedsnr" v="748560" />
		<nd ref="-47459" />
		<nd ref="-47460" />
	</way>
	<way id="-9272">
		<tag k="name" v="Golmmuvssatrohtu" />
		<tag k="name:se" v="Golmmuvssatrohtu" />
		<tag k="natural" v="wood" />
		<tag k="ssr:date" v="2016-05-10" />
		<tag k="ssr:stedsnr" v="201155" />
		<nd ref="-44119" />
		<nd ref="-44120" />
	</way>
	<way id="-9271">
		<tag k="name" v="Čorvošrohtu" />
		<tag k="name:se" v="Čorvošrohtu" />
		<tag k="natural" v="wood" />
		<tag k="ssr:date" v="2016-05-10" />
		<tag k="ssr:stedsnr" v="201147" />
		<nd ref="-44117" />
		<nd ref="-44118" />
	</way>
	<way id="-8747">
		<tag k="name" v="Buollánjeaggi" />
		<tag k="name:se" v="Buollánjeaggi" />
		<tag k="natural" v="wetland" />
		<tag k="ssr:date" v="2016-05-10" />
		<tag k="ssr:stedsnr" v="329826" />
		<nd ref="-42175" />
		<nd ref="-42176" />
	</way>
	<way id="-9256">
		<tag k="name" v="Deappojeaggi" />
		<tag k="name:se" v="Deappojeaggi" />
		<tag k="natural" v="wetland" />
		<tag k="old_name:se" v="Dæbbujæggi" />
		<tag k="ssr:date" v="2016-05-10" />
		<tag k="ssr:stedsnr" v="201024" />
		<nd ref="-44081" />
		<nd ref="-44082" />
		<nd ref="-44083" />
	</way>
	<way id="-10277">
		<tag k="name" v="Rievssatjeaggi" />
		<tag k="name:se" v="Rievssatjeaggi" />
		<tag k="natural" v="wetland" />
		<tag k="old_name:se" v="Rievsatjæggi" />
		<tag k="ssr:date" v="2016-05-11" />
		<tag k="ssr:stedsnr" v="747897" />
		<nd ref="-47393" />
		<nd ref="-47394" />
		<nd ref="-47395" />
	</way>
	<way id="-8794">
		<tag k="name" v="Duoddarvuolesjeaggi - Tunturinalusjänkkä" />
		<tag k="name:fkv" v="Tunturinalusjänkkä" />
		<tag k="name:se" v="Duoddarvuolesjeaggi" />
		<tag k="natural" v="wetland" />
		<tag k="ssr:date" v="2016-05-10" />
		<tag k="ssr:stedsnr" v="383481" />
		<nd ref="-42378" />
		<nd ref="-42379" />
	</way>
	<way id="-9749">
		<tag k="name" v="Stuorrajeaggi - Stormyra" />
		<tag k="name:no" v="Stormyra" />
		<tag k="name:se" v="Stuorrajeaggi" />
		<tag k="natural" v="wetland" />
		<tag k="ssr:date" v="2016-05-10" />
		<tag k="ssr:stedsnr" v="505510" />
		<nd ref="-45587" />
		<nd ref="-45588" />
	</way>
	<way id="-9747">
		<tag k="name" v="Stuorraluohkájeaggi - Isonluokanjänkkä" />
		<tag k="name:fkv" v="Isonluokanjänkkä" />
		<tag k="name:se" v="Stuorraluohkájeaggi" />
		<tag k="natural" v="wetland" />
		<tag k="ssr:date" v="2016-05-10" />
		<tag k="ssr:stedsnr" v="505500" />
		<nd ref="-45583" />
		<nd ref="-45584" />
	</way>
	<way id="-9233">
		<tag k="name" v="Veahčirrohtu" />
		<tag k="name:se" v="Veahčirrohtu" />
		<tag k="natural" v="wetland" />
		<tag k="old_name:se" v="Væččirråtto" />
		<tag k="ssr:date" v="2016-05-10" />
		<tag k="ssr:stedsnr" v="141597" />
		<nd ref="-43924" />
		<nd ref="-43925" />
		<nd ref="-43926" />
		<nd ref="-43927" />
	</way>
	<way id="-9734">
		<tag k="name" v="Vuolimus Rákkasleakšá - Ala-Raakkaslakso" />
		<tag k="name:fkv" v="Ala-Raakkaslakso" />
		<tag k="name:se" v="Vuolimus Rákkasleakšá" />
		<tag k="natural" v="wetland" />
		<tag k="ssr:date" v="2016-05-10" />
		<tag k="ssr:stedsnr" v="505342" />
		<nd ref="-45547" />
		<nd ref="-45548" />
		<nd ref="-45549" />
		<nd ref="-45550" />
		<nd ref="-45551" />
	</way>
	<way id="-9221">
		<tag k="name" v="Njukčajeaggi" />
		<tag k="name:se" v="Njukčajeaggi" />
		<tag k="natural" v="wetland" />
		<tag k="ssr:date" v="2016-05-10" />
		<tag k="ssr:stedsnr" v="141538" />
		<nd ref="-43893" />
		<nd ref="-43894" />
	</way>
</osm>
