<?xml version="1.0" encoding="UTF-8"?>
<osm generator="osmapis" version="0.6">
	<node id="-43134" lat="70.2202527809" lon="24.8537831524">
		<tag k="highway" v="path" />
		<tag k="name" v="Vinjjubálggis" />
		<tag k="name:se" v="Vinjjubálggis" />
		<tag k="ssr:date" v="2016-05-10" />
		<tag k="ssr:stedsnr" v="32800" />
	</node>
	<node id="-43541" lat="70.2122555639" lon="25.2273553391">
		<tag k="ssr:gml_id" v="GEOMETRY_45c2e501-6a26-40cd-9f82-207ffa4fa228" />
		<tag k="ssr:gml_nr" v="0" />
	</node>
	<node id="-43539" lat="70.5970250089" lon="25.2940775706">
		<tag k="ssr:gml_id" v="GEOMETRY_c0271b86-0461-43b8-8995-9e6149cec5c2" />
		<tag k="ssr:gml_nr" v="6" />
	</node>
	<node id="-47599" lat="70.2242055626" lon="24.9282776066">
		<tag k="name" v="Ringvegen" />
		<tag k="name:no" v="Ringvegen" />
		<tag k="ssr:date" v="2016-05-11" />
		<tag k="ssr:stedsnr" v="760843" />
	</node>
	<node id="-45324" lat="70.1757222274" lon="24.8693525978">
		<tag k="ssr:gml_id" v="GEOMETRY_f7032aec-8bb9-47ca-a094-b7dc3566b412" />
		<tag k="ssr:gml_nr" v="1" />
	</node>
	<node id="-45798" lat="70.2855222311" lon="25.0719442491">
		<tag k="junction" v="yes" />
		<tag k="name" v="Kolvik vegkryss" />
		<tag k="name:no" v="Kolvik vegkryss" />
		<tag k="place" v="locality" />
		<tag k="ssr:date" v="2016-05-10" />
		<tag k="ssr:stedsnr" v="517806" />
	</node>
	<node id="-43537" lat="70.5972000097" lon="25.2942609187">
		<tag k="ssr:gml_id" v="GEOMETRY_572f810d-ed33-40fc-9dfe-922539a72c25" />
		<tag k="ssr:gml_nr" v="4" />
	</node>
	<node id="-48482" lat="70.4176638954" lon="25.1671803465">
		<tag k="name" v="Gamlevegen" />
		<tag k="name:se" v="Gamlevegen" />
		<tag k="ssr:date" v="2016-05-11" />
		<tag k="ssr:stedsnr" v="881378" />
	</node>
	<node id="-42592" lat="70.4177444533" lon="25.1390387107">
		<tag k="ssr:gml_id" v="GEOMETRY_83a6ff33-a782-44b0-8feb-07f59bfeaa72" />
		<tag k="ssr:gml_nr" v="1" />
	</node>
	<node id="-42591" lat="70.4202750095" lon="25.1313442476">
		<tag k="ssr:gml_id" v="GEOMETRY_91f40419-909c-407c-88dc-52f9e4a8e5d1" />
		<tag k="ssr:gml_nr" v="0" />
	</node>
	<node id="-43992" lat="70.2435666766" lon="25.3236525656">
		<tag k="name" v="Reinøyleia" />
		<tag k="name:no" v="Reinøyleia" />
		<tag k="place" v="locality" />
		<tag k="ssr:date" v="2016-05-10" />
		<tag k="ssr:stedsnr" v="145515" />
	</node>
	<node id="-44503" lat="70.1628722267" lon="24.8646275878">
		<tag k="ssr:gml_id" v="GEOMETRY_59c0c6a6-16dd-490b-9b76-31bc2defbac6" />
		<tag k="ssr:gml_nr" v="1" />
	</node>
	<node id="-44502" lat="70.1604361159" lon="24.8938025908">
		<tag k="ssr:gml_id" v="GEOMETRY_bc729dae-f8a6-43cd-911d-23027843fdbd" />
		<tag k="ssr:gml_nr" v="0" />
	</node>
	<node id="-45268" lat="70.3682944479" lon="25.0935442619">
		<tag k="name" v="Ytre Billefjord" />
		<tag k="name:no" v="Ytre Billefjord" />
		<tag k="ssr:date" v="2016-05-10" />
		<tag k="ssr:stedsnr" v="450251" />
	</node>
	<node id="-43219" lat="70.0664416759" lon="24.9829248156">
		<tag k="ssr:gml_id" v="GEOMETRY_4c633717-cb9a-4591-8424-709b6434e1fa" />
		<tag k="ssr:gml_nr" v="3" />
	</node>
	<node id="-43218" lat="70.0664444478" lon="24.9829220172">
		<tag k="ssr:gml_id" v="GEOMETRY_48f38670-55f9-4172-844d-bf68c5d9cda4" />
		<tag k="ssr:gml_nr" v="2" />
	</node>
	<node id="-43217" lat="70.0565111185" lon="24.9763970356">
		<tag k="ssr:gml_id" v="GEOMETRY_d006e6ba-439c-4151-910b-fd3d758f161d" />
		<tag k="ssr:gml_nr" v="1" />
	</node>
	<node id="-43216" lat="70.06644445" lon="24.98292481">
		<tag k="ssr:gml_id" v="GEOMETRY_19606a60-7d11-4c46-9235-9bea95d732da" />
		<tag k="ssr:gml_nr" v="0" />
	</node>
	<node id="-43085" lat="70.3029861158" lon="25.3263386565">
		<tag k="ssr:gml_id" v="GEOMETRY_1ff1d3cc-361d-44ef-b45f-6c7a3172000e" />
		<tag k="ssr:gml_nr" v="1" />
	</node>
	<node id="-42572" lat="70.2510916719" lon="25.3552719965">
		<tag k="ssr:gml_id" v="GEOMETRY_6c6d7f8e-e37d-43da-b6e5-7e0f95e30e81" />
		<tag k="ssr:gml_nr" v="1" />
	</node>
	<node id="-42187" lat="70.5079083402" lon="24.9293137278">
		<tag k="name" v="Pissvasshøgdavegen" />
		<tag k="name:no" v="Pissvasshøgdavegen" />
		<tag k="ssr:date" v="2016-05-10" />
		<tag k="ssr:stedsnr" v="334287" />
	</node>
	<node id="-43082" lat="70.4887166722" lon="25.6631442115">
		<tag k="ssr:gml_id" v="GEOMETRY_b9575ad5-e119-43d7-959a-53c818393bc7" />
		<tag k="ssr:gml_nr" v="0" />
	</node>
	<node id="-48457" lat="70.3041500047" lon="25.2067081159">
		<tag k="ssr:gml_id" v="GEOMETRY_870a8969-f9e3-4238-a25d-caa5a3ac4506" />
		<tag k="ssr:gml_nr" v="0" />
	</node>
	<node id="-42568" lat="70.3670388998" lon="25.4633442166">
		<tag k="name" v="Holmfjord molo" />
		<tag k="name:no" v="Holmfjord molo" />
		<tag k="ssr:date" v="2016-05-10" />
		<tag k="ssr:stedsnr" v="389246" />
	</node>
	<node id="-43084" lat="70.302983336" lon="25.3263358896">
		<tag k="ssr:gml_id" v="GEOMETRY_70be61fb-3b86-4189-9d3b-27138966c5e2" />
		<tag k="ssr:gml_nr" v="0" />
	</node>
	<node id="-42565" lat="70.0964916699" lon="25.10604146">
		<tag k="ssr:gml_id" v="GEOMETRY_6ff923f0-95f9-4f32-810c-92a721f603a9" />
		<tag k="ssr:gml_nr" v="1" />
	</node>
	<node id="-42564" lat="70.0964888933" lon="25.1060386771">
		<tag k="ssr:gml_id" v="GEOMETRY_c61320bc-6e74-4992-b8ce-1dd389f9a11e" />
		<tag k="ssr:gml_nr" v="0" />
	</node>
	<node id="-42571" lat="70.2509861182" lon="25.3549664552">
		<tag k="ssr:gml_id" v="GEOMETRY_5fb01a9d-9ec2-4921-88fd-43352d6fc2f7" />
		<tag k="ssr:gml_nr" v="0" />
	</node>
	<node id="-46656" lat="70.0642194481" lon="25.0351942437">
		<tag k="name" v="Hamnbuktvegen" />
		<tag k="name:no" v="Hamnbuktvegen" />
		<tag k="ssr:date" v="2016-05-10" />
		<tag k="ssr:stedsnr" v="637012" />
	</node>
	<node id="-47165" lat="70.3248111166" lon="25.543724758">
		<tag k="ssr:gml_id" v="GEOMETRY_4f7d49c7-1710-46fe-ba3e-f59080695d5c" />
		<tag k="ssr:gml_nr" v="1" />
	</node>
	<node id="-47164" lat="70.3270055585" lon="25.5761219843">
		<tag k="ssr:gml_id" v="GEOMETRY_6ca55f75-c6c3-428b-af62-30d99ed853a8" />
		<tag k="ssr:gml_nr" v="0" />
	</node>
	<node id="-41802" lat="70.6496333443" lon="25.3886747886">
		<tag k="ssr:gml_id" v="GEOMETRY_abb16d97-17fa-458b-8463-a21ec9f0aca7" />
		<tag k="ssr:gml_nr" v="1" />
	</node>
	<node id="-45752" lat="70.4279555638" lon="25.2526831417">
		<tag k="ssr:gml_id" v="GEOMETRY_f4cd791a-9f6f-4c09-bb39-3e757602e012" />
		<tag k="ssr:gml_nr" v="1" />
	</node>
	<node id="-45751" lat="70.4279527852" lon="25.2526803404">
		<tag k="ssr:gml_id" v="GEOMETRY_c910d1ac-359d-4d18-998a-ff4b311554ee" />
		<tag k="ssr:gml_nr" v="0" />
	</node>
	<node id="-47158" lat="70.3638722252" lon="25.0131553656">
		<tag k="highway" v="path" />
		<tag k="name" v="Reindriftsveg" />
		<tag k="name:no" v="Reindriftsveg" />
		<tag k="ssr:date" v="2016-05-11" />
		<tag k="ssr:stedsnr" v="699438" />
	</node>
	<node id="-41801" lat="70.6496361144" lon="25.3886747878">
		<tag k="ssr:gml_id" v="GEOMETRY_eab49104-c655-4502-b92c-acc0f4da0957" />
		<tag k="ssr:gml_nr" v="0" />
	</node>
	<node id="-43592" lat="70.5029305618" lon="25.0403720377">
		<tag k="junction" v="yes" />
		<tag k="name" v="Smørfjord vegkryss" />
		<tag k="name:no" v="Smørfjord vegkryss" />
		<tag k="place" v="locality" />
		<tag k="ssr:date" v="2016-05-10" />
		<tag k="ssr:stedsnr" v="93240" />
	</node>
	<node id="-44462" lat="70.2972222331" lon="25.4666664349">
		<tag k="name" v="Neverøyleia" />
		<tag k="name:no" v="Neverøyleia" />
		<tag k="place" v="locality" />
		<tag k="ssr:date" v="2016-05-10" />
		<tag k="ssr:stedsnr" v="207345" />
	</node>
	<node id="-46229" lat="70.4999722249" lon="25.2148247919">
		<tag k="ssr:gml_id" v="GEOMETRY_86f42517-eacf-4d50-bb13-75fc20523ef6" />
		<tag k="ssr:gml_nr" v="1" />
	</node>
	<node id="-45859" lat="70.0747833384" lon="24.2568220763">
		<tag k="ssr:gml_id" v="GEOMETRY_354fe38d-b026-41c8-bb3a-5de439542e51" />
		<tag k="ssr:gml_nr" v="2" />
	</node>
	<node id="-45858" lat="70.0747861183" lon="24.2568248692">
		<tag k="ssr:gml_id" v="GEOMETRY_90308f40-e426-47cc-b136-772952ba001c" />
		<tag k="ssr:gml_nr" v="1" />
	</node>
	<node id="-45857" lat="70.0747944537" lon="24.2568331909">
		<tag k="ssr:gml_id" v="GEOMETRY_9951c5a5-2650-455b-9897-98be23c9362e" />
		<tag k="ssr:gml_nr" v="0" />
	</node>
	<node id="-44190" lat="70.2017277813" lon="25.5129942058">
		<tag k="ssr:gml_id" v="GEOMETRY_013a501c-803a-427f-8404-84ecf35e0ead" />
		<tag k="ssr:gml_nr" v="1" />
	</node>
	<node id="-44189" lat="70.2017250046" lon="25.5129914288">
		<tag k="ssr:gml_id" v="GEOMETRY_3c2f8272-3947-42a1-bba1-1da2d70c8081" />
		<tag k="ssr:gml_nr" v="0" />
	</node>
	<node id="-43595" lat="70.0477777872" lon="25.00456647">
		<tag k="name" v="Ildskogvegen" />
		<tag k="name:no" v="Ildskogvegen" />
		<tag k="ssr:date" v="2016-05-10" />
		<tag k="ssr:stedsnr" v="93347" />
	</node>
	<node id="-43542" lat="70.2125166722" lon="25.2305414463">
		<tag k="ssr:gml_id" v="GEOMETRY_269bee1c-b1b3-4458-bfb4-c14ee31f45db" />
		<tag k="ssr:gml_nr" v="1" />
	</node>
	<node id="-48021" lat="70.0471805644" lon="25.0735025692">
		<tag k="name" v="Fossestrandvegen" />
		<tag k="name:no" v="Fossestrandvegen" />
		<tag k="ssr:date" v="2016-05-11" />
		<tag k="ssr:stedsnr" v="820349" />
	</node>
	<node id="-46228" lat="70.4999694519" lon="25.2148220176">
		<tag k="ssr:gml_id" v="GEOMETRY_25bb0baf-099c-4fd3-94b1-228acb3d87ee" />
		<tag k="ssr:gml_nr" v="0" />
	</node>
	<node id="-46227" lat="70.2500000066" lon="25.3333331196">
		<tag k="name" v="Reinøyleia" />
		<tag k="name:no" v="Reinøyleia" />
		<tag k="place" v="locality" />
		<tag k="ssr:date" v="2016-05-10" />
		<tag k="ssr:stedsnr" v="570303" />
	</node>
	<node id="-43538" lat="70.6173000079" lon="25.3388831311">
		<tag k="ssr:gml_id" v="GEOMETRY_918a6fac-a19f-4845-8b10-58dd16665bc8" />
		<tag k="ssr:gml_nr" v="5" />
	</node>
	<node id="-48458" lat="70.3041722267" lon="25.2067081168">
		<tag k="ssr:gml_id" v="GEOMETRY_93871a76-39b5-4c76-8815-b59f1ac2ba2e" />
		<tag k="ssr:gml_nr" v="1" />
	</node>
	<node id="-44944" lat="70.3188416752" lon="25.0847275877">
		<tag k="man_made" v="quay" />
		<tag k="name" v="Østkaia" />
		<tag k="name:no" v="Østkaia" />
		<tag k="place" v="locality" />
		<tag k="ssr:date" v="2016-05-10" />
		<tag k="ssr:stedsnr" v="266450" />
	</node>
	<node id="-43535" lat="70.6172277868" lon="25.338674796">
		<tag k="ssr:gml_id" v="GEOMETRY_34faf801-84e4-49f6-bb55-eafd7a09f8a8" />
		<tag k="ssr:gml_nr" v="2" />
	</node>
	<node id="-43534" lat="70.6172305657" lon="25.338674795">
		<tag k="ssr:gml_id" v="GEOMETRY_040fe2ed-5dc6-4841-b8aa-9f226cda5daf" />
		<tag k="ssr:gml_nr" v="1" />
	</node>
	<node id="-43533" lat="70.6078638969" lon="25.3177442451">
		<tag k="ssr:gml_id" v="GEOMETRY_3ad24831-5d44-41a7-a45f-5561ca643a8e" />
		<tag k="ssr:gml_nr" v="0" />
	</node>
	<node id="-48908" lat="70.0882694523" lon="25.0405803546">
		<tag k="name" v="Nordgårdvegen" />
		<tag k="name:no" v="Nordgårdvegen" />
		<tag k="ssr:date" v="2016-05-11" />
		<tag k="ssr:stedsnr" v="942174" />
	</node>
	<node id="-45323" lat="70.1829333372" lon="24.8933331524">
		<tag k="ssr:gml_id" v="GEOMETRY_1c9ff9d5-b09f-4f5a-8957-99aeddc5d90a" />
		<tag k="ssr:gml_nr" v="0" />
	</node>
	<node id="-48903" lat="70.4999500078" lon="25.7678914072">
		<tag k="highway" v="path" />
		<tag k="name" v="Buolžageaidnu" />
		<tag k="name:se" v="Buolžageaidnu" />
		<tag k="ssr:date" v="2016-05-11" />
		<tag k="ssr:stedsnr" v="940421" />
	</node>
	<node id="-41803" lat="70.6527944471" lon="25.3982136938">
		<tag k="ssr:gml_id" v="GEOMETRY_7c4ff313-c270-4901-a772-6bad49b0d354" />
		<tag k="ssr:gml_nr" v="2" />
	</node>
	<node id="-43083" lat="70.4887194534" lon="25.6631469752">
		<tag k="ssr:gml_id" v="GEOMETRY_345b4fc9-d34f-421d-a2b9-ad23030d1a16" />
		<tag k="ssr:gml_nr" v="1" />
	</node>
	<node id="-43536" lat="70.6172305603" lon="25.3386720296">
		<tag k="ssr:gml_id" v="GEOMETRY_5b62e4f7-9ceb-4aa2-9708-5ef12db4eef9" />
		<tag k="ssr:gml_nr" v="3" />
	</node>
	<way id="-9663">
		<tag k="name" v="Snekkernesvegen" />
		<tag k="name:no" v="Snekkernesvegen" />
		<tag k="ssr:date" v="2016-05-10" />
		<tag k="ssr:stedsnr" v="457791" />
		<nd ref="-45323" />
		<nd ref="-45324" />
	</way>
	<way id="-9117">
		<tag k="name" v="Čuolddagas - Cuoldagas" />
		<tag k="name:no" v="Cuoldagas" />
		<tag k="name:se" v="Čuolddagas" />
		<tag k="ssr:date" v="2016-05-10" />
		<tag k="ssr:stedsnr" v="85434" />
		<nd ref="-43541" />
		<nd ref="-43542" />
	</way>
	<way id="-9116">
		<tag k="alt_name:no" v="Skarvberget" />
		<tag k="layer" v="-1" />
		<tag k="name" v="Skarvbergtunnelen" />
		<tag k="name:no" v="Skarvbergtunnelen" />
		<tag k="old_name:no" v="Skarvbergettunnelen;Skarvbergtunellen" />
		<tag k="ssr:date" v="2016-05-10" />
		<tag k="ssr:stedsnr" v="85240" />
		<tag k="tunnel" v="yes" />
		<nd ref="-43533" />
		<nd ref="-43534" />
		<nd ref="-43535" />
		<nd ref="-43536" />
		<nd ref="-43537" />
		<nd ref="-43538" />
		<nd ref="-43539" />
	</way>
	<way id="-10199">
		<tag k="name" v="Ringvegen" />
		<tag k="name:no" v="Ringvegen" />
		<tag k="ssr:date" v="2016-05-11" />
		<tag k="ssr:stedsnr" v="699478" />
		<nd ref="-47164" />
		<nd ref="-47165" />
	</way>
	<way id="-9814">
		<tag k="ford" v="yes" />
		<tag k="name" v="Doaresvársuohpa" />
		<tag k="name:se" v="Doaresvársuohpa" />
		<tag k="old_name:se" v="Doaresvarsuoppa" />
		<tag k="place" v="locality" />
		<tag k="ssr:date" v="2016-05-10" />
		<tag k="ssr:stedsnr" v="565009" />
		<nd ref="-45857" />
		<nd ref="-45858" />
		<nd ref="-45859" />
	</way>
	<way id="-8981">
		<tag k="name" v="Skjåholmen" />
		<tag k="name:no" v="Skjåholmen" />
		<tag k="ssr:date" v="2016-05-10" />
		<tag k="ssr:stedsnr" v="25830" />
		<nd ref="-43084" />
		<nd ref="-43085" />
	</way>
	<way id="-9012">
		<tag k="aeroway" v="aerodrome" />
		<tag k="alt_name:no" v="Banak" />
		<tag k="name" v="Lakselv lufthavn, Banak" />
		<tag k="name:no" v="Lakselv lufthavn, Banak" />
		<tag k="old_name:no" v="Banak flyplass" />
		<tag k="ssr:date" v="2016-05-10" />
		<tag k="ssr:stedsnr" v="80209" />
		<nd ref="-43216" />
		<nd ref="-43217" />
		<nd ref="-43218" />
		<nd ref="-43219" />
	</way>
	<way id="-9299">
		<tag k="ford" v="yes" />
		<tag k="name" v="Čáhppilsuohpáš" />
		<tag k="name:se" v="Čáhppilsuohpáš" />
		<tag k="place" v="locality" />
		<tag k="ssr:date" v="2016-05-10" />
		<tag k="ssr:stedsnr" v="201283" />
		<nd ref="-44189" />
		<nd ref="-44190" />
	</way>
	<way id="-8851">
		<tag k="name" v="Sommerøy" />
		<tag k="name:no" v="Sommerøy" />
		<tag k="ssr:date" v="2016-05-10" />
		<tag k="ssr:stedsnr" v="388916" />
		<nd ref="-42564" />
		<nd ref="-42565" />
	</way>
	<way id="-9391">
		<tag k="name" v="Lombolavegen" />
		<tag k="name:no" v="Lombolavegen" />
		<tag k="ssr:date" v="2016-05-10" />
		<tag k="ssr:stedsnr" v="214838" />
		<nd ref="-44502" />
		<nd ref="-44503" />
	</way>
	<way id="-10605">
		<tag k="name" v="Kolvik" />
		<tag k="name:no" v="Kolvik" />
		<tag k="ssr:date" v="2016-05-11" />
		<tag k="ssr:stedsnr" v="874839" />
		<nd ref="-48457" />
		<nd ref="-48458" />
	</way>
	<way id="-8980">
		<tag k="name" v="Hjellneset" />
		<tag k="name:no" v="Hjellneset" />
		<tag k="ssr:date" v="2016-05-10" />
		<tag k="ssr:stedsnr" v="25829" />
		<nd ref="-43082" />
		<nd ref="-43083" />
	</way>
	<way id="-9943">
		<tag k="name" v="Olderfjord" />
		<tag k="name:no" v="Olderfjord" />
		<tag k="ssr:date" v="2016-05-10" />
		<tag k="ssr:stedsnr" v="571820" />
		<nd ref="-46228" />
		<nd ref="-46229" />
	</way>
	<way id="-9800">
		<tag k="name" v="Kistrand" />
		<tag k="name:no" v="Kistrand" />
		<tag k="ssr:date" v="2016-05-10" />
		<tag k="ssr:stedsnr" v="510857" />
		<nd ref="-45751" />
		<nd ref="-45752" />
	</way>
	<way id="-8852">
		<tag k="name" v="Ainek" />
		<tag k="name:no" v="Ainek" />
		<tag k="ssr:date" v="2016-05-10" />
		<tag k="ssr:stedsnr" v="389812" />
		<nd ref="-42571" />
		<nd ref="-42572" />
	</way>
	<way id="-8613">
		<tag k="layer" v="-1" />
		<tag k="name" v="Sortvik" />
		<tag k="name:no" v="Sortvik" />
		<tag k="ssr:date" v="2016-05-10" />
		<tag k="ssr:stedsnr" v="287739" />
		<tag k="tunnel" v="yes" />
		<nd ref="-41801" />
		<nd ref="-41802" />
		<nd ref="-41803" />
	</way>
	<way id="-8854">
		<tag k="highway" v="path" />
		<tag k="name" v="Reinvegen" />
		<tag k="name:no" v="Reinvegen" />
		<tag k="ssr:date" v="2016-05-10" />
		<tag k="ssr:stedsnr" v="395394" />
		<nd ref="-42591" />
		<nd ref="-42592" />
	</way>
</osm>
