<?xml version="1.0" encoding="UTF-8"?>
<osm generator="osmapis" version="0.6">
	<node id="-45272" lat="70.1033194515" lon="24.3523776298">
		<tag k="ssr:gml_id" v="GEOMETRY_6874aac3-f7c2-41f3-ac16-c2d17defab88" />
		<tag k="ssr:gml_nr" v="1" />
	</node>
	<node id="-45271" lat="70.1033194464" lon="24.3523804153">
		<tag k="ssr:gml_id" v="GEOMETRY_261f523a-4bb4-4a46-a14c-e4022f4ef36c" />
		<tag k="ssr:gml_nr" v="0" />
	</node>
	<node id="-48947" lat="68.4849327361" lon="16.2297866207">
		<tag k="fixme" v="multiple name tags, choose one and add the other to alt_name" />
		<tag k="name" v="Nord-Noreg;Nord-Norge" />
		<tag k="ssr:date" v="2017-05-18" />
		<tag k="ssr:stedsnr" v="976106" />
	</node>
	<node id="-42578" lat="70.3497916761" lon="25.2085942307">
		<tag k="ssr:gml_id" v="GEOMETRY_0045fc3f-3803-413c-b1c4-73caf42214f0" />
		<tag k="ssr:gml_nr" v="3" />
	</node>
	<node id="-42577" lat="70.3501027823" lon="25.2078692316">
		<tag k="ssr:gml_id" v="GEOMETRY_0f2b5169-bdde-44c9-bd0d-1cf87971d398" />
		<tag k="ssr:gml_nr" v="2" />
	</node>
	<node id="-42576" lat="70.0521388988" lon="24.955938705">
		<tag k="ssr:gml_id" v="GEOMETRY_2eb0e186-c31b-4c0a-86a3-b7d33b4b5559" />
		<tag k="ssr:gml_nr" v="1" />
	</node>
	<node id="-42575" lat="70.3415166733" lon="25.2171970059">
		<tag k="ssr:gml_id" v="GEOMETRY_c1e2f707-2e2a-4cd9-8745-9ef2abadc6c3" />
		<tag k="ssr:gml_nr" v="0" />
	</node>
	<node id="-42579" lat="70.0521416714" lon="24.9558859244">
		<tag k="ssr:gml_id" v="GEOMETRY_93c2bef0-9286-4207-8b24-94f35e4f6521" />
		<tag k="ssr:gml_nr" v="4" />
	</node>
	<way id="-9661">
		<tag k="fixme" v="consider boundary=protected_area and relevant protect_class if not nature reserve" />
		<tag k="leisure" v="nature_reserve" />
		<tag k="name" v="Stabbursdalen nasjonalpark" />
		<tag k="name:no" v="Stabbursdalen nasjonalpark" />
		<tag k="ssr:date" v="2016-05-10" />
		<tag k="ssr:stedsnr" v="451020" />
		<nd ref="-45271" />
		<nd ref="-45272" />
	</way>
	<way id="-8853">
		<tag k="fixme" v="multiple name tags, choose one and add the other to alt_name" />
		<tag k="name" v="Porsanger kommune - Porsáŋggu gielda;Porsáŋgu - Porsangin komuuni;Porsanki" />
		<tag k="name:fkv" v="Porsangin komuuni;Porsanki" />
		<tag k="name:no" v="Porsanger kommune" />
		<tag k="name:se" v="Porsáŋggu gielda;Porsáŋgu" />
		<tag k="ssr:date" v="2017-04-20" />
		<tag k="ssr:stedsnr" v="390362" />
		<nd ref="-42575" />
		<nd ref="-42576" />
		<nd ref="-42577" />
		<nd ref="-42578" />
		<nd ref="-42579" />
	</way>
</osm>
