<?xml version="1.0" encoding="UTF-8"?>
<osm generator="osmapis" version="0.6">
	<node id="-46906" lat="70.4563972296" lon="25.2280942483">
		<tag k="ssr:gml_id" v="GEOMETRY_4f984bd8-8806-4661-8fa0-5998e6458f74" />
		<tag k="ssr:gml_nr" v="0" />
	</node>
	<node id="-46907" lat="70.4563833407" lon="25.2282359218">
		<tag k="ssr:gml_id" v="GEOMETRY_0b866443-4648-4c68-93c3-9bc37bc3dbc7" />
		<tag k="ssr:gml_nr" v="1" />
	</node>
	<node id="-46490" lat="70.3753000113" lon="25.723810862">
		<tag k="ssr:gml_id" v="GEOMETRY_ae27ed19-2c30-4745-9e2a-2c8fec288095" />
		<tag k="ssr:gml_nr" v="1" />
	</node>
	<node id="-46489" lat="70.3753027891" lon="25.7238136425">
		<tag k="ssr:gml_id" v="GEOMETRY_f9864d1e-5824-41ff-9ff1-865766195a24" />
		<tag k="ssr:gml_nr" v="0" />
	</node>
	<node id="-42200" lat="70.3119694477" lon="25.5095275482">
		<tag k="cemetery" v="grave" />
		<tag k="name" v="Kirkonmaa" />
		<tag k="name:fkv" v="Kirkonmaa" />
		<tag k="place" v="locality" />
		<tag k="ssr:date" v="2016-05-10" />
		<tag k="ssr:stedsnr" v="335403" />
	</node>
	<node id="-45298" lat="70.3176166734" lon="25.530438653">
		<tag k="amenity" v="place_of_worship" />
		<tag k="fixme" v="specify religion=*, denomination=*, building=* etc" />
		<tag k="name" v="Vittikkö" />
		<tag k="name:fkv" v="Vittikkö" />
		<tag k="ssr:date" v="2016-05-10" />
		<tag k="ssr:stedsnr" v="456457" />
	</node>
	<node id="-45297" lat="70.3179472345" lon="25.5384275307">
		<tag k="amenity" v="place_of_worship" />
		<tag k="fixme" v="specify religion=*, denomination=*, building=* etc" />
		<tag k="name" v="Kokoushuonet" />
		<tag k="name:fkv" v="Kokoushuonet" />
		<tag k="ssr:date" v="2016-05-10" />
		<tag k="ssr:stedsnr" v="456456" />
	</node>
	<node id="-44463" lat="70.3171500056" lon="25.5420941904">
		<tag k="amenity" v="place_of_worship" />
		<tag k="denomination" v="lutheran" />
		<tag k="name" v="Børselv" />
		<tag k="name:no" v="Børselv" />
		<tag k="religion" v="christian" />
		<tag k="ssr:date" v="2016-05-10" />
		<tag k="ssr:stedsnr" v="208049" />
	</node>
	<way id="-10128">
		<tag k="amenity" v="place_of_worship" />
		<tag k="denomination" v="lutheran" />
		<tag k="name" v="Kistrand" />
		<tag k="name:no" v="Kistrand" />
		<tag k="religion" v="christian" />
		<tag k="ssr:date" v="2016-05-11" />
		<tag k="ssr:stedsnr" v="687420" />
		<nd ref="-46906" />
		<nd ref="-46907" />
	</way>
	<way id="-10006">
		<tag k="name" v="Kariojasvingen - Kariojansvingi" />
		<tag k="name:fkv" v="Kariojansvingi" />
		<tag k="name:no" v="Kariojasvingen" />
		<tag k="place" v="locality" />
		<tag k="ssr:date" v="2016-05-10" />
		<tag k="ssr:stedsnr" v="626435" />
		<nd ref="-46489" />
		<nd ref="-46490" />
	</way>
</osm>
